{
    "type": "Feature",
    "geometry": {
        "type": "Polygon",
        "coordinates": [
            [
                [
                    -111.97842373,
                    33.07978532
                ],
                [
                    -111.97855435,
                    33.07978597
                ],
                [
                    -111.97855372,
                    33.07987616
                ],
                [
                    -111.9784231,
                    33.07987551
                ],
                [
                    -111.97842373,
                    33.07978532
                ]
            ]
        ]
    },
    "properties": {
        "plt_label": "p1-1",
        "trt_label": "IR040",
        "PLT_AREA": 121.919997,
        "CUL_NAME": "NexGen 3195 B3XF",
        "PDATE": "04/21/2022",
        "IRVAL": {
            "2022105": 10.2,
            "2022112": 30.4,
            "2022116": 30.4,
            "2022119": 30.4,
            "2022122": 10.2,
            "2022124": 20.2,
            "2022126": 20.2,
            "2022132": 30.4,
            "2022137": 13.0,
            "2022140": 19.5,
            "2022144": 7.2,
            "2022147": 7.2,
            "2022153": 11.4,
            "2022154": 11.4,
            "2022158": 20.2,
            "2022161": 15.1,
            "2022165": 16.0,
            "2022168": 16.0,
            "2022173": 21.0,
            "2022175": 21.0,
            "2022180": 11.7,
            "2022182": 30.4,
            "2022188": 8.9,
            "2022189": 8.9,
            "2022193": 10.8,
            "2022196": 0.0,
            "2022201": 9.3,
            "2022203": 30.3,
            "2022207": 10.3,
            "2022210": 10.3,
            "2022214": 7.3,
            "2022217": 0.0,
            "2022222": 8.6,
            "2022224": 8.6,
            "2022228": 5.9,
            "2022231": 5.9,
            "2022235": 5.0,
            "2022238": 7.4,
            "2022242": 5.6,
            "2022245": 5.6,
            "2022250": 3.8,
            "2022252": 3.8
        },
        "HARM": "Machine",
        "HADAT": "11/15/2022",
        "WBWAH": 1708.8,
        "BWCAH": 5.98,
        "DBWAH": 1606.6,
        "GNDAT": "11/18/2022",
        "FFRAC": 0.3619,
        "SFRAC": 0.4929,
        "TFRAC": 0.1452,
        "WFWAH": 618.4,
        "WSWAH": 842.2,
        "WSCWAH": 1460.6,
        "DFWAH": 581.4,
        "DSWAH": 791.9,
        "DSCWAH": 1373.3,
        "QLDAT": "02/23/2023",
        "FBMIC": 51.4,
        "FBLTH": 1.033,
        "FBUNI": 80.8,
        "FBSTR": 28.6,
        "FBELO": 5.2,
        "FBCRD": 74.4,
        "FBCLB": 10.0,
        "FBTCT": 16.0,
        "FBTAR": 0.26,
        "FBSFI": 8.8,
        "haids": [
            "642340a68ac5474bcb1c62e9",
            "642340a68ac5474bcb1c62f1"
        ],
        "tids": [
            "642371e98ac5474e93f7c6ca"
        ]
    },
    "_id": "64233e638ac5474bc38ddd1e",
    "pid": "64233e638ac5474bc38ddd1e"
}{
    "type": "Feature",
    "geometry": {
        "type": "Polygon",
        "coordinates": [
            [
                [
                    -111.97842499,
                    33.07960494
                ],
                [
                    -111.97855561,
                    33.07960558
                ],
                [
                    -111.97855498,
                    33.07969577
                ],
                [
                    -111.97842436,
                    33.07969513
                ],
                [
                    -111.97842499,
                    33.07960494
                ]
            ]
        ]
    },
    "properties": {
        "plt_label": "p1-2",
        "trt_label": "IR100",
        "PLT_AREA": 121.920002,
        "CUL_NAME": "NexGen 3195 B3XF",
        "PDATE": "04/21/2022",
        "IRVAL": {
            "2022105": 10.2,
            "2022112": 30.4,
            "2022116": 30.4,
            "2022119": 30.4,
            "2022122": 10.2,
            "2022124": 20.2,
            "2022126": 20.2,
            "2022132": 30.4,
            "2022137": 13.0,
            "2022140": 19.5,
            "2022144": 7.2,
            "2022147": 7.2,
            "2022153": 11.4,
            "2022154": 11.4,
            "2022158": 20.2,
            "2022161": 15.1,
            "2022165": 16.0,
            "2022168": 16.0,
            "2022173": 21.0,
            "2022175": 21.0,
            "2022180": 11.7,
            "2022182": 30.4,
            "2022188": 22.4,
            "2022189": 22.4,
            "2022193": 26.8,
            "2022196": 11.3,
            "2022201": 23.4,
            "2022203": 30.3,
            "2022207": 26.2,
            "2022210": 26.2,
            "2022214": 18.5,
            "2022217": 7.5,
            "2022222": 21.3,
            "2022224": 21.3,
            "2022228": 14.7,
            "2022231": 14.7,
            "2022235": 12.4,
            "2022238": 18.6,
            "2022242": 14.0,
            "2022245": 14.0,
            "2022250": 9.4,
            "2022252": 9.4
        },
        "HARM": "Machine",
        "HADAT": "11/15/2022",
        "WBWAH": 3684.3,
        "BWCAH": 3.7,
        "DBWAH": 3548.1,
        "GNDAT": "11/18/2022",
        "FFRAC": 0.3708,
        "SFRAC": 0.5078,
        "TFRAC": 0.1214,
        "WFWAH": 1366.1,
        "WSWAH": 1871.0,
        "WSCWAH": 3237.1,
        "DFWAH": 1315.6,
        "DSWAH": 1801.8,
        "DSCWAH": 3117.4,
        "QLDAT": "02/23/2023",
        "FBMIC": 48.4,
        "FBLTH": 1.092,
        "FBUNI": 80.8,
        "FBSTR": 29.5,
        "FBELO": 5.3,
        "FBCRD": 78.4,
        "FBCLB": 9.8,
        "FBTCT": 8.0,
        "FBTAR": 0.15,
        "FBSFI": 9.6,
        "haids": [
            "642340a68ac5474bcb1c62ea",
            "642340a68ac5474bcb1c62f2"
        ],
        "tids": [
            "642371e98ac5474e93f7c6cb"
        ]
    },
    "_id": "64233e638ac5474bc38ddd1f",
    "pid": "64233e638ac5474bc38ddd1f"
}{
    "type": "Feature",
    "geometry": {
        "type": "Polygon",
        "coordinates": [
            [
                [
                    -111.97842625,
                    33.07942455
                ],
                [
                    -111.97855686,
                    33.0794252
                ],
                [
                    -111.97855624,
                    33.07951539
                ],
                [
                    -111.97842562,
                    33.07951474
                ],
                [
                    -111.97842625,
                    33.07942455
                ]
            ]
        ]
    },
    "properties": {
        "plt_label": "p1-3",
        "trt_label": "IR080",
        "PLT_AREA": 121.920002,
        "CUL_NAME": "NexGen 3195 B3XF",
        "PDATE": "04/21/2022",
        "IRVAL": {
            "2022105": 10.2,
            "2022112": 30.4,
            "2022116": 30.4,
            "2022119": 30.4,
            "2022122": 10.2,
            "2022124": 20.2,
            "2022126": 20.2,
            "2022132": 30.4,
            "2022137": 13.0,
            "2022140": 19.5,
            "2022144": 7.2,
            "2022147": 7.2,
            "2022153": 11.4,
            "2022154": 11.4,
            "2022158": 20.2,
            "2022161": 15.1,
            "2022165": 16.0,
            "2022168": 16.0,
            "2022173": 21.0,
            "2022175": 21.0,
            "2022180": 11.7,
            "2022182": 30.4,
            "2022188": 17.9,
            "2022189": 17.9,
            "2022193": 21.7,
            "2022196": 6.8,
            "2022201": 18.9,
            "2022203": 30.3,
            "2022207": 20.9,
            "2022210": 20.9,
            "2022214": 14.7,
            "2022217": 4.7,
            "2022222": 16.9,
            "2022224": 16.9,
            "2022228": 11.8,
            "2022231": 11.8,
            "2022235": 10.0,
            "2022238": 14.9,
            "2022242": 11.2,
            "2022245": 11.2,
            "2022250": 7.4,
            "2022252": 7.4
        },
        "HARM": "Machine",
        "HADAT": "11/15/2022",
        "WBWAH": 4287.0,
        "BWCAH": 5.18,
        "DBWAH": 4065.0,
        "GNDAT": "11/18/2022",
        "FFRAC": 0.3699,
        "SFRAC": 0.5027,
        "TFRAC": 0.1274,
        "WFWAH": 1586.0,
        "WSWAH": 2155.0,
        "WSCWAH": 3741.0,
        "DFWAH": 1503.8,
        "DSWAH": 2043.4,
        "DSCWAH": 3547.3,
        "QLDAT": "02/23/2023",
        "FBMIC": 48.2,
        "FBLTH": 1.082,
        "FBUNI": 81.7,
        "FBSTR": 29.8,
        "FBELO": 5.4,
        "FBCRD": 77.9,
        "FBCLB": 9.9,
        "FBTCT": 15.0,
        "FBTAR": 0.26,
        "FBSFI": 9.0,
        "haids": [
            "642340a68ac5474bcb1c62eb",
            "642340a68ac5474bcb1c62f3"
        ],
        "tids": [
            "642371e98ac5474e93f7c6cc"
        ]
    },
    "_id": "64233e638ac5474bc38ddd20",
    "pid": "64233e638ac5474bc38ddd20"
}{
    "type": "Feature",
    "geometry": {
        "type": "Polygon",
        "coordinates": [
            [
                [
                    -111.97842751,
                    33.07924417
                ],
                [
                    -111.97855812,
                    33.07924482
                ],
                [
                    -111.97855749,
                    33.07933501
                ],
                [
                    -111.97842688,
                    33.07933436
                ],
                [
                    -111.97842751,
                    33.07924417
                ]
            ]
        ]
    },
    "properties": {
        "plt_label": "p1-4",
        "trt_label": "IR060",
        "PLT_AREA": 121.919991,
        "CUL_NAME": "NexGen 3195 B3XF",
        "PDATE": "04/21/2022",
        "IRVAL": {
            "2022105": 10.2,
            "2022112": 30.4,
            "2022116": 30.4,
            "2022119": 30.4,
            "2022122": 10.2,
            "2022124": 20.2,
            "2022126": 20.2,
            "2022132": 30.4,
            "2022137": 13.0,
            "2022140": 19.5,
            "2022144": 7.2,
            "2022147": 7.2,
            "2022153": 11.4,
            "2022154": 11.4,
            "2022158": 20.2,
            "2022161": 15.1,
            "2022165": 16.0,
            "2022168": 16.0,
            "2022173": 21.0,
            "2022175": 21.0,
            "2022180": 11.7,
            "2022182": 30.4,
            "2022188": 13.4,
            "2022189": 13.4,
            "2022193": 16.3,
            "2022196": 2.4,
            "2022201": 14.1,
            "2022203": 30.3,
            "2022207": 15.6,
            "2022210": 15.6,
            "2022214": 11.1,
            "2022217": 1.7,
            "2022222": 12.7,
            "2022224": 12.7,
            "2022228": 8.8,
            "2022231": 8.8,
            "2022235": 7.5,
            "2022238": 11.2,
            "2022242": 8.5,
            "2022245": 8.5,
            "2022250": 5.6,
            "2022252": 5.6
        },
        "HARM": "Machine",
        "HADAT": "11/15/2022",
        "WBWAH": 2400.8,
        "BWCAH": 5.12,
        "DBWAH": 2277.9,
        "GNDAT": "11/18/2022",
        "FFRAC": 0.3629,
        "SFRAC": 0.4923,
        "TFRAC": 0.1448,
        "WFWAH": 871.2,
        "WSWAH": 1182.0,
        "WSCWAH": 2053.2,
        "DFWAH": 826.6,
        "DSWAH": 1121.5,
        "DSCWAH": 1948.1,
        "QLDAT": "02/23/2023",
        "FBMIC": 53.4,
        "FBLTH": 1.036,
        "FBUNI": 80.1,
        "FBSTR": 27.8,
        "FBELO": 5.4,
        "FBCRD": 76.1,
        "FBCLB": 10.1,
        "FBTCT": 6.0,
        "FBTAR": 0.12,
        "FBSFI": 9.6,
        "haids": [
            "642340a68ac5474bcb1c62ec",
            "642340a68ac5474bcb1c62f4"
        ],
        "tids": [
            "642371e98ac5474e93f7c6cd"
        ]
    },
    "_id": "64233e638ac5474bc38ddd21",
    "pid": "64233e638ac5474bc38ddd21"
}{
    "type": "Feature",
    "geometry": {
        "type": "Polygon",
        "coordinates": [
            [
                [
                    -111.97842877,
                    33.07906378
                ],
                [
                    -111.97855938,
                    33.07906443
                ],
                [
                    -111.97855875,
                    33.07915462
                ],
                [
                    -111.97842814,
                    33.07915398
                ],
                [
                    -111.97842877,
                    33.07906378
                ]
            ]
        ]
    },
    "properties": {
        "plt_label": "p1-5",
        "trt_label": "IR040",
        "PLT_AREA": 121.920003,
        "CUL_NAME": "NexGen 3195 B3XF",
        "PDATE": "04/21/2022",
        "IRVAL": {
            "2022105": 10.2,
            "2022112": 30.4,
            "2022116": 30.4,
            "2022119": 30.4,
            "2022122": 10.2,
            "2022124": 20.2,
            "2022126": 20.2,
            "2022132": 30.4,
            "2022137": 13.0,
            "2022140": 19.5,
            "2022144": 7.2,
            "2022147": 7.2,
            "2022153": 11.4,
            "2022154": 11.4,
            "2022158": 20.2,
            "2022161": 15.1,
            "2022165": 16.0,
            "2022168": 16.0,
            "2022173": 21.0,
            "2022175": 21.0,
            "2022180": 11.7,
            "2022182": 30.4,
            "2022188": 8.9,
            "2022189": 8.9,
            "2022193": 10.8,
            "2022196": 0.0,
            "2022201": 9.3,
            "2022203": 30.3,
            "2022207": 10.3,
            "2022210": 10.3,
            "2022214": 7.3,
            "2022217": 0.0,
            "2022222": 8.6,
            "2022224": 8.6,
            "2022228": 5.9,
            "2022231": 5.9,
            "2022235": 5.0,
            "2022238": 7.4,
            "2022242": 5.6,
            "2022245": 5.6,
            "2022250": 3.8,
            "2022252": 3.8
        },
        "HARM": "Machine",
        "HADAT": "11/15/2022",
        "WBWAH": 1318.1,
        "BWCAH": 6.0,
        "DBWAH": 1239.1,
        "GNDAT": "11/18/2022",
        "FFRAC": 0.3492,
        "SFRAC": 0.5146,
        "TFRAC": 0.1362,
        "WFWAH": 460.3,
        "WSWAH": 678.3,
        "WSCWAH": 1138.7,
        "DFWAH": 432.7,
        "DSWAH": 637.6,
        "DSCWAH": 1070.3,
        "QLDAT": "02/23/2023",
        "FBMIC": 54.0,
        "FBLTH": 1.036,
        "FBUNI": 79.7,
        "FBSTR": 28.8,
        "FBELO": 5.3,
        "FBCRD": 76.3,
        "FBCLB": 9.8,
        "FBTCT": 12.0,
        "FBTAR": 0.34,
        "FBSFI": 10.1,
        "haids": [
            "642340a68ac5474bcb1c62ed",
            "642340a68ac5474bcb1c62f5"
        ],
        "tids": [
            "642371e98ac5474e93f7c6ce"
        ]
    },
    "_id": "64233e638ac5474bc38ddd22",
    "pid": "64233e638ac5474bc38ddd22"
}{
    "type": "Feature",
    "geometry": {
        "type": "Polygon",
        "coordinates": [
            [
                [
                    -111.97843002,
                    33.0788834
                ],
                [
                    -111.97856064,
                    33.07888405
                ],
                [
                    -111.97856001,
                    33.07897424
                ],
                [
                    -111.97842939,
                    33.07897359
                ],
                [
                    -111.97843002,
                    33.0788834
                ]
            ]
        ]
    },
    "properties": {
        "plt_label": "p1-6",
        "trt_label": "IR080",
        "PLT_AREA": 121.920003,
        "CUL_NAME": "NexGen 3195 B3XF",
        "PDATE": "04/21/2022",
        "IRVAL": {
            "2022105": 10.2,
            "2022112": 30.4,
            "2022116": 30.4,
            "2022119": 30.4,
            "2022122": 10.2,
            "2022124": 20.2,
            "2022126": 20.2,
            "2022132": 30.4,
            "2022137": 13.0,
            "2022140": 19.5,
            "2022144": 7.2,
            "2022147": 7.2,
            "2022153": 11.4,
            "2022154": 11.4,
            "2022158": 20.2,
            "2022161": 15.1,
            "2022165": 16.0,
            "2022168": 16.0,
            "2022173": 21.0,
            "2022175": 21.0,
            "2022180": 11.7,
            "2022182": 30.4,
            "2022188": 17.9,
            "2022189": 17.9,
            "2022193": 21.7,
            "2022196": 6.8,
            "2022201": 18.9,
            "2022203": 30.3,
            "2022207": 20.9,
            "2022210": 20.9,
            "2022214": 14.7,
            "2022217": 4.7,
            "2022222": 16.9,
            "2022224": 16.9,
            "2022228": 11.8,
            "2022231": 11.8,
            "2022235": 10.0,
            "2022238": 14.9,
            "2022242": 11.2,
            "2022245": 11.2,
            "2022250": 7.4,
            "2022252": 7.4
        },
        "HARM": "Machine",
        "HADAT": "11/15/2022",
        "WBWAH": 3037.0,
        "BWCAH": 5.24,
        "DBWAH": 2877.8,
        "GNDAT": "11/18/2022",
        "FFRAC": 0.3674,
        "SFRAC": 0.4981,
        "TFRAC": 0.1345,
        "WFWAH": 1115.8,
        "WSWAH": 1512.8,
        "WSCWAH": 2628.6,
        "DFWAH": 1057.3,
        "DSWAH": 1433.5,
        "DSCWAH": 2490.7,
        "QLDAT": "02/23/2023",
        "FBMIC": 48.8,
        "FBLTH": 1.08,
        "FBUNI": 80.5,
        "FBSTR": 29.6,
        "FBELO": 5.2,
        "FBCRD": 77.5,
        "FBCLB": 10.4,
        "FBTCT": 11.0,
        "FBTAR": 0.16,
        "FBSFI": 9.1,
        "haids": [
            "642340a68ac5474bcb1c62ee",
            "642340a68ac5474bcb1c62f6"
        ],
        "tids": [
            "642371e98ac5474e93f7c6cf"
        ]
    },
    "_id": "64233e638ac5474bc38ddd23",
    "pid": "64233e638ac5474bc38ddd23"
}{
    "type": "Feature",
    "geometry": {
        "type": "Polygon",
        "coordinates": [
            [
                [
                    -111.97843128,
                    33.07870302
                ],
                [
                    -111.9785619,
                    33.07870366
                ],
                [
                    -111.97856127,
                    33.07879386
                ],
                [
                    -111.97843065,
                    33.07879321
                ],
                [
                    -111.97843128,
                    33.07870302
                ]
            ]
        ]
    },
    "properties": {
        "plt_label": "p1-7",
        "trt_label": "IR100",
        "PLT_AREA": 121.920003,
        "CUL_NAME": "NexGen 3195 B3XF",
        "PDATE": "04/21/2022",
        "IRVAL": {
            "2022105": 10.2,
            "2022112": 30.4,
            "2022116": 30.4,
            "2022119": 30.4,
            "2022122": 10.2,
            "2022124": 20.2,
            "2022126": 20.2,
            "2022132": 30.4,
            "2022137": 13.0,
            "2022140": 19.5,
            "2022144": 7.2,
            "2022147": 7.2,
            "2022153": 11.4,
            "2022154": 11.4,
            "2022158": 20.2,
            "2022161": 15.1,
            "2022165": 16.0,
            "2022168": 16.0,
            "2022173": 21.0,
            "2022175": 21.0,
            "2022180": 11.7,
            "2022182": 30.4,
            "2022188": 22.4,
            "2022189": 22.4,
            "2022193": 26.8,
            "2022196": 11.3,
            "2022201": 23.4,
            "2022203": 30.3,
            "2022207": 26.2,
            "2022210": 26.2,
            "2022214": 18.5,
            "2022217": 7.5,
            "2022222": 21.3,
            "2022224": 21.3,
            "2022228": 14.7,
            "2022231": 14.7,
            "2022235": 12.4,
            "2022238": 18.6,
            "2022242": 14.0,
            "2022245": 14.0,
            "2022250": 9.4,
            "2022252": 9.4
        },
        "HARM": "Machine",
        "HADAT": "11/15/2022",
        "WBWAH": 5280.4,
        "BWCAH": 5.18,
        "DBWAH": 5007.1,
        "GNDAT": "11/18/2022",
        "FFRAC": 0.3654,
        "SFRAC": 0.4997,
        "TFRAC": 0.1349,
        "WFWAH": 1929.4,
        "WSWAH": 2638.5,
        "WSCWAH": 4567.9,
        "DFWAH": 1829.5,
        "DSWAH": 2502.0,
        "DSCWAH": 4331.5,
        "QLDAT": "02/23/2023",
        "FBMIC": 48.6,
        "FBLTH": 1.12,
        "FBUNI": 80.4,
        "FBSTR": 30.6,
        "FBELO": 5.3,
        "FBCRD": 78.6,
        "FBCLB": 9.5,
        "FBTCT": 7.0,
        "FBTAR": 0.09,
        "FBSFI": 9.0,
        "haids": [
            "642340a68ac5474bcb1c62ef",
            "642340a68ac5474bcb1c62f7"
        ],
        "tids": [
            "642371e98ac5474e93f7c6d0"
        ]
    },
    "_id": "64233e638ac5474bc38ddd24",
    "pid": "64233e638ac5474bc38ddd24"
}{
    "type": "Feature",
    "geometry": {
        "type": "Polygon",
        "coordinates": [
            [
                [
                    -111.97843254,
                    33.07852263
                ],
                [
                    -111.97856315,
                    33.07852328
                ],
                [
                    -111.97856252,
                    33.07861347
                ],
                [
                    -111.97843191,
                    33.07861283
                ],
                [
                    -111.97843254,
                    33.07852263
                ]
            ]
        ]
    },
    "properties": {
        "plt_label": "p1-8",
        "trt_label": "IR060",
        "PLT_AREA": 121.920002,
        "CUL_NAME": "NexGen 3195 B3XF",
        "PDATE": "04/21/2022",
        "IRVAL": {
            "2022105": 10.2,
            "2022112": 30.4,
            "2022116": 30.4,
            "2022119": 30.4,
            "2022122": 10.2,
            "2022124": 20.2,
            "2022126": 20.2,
            "2022132": 30.4,
            "2022137": 13.0,
            "2022140": 19.5,
            "2022144": 7.2,
            "2022147": 7.2,
            "2022153": 11.4,
            "2022154": 11.4,
            "2022158": 20.2,
            "2022161": 15.1,
            "2022165": 16.0,
            "2022168": 16.0,
            "2022173": 21.0,
            "2022175": 21.0,
            "2022180": 11.7,
            "2022182": 30.4,
            "2022188": 13.4,
            "2022189": 13.4,
            "2022193": 16.3,
            "2022196": 2.4,
            "2022201": 14.1,
            "2022203": 30.3,
            "2022207": 15.6,
            "2022210": 15.6,
            "2022214": 11.1,
            "2022217": 1.7,
            "2022222": 12.7,
            "2022224": 12.7,
            "2022228": 8.8,
            "2022231": 8.8,
            "2022235": 7.5,
            "2022238": 11.2,
            "2022242": 8.5,
            "2022245": 8.5,
            "2022250": 5.6,
            "2022252": 5.6
        },
        "HARM": "Machine",
        "HADAT": "11/15/2022",
        "WBWAH": 1987.8,
        "BWCAH": 5.46,
        "DBWAH": 1879.3,
        "GNDAT": "11/18/2022",
        "FFRAC": 0.3609,
        "SFRAC": 0.5012,
        "TFRAC": 0.1379,
        "WFWAH": 717.4,
        "WSWAH": 996.4,
        "WSCWAH": 1713.8,
        "DFWAH": 678.2,
        "DSWAH": 942.0,
        "DSCWAH": 1620.2,
        "QLDAT": "02/23/2023",
        "FBMIC": 52.2,
        "FBLTH": 1.035,
        "FBUNI": 80.0,
        "FBSTR": 28.3,
        "FBELO": 5.4,
        "FBCRD": 76.0,
        "FBCLB": 10.1,
        "FBTCT": 12.0,
        "FBTAR": 0.31,
        "FBSFI": 9.4,
        "haids": [
            "642340a68ac5474bcb1c62f0",
            "642340a68ac5474bcb1c62f8"
        ],
        "tids": [
            "642371e98ac5474e93f7c6d1"
        ]
    },
    "_id": "64233e638ac5474bc38ddd25",
    "pid": "64233e638ac5474bc38ddd25"
}{
    "type": "Feature",
    "geometry": {
        "type": "Polygon",
        "coordinates": [
            [
                [
                    -111.97827135,
                    33.07978457
                ],
                [
                    -111.97840196,
                    33.07978521
                ],
                [
                    -111.97840134,
                    33.0798754
                ],
                [
                    -111.97827072,
                    33.07987476
                ],
                [
                    -111.97827135,
                    33.07978457
                ]
            ]
        ]
    },
    "properties": {
        "plt_label": "p2-1",
        "trt_label": "IR060",
        "PLT_AREA": 121.920002,
        "CUL_NAME": "NexGen 3195 B3XF",
        "PDATE": "04/21/2022",
        "IRVAL": {
            "2022105": 10.2,
            "2022112": 30.4,
            "2022116": 30.4,
            "2022119": 30.4,
            "2022122": 10.2,
            "2022124": 20.2,
            "2022126": 20.2,
            "2022132": 30.4,
            "2022137": 13.0,
            "2022140": 19.5,
            "2022144": 7.2,
            "2022147": 7.2,
            "2022153": 11.4,
            "2022154": 11.4,
            "2022158": 20.2,
            "2022161": 15.1,
            "2022165": 16.0,
            "2022168": 16.0,
            "2022173": 21.0,
            "2022175": 21.0,
            "2022180": 11.7,
            "2022182": 30.4,
            "2022188": 13.4,
            "2022189": 13.4,
            "2022193": 16.3,
            "2022196": 2.4,
            "2022201": 14.1,
            "2022203": 30.3,
            "2022207": 15.6,
            "2022210": 15.6,
            "2022214": 11.1,
            "2022217": 1.7,
            "2022222": 12.7,
            "2022224": 12.7,
            "2022228": 8.8,
            "2022231": 8.8,
            "2022235": 7.5,
            "2022238": 11.2,
            "2022242": 8.5,
            "2022245": 8.5,
            "2022250": 5.6,
            "2022252": 5.6
        },
        "HARM": "Machine",
        "HADAT": "11/15/2022",
        "WBWAH": 2921.9,
        "BWCAH": 5.93,
        "DBWAH": 2748.6,
        "GNDAT": "11/18/2022",
        "FFRAC": 0.3708,
        "SFRAC": 0.4899,
        "TFRAC": 0.1393,
        "WFWAH": 1083.3,
        "WSWAH": 1431.5,
        "WSCWAH": 2514.9,
        "DFWAH": 1019.1,
        "DSWAH": 1346.7,
        "DSCWAH": 2365.8,
        "QLDAT": "02/23/2023",
        "FBMIC": 56.4,
        "FBLTH": 1.024,
        "FBUNI": 79.6,
        "FBSTR": 28.1,
        "FBELO": 5.4,
        "FBCRD": 76.3,
        "FBCLB": 10.1,
        "FBTCT": 10.0,
        "FBTAR": 0.16,
        "FBSFI": 10.4,
        "haids": [
            "642340a68ac5474bcb1c62f9",
            "642340a68ac5474bcb1c6301"
        ],
        "tids": [
            "642371e98ac5474e93f7c6d2"
        ]
    },
    "_id": "64233e638ac5474bc38ddd26",
    "pid": "64233e638ac5474bc38ddd26"
}{
    "type": "Feature",
    "geometry": {
        "type": "Polygon",
        "coordinates": [
            [
                [
                    -111.97827261,
                    33.07960418
                ],
                [
                    -111.97840322,
                    33.07960483
                ],
                [
                    -111.97840259,
                    33.07969502
                ],
                [
                    -111.97827198,
                    33.07969437
                ],
                [
                    -111.97827261,
                    33.07960418
                ]
            ]
        ]
    },
    "properties": {
        "plt_label": "p2-2",
        "trt_label": "IR080",
        "PLT_AREA": 121.920002,
        "CUL_NAME": "NexGen 3195 B3XF",
        "PDATE": "04/21/2022",
        "IRVAL": {
            "2022105": 10.2,
            "2022112": 30.4,
            "2022116": 30.4,
            "2022119": 30.4,
            "2022122": 10.2,
            "2022124": 20.2,
            "2022126": 20.2,
            "2022132": 30.4,
            "2022137": 13.0,
            "2022140": 19.5,
            "2022144": 7.2,
            "2022147": 7.2,
            "2022153": 11.4,
            "2022154": 11.4,
            "2022158": 20.2,
            "2022161": 15.1,
            "2022165": 16.0,
            "2022168": 16.0,
            "2022173": 21.0,
            "2022175": 21.0,
            "2022180": 11.7,
            "2022182": 30.4,
            "2022188": 17.9,
            "2022189": 17.9,
            "2022193": 21.7,
            "2022196": 6.8,
            "2022201": 18.9,
            "2022203": 30.3,
            "2022207": 20.9,
            "2022210": 20.9,
            "2022214": 14.7,
            "2022217": 4.7,
            "2022222": 16.9,
            "2022224": 16.9,
            "2022228": 11.8,
            "2022231": 11.8,
            "2022235": 10.0,
            "2022238": 14.9,
            "2022242": 11.2,
            "2022245": 11.2,
            "2022250": 7.4,
            "2022252": 7.4
        },
        "HARM": "Machine",
        "HADAT": "11/15/2022",
        "WBWAH": 3591.5,
        "BWCAH": 5.25,
        "DBWAH": 3402.9,
        "GNDAT": "11/18/2022",
        "FFRAC": 0.3726,
        "SFRAC": 0.4988,
        "TFRAC": 0.1287,
        "WFWAH": 1338.1,
        "WSWAH": 1791.4,
        "WSCWAH": 3129.5,
        "DFWAH": 1267.8,
        "DSWAH": 1697.3,
        "DSCWAH": 2965.1,
        "QLDAT": "02/23/2023",
        "FBMIC": 52.9,
        "FBLTH": 1.05,
        "FBUNI": 79.8,
        "FBSTR": 28.4,
        "FBELO": 5.4,
        "FBCRD": 77.2,
        "FBCLB": 10.0,
        "FBTCT": 4.0,
        "FBTAR": 0.06,
        "FBSFI": 10.0,
        "haids": [
            "642340a68ac5474bcb1c62fa",
            "642340a68ac5474bcb1c6302"
        ],
        "tids": [
            "642371e98ac5474e93f7c6d3"
        ]
    },
    "_id": "64233e638ac5474bc38ddd27",
    "pid": "64233e638ac5474bc38ddd27"
}{
    "type": "Feature",
    "geometry": {
        "type": "Polygon",
        "coordinates": [
            [
                [
                    -111.97827387,
                    33.0794238
                ],
                [
                    -111.97840448,
                    33.07942444
                ],
                [
                    -111.97840385,
                    33.07951464
                ],
                [
                    -111.97827324,
                    33.07951399
                ],
                [
                    -111.97827387,
                    33.0794238
                ]
            ]
        ]
    },
    "properties": {
        "plt_label": "p2-3",
        "trt_label": "IR040",
        "PLT_AREA": 121.919996,
        "CUL_NAME": "NexGen 3195 B3XF",
        "PDATE": "04/21/2022",
        "IRVAL": {
            "2022105": 10.2,
            "2022112": 30.4,
            "2022116": 30.4,
            "2022119": 30.4,
            "2022122": 10.2,
            "2022124": 20.2,
            "2022126": 20.2,
            "2022132": 30.4,
            "2022137": 13.0,
            "2022140": 19.5,
            "2022144": 7.2,
            "2022147": 7.2,
            "2022153": 11.4,
            "2022154": 11.4,
            "2022158": 20.2,
            "2022161": 15.1,
            "2022165": 16.0,
            "2022168": 16.0,
            "2022173": 21.0,
            "2022175": 21.0,
            "2022180": 11.7,
            "2022182": 30.4,
            "2022188": 8.9,
            "2022189": 8.9,
            "2022193": 10.8,
            "2022196": 0.0,
            "2022201": 9.3,
            "2022203": 30.3,
            "2022207": 10.3,
            "2022210": 10.3,
            "2022214": 7.3,
            "2022217": 0.0,
            "2022222": 8.6,
            "2022224": 8.6,
            "2022228": 5.9,
            "2022231": 5.9,
            "2022235": 5.0,
            "2022238": 7.4,
            "2022242": 5.6,
            "2022245": 5.6,
            "2022250": 3.8,
            "2022252": 3.8
        },
        "HARM": "Machine",
        "HADAT": "11/15/2022",
        "WBWAH": 2263.4,
        "BWCAH": 5.91,
        "DBWAH": 2129.6,
        "GNDAT": "11/18/2022",
        "FFRAC": 0.3676,
        "SFRAC": 0.4961,
        "TFRAC": 0.1363,
        "WFWAH": 832.1,
        "WSWAH": 1122.7,
        "WSCWAH": 1954.8,
        "DFWAH": 782.9,
        "DSWAH": 1056.4,
        "DSCWAH": 1839.3,
        "QLDAT": "02/23/2023",
        "FBMIC": 54.4,
        "FBLTH": 1.012,
        "FBUNI": 79.7,
        "FBSTR": 27.3,
        "FBELO": 5.4,
        "FBCRD": 76.6,
        "FBCLB": 10.1,
        "FBTCT": 8.0,
        "FBTAR": 0.13,
        "FBSFI": 10.2,
        "haids": [
            "642340a68ac5474bcb1c62fb",
            "642340a68ac5474bcb1c6303"
        ],
        "tids": [
            "642371e98ac5474e93f7c6d4"
        ]
    },
    "_id": "64233e638ac5474bc38ddd28",
    "pid": "64233e638ac5474bc38ddd28"
}{
    "type": "Feature",
    "geometry": {
        "type": "Polygon",
        "coordinates": [
            [
                [
                    -111.97827512,
                    33.07924341
                ],
                [
                    -111.97840574,
                    33.07924406
                ],
                [
                    -111.97840511,
                    33.07933425
                ],
                [
                    -111.9782745,
                    33.07933361
                ],
                [
                    -111.97827512,
                    33.07924341
                ]
            ]
        ]
    },
    "properties": {
        "plt_label": "p2-4",
        "trt_label": "IR100",
        "PLT_AREA": 121.920002,
        "CUL_NAME": "NexGen 3195 B3XF",
        "PDATE": "04/21/2022",
        "IRVAL": {
            "2022105": 10.2,
            "2022112": 30.4,
            "2022116": 30.4,
            "2022119": 30.4,
            "2022122": 10.2,
            "2022124": 20.2,
            "2022126": 20.2,
            "2022132": 30.4,
            "2022137": 13.0,
            "2022140": 19.5,
            "2022144": 7.2,
            "2022147": 7.2,
            "2022153": 11.4,
            "2022154": 11.4,
            "2022158": 20.2,
            "2022161": 15.1,
            "2022165": 16.0,
            "2022168": 16.0,
            "2022173": 21.0,
            "2022175": 21.0,
            "2022180": 11.7,
            "2022182": 30.4,
            "2022188": 22.4,
            "2022189": 22.4,
            "2022193": 26.8,
            "2022196": 11.3,
            "2022201": 23.4,
            "2022203": 30.3,
            "2022207": 26.2,
            "2022210": 26.2,
            "2022214": 18.5,
            "2022217": 7.5,
            "2022222": 21.3,
            "2022224": 21.3,
            "2022228": 14.7,
            "2022231": 14.7,
            "2022235": 12.4,
            "2022238": 18.6,
            "2022242": 14.0,
            "2022245": 14.0,
            "2022250": 9.4,
            "2022252": 9.4
        },
        "HARM": "Machine",
        "HADAT": "11/15/2022",
        "WBWAH": 4629.5,
        "BWCAH": 5.34,
        "DBWAH": 4382.2,
        "GNDAT": "11/18/2022",
        "FFRAC": 0.3736,
        "SFRAC": 0.5019,
        "TFRAC": 0.1245,
        "WFWAH": 1729.6,
        "WSWAH": 2323.6,
        "WSCWAH": 4053.2,
        "DFWAH": 1637.2,
        "DSWAH": 2199.5,
        "DSCWAH": 3836.6,
        "QLDAT": "02/23/2023",
        "FBMIC": 49.1,
        "FBLTH": 1.072,
        "FBUNI": 79.6,
        "FBSTR": 28.6,
        "FBELO": 5.6,
        "FBCRD": 78.1,
        "FBCLB": 9.6,
        "FBTCT": 13.0,
        "FBTAR": 0.11,
        "FBSFI": 10.0,
        "haids": [
            "642340a68ac5474bcb1c62fc",
            "642340a68ac5474bcb1c6304"
        ],
        "tids": [
            "642371e98ac5474e93f7c6d5"
        ]
    },
    "_id": "64233e638ac5474bc38ddd29",
    "pid": "64233e638ac5474bc38ddd29"
}{
    "type": "Feature",
    "geometry": {
        "type": "Polygon",
        "coordinates": [
            [
                [
                    -111.97827638,
                    33.07906303
                ],
                [
                    -111.978407,
                    33.07906368
                ],
                [
                    -111.97840637,
                    33.07915387
                ],
                [
                    -111.97827575,
                    33.07915322
                ],
                [
                    -111.97827638,
                    33.07906303
                ]
            ]
        ]
    },
    "properties": {
        "plt_label": "p2-5",
        "trt_label": "IR060",
        "PLT_AREA": 121.920002,
        "CUL_NAME": "NexGen 3195 B3XF",
        "PDATE": "04/21/2022",
        "IRVAL": {
            "2022105": 10.2,
            "2022112": 30.4,
            "2022116": 30.4,
            "2022119": 30.4,
            "2022122": 10.2,
            "2022124": 20.2,
            "2022126": 20.2,
            "2022132": 30.4,
            "2022137": 13.0,
            "2022140": 19.5,
            "2022144": 7.2,
            "2022147": 7.2,
            "2022153": 11.4,
            "2022154": 11.4,
            "2022158": 20.2,
            "2022161": 15.1,
            "2022165": 16.0,
            "2022168": 16.0,
            "2022173": 21.0,
            "2022175": 21.0,
            "2022180": 11.7,
            "2022182": 30.4,
            "2022188": 13.4,
            "2022189": 13.4,
            "2022193": 16.3,
            "2022196": 2.4,
            "2022201": 14.1,
            "2022203": 30.3,
            "2022207": 15.6,
            "2022210": 15.6,
            "2022214": 11.1,
            "2022217": 1.7,
            "2022222": 12.7,
            "2022224": 12.7,
            "2022228": 8.8,
            "2022231": 8.8,
            "2022235": 7.5,
            "2022238": 11.2,
            "2022242": 8.5,
            "2022245": 8.5,
            "2022250": 5.6,
            "2022252": 5.6
        },
        "HARM": "Machine",
        "HADAT": "11/15/2022",
        "WBWAH": 2497.7,
        "BWCAH": 5.76,
        "DBWAH": 2353.8,
        "GNDAT": "11/18/2022",
        "FFRAC": 0.3706,
        "SFRAC": 0.4949,
        "TFRAC": 0.1346,
        "WFWAH": 925.6,
        "WSWAH": 1236.0,
        "WSCWAH": 2161.7,
        "DFWAH": 872.3,
        "DSWAH": 1164.8,
        "DSCWAH": 2037.1,
        "QLDAT": "02/23/2023",
        "FBMIC": 53.4,
        "FBLTH": 1.03,
        "FBUNI": 80.0,
        "FBSTR": 28.3,
        "FBELO": 5.2,
        "FBCRD": 76.8,
        "FBCLB": 10.0,
        "FBTCT": 9.0,
        "FBTAR": 0.1,
        "FBSFI": 9.6,
        "haids": [
            "642340a68ac5474bcb1c62fd",
            "642340a68ac5474bcb1c6305"
        ],
        "tids": [
            "642371e98ac5474e93f7c6d6"
        ]
    },
    "_id": "64233e638ac5474bc38ddd2a",
    "pid": "64233e638ac5474bc38ddd2a"
}{
    "type": "Feature",
    "geometry": {
        "type": "Polygon",
        "coordinates": [
            [
                [
                    -111.97827764,
                    33.07888265
                ],
                [
                    -111.97840826,
                    33.07888329
                ],
                [
                    -111.97840763,
                    33.07897349
                ],
                [
                    -111.97827701,
                    33.07897284
                ],
                [
                    -111.97827764,
                    33.07888265
                ]
            ]
        ]
    },
    "properties": {
        "plt_label": "p2-6",
        "trt_label": "IR100",
        "PLT_AREA": 121.920002,
        "CUL_NAME": "NexGen 3195 B3XF",
        "PDATE": "04/21/2022",
        "IRVAL": {
            "2022105": 10.2,
            "2022112": 30.4,
            "2022116": 30.4,
            "2022119": 30.4,
            "2022122": 10.2,
            "2022124": 20.2,
            "2022126": 20.2,
            "2022132": 30.4,
            "2022137": 13.0,
            "2022140": 19.5,
            "2022144": 7.2,
            "2022147": 7.2,
            "2022153": 11.4,
            "2022154": 11.4,
            "2022158": 20.2,
            "2022161": 15.1,
            "2022165": 16.0,
            "2022168": 16.0,
            "2022173": 21.0,
            "2022175": 21.0,
            "2022180": 11.7,
            "2022182": 30.4,
            "2022188": 22.4,
            "2022189": 22.4,
            "2022193": 26.8,
            "2022196": 11.3,
            "2022201": 23.4,
            "2022203": 30.3,
            "2022207": 26.2,
            "2022210": 26.2,
            "2022214": 18.5,
            "2022217": 7.5,
            "2022222": 21.3,
            "2022224": 21.3,
            "2022228": 14.7,
            "2022231": 14.7,
            "2022235": 12.4,
            "2022238": 18.6,
            "2022242": 14.0,
            "2022245": 14.0,
            "2022250": 9.4,
            "2022252": 9.4
        },
        "HARM": "Machine",
        "HADAT": "11/15/2022",
        "WBWAH": 4584.9,
        "BWCAH": 5.23,
        "DBWAH": 4345.3,
        "GNDAT": "11/18/2022",
        "FFRAC": 0.3734,
        "SFRAC": 0.5093,
        "TFRAC": 0.1172,
        "WFWAH": 1712.2,
        "WSWAH": 2335.3,
        "WSCWAH": 4047.5,
        "DFWAH": 1622.7,
        "DSWAH": 2213.3,
        "DSCWAH": 3836.0,
        "QLDAT": "02/23/2023",
        "FBMIC": 48.1,
        "FBLTH": 1.114,
        "FBUNI": 80.0,
        "FBSTR": 29.2,
        "FBELO": 5.4,
        "FBCRD": 78.6,
        "FBCLB": 9.4,
        "FBTCT": 9.0,
        "FBTAR": 0.1,
        "FBSFI": 9.3,
        "haids": [
            "642340a68ac5474bcb1c62fe",
            "642340a68ac5474bcb1c6306"
        ],
        "tids": [
            "642371e98ac5474e93f7c6d7"
        ]
    },
    "_id": "64233e638ac5474bc38ddd2b",
    "pid": "64233e638ac5474bc38ddd2b"
}{
    "type": "Feature",
    "geometry": {
        "type": "Polygon",
        "coordinates": [
            [
                [
                    -111.9782789,
                    33.07870226
                ],
                [
                    -111.97840951,
                    33.07870291
                ],
                [
                    -111.97840888,
                    33.0787931
                ],
                [
                    -111.97827827,
                    33.07879246
                ],
                [
                    -111.9782789,
                    33.07870226
                ]
            ]
        ]
    },
    "properties": {
        "plt_label": "p2-7",
        "trt_label": "IR080",
        "PLT_AREA": 121.920002,
        "CUL_NAME": "NexGen 3195 B3XF",
        "PDATE": "04/21/2022",
        "IRVAL": {
            "2022105": 10.2,
            "2022112": 30.4,
            "2022116": 30.4,
            "2022119": 30.4,
            "2022122": 10.2,
            "2022124": 20.2,
            "2022126": 20.2,
            "2022132": 30.4,
            "2022137": 13.0,
            "2022140": 19.5,
            "2022144": 7.2,
            "2022147": 7.2,
            "2022153": 11.4,
            "2022154": 11.4,
            "2022158": 20.2,
            "2022161": 15.1,
            "2022165": 16.0,
            "2022168": 16.0,
            "2022173": 21.0,
            "2022175": 21.0,
            "2022180": 11.7,
            "2022182": 30.4,
            "2022188": 17.9,
            "2022189": 17.9,
            "2022193": 21.7,
            "2022196": 6.8,
            "2022201": 18.9,
            "2022203": 30.3,
            "2022207": 20.9,
            "2022210": 20.9,
            "2022214": 14.7,
            "2022217": 4.7,
            "2022222": 16.9,
            "2022224": 16.9,
            "2022228": 11.8,
            "2022231": 11.8,
            "2022235": 10.0,
            "2022238": 14.9,
            "2022242": 11.2,
            "2022245": 11.2,
            "2022250": 7.4,
            "2022252": 7.4
        },
        "HARM": "Machine",
        "HADAT": "11/15/2022",
        "WBWAH": 4451.0,
        "BWCAH": 5.41,
        "DBWAH": 4210.1,
        "GNDAT": "11/18/2022",
        "FFRAC": 0.3702,
        "SFRAC": 0.488,
        "TFRAC": 0.1418,
        "WFWAH": 1647.6,
        "WSWAH": 2172.1,
        "WSCWAH": 3819.8,
        "DFWAH": 1558.5,
        "DSWAH": 2054.6,
        "DSCWAH": 3613.1,
        "QLDAT": "02/23/2023",
        "FBMIC": 53.2,
        "FBLTH": 1.04,
        "FBUNI": 79.5,
        "FBSTR": 28.6,
        "FBELO": 5.5,
        "FBCRD": 77.4,
        "FBCLB": 9.8,
        "FBTCT": 16.0,
        "FBTAR": 0.18,
        "FBSFI": 10.8,
        "haids": [
            "642340a68ac5474bcb1c62ff",
            "642340a68ac5474bcb1c6307"
        ],
        "tids": [
            "642371e98ac5474e93f7c6d8"
        ]
    },
    "_id": "64233e638ac5474bc38ddd2c",
    "pid": "64233e638ac5474bc38ddd2c"
}{
    "type": "Feature",
    "geometry": {
        "type": "Polygon",
        "coordinates": [
            [
                [
                    -111.97828016,
                    33.07852188
                ],
                [
                    -111.97841077,
                    33.07852253
                ],
                [
                    -111.97841014,
                    33.07861272
                ],
                [
                    -111.97827953,
                    33.07861207
                ],
                [
                    -111.97828016,
                    33.07852188
                ]
            ]
        ]
    },
    "properties": {
        "plt_label": "p2-8",
        "trt_label": "IR040",
        "PLT_AREA": 121.919996,
        "CUL_NAME": "NexGen 3195 B3XF",
        "PDATE": "04/21/2022",
        "IRVAL": {
            "2022105": 10.2,
            "2022112": 30.4,
            "2022116": 30.4,
            "2022119": 30.4,
            "2022122": 10.2,
            "2022124": 20.2,
            "2022126": 20.2,
            "2022132": 30.4,
            "2022137": 13.0,
            "2022140": 19.5,
            "2022144": 7.2,
            "2022147": 7.2,
            "2022153": 11.4,
            "2022154": 11.4,
            "2022158": 20.2,
            "2022161": 15.1,
            "2022165": 16.0,
            "2022168": 16.0,
            "2022173": 21.0,
            "2022175": 21.0,
            "2022180": 11.7,
            "2022182": 30.4,
            "2022188": 8.9,
            "2022189": 8.9,
            "2022193": 10.8,
            "2022196": 0.0,
            "2022201": 9.3,
            "2022203": 30.3,
            "2022207": 10.3,
            "2022210": 10.3,
            "2022214": 7.3,
            "2022217": 0.0,
            "2022222": 8.6,
            "2022224": 8.6,
            "2022228": 5.9,
            "2022231": 5.9,
            "2022235": 5.0,
            "2022238": 7.4,
            "2022242": 5.6,
            "2022245": 5.6,
            "2022250": 3.8,
            "2022252": 3.8
        },
        "HARM": "Machine",
        "HADAT": "11/15/2022",
        "WBWAH": 1359.3,
        "BWCAH": 6.5,
        "DBWAH": 1271.0,
        "GNDAT": "11/18/2022",
        "FFRAC": 0.3609,
        "SFRAC": 0.5136,
        "TFRAC": 0.1255,
        "WFWAH": 490.6,
        "WSWAH": 698.1,
        "WSCWAH": 1188.6,
        "DFWAH": 458.7,
        "DSWAH": 652.7,
        "DSCWAH": 1111.4,
        "QLDAT": "02/23/2023",
        "FBMIC": 52.8,
        "FBLTH": 1.022,
        "FBUNI": 79.6,
        "FBSTR": 28.2,
        "FBELO": 5.4,
        "FBCRD": 75.4,
        "FBCLB": 10.3,
        "FBTCT": 10.0,
        "FBTAR": 0.22,
        "FBSFI": 9.8,
        "haids": [
            "642340a68ac5474bcb1c6300",
            "642340a68ac5474bcb1c6308"
        ],
        "tids": [
            "642371e98ac5474e93f7c6d9"
        ]
    },
    "_id": "64233e638ac5474bc38ddd2d",
    "pid": "64233e638ac5474bc38ddd2d"
}