{
    "type": "Feature",
    "geometry": {
        "type": "Point",
        "coordinates": [
            33.07973907,
            -111.97818705
        ]
    },
    "properties": {
        "tb_label": "p01-1"
    },
    "_id": "642234bc8ac5472aca1a30a8",
    "tid": "642234bc8ac5472aca1a30a8"
}{
    "type": "Feature",
    "geometry": {
        "type": "Point",
        "coordinates": [
            33.0793783,
            -111.97818957
        ]
    },
    "properties": {
        "tb_label": "p01-2"
    },
    "_id": "642234bc8ac5472aca1a30a9",
    "tid": "642234bc8ac5472aca1a30a9"
}{
    "type": "Feature",
    "geometry": {
        "type": "Point",
        "coordinates": [
            33.07901753,
            -111.97819208
        ]
    },
    "properties": {
        "tb_label": "p01-3"
    },
    "_id": "642234bc8ac5472aca1a30aa",
    "tid": "642234bc8ac5472aca1a30aa"
}{
    "type": "Feature",
    "geometry": {
        "type": "Point",
        "coordinates": [
            33.07865677,
            -111.9781946
        ]
    },
    "properties": {
        "tb_label": "p01-4"
    },
    "_id": "642234bc8ac5472aca1a30ab",
    "tid": "642234bc8ac5472aca1a30ab"
}{
    "type": "Feature",
    "geometry": {
        "type": "Point",
        "coordinates": [
            33.07973831,
            -111.97803467
        ]
    },
    "properties": {
        "tb_label": "p02-1"
    },
    "_id": "642234bc8ac5472aca1a30ac",
    "tid": "642234bc8ac5472aca1a30ac"
}{
    "type": "Feature",
    "geometry": {
        "type": "Point",
        "coordinates": [
            33.07937755,
            -111.97803718
        ]
    },
    "properties": {
        "tb_label": "p02-2"
    },
    "_id": "642234bc8ac5472aca1a30ad",
    "tid": "642234bc8ac5472aca1a30ad"
}{
    "type": "Feature",
    "geometry": {
        "type": "Point",
        "coordinates": [
            33.07901678,
            -111.9780397
        ]
    },
    "properties": {
        "tb_label": "p02-3"
    },
    "_id": "642234bc8ac5472aca1a30ae",
    "tid": "642234bc8ac5472aca1a30ae"
}{
    "type": "Feature",
    "geometry": {
        "type": "Point",
        "coordinates": [
            33.07865601,
            -111.97804222
        ]
    },
    "properties": {
        "tb_label": "p02-4"
    },
    "_id": "642234bc8ac5472aca1a30af",
    "tid": "642234bc8ac5472aca1a30af"
}{
    "type": "Feature",
    "geometry": {
        "type": "Point",
        "coordinates": [
            33.07973756,
            -111.97788228
        ]
    },
    "properties": {
        "tb_label": "p03-1"
    },
    "_id": "642234bc8ac5472aca1a30b0",
    "tid": "642234bc8ac5472aca1a30b0"
}{
    "type": "Feature",
    "geometry": {
        "type": "Point",
        "coordinates": [
            33.07937679,
            -111.9778848
        ]
    },
    "properties": {
        "tb_label": "p03-2"
    },
    "_id": "642234bc8ac5472aca1a30b1",
    "tid": "642234bc8ac5472aca1a30b1"
}{
    "type": "Feature",
    "geometry": {
        "type": "Point",
        "coordinates": [
            33.07901602,
            -111.97788732
        ]
    },
    "properties": {
        "tb_label": "p03-3"
    },
    "_id": "642234bc8ac5472aca1a30b2",
    "tid": "642234bc8ac5472aca1a30b2"
}{
    "type": "Feature",
    "geometry": {
        "type": "Point",
        "coordinates": [
            33.07865526,
            -111.97788984
        ]
    },
    "properties": {
        "tb_label": "p03-4"
    },
    "_id": "642234bc8ac5472aca1a30b3",
    "tid": "642234bc8ac5472aca1a30b3"
}{
    "type": "Feature",
    "geometry": {
        "type": "Point",
        "coordinates": [
            33.0797368,
            -111.9777299
        ]
    },
    "properties": {
        "tb_label": "p04-1"
    },
    "_id": "642234bc8ac5472aca1a30b4",
    "tid": "642234bc8ac5472aca1a30b4"
}{
    "type": "Feature",
    "geometry": {
        "type": "Point",
        "coordinates": [
            33.07937604,
            -111.97773242
        ]
    },
    "properties": {
        "tb_label": "p04-2"
    },
    "_id": "642234bc8ac5472aca1a30b5",
    "tid": "642234bc8ac5472aca1a30b5"
}{
    "type": "Feature",
    "geometry": {
        "type": "Point",
        "coordinates": [
            33.07901527,
            -111.97773493
        ]
    },
    "properties": {
        "tb_label": "p04-3"
    },
    "_id": "642234bc8ac5472aca1a30b6",
    "tid": "642234bc8ac5472aca1a30b6"
}{
    "type": "Feature",
    "geometry": {
        "type": "Point",
        "coordinates": [
            33.0786545,
            -111.97773745
        ]
    },
    "properties": {
        "tb_label": "p04-4"
    },
    "_id": "642234bc8ac5472aca1a30b7",
    "tid": "642234bc8ac5472aca1a30b7"
}{
    "type": "Feature",
    "geometry": {
        "type": "Point",
        "coordinates": [
            33.07973605,
            -111.97757844
        ]
    },
    "properties": {
        "tb_label": "p05-1"
    },
    "_id": "642234bc8ac5472aca1a30b8",
    "tid": "642234bc8ac5472aca1a30b8"
}{
    "type": "Feature",
    "geometry": {
        "type": "Point",
        "coordinates": [
            33.07937528,
            -111.97758096
        ]
    },
    "properties": {
        "tb_label": "p05-2"
    },
    "_id": "642234bc8ac5472aca1a30b9",
    "tid": "642234bc8ac5472aca1a30b9"
}{
    "type": "Feature",
    "geometry": {
        "type": "Point",
        "coordinates": [
            33.07901451,
            -111.97758348
        ]
    },
    "properties": {
        "tb_label": "p05-3"
    },
    "_id": "642234bc8ac5472aca1a30ba",
    "tid": "642234bc8ac5472aca1a30ba"
}{
    "type": "Feature",
    "geometry": {
        "type": "Point",
        "coordinates": [
            33.07865375,
            -111.977586
        ]
    },
    "properties": {
        "tb_label": "p05-4"
    },
    "_id": "642234bc8ac5472aca1a30bb",
    "tid": "642234bc8ac5472aca1a30bb"
}{
    "type": "Feature",
    "geometry": {
        "type": "Point",
        "coordinates": [
            33.07973529,
            -111.97742606
        ]
    },
    "properties": {
        "tb_label": "p06-1"
    },
    "_id": "642234bc8ac5472aca1a30bc",
    "tid": "642234bc8ac5472aca1a30bc"
}{
    "type": "Feature",
    "geometry": {
        "type": "Point",
        "coordinates": [
            33.07937453,
            -111.97742858
        ]
    },
    "properties": {
        "tb_label": "p06-2"
    },
    "_id": "642234bc8ac5472aca1a30bd",
    "tid": "642234bc8ac5472aca1a30bd"
}{
    "type": "Feature",
    "geometry": {
        "type": "Point",
        "coordinates": [
            33.07901376,
            -111.9774311
        ]
    },
    "properties": {
        "tb_label": "p06-3"
    },
    "_id": "642234bc8ac5472aca1a30be",
    "tid": "642234bc8ac5472aca1a30be"
}{
    "type": "Feature",
    "geometry": {
        "type": "Point",
        "coordinates": [
            33.07865299,
            -111.97743362
        ]
    },
    "properties": {
        "tb_label": "p06-4"
    },
    "_id": "642234bc8ac5472aca1a30bf",
    "tid": "642234bc8ac5472aca1a30bf"
}{
    "type": "Feature",
    "geometry": {
        "type": "Point",
        "coordinates": [
            33.07973454,
            -111.97727367
        ]
    },
    "properties": {
        "tb_label": "p07-1"
    },
    "_id": "642234bc8ac5472aca1a30c0",
    "tid": "642234bc8ac5472aca1a30c0"
}{
    "type": "Feature",
    "geometry": {
        "type": "Point",
        "coordinates": [
            33.07937377,
            -111.97727619
        ]
    },
    "properties": {
        "tb_label": "p07-2"
    },
    "_id": "642234bc8ac5472aca1a30c1",
    "tid": "642234bc8ac5472aca1a30c1"
}{
    "type": "Feature",
    "geometry": {
        "type": "Point",
        "coordinates": [
            33.079013,
            -111.97727871
        ]
    },
    "properties": {
        "tb_label": "p07-3"
    },
    "_id": "642234bc8ac5472aca1a30c2",
    "tid": "642234bc8ac5472aca1a30c2"
}{
    "type": "Feature",
    "geometry": {
        "type": "Point",
        "coordinates": [
            33.07865224,
            -111.97728124
        ]
    },
    "properties": {
        "tb_label": "p07-4"
    },
    "_id": "642234bc8ac5472aca1a30c3",
    "tid": "642234bc8ac5472aca1a30c3"
}{
    "type": "Feature",
    "geometry": {
        "type": "Point",
        "coordinates": [
            33.07973378,
            -111.97712129
        ]
    },
    "properties": {
        "tb_label": "p08-1"
    },
    "_id": "642234bc8ac5472aca1a30c4",
    "tid": "642234bc8ac5472aca1a30c4"
}{
    "type": "Feature",
    "geometry": {
        "type": "Point",
        "coordinates": [
            33.07937302,
            -111.97712381
        ]
    },
    "properties": {
        "tb_label": "p08-2"
    },
    "_id": "642234bc8ac5472aca1a30c5",
    "tid": "642234bc8ac5472aca1a30c5"
}{
    "type": "Feature",
    "geometry": {
        "type": "Point",
        "coordinates": [
            33.07901225,
            -111.97712633
        ]
    },
    "properties": {
        "tb_label": "p08-3"
    },
    "_id": "642234bc8ac5472aca1a30c6",
    "tid": "642234bc8ac5472aca1a30c6"
}{
    "type": "Feature",
    "geometry": {
        "type": "Point",
        "coordinates": [
            33.07865148,
            -111.97712885
        ]
    },
    "properties": {
        "tb_label": "p08-4"
    },
    "_id": "642234bc8ac5472aca1a30c7",
    "tid": "642234bc8ac5472aca1a30c7"
}{
    "type": "Feature",
    "geometry": {
        "type": "Point",
        "coordinates": [
            33.07973303,
            -111.97696974
        ]
    },
    "properties": {
        "tb_label": "p09-1"
    },
    "_id": "642234bc8ac5472aca1a30c8",
    "tid": "642234bc8ac5472aca1a30c8"
}{
    "type": "Feature",
    "geometry": {
        "type": "Point",
        "coordinates": [
            33.07937226,
            -111.97697226
        ]
    },
    "properties": {
        "tb_label": "p09-2"
    },
    "_id": "642234bc8ac5472aca1a30c9",
    "tid": "642234bc8ac5472aca1a30c9"
}{
    "type": "Feature",
    "geometry": {
        "type": "Point",
        "coordinates": [
            33.07901149,
            -111.97697479
        ]
    },
    "properties": {
        "tb_label": "p09-3"
    },
    "_id": "642234bc8ac5472aca1a30ca",
    "tid": "642234bc8ac5472aca1a30ca"
}{
    "type": "Feature",
    "geometry": {
        "type": "Point",
        "coordinates": [
            33.07865072,
            -111.97697731
        ]
    },
    "properties": {
        "tb_label": "p09-4"
    },
    "_id": "642234bc8ac5472aca1a30cb",
    "tid": "642234bc8ac5472aca1a30cb"
}{
    "type": "Feature",
    "geometry": {
        "type": "Point",
        "coordinates": [
            33.07973227,
            -111.97681736
        ]
    },
    "properties": {
        "tb_label": "p10-1"
    },
    "_id": "642234bc8ac5472aca1a30cc",
    "tid": "642234bc8ac5472aca1a30cc"
}{
    "type": "Feature",
    "geometry": {
        "type": "Point",
        "coordinates": [
            33.0793715,
            -111.97681988
        ]
    },
    "properties": {
        "tb_label": "p10-2"
    },
    "_id": "642234bc8ac5472aca1a30cd",
    "tid": "642234bc8ac5472aca1a30cd"
}{
    "type": "Feature",
    "geometry": {
        "type": "Point",
        "coordinates": [
            33.07901074,
            -111.9768224
        ]
    },
    "properties": {
        "tb_label": "p10-3"
    },
    "_id": "642234bc8ac5472aca1a30ce",
    "tid": "642234bc8ac5472aca1a30ce"
}{
    "type": "Feature",
    "geometry": {
        "type": "Point",
        "coordinates": [
            33.07864997,
            -111.97682493
        ]
    },
    "properties": {
        "tb_label": "p10-4"
    },
    "_id": "642234bc8ac5472aca1a30cf",
    "tid": "642234bc8ac5472aca1a30cf"
}{
    "type": "Feature",
    "geometry": {
        "type": "Point",
        "coordinates": [
            33.07973152,
            -111.97666497
        ]
    },
    "properties": {
        "tb_label": "p11-1"
    },
    "_id": "642234bc8ac5472aca1a30d0",
    "tid": "642234bc8ac5472aca1a30d0"
}{
    "type": "Feature",
    "geometry": {
        "type": "Point",
        "coordinates": [
            33.07937075,
            -111.9766675
        ]
    },
    "properties": {
        "tb_label": "p11-2"
    },
    "_id": "642234bc8ac5472aca1a30d1",
    "tid": "642234bc8ac5472aca1a30d1"
}{
    "type": "Feature",
    "geometry": {
        "type": "Point",
        "coordinates": [
            33.07900998,
            -111.97667002
        ]
    },
    "properties": {
        "tb_label": "p11-3"
    },
    "_id": "642234bc8ac5472aca1a30d2",
    "tid": "642234bc8ac5472aca1a30d2"
}{
    "type": "Feature",
    "geometry": {
        "type": "Point",
        "coordinates": [
            33.07864921,
            -111.97667254
        ]
    },
    "properties": {
        "tb_label": "p11-4"
    },
    "_id": "642234bc8ac5472aca1a30d3",
    "tid": "642234bc8ac5472aca1a30d3"
}{
    "type": "Feature",
    "geometry": {
        "type": "Point",
        "coordinates": [
            33.07973076,
            -111.97651259
        ]
    },
    "properties": {
        "tb_label": "p12-1"
    },
    "_id": "642234bc8ac5472aca1a30d4",
    "tid": "642234bc8ac5472aca1a30d4"
}{
    "type": "Feature",
    "geometry": {
        "type": "Point",
        "coordinates": [
            33.07936999,
            -111.97651511
        ]
    },
    "properties": {
        "tb_label": "p12-2"
    },
    "_id": "642234bc8ac5472aca1a30d5",
    "tid": "642234bc8ac5472aca1a30d5"
}{
    "type": "Feature",
    "geometry": {
        "type": "Point",
        "coordinates": [
            33.07900923,
            -111.97651764
        ]
    },
    "properties": {
        "tb_label": "p12-3"
    },
    "_id": "642234bc8ac5472aca1a30d6",
    "tid": "642234bc8ac5472aca1a30d6"
}{
    "type": "Feature",
    "geometry": {
        "type": "Point",
        "coordinates": [
            33.07864846,
            -111.97652016
        ]
    },
    "properties": {
        "tb_label": "p12-4"
    },
    "_id": "642234bc8ac5472aca1a30d7",
    "tid": "642234bc8ac5472aca1a30d7"
}