{
    "type": "FeatureCollection",
    "features": [
        {
            "type": "Feature",
            "geometry": {
                "type": "Point",
                "coordinates": [
                    33.0793783,
                    -111.97818957
                ]
            },
            "properties": {
                "sc_label": "p01-2",
                "SOIL_DATE": "04/18/2022",
                "SLPHW": {
                    "20": 8.2,
                    "60": 8.1,
                    "100": 8.0,
                    "140": 8.1,
                    "180": 8.1
                },
                "SLPHB": {
                    "20": 7.2,
                    "60": 7.2,
                    "100": 7.2,
                    "140": 7.2,
                    "180": 7.2
                },
                "SLEC": {
                    "20": 0.66,
                    "60": 2.45,
                    "100": 2.04,
                    "140": 1.22,
                    "180": 0.8
                },
                "SLOM": {
                    "20": 1.4,
                    "60": 0.8,
                    "100": 0.9,
                    "140": 0.8,
                    "180": 0.8
                },
                "SNO3": {
                    "20": 8.1,
                    "60": 23.7,
                    "100": 13.2,
                    "140": 5.8,
                    "180": 4.9
                },
                "SLPX": {
                    "20": 10.0,
                    "60": 8.3,
                    "100": 56.9,
                    "140": 7.5,
                    "180": 7.9
                },
                "SLKE": {
                    "20": 347,
                    "60": 172,
                    "100": 88,
                    "140": 85,
                    "180": 84
                },
                "SLSU": {
                    "20": 90.0,
                    "60": 424.4,
                    "100": 401.5,
                    "140": 102.6,
                    "180": 75.0
                },
                "SLZN": {
                    "20": 1.68,
                    "60": 0.68,
                    "100": 0.4,
                    "140": 0.46,
                    "180": 0.73
                },
                "SLFE": {
                    "20": 9.1,
                    "60": 6.8,
                    "100": 4.6,
                    "140": 3.7,
                    "180": 5.1
                },
                "SLMN": {
                    "20": 14.7,
                    "60": 6.7,
                    "100": 3.0,
                    "140": 2.0,
                    "180": 3.0
                },
                "SLCU": {
                    "20": 3.53,
                    "60": 2.06,
                    "100": 0.83,
                    "140": 0.48,
                    "180": 0.57
                },
                "SLCA": {
                    "20": 2570,
                    "60": 4111,
                    "100": 4098,
                    "140": 3888,
                    "180": 3377
                },
                "SLMG": {
                    "20": 219,
                    "60": 282,
                    "100": 252,
                    "140": 238,
                    "180": 207
                },
                "SLNA": {
                    "20": 474,
                    "60": 891,
                    "100": 624,
                    "140": 397,
                    "180": 284
                },
                "SLCEC": {
                    "20": 17.6,
                    "60": 27.2,
                    "100": 25.5,
                    "140": 23.4,
                    "180": 20.1
                }
            },
            "_id": "67ed44ae8ac547980cae4df1",
            "scid": "67ed44ae8ac547980cae4df1"
        },
        {
            "type": "Feature",
            "geometry": {
                "type": "Point",
                "coordinates": [
                    33.07901602,
                    -111.97788732
                ]
            },
            "properties": {
                "sc_label": "p03-3",
                "SOIL_DATE": "04/18/2022",
                "SLPHW": {
                    "20": 8.1,
                    "60": 8.0,
                    "100": 8.1,
                    "140": 8.4,
                    "180": 8.3
                },
                "SLPHB": {
                    "20": 7.2,
                    "60": 7.2,
                    "100": 7.2,
                    "140": 7.2,
                    "180": 7.2
                },
                "SLEC": {
                    "20": 0.89,
                    "60": 1.41,
                    "100": 1.31,
                    "140": 0.47,
                    "180": 0.85
                },
                "SLOM": {
                    "20": 1.4,
                    "60": 0.9,
                    "100": 1.0,
                    "140": 0.6,
                    "180": 0.8
                },
                "SNO3": {
                    "20": 8.9,
                    "60": 5.3,
                    "100": 9.2,
                    "140": 1.5,
                    "180": 3.3
                },
                "SLPX": {
                    "20": 9.4,
                    "60": 8.4,
                    "100": 8.3,
                    "140": 8.4,
                    "180": 8.2
                },
                "SLKE": {
                    "20": 283,
                    "60": 216,
                    "100": 138,
                    "140": 84,
                    "180": 126
                },
                "SLSU": {
                    "20": 126.4,
                    "60": 269.0,
                    "100": 277.4,
                    "140": 36.4,
                    "180": 76.6
                },
                "SLZN": {
                    "20": 1.61,
                    "60": 0.54,
                    "100": 0.31,
                    "140": 0.45,
                    "180": 0.32
                },
                "SLFE": {
                    "20": 10.2,
                    "60": 7.6,
                    "100": 6.6,
                    "140": 5.4,
                    "180": 5.4
                },
                "SLMN": {
                    "20": 14.6,
                    "60": 8.5,
                    "100": 5.1,
                    "140": 3.1,
                    "180": 3.5
                },
                "SLCU": {
                    "20": 3.49,
                    "60": 2.14,
                    "100": 1.2,
                    "140": 0.66,
                    "180": 0.7
                },
                "SLCA": {
                    "20": 2322,
                    "60": 3562,
                    "100": 4384,
                    "140": 3375,
                    "180": 3966
                },
                "SLMG": {
                    "20": 209,
                    "60": 309,
                    "100": 302,
                    "140": 186,
                    "180": 278
                },
                "SLNA": {
                    "20": 419,
                    "60": 775,
                    "100": 737,
                    "140": 273,
                    "180": 506
                },
                "SLCEC": {
                    "20": 15.9,
                    "60": 24.3,
                    "100": 28.0,
                    "140": 19.8,
                    "180": 24.7
                }
            },
            "_id": "67ed44ae8ac547980cae4df2",
            "scid": "67ed44ae8ac547980cae4df2"
        },
        {
            "type": "Feature",
            "geometry": {
                "type": "Point",
                "coordinates": [
                    33.07973529,
                    -111.97742606
                ]
            },
            "properties": {
                "sc_label": "p06-1",
                "SOIL_DATE": "04/18/2022",
                "SLPHW": {
                    "20": 8.1,
                    "60": 8.3,
                    "100": 8.3,
                    "140": 8.1,
                    "180": 8.1
                },
                "SLPHB": {
                    "20": 7.2,
                    "60": 7.2,
                    "100": 7.2,
                    "140": 7.2,
                    "180": 7.2
                },
                "SLEC": {
                    "20": 0.91,
                    "60": 0.87,
                    "100": 0.8,
                    "140": 1.2,
                    "180": 0.78
                },
                "SLOM": {
                    "20": 1.3,
                    "60": 0.8,
                    "100": 0.6,
                    "140": 0.9,
                    "180": 0.7
                },
                "SNO3": {
                    "20": 4.1,
                    "60": 5.2,
                    "100": 5.0,
                    "140": 6.3,
                    "180": 2.8
                },
                "SLPX": {
                    "20": 9.9,
                    "60": 8.1,
                    "100": 6.5,
                    "140": 7.8,
                    "180": 8.2
                },
                "SLKE": {
                    "20": 354,
                    "60": 190,
                    "100": 176,
                    "140": 141,
                    "180": 85
                },
                "SLSU": {
                    "20": 161.3,
                    "60": 98.0,
                    "100": 100.1,
                    "140": 294.8,
                    "180": 112.7
                },
                "SLZN": {
                    "20": 1.81,
                    "60": 0.78,
                    "100": 0.54,
                    "140": 0.37,
                    "180": 0.33
                },
                "SLFE": {
                    "20": 8.6,
                    "60": 7.6,
                    "100": 6.3,
                    "140": 6.1,
                    "180": 4.8
                },
                "SLMN": {
                    "20": 15.0,
                    "60": 8.6,
                    "100": 6.7,
                    "140": 4.4,
                    "180": 2.6
                },
                "SLCU": {
                    "20": 3.2,
                    "60": 1.76,
                    "100": 1.34,
                    "140": 0.8,
                    "180": 0.48
                },
                "SLCA": {
                    "20": 2649,
                    "60": 3219,
                    "100": 3470,
                    "140": 4028,
                    "180": 3550
                },
                "SLMG": {
                    "20": 239,
                    "60": 212,
                    "100": 222,
                    "140": 284,
                    "180": 197
                },
                "SLNA": {
                    "20": 552,
                    "60": 548,
                    "100": 476,
                    "140": 480,
                    "180": 256
                },
                "SLCEC": {
                    "20": 18.5,
                    "60": 20.7,
                    "100": 21.7,
                    "140": 25.0,
                    "180": 20.7
                }
            },
            "_id": "67ed44ae8ac547980cae4df3",
            "scid": "67ed44ae8ac547980cae4df3"
        },
        {
            "type": "Feature",
            "geometry": {
                "type": "Point",
                "coordinates": [
                    33.07901225,
                    -111.97712633
                ]
            },
            "properties": {
                "sc_label": "p08-3",
                "SOIL_DATE": "04/18/2022",
                "SLPHW": {
                    "20": 8.2,
                    "60": 8.5,
                    "100": 8.1,
                    "140": 8.0,
                    "180": 8.2
                },
                "SLPHB": {
                    "20": 7.2,
                    "60": 7.2,
                    "100": 7.2,
                    "140": 7.2,
                    "180": 7.2
                },
                "SLEC": {
                    "20": 0.54,
                    "60": 0.77,
                    "100": 2.42,
                    "140": 1.12,
                    "180": 0.7
                },
                "SLOM": {
                    "20": 1.4,
                    "60": 0.8,
                    "100": 0.9,
                    "140": 0.8,
                    "180": 0.8
                },
                "SNO3": {
                    "20": 8.9,
                    "60": 5.5,
                    "100": 5.6,
                    "140": 8.5,
                    "180": 4.9
                },
                "SLPX": {
                    "20": 8.9,
                    "60": 8.4,
                    "100": 8.2,
                    "140": 7.9,
                    "180": 8.0
                },
                "SLKE": {
                    "20": 277,
                    "60": 166,
                    "100": 120,
                    "140": 112,
                    "180": 90
                },
                "SLSU": {
                    "20": 63.2,
                    "60": 119.0,
                    "100": 368.4,
                    "140": 149.1,
                    "180": 71.7
                },
                "SLZN": {
                    "20": 1.63,
                    "60": 0.81,
                    "100": 0.31,
                    "140": 0.48,
                    "180": 0.36
                },
                "SLFE": {
                    "20": 8.0,
                    "60": 7.4,
                    "100": 5.9,
                    "140": 5.9,
                    "180": 5.1
                },
                "SLMN": {
                    "20": 15.9,
                    "60": 8.9,
                    "100": 3.9,
                    "140": 4.8,
                    "180": 3.4
                },
                "SLCU": {
                    "20": 3.37,
                    "60": 2.22,
                    "100": 0.99,
                    "140": 0.94,
                    "180": 0.73
                },
                "SLCA": {
                    "20": 2178,
                    "60": 3600,
                    "100": 4093,
                    "140": 3603,
                    "180": 3448
                },
                "SLMG": {
                    "20": 205,
                    "60": 228,
                    "100": 313,
                    "140": 238,
                    "180": 202
                },
                "SLNA": {
                    "20": 298,
                    "60": 608,
                    "100": 742,
                    "140": 363,
                    "180": 240
                },
                "SLCEC": {
                    "20": 14.6,
                    "60": 23.0,
                    "100": 26.6,
                    "140": 21.9,
                    "180": 20.2
                }
            },
            "_id": "67ed44ae8ac547980cae4df4",
            "scid": "67ed44ae8ac547980cae4df4"
        },
        {
            "type": "Feature",
            "geometry": {
                "type": "Point",
                "coordinates": [
                    33.0793715,
                    -111.97681988
                ]
            },
            "properties": {
                "sc_label": "p10-2",
                "SOIL_DATE": "04/18/2022",
                "SLPHW": {
                    "20": 8.1,
                    "60": 8.2,
                    "100": 8.1,
                    "140": 8.1,
                    "180": 8.1
                },
                "SLPHB": {
                    "20": 7.2,
                    "60": 7.2,
                    "100": 7.2,
                    "140": 7.2,
                    "180": 7.2
                },
                "SLEC": {
                    "20": 0.61,
                    "60": 1.1,
                    "100": 2.04,
                    "140": 1.21,
                    "180": 0.96
                },
                "SLOM": {
                    "20": 1.4,
                    "60": 0.8,
                    "100": 0.9,
                    "140": 1.0,
                    "180": 1.0
                },
                "SNO3": {
                    "20": 3.1,
                    "60": 2.7,
                    "100": 4.2,
                    "140": 2.7,
                    "180": 2.3
                },
                "SLPX": {
                    "20": 9.1,
                    "60": 8.0,
                    "100": 8.1,
                    "140": 8.1,
                    "180": 8.4
                },
                "SLKE": {
                    "20": 287,
                    "60": 152,
                    "100": 136,
                    "140": 129,
                    "180": 111
                },
                "SLSU": {
                    "20": 81.6,
                    "60": 162.1,
                    "100": 183.7,
                    "140": 229.9,
                    "180": 130.6
                },
                "SLZN": {
                    "20": 1.43,
                    "60": 0.4,
                    "100": 0.42,
                    "140": 0.35,
                    "180": 0.48
                },
                "SLFE": {
                    "20": 8.3,
                    "60": 7.8,
                    "100": 6.5,
                    "140": 9.5,
                    "180": 6.2
                },
                "SLMN": {
                    "20": 13.6,
                    "60": 6.9,
                    "100": 5.8,
                    "140": 3.7,
                    "180": 6.2
                },
                "SLCU": {
                    "20": 2.93,
                    "60": 1.73,
                    "100": 1.04,
                    "140": 0.77,
                    "180": 0.88
                },
                "SLCA": {
                    "20": 1964,
                    "60": 2985,
                    "100": 3909,
                    "140": 3955,
                    "180": 3702
                },
                "SLMG": {
                    "20": 209,
                    "60": 237,
                    "100": 255,
                    "140": 282,
                    "180": 257
                },
                "SLNA": {
                    "20": 393,
                    "60": 675,
                    "100": 637,
                    "140": 456,
                    "180": 302
                },
                "SLCEC": {
                    "20": 14.0,
                    "60": 20.2,
                    "100": 24.8,
                    "140": 24.4,
                    "180": 22.2
                }
            },
            "_id": "67ed44ae8ac547980cae4df5",
            "scid": "67ed44ae8ac547980cae4df5"
        },
        {
            "type": "Feature",
            "geometry": {
                "type": "Point",
                "coordinates": [
                    33.07864921,
                    -111.97667254
                ]
            },
            "properties": {
                "sc_label": "p11-4",
                "SOIL_DATE": "04/18/2022",
                "SLPHW": {
                    "20": 8.3,
                    "60": 8.8,
                    "100": 8.8,
                    "140": 8.4,
                    "180": 8.1
                },
                "SLPHB": {
                    "20": 7.2,
                    "60": 7.2,
                    "100": 7.2,
                    "140": 7.2,
                    "180": 7.2
                },
                "SLEC": {
                    "20": 0.49,
                    "60": 0.72,
                    "100": 0.86,
                    "140": 1.15,
                    "180": 1.45
                },
                "SLOM": {
                    "20": 1.3,
                    "60": 0.9,
                    "100": 0.8,
                    "140": 0.7,
                    "180": 0.9
                },
                "SNO3": {
                    "20": 7.7,
                    "60": 2.8,
                    "100": 6.0,
                    "140": 9.1,
                    "180": 6.3
                },
                "SLPX": {
                    "20": 8.7,
                    "60": 8.0,
                    "100": 8.0,
                    "140": 8.2,
                    "180": 8.0
                },
                "SLKE": {
                    "20": 220,
                    "60": 99,
                    "100": 85,
                    "140": 79,
                    "180": 70
                },
                "SLSU": {
                    "20": 35.4,
                    "60": 43.0,
                    "100": 91.3,
                    "140": 172.6,
                    "180": 168.6
                },
                "SLZN": {
                    "20": 1.2,
                    "60": 0.4,
                    "100": 0.3,
                    "140": 0.16,
                    "180": 0.29
                },
                "SLFE": {
                    "20": 7.8,
                    "60": 6.5,
                    "100": 5.2,
                    "140": 4.1,
                    "180": 5.1
                },
                "SLMN": {
                    "20": 15.5,
                    "60": 5.2,
                    "100": 3.2,
                    "140": 1.9,
                    "180": 2.9
                },
                "SLCU": {
                    "20": 3.02,
                    "60": 1.43,
                    "100": 0.67,
                    "140": 0.36,
                    "180": 0.46
                },
                "SLCA": {
                    "20": 2352,
                    "60": 3517,
                    "100": 3517,
                    "140": 3667,
                    "180": 3620
                },
                "SLMG": {
                    "20": 179,
                    "60": 195,
                    "100": 186,
                    "140": 221,
                    "180": 205
                },
                "SLNA": {
                    "20": 220,
                    "60": 461,
                    "100": 469,
                    "140": 434,
                    "180": 287
                },
                "SLCEC": {
                    "20": 14.8,
                    "60": 21.5,
                    "100": 21.4,
                    "140": 22.3,
                    "180": 21.2
                }
            },
            "_id": "67ed44ae8ac547980cae4df6",
            "scid": "67ed44ae8ac547980cae4df6"
        }
    ]
}