{
    "type": "Feature",
    "geometry": {
        "type": "Polygon",
        "coordinates": [
            [
                [
                    -111.97812005,
                    33.0796035
                ],
                [
                    -111.97825101,
                    33.07960415
                ],
                [
                    -111.97824912,
                    33.07987479
                ],
                [
                    -111.97811816,
                    33.07987414
                ],
                [
                    -111.97812005,
                    33.0796035
                ]
            ]
        ]
    },
    "properties": {
        "plt_label": "p01-1",
        "trt_label": "FAO_NG4936",
        "PLT_AREA": 366.810188,
        "HARM": "Machine",
        "HADAT": "11/16/2022",
        "WBWAH": 4328.2,
        "BWCAH": 6.51,
        "DBWAH": 4046.4,
        "GNDAT": "11/17/2022",
        "FFRAC": 0.3303,
        "SFRAC": 0.5559,
        "TFRAC": 0.1138,
        "WFWAH": 1429.7,
        "WSWAH": 2406.0,
        "WSCWAH": 3835.7,
        "DFWAH": 1336.7,
        "DSWAH": 2249.3,
        "DSCWAH": 3586.0,
        "QLDAT": "02/23/2023",
        "FBMIC": 45.2,
        "FBLTH": 1.184,
        "FBUNI": 80.6,
        "FBSTR": 29.0,
        "FBELO": 6.3,
        "FBCRD": 80.7,
        "FBCLB": 8.1,
        "FBTCT": 8.0,
        "FBTAR": 0.2,
        "FBSFI": 9.0,
        "haids": [
            "642229b48ac5472778a6fd5d",
            "642229b48ac5472778a6fd5e",
            "642229b48ac5472778a6fd5f",
            "642229b48ac5472778a6fd60",
            "642229b48ac5472778a6fd61",
            "642229b48ac5472778a6fd62"
        ],
        "tids": [
            "642234bc8ac5472aca1a30a8"
        ],
        "chids": [
            "64223bcc8ac5472d7b94338c",
            "64223bcc8ac5472d7b94338d",
            "64223bcc8ac5472d7b94338e"
        ]
    },
    "_id": "641e34c68ac547efd644622c",
    "pid": "641e34c68ac547efd644622c"
}{
    "type": "Feature",
    "geometry": {
        "type": "Polygon",
        "coordinates": [
            [
                [
                    -111.97812257,
                    33.07924267
                ],
                [
                    -111.97825353,
                    33.07924332
                ],
                [
                    -111.97825164,
                    33.07951396
                ],
                [
                    -111.97812068,
                    33.07951331
                ],
                [
                    -111.97812257,
                    33.07924267
                ]
            ]
        ]
    },
    "properties": {
        "plt_label": "p01-2",
        "trt_label": "FAOSWC_NG4936",
        "PLT_AREA": 366.810125,
        "HARM": "Machine",
        "HADAT": "11/16/2022",
        "WBWAH": 3409.2,
        "BWCAH": 5.03,
        "DBWAH": 3237.7,
        "GNDAT": "11/17/2022",
        "FFRAC": 0.3299,
        "SFRAC": 0.5663,
        "TFRAC": 0.1038,
        "WFWAH": 1124.6,
        "WSWAH": 1930.7,
        "WSCWAH": 3055.3,
        "DFWAH": 1068.0,
        "DSWAH": 1833.5,
        "DSCWAH": 2901.5,
        "QLDAT": "02/23/2023",
        "FBMIC": 48.6,
        "FBLTH": 1.13,
        "FBUNI": 80.6,
        "FBSTR": 29.4,
        "FBELO": 6.0,
        "FBCRD": 79.3,
        "FBCLB": 8.8,
        "FBTCT": 7.0,
        "FBTAR": 0.09,
        "FBSFI": 9.4,
        "haids": [
            "642229b48ac5472778a6fd63",
            "642229b48ac5472778a6fd64",
            "642229b48ac5472778a6fd65",
            "642229b48ac5472778a6fd66",
            "642229b48ac5472778a6fd67",
            "642229b48ac5472778a6fd68"
        ],
        "tids": [
            "642234bc8ac5472aca1a30a9"
        ],
        "chids": [
            "64223bcc8ac5472d7b94338f",
            "64223bcc8ac5472d7b943390",
            "64223bcc8ac5472d7b943391"
        ]
    },
    "_id": "641e34c68ac547efd644622d",
    "pid": "641e34c68ac547efd644622d"
}{
    "type": "Feature",
    "geometry": {
        "type": "Polygon",
        "coordinates": [
            [
                [
                    -111.97812509,
                    33.07888184
                ],
                [
                    -111.97825604,
                    33.07888248
                ],
                [
                    -111.97825416,
                    33.07915313
                ],
                [
                    -111.9781232,
                    33.07915248
                ],
                [
                    -111.97812509,
                    33.07888184
                ]
            ]
        ]
    },
    "properties": {
        "plt_label": "p01-3",
        "trt_label": "AQCSWC_NG4936",
        "PLT_AREA": 366.81014,
        "HARM": "Machine",
        "HADAT": "11/16/2022",
        "WBWAH": 2229.9,
        "BWCAH": 6.85,
        "DBWAH": 2077.1,
        "GNDAT": "11/17/2022",
        "FFRAC": 0.316,
        "SFRAC": 0.5469,
        "TFRAC": 0.1371,
        "WFWAH": 704.6,
        "WSWAH": 1219.5,
        "WSCWAH": 1924.1,
        "DFWAH": 656.3,
        "DSWAH": 1136.0,
        "DSCWAH": 1792.3,
        "QLDAT": "02/23/2023",
        "FBMIC": 45.5,
        "FBLTH": 1.076,
        "FBUNI": 79.5,
        "FBSTR": 27.2,
        "FBELO": 5.9,
        "FBCRD": 78.1,
        "FBCLB": 8.7,
        "FBTCT": 14.0,
        "FBTAR": 0.16,
        "FBSFI": 10.4,
        "haids": [
            "642229b48ac5472778a6fd69",
            "642229b48ac5472778a6fd6a",
            "642229b48ac5472778a6fd6b",
            "642229b48ac5472778a6fd6c",
            "642229b48ac5472778a6fd6d",
            "642229b48ac5472778a6fd6e"
        ],
        "tids": [
            "642234bc8ac5472aca1a30aa"
        ],
        "chids": [
            "64223bcc8ac5472d7b943392",
            "64223bcc8ac5472d7b943393",
            "64223bcc8ac5472d7b943394"
        ]
    },
    "_id": "641e34c68ac547efd644622e",
    "pid": "641e34c68ac547efd644622e"
}{
    "type": "Feature",
    "geometry": {
        "type": "Polygon",
        "coordinates": [
            [
                [
                    -111.97812761,
                    33.078521
                ],
                [
                    -111.97825856,
                    33.07852165
                ],
                [
                    -111.97825667,
                    33.07879229
                ],
                [
                    -111.97812572,
                    33.07879164
                ],
                [
                    -111.97812761,
                    33.078521
                ]
            ]
        ]
    },
    "properties": {
        "plt_label": "p01-4",
        "trt_label": "CSM_NG4936",
        "PLT_AREA": 366.810114,
        "HARM": "Machine",
        "HADAT": "11/16/2022",
        "WBWAH": 4391.4,
        "BWCAH": 6.28,
        "DBWAH": 4115.7,
        "GNDAT": "11/17/2022",
        "FFRAC": 0.3234,
        "SFRAC": 0.5664,
        "TFRAC": 0.1102,
        "WFWAH": 1420.1,
        "WSWAH": 2487.4,
        "WSCWAH": 3907.5,
        "DFWAH": 1330.9,
        "DSWAH": 2331.2,
        "DSCWAH": 3662.2,
        "QLDAT": "02/23/2023",
        "FBMIC": 45.4,
        "FBLTH": 1.181,
        "FBUNI": 80.2,
        "FBSTR": 29.6,
        "FBELO": 6.4,
        "FBCRD": 80.4,
        "FBCLB": 8.0,
        "FBTCT": 12.0,
        "FBTAR": 0.14,
        "FBSFI": 9.0,
        "haids": [
            "642229b48ac5472778a6fd6f",
            "642229b48ac5472778a6fd70",
            "642229b48ac5472778a6fd71",
            "642229b48ac5472778a6fd72",
            "642229b48ac5472778a6fd73",
            "642229b48ac5472778a6fd74"
        ],
        "tids": [
            "642234bc8ac5472aca1a30ab"
        ],
        "chids": [
            "64223bcc8ac5472d7b943395",
            "64223bcc8ac5472d7b943396",
            "64223bcc8ac5472d7b943397"
        ]
    },
    "_id": "641e34c68ac547efd644622f",
    "pid": "641e34c68ac547efd644622f"
}{
    "type": "Feature",
    "geometry": {
        "type": "Polygon",
        "coordinates": [
            [
                [
                    -111.97796767,
                    33.07960275
                ],
                [
                    -111.97809863,
                    33.0796034
                ],
                [
                    -111.97809674,
                    33.07987404
                ],
                [
                    -111.97796578,
                    33.07987339
                ],
                [
                    -111.97796767,
                    33.07960275
                ]
            ]
        ]
    },
    "properties": {
        "plt_label": "p02-1",
        "trt_label": "FAO_NG3195",
        "PLT_AREA": 366.81014,
        "HARM": "Machine",
        "HADAT": "11/16/2022",
        "WBWAH": 5616.6,
        "BWCAH": 5.95,
        "DBWAH": 5282.2,
        "GNDAT": "11/17/2022",
        "FFRAC": 0.3608,
        "SFRAC": 0.4804,
        "TFRAC": 0.1588,
        "WFWAH": 2026.2,
        "WSWAH": 2698.4,
        "WSCWAH": 4724.6,
        "DFWAH": 1905.6,
        "DSWAH": 2537.7,
        "DSCWAH": 4443.3,
        "QLDAT": "02/23/2023",
        "FBMIC": 46.2,
        "FBLTH": 1.138,
        "FBUNI": 81.5,
        "FBSTR": 30.6,
        "FBELO": 5.5,
        "FBCRD": 79.1,
        "FBCLB": 8.7,
        "FBTCT": 12.0,
        "FBTAR": 0.21,
        "FBSFI": 8.6,
        "haids": [
            "642229b48ac5472778a6fd75",
            "642229b48ac5472778a6fd76",
            "642229b48ac5472778a6fd77",
            "642229b48ac5472778a6fd78",
            "642229b48ac5472778a6fd79",
            "642229b48ac5472778a6fd7a"
        ],
        "tids": [
            "642234bc8ac5472aca1a30ac"
        ],
        "chids": [
            "64223bcc8ac5472d7b943398",
            "64223bcc8ac5472d7b943399",
            "64223bcc8ac5472d7b94339a"
        ]
    },
    "_id": "641e34c68ac547efd6446230",
    "pid": "641e34c68ac547efd6446230"
}{
    "type": "Feature",
    "geometry": {
        "type": "Polygon",
        "coordinates": [
            [
                [
                    -111.97797019,
                    33.07924191
                ],
                [
                    -111.97810114,
                    33.07924256
                ],
                [
                    -111.97809925,
                    33.0795132
                ],
                [
                    -111.9779683,
                    33.07951256
                ],
                [
                    -111.97797019,
                    33.07924191
                ]
            ]
        ]
    },
    "properties": {
        "plt_label": "p02-2",
        "trt_label": "FAOSWC_NG3195",
        "PLT_AREA": 366.810125,
        "HARM": "Machine",
        "HADAT": "11/16/2022",
        "WBWAH": 3737.8,
        "BWCAH": 5.75,
        "DBWAH": 3522.8,
        "GNDAT": "11/17/2022",
        "FFRAC": 0.3799,
        "SFRAC": 0.5124,
        "TFRAC": 0.1077,
        "WFWAH": 1420.1,
        "WSWAH": 1915.3,
        "WSCWAH": 3335.4,
        "DFWAH": 1338.4,
        "DSWAH": 1805.2,
        "DSCWAH": 3143.5,
        "QLDAT": "02/23/2023",
        "FBMIC": 48.2,
        "FBLTH": 1.087,
        "FBUNI": 80.6,
        "FBSTR": 29.1,
        "FBELO": 5.4,
        "FBCRD": 78.1,
        "FBCLB": 9.8,
        "FBTCT": 13.0,
        "FBTAR": 0.16,
        "FBSFI": 9.1,
        "haids": [
            "642229b48ac5472778a6fd7b",
            "642229b48ac5472778a6fd7c",
            "642229b48ac5472778a6fd7d",
            "642229b48ac5472778a6fd7e",
            "642229b48ac5472778a6fd7f",
            "642229b48ac5472778a6fd80"
        ],
        "tids": [
            "642234bc8ac5472aca1a30ad"
        ],
        "chids": [
            "64223bcc8ac5472d7b94339b",
            "64223bcc8ac5472d7b94339c",
            "64223bcc8ac5472d7b94339d"
        ]
    },
    "_id": "641e34c68ac547efd6446231",
    "pid": "641e34c68ac547efd6446231"
}{
    "type": "Feature",
    "geometry": {
        "type": "Polygon",
        "coordinates": [
            [
                [
                    -111.9779727,
                    33.07888108
                ],
                [
                    -111.97810366,
                    33.07888173
                ],
                [
                    -111.97810177,
                    33.07915237
                ],
                [
                    -111.97797082,
                    33.07915172
                ],
                [
                    -111.9779727,
                    33.07888108
                ]
            ]
        ]
    },
    "properties": {
        "plt_label": "p02-3",
        "trt_label": "AQCSWC_NG3195",
        "PLT_AREA": 366.810125,
        "HARM": "Machine",
        "HADAT": "11/16/2022",
        "WBWAH": 3034.6,
        "BWCAH": 5.54,
        "DBWAH": 2866.5,
        "GNDAT": "11/17/2022",
        "FFRAC": 0.3733,
        "SFRAC": 0.5026,
        "TFRAC": 0.1241,
        "WFWAH": 1132.9,
        "WSWAH": 1525.1,
        "WSCWAH": 2658.1,
        "DFWAH": 1070.2,
        "DSWAH": 1440.6,
        "DSCWAH": 2510.8,
        "QLDAT": "02/23/2023",
        "FBMIC": 50.8,
        "FBLTH": 1.02,
        "FBUNI": 79.1,
        "FBSTR": 26.6,
        "FBELO": 5.4,
        "FBCRD": 77.2,
        "FBCLB": 9.5,
        "FBTCT": 12.0,
        "FBTAR": 0.23,
        "FBSFI": 10.8,
        "haids": [
            "642229b48ac5472778a6fd81",
            "642229b48ac5472778a6fd82",
            "642229b48ac5472778a6fd83",
            "642229b48ac5472778a6fd84",
            "642229b48ac5472778a6fd85",
            "642229b48ac5472778a6fd86"
        ],
        "tids": [
            "642234bc8ac5472aca1a30ae"
        ],
        "chids": [
            "64223bcc8ac5472d7b94339e",
            "64223bcc8ac5472d7b94339f",
            "64223bcc8ac5472d7b9433a0"
        ]
    },
    "_id": "641e34c68ac547efd6446232",
    "pid": "641e34c68ac547efd6446232"
}{
    "type": "Feature",
    "geometry": {
        "type": "Polygon",
        "coordinates": [
            [
                [
                    -111.97797522,
                    33.07852025
                ],
                [
                    -111.97810618,
                    33.0785209
                ],
                [
                    -111.97810429,
                    33.07879154
                ],
                [
                    -111.97797333,
                    33.07879089
                ],
                [
                    -111.97797522,
                    33.07852025
                ]
            ]
        ]
    },
    "properties": {
        "plt_label": "p02-4",
        "trt_label": "CSM_NG3195",
        "PLT_AREA": 366.81014,
        "HARM": "Machine",
        "HADAT": "11/16/2022",
        "WBWAH": 4898.6,
        "BWCAH": 6.02,
        "DBWAH": 4603.7,
        "GNDAT": "11/17/2022",
        "FFRAC": 0.3688,
        "SFRAC": 0.5069,
        "TFRAC": 0.1243,
        "WFWAH": 1806.7,
        "WSWAH": 2483.0,
        "WSCWAH": 4289.8,
        "DFWAH": 1698.0,
        "DSWAH": 2333.5,
        "DSCWAH": 4031.5,
        "QLDAT": "02/23/2023",
        "FBMIC": 46.9,
        "FBLTH": 1.095,
        "FBUNI": 80.3,
        "FBSTR": 30.8,
        "FBELO": 5.4,
        "FBCRD": 79.2,
        "FBCLB": 9.1,
        "FBTCT": 14.0,
        "FBTAR": 0.17,
        "FBSFI": 9.6,
        "haids": [
            "642229b48ac5472778a6fd87",
            "642229b48ac5472778a6fd88",
            "642229b48ac5472778a6fd89",
            "642229b48ac5472778a6fd8a",
            "642229b48ac5472778a6fd8b",
            "642229b48ac5472778a6fd8c"
        ],
        "tids": [
            "642234bc8ac5472aca1a30af"
        ],
        "chids": [
            "64223bcc8ac5472d7b9433a1",
            "64223bcc8ac5472d7b9433a2",
            "64223bcc8ac5472d7b9433a3"
        ]
    },
    "_id": "641e34c68ac547efd6446233",
    "pid": "641e34c68ac547efd6446233"
}{
    "type": "Feature",
    "geometry": {
        "type": "Polygon",
        "coordinates": [
            [
                [
                    -111.97781528,
                    33.07960199
                ],
                [
                    -111.97794624,
                    33.07960264
                ],
                [
                    -111.97794435,
                    33.07987328
                ],
                [
                    -111.97781339,
                    33.07987263
                ],
                [
                    -111.97781528,
                    33.07960199
                ]
            ]
        ]
    },
    "properties": {
        "plt_label": "p03-1",
        "trt_label": "CSM_NG4936",
        "PLT_AREA": 366.810129,
        "HARM": "Machine",
        "HADAT": "11/16/2022",
        "WBWAH": 5948.9,
        "BWCAH": 6.02,
        "DBWAH": 5590.8,
        "GNDAT": "11/17/2022",
        "FFRAC": 0.3264,
        "SFRAC": 0.5481,
        "TFRAC": 0.1255,
        "WFWAH": 1941.9,
        "WSWAH": 3260.6,
        "WSCWAH": 5202.5,
        "DFWAH": 1825.0,
        "DSWAH": 3064.3,
        "DSCWAH": 4889.4,
        "QLDAT": "02/23/2023",
        "FBMIC": 44.8,
        "FBLTH": 1.164,
        "FBUNI": 81.0,
        "FBSTR": 29.4,
        "FBELO": 6.2,
        "FBCRD": 80.5,
        "FBCLB": 8.4,
        "FBTCT": 12.0,
        "FBTAR": 0.14,
        "FBSFI": 9.0,
        "haids": [
            "642229b48ac5472778a6fd8d",
            "642229b48ac5472778a6fd8e",
            "642229b48ac5472778a6fd8f",
            "642229b48ac5472778a6fd90",
            "642229b48ac5472778a6fd91",
            "642229b48ac5472778a6fd92"
        ],
        "tids": [
            "642234bc8ac5472aca1a30b0"
        ],
        "chids": [
            "64223bcc8ac5472d7b9433a4",
            "64223bcc8ac5472d7b9433a5",
            "64223bcc8ac5472d7b9433a6"
        ]
    },
    "_id": "641e34c68ac547efd6446234",
    "pid": "641e34c68ac547efd6446234"
}{
    "type": "Feature",
    "geometry": {
        "type": "Polygon",
        "coordinates": [
            [
                [
                    -111.9778178,
                    33.07924116
                ],
                [
                    -111.97794876,
                    33.07924181
                ],
                [
                    -111.97794687,
                    33.07951245
                ],
                [
                    -111.97781591,
                    33.0795118
                ],
                [
                    -111.9778178,
                    33.07924116
                ]
            ]
        ]
    },
    "properties": {
        "plt_label": "p03-2",
        "trt_label": "CSMSWC_NG4936",
        "PLT_AREA": 366.81014,
        "HARM": "Machine",
        "HADAT": "11/16/2022",
        "WBWAH": 5297.8,
        "BWCAH": 5.58,
        "DBWAH": 5002.2,
        "GNDAT": "11/17/2022",
        "FFRAC": 0.3354,
        "SFRAC": 0.5517,
        "TFRAC": 0.1129,
        "WFWAH": 1777.0,
        "WSWAH": 2922.9,
        "WSCWAH": 4700.0,
        "DFWAH": 1677.9,
        "DSWAH": 2759.8,
        "DSCWAH": 4437.7,
        "QLDAT": "02/23/2023",
        "FBMIC": 44.8,
        "FBLTH": 1.166,
        "FBUNI": 80.2,
        "FBSTR": 28.8,
        "FBELO": 6.4,
        "FBCRD": 81.3,
        "FBCLB": 8.4,
        "FBTCT": 9.0,
        "FBTAR": 0.08,
        "FBSFI": 9.3,
        "haids": [
            "642229b48ac5472778a6fd93",
            "642229b48ac5472778a6fd94",
            "642229b48ac5472778a6fd95",
            "642229b48ac5472778a6fd96",
            "642229b48ac5472778a6fd97",
            "642229b48ac5472778a6fd98"
        ],
        "tids": [
            "642234bc8ac5472aca1a30b1"
        ],
        "chids": [
            "64223bcc8ac5472d7b9433a7",
            "64223bcc8ac5472d7b9433a8",
            "64223bcc8ac5472d7b9433a9"
        ]
    },
    "_id": "641e34c68ac547efd6446235",
    "pid": "641e34c68ac547efd6446235"
}{
    "type": "Feature",
    "geometry": {
        "type": "Polygon",
        "coordinates": [
            [
                [
                    -111.97782032,
                    33.07888032
                ],
                [
                    -111.97795128,
                    33.07888097
                ],
                [
                    -111.97794939,
                    33.07915162
                ],
                [
                    -111.97781843,
                    33.07915097
                ],
                [
                    -111.97782032,
                    33.07888032
                ]
            ]
        ]
    },
    "properties": {
        "plt_label": "p03-3",
        "trt_label": "AQC_NG4936",
        "PLT_AREA": 366.810125,
        "HARM": "Machine",
        "HADAT": "11/16/2022",
        "WBWAH": 4211.5,
        "BWCAH": 5.74,
        "DBWAH": 3969.6,
        "GNDAT": "11/17/2022",
        "FFRAC": 0.3287,
        "SFRAC": 0.5509,
        "TFRAC": 0.1203,
        "WFWAH": 1384.5,
        "WSWAH": 2320.2,
        "WSCWAH": 3704.7,
        "DFWAH": 1305.0,
        "DSWAH": 2187.0,
        "DSCWAH": 3492.0,
        "QLDAT": "02/23/2023",
        "FBMIC": 46.4,
        "FBLTH": 1.128,
        "FBUNI": 80.2,
        "FBSTR": 29.2,
        "FBELO": 6.0,
        "FBCRD": 80.3,
        "FBCLB": 8.4,
        "FBTCT": 12.0,
        "FBTAR": 0.12,
        "FBSFI": 10.0,
        "haids": [
            "642229b48ac5472778a6fd99",
            "642229b48ac5472778a6fd9a",
            "642229b48ac5472778a6fd9b",
            "642229b48ac5472778a6fd9c",
            "642229b48ac5472778a6fd9d",
            "642229b48ac5472778a6fd9e"
        ],
        "tids": [
            "642234bc8ac5472aca1a30b2"
        ],
        "chids": [
            "64223bcc8ac5472d7b9433aa",
            "64223bcc8ac5472d7b9433ab",
            "64223bcc8ac5472d7b9433ac"
        ]
    },
    "_id": "641e34c68ac547efd6446236",
    "pid": "641e34c68ac547efd6446236"
}{
    "type": "Feature",
    "geometry": {
        "type": "Polygon",
        "coordinates": [
            [
                [
                    -111.97782284,
                    33.07851949
                ],
                [
                    -111.9779538,
                    33.07852014
                ],
                [
                    -111.97795191,
                    33.07879078
                ],
                [
                    -111.97782095,
                    33.07879013
                ],
                [
                    -111.97782284,
                    33.07851949
                ]
            ]
        ]
    },
    "properties": {
        "plt_label": "p03-4",
        "trt_label": "FAO_NG4936",
        "PLT_AREA": 366.810129,
        "HARM": "Machine",
        "HADAT": "11/16/2022",
        "WBWAH": 5573.1,
        "BWCAH": 5.94,
        "DBWAH": 5242.1,
        "GNDAT": "11/17/2022",
        "FFRAC": 0.3309,
        "SFRAC": 0.5496,
        "TFRAC": 0.1195,
        "WFWAH": 1844.1,
        "WSWAH": 3062.8,
        "WSCWAH": 4906.9,
        "DFWAH": 1734.6,
        "DSWAH": 2880.9,
        "DSCWAH": 4615.5,
        "QLDAT": "02/23/2023",
        "FBMIC": 43.6,
        "FBLTH": 1.182,
        "FBUNI": 80.6,
        "FBSTR": 30.1,
        "FBELO": 6.2,
        "FBCRD": 80.8,
        "FBCLB": 8.2,
        "FBTCT": 20.0,
        "FBTAR": 0.24,
        "FBSFI": 9.1,
        "haids": [
            "642229b48ac5472778a6fd9f",
            "642229b48ac5472778a6fda0",
            "642229b48ac5472778a6fda1",
            "642229b48ac5472778a6fda2",
            "642229b48ac5472778a6fda3",
            "642229b48ac5472778a6fda4"
        ],
        "tids": [
            "642234bc8ac5472aca1a30b3"
        ],
        "chids": [
            "64223bcc8ac5472d7b9433ad",
            "64223bcc8ac5472d7b9433ae",
            "64223bcc8ac5472d7b9433af"
        ]
    },
    "_id": "641e34c68ac547efd6446237",
    "pid": "641e34c68ac547efd6446237"
}{
    "type": "Feature",
    "geometry": {
        "type": "Polygon",
        "coordinates": [
            [
                [
                    -111.97766292,
                    33.07960124
                ],
                [
                    -111.97779386,
                    33.07960189
                ],
                [
                    -111.97779197,
                    33.07987253
                ],
                [
                    -111.97766103,
                    33.07987188
                ],
                [
                    -111.97766292,
                    33.07960124
                ]
            ]
        ]
    },
    "properties": {
        "plt_label": "p04-1",
        "trt_label": "CSM_NG3195",
        "PLT_AREA": 366.761265,
        "HARM": "Machine",
        "HADAT": "11/16/2022",
        "WBWAH": 5848.4,
        "BWCAH": 5.12,
        "DBWAH": 5549.0,
        "GNDAT": "11/17/2022",
        "FFRAC": 0.3561,
        "SFRAC": 0.5096,
        "TFRAC": 0.1344,
        "WFWAH": 2082.4,
        "WSWAH": 2980.3,
        "WSCWAH": 5062.7,
        "DFWAH": 1975.8,
        "DSWAH": 2827.7,
        "DSCWAH": 4803.5,
        "QLDAT": "02/23/2023",
        "FBMIC": 47.9,
        "FBLTH": 1.133,
        "FBUNI": 81.2,
        "FBSTR": 30.8,
        "FBELO": 5.4,
        "FBCRD": 79.6,
        "FBCLB": 9.0,
        "FBTCT": 14.0,
        "FBTAR": 0.15,
        "FBSFI": 8.5,
        "haids": [
            "642229b48ac5472778a6fda5",
            "642229b48ac5472778a6fda6",
            "642229b48ac5472778a6fda7",
            "642229b48ac5472778a6fda8",
            "642229b48ac5472778a6fda9",
            "642229b48ac5472778a6fdaa"
        ],
        "tids": [
            "642234bc8ac5472aca1a30b4"
        ],
        "chids": [
            "64223bcc8ac5472d7b9433b0",
            "64223bcc8ac5472d7b9433b1",
            "64223bcc8ac5472d7b9433b2"
        ]
    },
    "_id": "641e34c68ac547efd6446238",
    "pid": "641e34c68ac547efd6446238"
}{
    "type": "Feature",
    "geometry": {
        "type": "Polygon",
        "coordinates": [
            [
                [
                    -111.97766543,
                    33.0792404
                ],
                [
                    -111.97779638,
                    33.07924105
                ],
                [
                    -111.97779449,
                    33.07951169
                ],
                [
                    -111.97766354,
                    33.07951104
                ],
                [
                    -111.97766543,
                    33.0792404
                ]
            ]
        ]
    },
    "properties": {
        "plt_label": "p04-2",
        "trt_label": "CSMSWC_NG3195",
        "PLT_AREA": 366.769275,
        "HARM": "Machine",
        "HADAT": "11/16/2022",
        "WBWAH": 4453.3,
        "BWCAH": 5.35,
        "DBWAH": 4215.1,
        "GNDAT": "11/17/2022",
        "FFRAC": 0.3617,
        "SFRAC": 0.5174,
        "TFRAC": 0.1209,
        "WFWAH": 1610.7,
        "WSWAH": 2304.1,
        "WSCWAH": 3914.7,
        "DFWAH": 1524.5,
        "DSWAH": 2180.8,
        "DSCWAH": 3705.4,
        "QLDAT": "02/23/2023",
        "FBMIC": 48.8,
        "FBLTH": 1.099,
        "FBUNI": 81.1,
        "FBSTR": 30.2,
        "FBELO": 5.2,
        "FBCRD": 78.6,
        "FBCLB": 9.2,
        "FBTCT": 10.0,
        "FBTAR": 0.11,
        "FBSFI": 8.8,
        "haids": [
            "642229b48ac5472778a6fdab",
            "642229b48ac5472778a6fdac",
            "642229b48ac5472778a6fdad",
            "642229b48ac5472778a6fdae",
            "642229b48ac5472778a6fdaf",
            "642229b48ac5472778a6fdb0"
        ],
        "tids": [
            "642234bc8ac5472aca1a30b5"
        ],
        "chids": [
            "64223bcc8ac5472d7b9433b3",
            "64223bcc8ac5472d7b9433b4",
            "64223bcc8ac5472d7b9433b5"
        ]
    },
    "_id": "641e34c68ac547efd6446239",
    "pid": "641e34c68ac547efd6446239"
}{
    "type": "Feature",
    "geometry": {
        "type": "Polygon",
        "coordinates": [
            [
                [
                    -111.97766795,
                    33.07887957
                ],
                [
                    -111.9777989,
                    33.07888022
                ],
                [
                    -111.97779701,
                    33.07915086
                ],
                [
                    -111.97766606,
                    33.07915021
                ],
                [
                    -111.97766795,
                    33.07887957
                ]
            ]
        ]
    },
    "properties": {
        "plt_label": "p04-3",
        "trt_label": "AQC_NG3195",
        "PLT_AREA": 366.777232,
        "HARM": "Machine",
        "HADAT": "11/16/2022",
        "WBWAH": 4717.4,
        "BWCAH": 5.66,
        "DBWAH": 4450.6,
        "GNDAT": "11/17/2022",
        "FFRAC": 0.356,
        "SFRAC": 0.5185,
        "TFRAC": 0.1255,
        "WFWAH": 1679.5,
        "WSWAH": 2446.1,
        "WSCWAH": 4125.6,
        "DFWAH": 1584.5,
        "DSWAH": 2307.8,
        "DSCWAH": 3892.3,
        "QLDAT": "02/23/2023",
        "FBMIC": 47.5,
        "FBLTH": 1.08,
        "FBUNI": 80.2,
        "FBSTR": 30.0,
        "FBELO": 5.2,
        "FBCRD": 78.4,
        "FBCLB": 9.0,
        "FBTCT": 14.0,
        "FBTAR": 0.21,
        "FBSFI": 9.8,
        "haids": [
            "642229b48ac5472778a6fdb1",
            "642229b48ac5472778a6fdb2",
            "642229b48ac5472778a6fdb3",
            "642229b48ac5472778a6fdb4",
            "642229b48ac5472778a6fdb5",
            "642229b48ac5472778a6fdb6"
        ],
        "tids": [
            "642234bc8ac5472aca1a30b6"
        ],
        "chids": [
            "64223bcc8ac5472d7b9433b6",
            "64223bcc8ac5472d7b9433b7",
            "64223bcc8ac5472d7b9433b8"
        ]
    },
    "_id": "641e34c68ac547efd644623a",
    "pid": "641e34c68ac547efd644623a"
}{
    "type": "Feature",
    "geometry": {
        "type": "Polygon",
        "coordinates": [
            [
                [
                    -111.97767047,
                    33.07851873
                ],
                [
                    -111.97780141,
                    33.07851938
                ],
                [
                    -111.97779953,
                    33.07879003
                ],
                [
                    -111.97766858,
                    33.07878938
                ],
                [
                    -111.97767047,
                    33.07851873
                ]
            ]
        ]
    },
    "properties": {
        "plt_label": "p04-4",
        "trt_label": "FAO_NG3195",
        "PLT_AREA": 366.785228,
        "HARM": "Machine",
        "HADAT": "11/16/2022",
        "WBWAH": 5666.1,
        "BWCAH": 5.38,
        "DBWAH": 5361.2,
        "GNDAT": "11/17/2022",
        "FFRAC": 0.3602,
        "SFRAC": 0.5076,
        "TFRAC": 0.1322,
        "WFWAH": 2041.2,
        "WSWAH": 2876.0,
        "WSCWAH": 4917.2,
        "DFWAH": 1931.3,
        "DSWAH": 2721.2,
        "DSCWAH": 4652.5,
        "QLDAT": "02/23/2023",
        "FBMIC": 46.3,
        "FBLTH": 1.111,
        "FBUNI": 80.8,
        "FBSTR": 30.6,
        "FBELO": 5.4,
        "FBCRD": 79.6,
        "FBCLB": 8.8,
        "FBTCT": 19.0,
        "FBTAR": 0.34,
        "FBSFI": 9.1,
        "haids": [
            "642229b48ac5472778a6fdb7",
            "642229b48ac5472778a6fdb8",
            "642229b48ac5472778a6fdb9",
            "642229b48ac5472778a6fdba",
            "642229b48ac5472778a6fdbb",
            "642229b48ac5472778a6fdbc"
        ],
        "tids": [
            "642234bc8ac5472aca1a30b7"
        ],
        "chids": [
            "64223bcc8ac5472d7b9433b9",
            "64223bcc8ac5472d7b9433ba",
            "64223bcc8ac5472d7b9433bb"
        ]
    },
    "_id": "641e34c68ac547efd644623b",
    "pid": "641e34c68ac547efd644623b"
}{
    "type": "Feature",
    "geometry": {
        "type": "Polygon",
        "coordinates": [
            [
                [
                    -111.97751144,
                    33.07960048
                ],
                [
                    -111.9776424,
                    33.07960113
                ],
                [
                    -111.97764051,
                    33.07987178
                ],
                [
                    -111.97750955,
                    33.07987113
                ],
                [
                    -111.97751144,
                    33.07960048
                ]
            ]
        ]
    },
    "properties": {
        "plt_label": "p05-1",
        "trt_label": "AQC_NG3195",
        "PLT_AREA": 366.810129,
        "HARM": "Machine",
        "HADAT": "11/16/2022",
        "WBWAH": 4666.7,
        "BWCAH": 5.27,
        "DBWAH": 4420.7,
        "GNDAT": "11/17/2022",
        "FFRAC": 0.3498,
        "SFRAC": 0.5189,
        "TFRAC": 0.1313,
        "WFWAH": 1632.4,
        "WSWAH": 2421.4,
        "WSCWAH": 4053.8,
        "DFWAH": 1546.4,
        "DSWAH": 2293.8,
        "DSCWAH": 3840.1,
        "QLDAT": "02/23/2023",
        "FBMIC": 47.2,
        "FBLTH": 1.078,
        "FBUNI": 79.4,
        "FBSTR": 28.8,
        "FBELO": 5.4,
        "FBCRD": 78.9,
        "FBCLB": 9.0,
        "FBTCT": 14.0,
        "FBTAR": 0.24,
        "FBSFI": 9.8,
        "haids": [
            "642229b48ac5472778a6fdbd",
            "642229b48ac5472778a6fdbe",
            "642229b48ac5472778a6fdbf",
            "642229b48ac5472778a6fdc0",
            "642229b48ac5472778a6fdc1",
            "642229b48ac5472778a6fdc2"
        ],
        "tids": [
            "642234bc8ac5472aca1a30b8"
        ],
        "chids": [
            "64223bcc8ac5472d7b9433bc",
            "64223bcc8ac5472d7b9433bd",
            "64223bcc8ac5472d7b9433be"
        ]
    },
    "_id": "641e34c68ac547efd644623c",
    "pid": "641e34c68ac547efd644623c"
}{
    "type": "Feature",
    "geometry": {
        "type": "Polygon",
        "coordinates": [
            [
                [
                    -111.97751396,
                    33.07923965
                ],
                [
                    -111.97764492,
                    33.0792403
                ],
                [
                    -111.97764303,
                    33.07951094
                ],
                [
                    -111.97751207,
                    33.07951029
                ],
                [
                    -111.97751396,
                    33.07923965
                ]
            ]
        ]
    },
    "properties": {
        "plt_label": "p05-2",
        "trt_label": "AQCSWC_NG3195",
        "PLT_AREA": 366.810125,
        "HARM": "Machine",
        "HADAT": "11/16/2022",
        "WBWAH": 4246.3,
        "BWCAH": 5.13,
        "DBWAH": 4028.5,
        "GNDAT": "11/17/2022",
        "FFRAC": 0.364,
        "SFRAC": 0.5108,
        "TFRAC": 0.1252,
        "WFWAH": 1545.5,
        "WSWAH": 2169.2,
        "WSCWAH": 3714.7,
        "DFWAH": 1466.3,
        "DSWAH": 2057.9,
        "DSCWAH": 3524.2,
        "QLDAT": "02/23/2023",
        "FBMIC": 49.1,
        "FBLTH": 1.068,
        "FBUNI": 80.2,
        "FBSTR": 28.6,
        "FBELO": 5.5,
        "FBCRD": 79.0,
        "FBCLB": 9.4,
        "FBTCT": 12.0,
        "FBTAR": 0.13,
        "FBSFI": 10.2,
        "haids": [
            "642229b48ac5472778a6fdc3",
            "642229b48ac5472778a6fdc4",
            "642229b48ac5472778a6fdc5",
            "642229b48ac5472778a6fdc6",
            "642229b48ac5472778a6fdc7",
            "642229b48ac5472778a6fdc8"
        ],
        "tids": [
            "642234bc8ac5472aca1a30b9"
        ],
        "chids": [
            "64223bcc8ac5472d7b9433bf",
            "64223bcc8ac5472d7b9433c0",
            "64223bcc8ac5472d7b9433c1"
        ]
    },
    "_id": "641e34c68ac547efd644623d",
    "pid": "641e34c68ac547efd644623d"
}{
    "type": "Feature",
    "geometry": {
        "type": "Polygon",
        "coordinates": [
            [
                [
                    -111.97751649,
                    33.07887882
                ],
                [
                    -111.97764744,
                    33.07887947
                ],
                [
                    -111.97764555,
                    33.07915011
                ],
                [
                    -111.97751459,
                    33.07914946
                ],
                [
                    -111.97751649,
                    33.07887882
                ]
            ]
        ]
    },
    "properties": {
        "plt_label": "p05-3",
        "trt_label": "FAOSWC_NG3195",
        "PLT_AREA": 366.81014,
        "HARM": "Machine",
        "HADAT": "11/16/2022",
        "WBWAH": 3390.6,
        "BWCAH": 5.51,
        "DBWAH": 3203.7,
        "GNDAT": "11/17/2022",
        "FFRAC": 0.3659,
        "SFRAC": 0.5115,
        "TFRAC": 0.1226,
        "WFWAH": 1240.7,
        "WSWAH": 1734.2,
        "WSCWAH": 2974.9,
        "DFWAH": 1172.3,
        "DSWAH": 1638.6,
        "DSCWAH": 2810.9,
        "QLDAT": "02/23/2023",
        "FBMIC": 48.6,
        "FBLTH": 1.097,
        "FBUNI": 81.2,
        "FBSTR": 29.8,
        "FBELO": 5.2,
        "FBCRD": 78.7,
        "FBCLB": 9.5,
        "FBTCT": 11.0,
        "FBTAR": 0.16,
        "FBSFI": 8.9,
        "haids": [
            "642229b48ac5472778a6fdc9",
            "642229b48ac5472778a6fdca",
            "642229b48ac5472778a6fdcb",
            "642229b48ac5472778a6fdcc",
            "642229b48ac5472778a6fdcd",
            "642229b48ac5472778a6fdce"
        ],
        "tids": [
            "642234bc8ac5472aca1a30ba"
        ],
        "chids": [
            "64223bcc8ac5472d7b9433c2",
            "64223bcc8ac5472d7b9433c3",
            "64223bcc8ac5472d7b9433c4"
        ]
    },
    "_id": "641e34c68ac547efd644623e",
    "pid": "641e34c68ac547efd644623e"
}{
    "type": "Feature",
    "geometry": {
        "type": "Polygon",
        "coordinates": [
            [
                [
                    -111.97751901,
                    33.07851798
                ],
                [
                    -111.97764996,
                    33.07851863
                ],
                [
                    -111.97764807,
                    33.07878927
                ],
                [
                    -111.97751712,
                    33.07878862
                ],
                [
                    -111.97751901,
                    33.07851798
                ]
            ]
        ]
    },
    "properties": {
        "plt_label": "p05-4",
        "trt_label": "CSMSWC_NG3195",
        "PLT_AREA": 366.810129,
        "HARM": "Machine",
        "HADAT": "11/16/2022",
        "WBWAH": 3360.9,
        "BWCAH": 5.91,
        "DBWAH": 3162.2,
        "GNDAT": "11/17/2022",
        "FFRAC": 0.368,
        "SFRAC": 0.5064,
        "TFRAC": 0.1256,
        "WFWAH": 1236.8,
        "WSWAH": 1702.0,
        "WSCWAH": 2938.8,
        "DFWAH": 1163.7,
        "DSWAH": 1601.4,
        "DSCWAH": 2765.0,
        "QLDAT": "02/23/2023",
        "FBMIC": 49.3,
        "FBLTH": 1.046,
        "FBUNI": 80.7,
        "FBSTR": 29.0,
        "FBELO": 5.2,
        "FBCRD": 77.4,
        "FBCLB": 9.8,
        "FBTCT": 8.0,
        "FBTAR": 0.07,
        "FBSFI": 9.6,
        "haids": [
            "642229b48ac5472778a6fdcf",
            "642229b48ac5472778a6fdd0",
            "642229b48ac5472778a6fdd1",
            "642229b48ac5472778a6fdd2",
            "642229b48ac5472778a6fdd3",
            "642229b48ac5472778a6fdd4"
        ],
        "tids": [
            "642234bc8ac5472aca1a30bb"
        ],
        "chids": [
            "64223bcc8ac5472d7b9433c5",
            "64223bcc8ac5472d7b9433c6",
            "64223bcc8ac5472d7b9433c7"
        ]
    },
    "_id": "641e34c68ac547efd644623f",
    "pid": "641e34c68ac547efd644623f"
}{
    "type": "Feature",
    "geometry": {
        "type": "Polygon",
        "coordinates": [
            [
                [
                    -111.97735906,
                    33.07959973
                ],
                [
                    -111.97749002,
                    33.07960038
                ],
                [
                    -111.97748813,
                    33.07987102
                ],
                [
                    -111.97735717,
                    33.07987037
                ],
                [
                    -111.97735906,
                    33.07959973
                ]
            ]
        ]
    },
    "properties": {
        "plt_label": "p06-1",
        "trt_label": "AQC_NG4936",
        "PLT_AREA": 366.81014,
        "HARM": "Machine",
        "HADAT": "11/16/2022",
        "WBWAH": 4261.7,
        "BWCAH": 5.35,
        "DBWAH": 4033.7,
        "GNDAT": "11/17/2022",
        "FFRAC": 0.328,
        "SFRAC": 0.5483,
        "TFRAC": 0.1238,
        "WFWAH": 1397.7,
        "WSWAH": 2336.5,
        "WSCWAH": 3734.2,
        "DFWAH": 1323.0,
        "DSWAH": 2211.5,
        "DSCWAH": 3534.5,
        "QLDAT": "02/23/2023",
        "FBMIC": 45.9,
        "FBLTH": 1.142,
        "FBUNI": 79.4,
        "FBSTR": 28.5,
        "FBELO": 6.1,
        "FBCRD": 79.2,
        "FBCLB": 8.2,
        "FBTCT": 9.0,
        "FBTAR": 0.12,
        "FBSFI": 10.0,
        "haids": [
            "642229b48ac5472778a6fdd5",
            "642229b48ac5472778a6fdd6",
            "642229b48ac5472778a6fdd7",
            "642229b48ac5472778a6fdd8",
            "642229b48ac5472778a6fdd9",
            "642229b48ac5472778a6fdda"
        ],
        "tids": [
            "642234bc8ac5472aca1a30bc"
        ],
        "chids": [
            "64223bcc8ac5472d7b9433c8",
            "64223bcc8ac5472d7b9433c9",
            "64223bcc8ac5472d7b9433ca"
        ]
    },
    "_id": "641e34c68ac547efd6446240",
    "pid": "641e34c68ac547efd6446240"
}{
    "type": "Feature",
    "geometry": {
        "type": "Polygon",
        "coordinates": [
            [
                [
                    -111.97736158,
                    33.07923889
                ],
                [
                    -111.97749254,
                    33.07923954
                ],
                [
                    -111.97749065,
                    33.07951019
                ],
                [
                    -111.97735969,
                    33.07950954
                ],
                [
                    -111.97736158,
                    33.07923889
                ]
            ]
        ]
    },
    "properties": {
        "plt_label": "p06-2",
        "trt_label": "AQCSWC_NG4936",
        "PLT_AREA": 366.810188,
        "HARM": "Machine",
        "HADAT": "11/16/2022",
        "WBWAH": 3331.6,
        "BWCAH": 5.67,
        "DBWAH": 3142.8,
        "GNDAT": "11/17/2022",
        "FFRAC": 0.342,
        "SFRAC": 0.5424,
        "TFRAC": 0.1156,
        "WFWAH": 1139.3,
        "WSWAH": 1807.1,
        "WSCWAH": 2946.4,
        "DFWAH": 1074.7,
        "DSWAH": 1704.7,
        "DSCWAH": 2779.4,
        "QLDAT": "02/23/2023",
        "FBMIC": 50.0,
        "FBLTH": 1.11,
        "FBUNI": 79.8,
        "FBSTR": 27.8,
        "FBELO": 6.0,
        "FBCRD": 79.2,
        "FBCLB": 8.5,
        "FBTCT": 10.0,
        "FBTAR": 0.14,
        "FBSFI": 9.8,
        "haids": [
            "642229b48ac5472778a6fddb",
            "642229b48ac5472778a6fddc",
            "642229b48ac5472778a6fddd",
            "642229b48ac5472778a6fdde",
            "642229b48ac5472778a6fddf",
            "642229b48ac5472778a6fde0"
        ],
        "tids": [
            "642234bc8ac5472aca1a30bd"
        ],
        "chids": [
            "64223bcc8ac5472d7b9433cb",
            "64223bcc8ac5472d7b9433cc",
            "64223bcc8ac5472d7b9433cd"
        ]
    },
    "_id": "641e34c68ac547efd6446241",
    "pid": "641e34c68ac547efd6446241"
}{
    "type": "Feature",
    "geometry": {
        "type": "Polygon",
        "coordinates": [
            [
                [
                    -111.9773641,
                    33.07887806
                ],
                [
                    -111.97749506,
                    33.07887871
                ],
                [
                    -111.97749317,
                    33.07914935
                ],
                [
                    -111.97736221,
                    33.0791487
                ],
                [
                    -111.9773641,
                    33.07887806
                ]
            ]
        ]
    },
    "properties": {
        "plt_label": "p06-3",
        "trt_label": "FAOSWC_NG4936",
        "PLT_AREA": 366.810125,
        "HARM": "Machine",
        "HADAT": "11/16/2022",
        "WBWAH": 4083.1,
        "BWCAH": 4.8,
        "DBWAH": 3887.3,
        "GNDAT": "11/17/2022",
        "FFRAC": 0.3405,
        "SFRAC": 0.5482,
        "TFRAC": 0.1114,
        "WFWAH": 1390.3,
        "WSWAH": 2238.2,
        "WSCWAH": 3628.4,
        "DFWAH": 1323.6,
        "DSWAH": 2130.8,
        "DSCWAH": 3454.4,
        "QLDAT": "02/23/2023",
        "FBMIC": 46.8,
        "FBLTH": 1.149,
        "FBUNI": 80.4,
        "FBSTR": 29.2,
        "FBELO": 6.4,
        "FBCRD": 79.9,
        "FBCLB": 8.6,
        "FBTCT": 14.0,
        "FBTAR": 0.22,
        "FBSFI": 9.3,
        "haids": [
            "642229b48ac5472778a6fde1",
            "642229b48ac5472778a6fde2",
            "642229b48ac5472778a6fde3",
            "642229b48ac5472778a6fde4",
            "642229b48ac5472778a6fde5",
            "642229b48ac5472778a6fde6"
        ],
        "tids": [
            "642234bc8ac5472aca1a30be"
        ],
        "chids": [
            "64223bcc8ac5472d7b9433ce",
            "64223bcc8ac5472d7b9433cf",
            "64223bcc8ac5472d7b9433d0"
        ]
    },
    "_id": "641e34c68ac547efd6446242",
    "pid": "641e34c68ac547efd6446242"
}{
    "type": "Feature",
    "geometry": {
        "type": "Polygon",
        "coordinates": [
            [
                [
                    -111.97736662,
                    33.07851723
                ],
                [
                    -111.97749758,
                    33.07851788
                ],
                [
                    -111.97749569,
                    33.07878852
                ],
                [
                    -111.97736473,
                    33.07878787
                ],
                [
                    -111.97736662,
                    33.07851723
                ]
            ]
        ]
    },
    "properties": {
        "plt_label": "p06-4",
        "trt_label": "CSMSWC_NG4936",
        "PLT_AREA": 366.81014,
        "HARM": "Machine",
        "HADAT": "11/16/2022",
        "WBWAH": 3580.8,
        "BWCAH": 4.97,
        "DBWAH": 3402.9,
        "GNDAT": "11/17/2022",
        "FFRAC": 0.3424,
        "SFRAC": 0.5502,
        "TFRAC": 0.1074,
        "WFWAH": 1226.1,
        "WSWAH": 1970.1,
        "WSCWAH": 3196.1,
        "DFWAH": 1165.1,
        "DSWAH": 1872.2,
        "DSCWAH": 3037.3,
        "QLDAT": "02/23/2023",
        "FBMIC": 46.8,
        "FBLTH": 1.154,
        "FBUNI": 80.7,
        "FBSTR": 29.6,
        "FBELO": 6.2,
        "FBCRD": 79.6,
        "FBCLB": 8.8,
        "FBTCT": 10.0,
        "FBTAR": 0.12,
        "FBSFI": 9.2,
        "haids": [
            "642229b48ac5472778a6fde7",
            "642229b48ac5472778a6fde8",
            "642229b48ac5472778a6fde9",
            "642229b48ac5472778a6fdea",
            "642229b48ac5472778a6fdeb",
            "642229b48ac5472778a6fdec"
        ],
        "tids": [
            "642234bc8ac5472aca1a30bf"
        ],
        "chids": [
            "64223bcc8ac5472d7b9433d1",
            "64223bcc8ac5472d7b9433d2",
            "64223bcc8ac5472d7b9433d3"
        ]
    },
    "_id": "641e34c68ac547efd6446243",
    "pid": "641e34c68ac547efd6446243"
}{
    "type": "Feature",
    "geometry": {
        "type": "Polygon",
        "coordinates": [
            [
                [
                    -111.97720668,
                    33.07959897
                ],
                [
                    -111.97733763,
                    33.07959962
                ],
                [
                    -111.97733574,
                    33.07987026
                ],
                [
                    -111.97720478,
                    33.07986961
                ],
                [
                    -111.97720668,
                    33.07959897
                ]
            ]
        ]
    },
    "properties": {
        "plt_label": "p07-1",
        "trt_label": "CSMSWC_NG3195",
        "PLT_AREA": 366.810114,
        "HARM": "Machine",
        "HADAT": "11/16/2022",
        "WBWAH": 3914.3,
        "BWCAH": 5.0,
        "DBWAH": 3718.7,
        "GNDAT": "11/17/2022",
        "FFRAC": 0.3709,
        "SFRAC": 0.5022,
        "TFRAC": 0.1269,
        "WFWAH": 1451.9,
        "WSWAH": 1965.7,
        "WSCWAH": 3417.6,
        "DFWAH": 1379.3,
        "DSWAH": 1867.5,
        "DSCWAH": 3246.8,
        "QLDAT": "02/23/2023",
        "FBMIC": 49.4,
        "FBLTH": 1.104,
        "FBUNI": 81.6,
        "FBSTR": 30.5,
        "FBELO": 5.2,
        "FBCRD": 77.4,
        "FBCLB": 9.6,
        "FBTCT": 15.0,
        "FBTAR": 0.18,
        "FBSFI": 8.8,
        "haids": [
            "642229b48ac5472778a6fded",
            "642229b48ac5472778a6fdee",
            "642229b48ac5472778a6fdef",
            "642229b48ac5472778a6fdf0",
            "642229b48ac5472778a6fdf1",
            "642229b48ac5472778a6fdf2"
        ],
        "tids": [
            "642234bc8ac5472aca1a30c0"
        ],
        "chids": [
            "64223bcc8ac5472d7b9433d4",
            "64223bcc8ac5472d7b9433d5",
            "64223bcc8ac5472d7b9433d6"
        ]
    },
    "_id": "641e34c68ac547efd6446244",
    "pid": "641e34c68ac547efd6446244"
}{
    "type": "Feature",
    "geometry": {
        "type": "Polygon",
        "coordinates": [
            [
                [
                    -111.9772092,
                    33.07923814
                ],
                [
                    -111.97734016,
                    33.07923879
                ],
                [
                    -111.97733826,
                    33.07950943
                ],
                [
                    -111.97720731,
                    33.07950878
                ],
                [
                    -111.9772092,
                    33.07923814
                ]
            ]
        ]
    },
    "properties": {
        "plt_label": "p07-2",
        "trt_label": "CSM_NG3195",
        "PLT_AREA": 366.81014,
        "HARM": "Machine",
        "HADAT": "11/16/2022",
        "WBWAH": 4822.1,
        "BWCAH": 4.96,
        "DBWAH": 4582.9,
        "GNDAT": "11/17/2022",
        "FFRAC": 0.3532,
        "SFRAC": 0.5142,
        "TFRAC": 0.1326,
        "WFWAH": 1703.2,
        "WSWAH": 2479.6,
        "WSCWAH": 4182.8,
        "DFWAH": 1618.7,
        "DSWAH": 2356.6,
        "DSCWAH": 3975.4,
        "QLDAT": "02/23/2023",
        "FBMIC": 47.0,
        "FBLTH": 1.122,
        "FBUNI": 80.6,
        "FBSTR": 29.4,
        "FBELO": 5.4,
        "FBCRD": 79.2,
        "FBCLB": 8.8,
        "FBTCT": 12.0,
        "FBTAR": 0.16,
        "FBSFI": 9.2,
        "haids": [
            "642229b48ac5472778a6fdf3",
            "642229b48ac5472778a6fdf4",
            "642229b48ac5472778a6fdf5",
            "642229b48ac5472778a6fdf6",
            "642229b48ac5472778a6fdf7",
            "642229b48ac5472778a6fdf8"
        ],
        "tids": [
            "642234bc8ac5472aca1a30c1"
        ],
        "chids": [
            "64223bcc8ac5472d7b9433d7",
            "64223bcc8ac5472d7b9433d8",
            "64223bcc8ac5472d7b9433d9"
        ]
    },
    "_id": "641e34c68ac547efd6446245",
    "pid": "641e34c68ac547efd6446245"
}{
    "type": "Feature",
    "geometry": {
        "type": "Polygon",
        "coordinates": [
            [
                [
                    -111.97721172,
                    33.0788773
                ],
                [
                    -111.97734268,
                    33.07887795
                ],
                [
                    -111.97734079,
                    33.0791486
                ],
                [
                    -111.97720983,
                    33.07914795
                ],
                [
                    -111.97721172,
                    33.0788773
                ]
            ]
        ]
    },
    "properties": {
        "plt_label": "p07-3",
        "trt_label": "FAO_NG3195",
        "PLT_AREA": 366.810125,
        "HARM": "Machine",
        "HADAT": "11/16/2022",
        "WBWAH": 5026.7,
        "BWCAH": 5.19,
        "DBWAH": 4765.8,
        "GNDAT": "11/17/2022",
        "FFRAC": 0.3567,
        "SFRAC": 0.5071,
        "TFRAC": 0.1362,
        "WFWAH": 1792.8,
        "WSWAH": 2549.3,
        "WSCWAH": 4342.0,
        "DFWAH": 1699.7,
        "DSWAH": 2416.9,
        "DSCWAH": 4116.7,
        "QLDAT": "02/23/2023",
        "FBMIC": 45.1,
        "FBLTH": 1.138,
        "FBUNI": 80.4,
        "FBSTR": 30.0,
        "FBELO": 5.6,
        "FBCRD": 79.0,
        "FBCLB": 8.8,
        "FBTCT": 12.0,
        "FBTAR": 0.23,
        "FBSFI": 8.8,
        "haids": [
            "642229b48ac5472778a6fdf9",
            "642229b48ac5472778a6fdfa",
            "642229b48ac5472778a6fdfb",
            "642229b48ac5472778a6fdfc",
            "642229b48ac5472778a6fdfd",
            "642229b48ac5472778a6fdfe"
        ],
        "tids": [
            "642234bc8ac5472aca1a30c2"
        ],
        "chids": [
            "64223bcc8ac5472d7b9433da",
            "64223bcc8ac5472d7b9433db",
            "64223bcc8ac5472d7b9433dc"
        ]
    },
    "_id": "641e34c68ac547efd6446246",
    "pid": "641e34c68ac547efd6446246"
}{
    "type": "Feature",
    "geometry": {
        "type": "Polygon",
        "coordinates": [
            [
                [
                    -111.97721424,
                    33.07851647
                ],
                [
                    -111.9773452,
                    33.07851712
                ],
                [
                    -111.97734331,
                    33.07878776
                ],
                [
                    -111.97721235,
                    33.07878711
                ],
                [
                    -111.97721424,
                    33.07851647
                ]
            ]
        ]
    },
    "properties": {
        "plt_label": "p07-4",
        "trt_label": "AQC_NG3195",
        "PLT_AREA": 366.810125,
        "HARM": "Machine",
        "HADAT": "11/16/2022",
        "WBWAH": 3810.1,
        "BWCAH": 4.6,
        "DBWAH": 3634.7,
        "GNDAT": "11/17/2022",
        "FFRAC": 0.359,
        "SFRAC": 0.511,
        "TFRAC": 0.1299,
        "WFWAH": 1368.0,
        "WSWAH": 1947.2,
        "WSCWAH": 3315.2,
        "DFWAH": 1305.0,
        "DSWAH": 1857.5,
        "DSCWAH": 3162.6,
        "QLDAT": "02/23/2023",
        "FBMIC": 50.3,
        "FBLTH": 1.106,
        "FBUNI": 80.8,
        "FBSTR": 28.8,
        "FBELO": 5.3,
        "FBCRD": 76.6,
        "FBCLB": 8.8,
        "FBTCT": 22.0,
        "FBTAR": 0.22,
        "FBSFI": 9.4,
        "haids": [
            "642229b48ac5472778a6fdff",
            "642229b48ac5472778a6fe00",
            "642229b48ac5472778a6fe01",
            "642229b48ac5472778a6fe02",
            "642229b48ac5472778a6fe03",
            "642229b48ac5472778a6fe04"
        ],
        "tids": [
            "642234bc8ac5472aca1a30c3"
        ],
        "chids": [
            "64223bcc8ac5472d7b9433dd",
            "64223bcc8ac5472d7b9433de",
            "64223bcc8ac5472d7b9433df"
        ]
    },
    "_id": "641e34c68ac547efd6446247",
    "pid": "641e34c68ac547efd6446247"
}{
    "type": "Feature",
    "geometry": {
        "type": "Polygon",
        "coordinates": [
            [
                [
                    -111.97705429,
                    33.07959821
                ],
                [
                    -111.97718525,
                    33.07959887
                ],
                [
                    -111.97718336,
                    33.07986951
                ],
                [
                    -111.9770524,
                    33.07986886
                ],
                [
                    -111.97705429,
                    33.07959821
                ]
            ]
        ]
    },
    "properties": {
        "plt_label": "p08-1",
        "trt_label": "CSMSWC_NG4936",
        "PLT_AREA": 366.81014,
        "HARM": "Machine",
        "HADAT": "11/16/2022",
        "WBWAH": 4100.5,
        "BWCAH": 4.92,
        "DBWAH": 3898.8,
        "GNDAT": "11/17/2022",
        "FFRAC": 0.3287,
        "SFRAC": 0.5369,
        "TFRAC": 0.1344,
        "WFWAH": 1347.8,
        "WSWAH": 2201.7,
        "WSCWAH": 3549.4,
        "DFWAH": 1281.5,
        "DSWAH": 2093.4,
        "DSCWAH": 3374.8,
        "QLDAT": "02/23/2023",
        "FBMIC": 50.3,
        "FBLTH": 1.084,
        "FBUNI": 79.7,
        "FBSTR": 27.2,
        "FBELO": 5.8,
        "FBCRD": 78.6,
        "FBCLB": 8.8,
        "FBTCT": 14.0,
        "FBTAR": 0.18,
        "FBSFI": 10.4,
        "haids": [
            "642229b48ac5472778a6fe05",
            "642229b48ac5472778a6fe06",
            "642229b48ac5472778a6fe07",
            "642229b48ac5472778a6fe08",
            "642229b48ac5472778a6fe09",
            "642229b48ac5472778a6fe0a"
        ],
        "tids": [
            "642234bc8ac5472aca1a30c4"
        ],
        "chids": [
            "64223bcc8ac5472d7b9433e0",
            "64223bcc8ac5472d7b9433e1",
            "64223bcc8ac5472d7b9433e2"
        ]
    },
    "_id": "641e34c68ac547efd6446248",
    "pid": "641e34c68ac547efd6446248"
}{
    "type": "Feature",
    "geometry": {
        "type": "Polygon",
        "coordinates": [
            [
                [
                    -111.97705681,
                    33.07923738
                ],
                [
                    -111.97718777,
                    33.07923803
                ],
                [
                    -111.97718588,
                    33.07950867
                ],
                [
                    -111.97705492,
                    33.07950802
                ],
                [
                    -111.97705681,
                    33.07923738
                ]
            ]
        ]
    },
    "properties": {
        "plt_label": "p08-2",
        "trt_label": "CSM_NG4936",
        "PLT_AREA": 366.810114,
        "HARM": "Machine",
        "HADAT": "11/16/2022",
        "WBWAH": 4881.8,
        "BWCAH": 4.92,
        "DBWAH": 4641.4,
        "GNDAT": "11/17/2022",
        "FFRAC": 0.3209,
        "SFRAC": 0.5442,
        "TFRAC": 0.1349,
        "WFWAH": 1566.8,
        "WSWAH": 2656.7,
        "WSCWAH": 4223.5,
        "DFWAH": 1489.6,
        "DSWAH": 2525.9,
        "DSCWAH": 4015.5,
        "QLDAT": "02/23/2023",
        "FBMIC": 44.2,
        "FBLTH": 1.182,
        "FBUNI": 81.2,
        "FBSTR": 30.0,
        "FBELO": 6.2,
        "FBCRD": 81.5,
        "FBCLB": 8.0,
        "FBTCT": 14.0,
        "FBTAR": 0.18,
        "FBSFI": 9.0,
        "haids": [
            "642229b48ac5472778a6fe0b",
            "642229b48ac5472778a6fe0c",
            "642229b48ac5472778a6fe0d",
            "642229b48ac5472778a6fe0e",
            "642229b48ac5472778a6fe0f",
            "642229b48ac5472778a6fe10"
        ],
        "tids": [
            "642234bc8ac5472aca1a30c5"
        ],
        "chids": [
            "64223bcc8ac5472d7b9433e3",
            "64223bcc8ac5472d7b9433e4",
            "64223bcc8ac5472d7b9433e5"
        ]
    },
    "_id": "641e34c68ac547efd6446249",
    "pid": "641e34c68ac547efd6446249"
}{
    "type": "Feature",
    "geometry": {
        "type": "Polygon",
        "coordinates": [
            [
                [
                    -111.97705934,
                    33.07887655
                ],
                [
                    -111.97719029,
                    33.0788772
                ],
                [
                    -111.9771884,
                    33.07914784
                ],
                [
                    -111.97705744,
                    33.07914719
                ],
                [
                    -111.97705934,
                    33.07887655
                ]
            ]
        ]
    },
    "properties": {
        "plt_label": "p08-3",
        "trt_label": "FAO_NG4936",
        "PLT_AREA": 366.81014,
        "HARM": "Machine",
        "HADAT": "11/16/2022",
        "WBWAH": 4632.6,
        "BWCAH": 4.98,
        "DBWAH": 4401.8,
        "GNDAT": "11/17/2022",
        "FFRAC": 0.3293,
        "SFRAC": 0.5505,
        "TFRAC": 0.1202,
        "WFWAH": 1525.5,
        "WSWAH": 2550.2,
        "WSCWAH": 4075.7,
        "DFWAH": 1449.5,
        "DSWAH": 2423.2,
        "DSCWAH": 3872.7,
        "QLDAT": "02/23/2023",
        "FBMIC": 43.4,
        "FBLTH": 1.193,
        "FBUNI": 80.8,
        "FBSTR": 30.4,
        "FBELO": 6.2,
        "FBCRD": 81.4,
        "FBCLB": 8.2,
        "FBTCT": 14.0,
        "FBTAR": 0.14,
        "FBSFI": 8.8,
        "haids": [
            "642229b48ac5472778a6fe11",
            "642229b48ac5472778a6fe12",
            "642229b48ac5472778a6fe13",
            "642229b48ac5472778a6fe14",
            "642229b48ac5472778a6fe15",
            "642229b48ac5472778a6fe16"
        ],
        "tids": [
            "642234bc8ac5472aca1a30c6"
        ],
        "chids": [
            "64223bcc8ac5472d7b9433e6",
            "64223bcc8ac5472d7b9433e7",
            "64223bcc8ac5472d7b9433e8"
        ]
    },
    "_id": "641e34c68ac547efd644624a",
    "pid": "641e34c68ac547efd644624a"
}{
    "type": "Feature",
    "geometry": {
        "type": "Polygon",
        "coordinates": [
            [
                [
                    -111.97706186,
                    33.07851571
                ],
                [
                    -111.97719282,
                    33.07851636
                ],
                [
                    -111.97719092,
                    33.07878701
                ],
                [
                    -111.97705997,
                    33.07878636
                ],
                [
                    -111.97706186,
                    33.07851571
                ]
            ]
        ]
    },
    "properties": {
        "plt_label": "p08-4",
        "trt_label": "AQC_NG4936",
        "PLT_AREA": 366.810125,
        "HARM": "Machine",
        "HADAT": "11/16/2022",
        "WBWAH": 3650.4,
        "BWCAH": 4.66,
        "DBWAH": 3480.4,
        "GNDAT": "11/17/2022",
        "FFRAC": 0.3227,
        "SFRAC": 0.5505,
        "TFRAC": 0.1268,
        "WFWAH": 1178.0,
        "WSWAH": 2009.6,
        "WSCWAH": 3187.6,
        "DFWAH": 1123.2,
        "DSWAH": 1916.0,
        "DSCWAH": 3039.2,
        "QLDAT": "02/23/2023",
        "FBMIC": 45.2,
        "FBLTH": 1.111,
        "FBUNI": 80.0,
        "FBSTR": 27.8,
        "FBELO": 6.0,
        "FBCRD": 78.3,
        "FBCLB": 8.5,
        "FBTCT": 13.0,
        "FBTAR": 0.12,
        "FBSFI": 9.8,
        "haids": [
            "642229b48ac5472778a6fe17",
            "642229b48ac5472778a6fe18",
            "642229b48ac5472778a6fe19",
            "642229b48ac5472778a6fe1a",
            "642229b48ac5472778a6fe1b",
            "642229b48ac5472778a6fe1c"
        ],
        "tids": [
            "642234bc8ac5472aca1a30c7"
        ],
        "chids": [
            "64223bcc8ac5472d7b9433e9",
            "64223bcc8ac5472d7b9433ea",
            "64223bcc8ac5472d7b9433eb"
        ]
    },
    "_id": "641e34c68ac547efd644624b",
    "pid": "641e34c68ac547efd644624b"
}{
    "type": "Feature",
    "geometry": {
        "type": "Polygon",
        "coordinates": [
            [
                [
                    -111.97690275,
                    33.07959746
                ],
                [
                    -111.9770337,
                    33.07959811
                ],
                [
                    -111.97703181,
                    33.07986875
                ],
                [
                    -111.97690085,
                    33.0798681
                ],
                [
                    -111.97690275,
                    33.07959746
                ]
            ]
        ]
    },
    "properties": {
        "plt_label": "p09-1",
        "trt_label": "AQCSWC_NG4936",
        "PLT_AREA": 366.81014,
        "HARM": "Machine",
        "HADAT": "11/16/2022",
        "WBWAH": 2648.7,
        "BWCAH": 5.36,
        "DBWAH": 2506.8,
        "GNDAT": "11/17/2022",
        "FFRAC": 0.3213,
        "SFRAC": 0.5431,
        "TFRAC": 0.1356,
        "WFWAH": 851.1,
        "WSWAH": 1438.5,
        "WSCWAH": 2289.6,
        "DFWAH": 805.5,
        "DSWAH": 1361.4,
        "DSCWAH": 2166.9,
        "QLDAT": "02/23/2023",
        "FBMIC": 48.2,
        "FBLTH": 1.095,
        "FBUNI": 77.6,
        "FBSTR": 26.3,
        "FBELO": 6.2,
        "FBCRD": 78.2,
        "FBCLB": 8.6,
        "FBTCT": 12.0,
        "FBTAR": 0.19,
        "FBSFI": 11.9,
        "haids": [
            "642229b48ac5472778a6fe1d",
            "642229b48ac5472778a6fe1e",
            "642229b48ac5472778a6fe1f",
            "642229b48ac5472778a6fe20",
            "642229b48ac5472778a6fe21",
            "642229b48ac5472778a6fe22"
        ],
        "tids": [
            "642234bc8ac5472aca1a30c8"
        ],
        "chids": [
            "64223bcc8ac5472d7b9433ec",
            "64223bcc8ac5472d7b9433ed",
            "64223bcc8ac5472d7b9433ee"
        ]
    },
    "_id": "641e34c68ac547efd644624c",
    "pid": "641e34c68ac547efd644624c"
}{
    "type": "Feature",
    "geometry": {
        "type": "Polygon",
        "coordinates": [
            [
                [
                    -111.97690527,
                    33.07923663
                ],
                [
                    -111.97703623,
                    33.07923728
                ],
                [
                    -111.97703433,
                    33.07950792
                ],
                [
                    -111.97690338,
                    33.07950727
                ],
                [
                    -111.97690527,
                    33.07923663
                ]
            ]
        ]
    },
    "properties": {
        "plt_label": "p09-2",
        "trt_label": "FAO_NG4936",
        "PLT_AREA": 366.81011,
        "HARM": "Machine",
        "HADAT": "11/16/2022",
        "WBWAH": 5078.1,
        "BWCAH": 4.87,
        "DBWAH": 4830.5,
        "GNDAT": "11/17/2022",
        "FFRAC": 0.3228,
        "SFRAC": 0.5538,
        "TFRAC": 0.1234,
        "WFWAH": 1639.1,
        "WSWAH": 2812.3,
        "WSCWAH": 4451.4,
        "DFWAH": 1559.2,
        "DSWAH": 2675.2,
        "DSCWAH": 4234.4,
        "QLDAT": "02/23/2023",
        "FBMIC": 43.6,
        "FBLTH": 1.166,
        "FBUNI": 80.2,
        "FBSTR": 29.0,
        "FBELO": 6.2,
        "FBCRD": 81.7,
        "FBCLB": 8.2,
        "FBTCT": 8.0,
        "FBTAR": 0.1,
        "FBSFI": 9.4,
        "haids": [
            "642229b48ac5472778a6fe23",
            "642229b48ac5472778a6fe24",
            "642229b48ac5472778a6fe25",
            "642229b48ac5472778a6fe26",
            "642229b48ac5472778a6fe27",
            "642229b48ac5472778a6fe28"
        ],
        "tids": [
            "642234bc8ac5472aca1a30c9"
        ],
        "chids": [
            "64223bcc8ac5472d7b9433ef",
            "64223bcc8ac5472d7b9433f0",
            "64223bcc8ac5472d7b9433f1"
        ]
    },
    "_id": "641e34c68ac547efd644624d",
    "pid": "641e34c68ac547efd644624d"
}{
    "type": "Feature",
    "geometry": {
        "type": "Polygon",
        "coordinates": [
            [
                [
                    -111.97690779,
                    33.07887579
                ],
                [
                    -111.97703875,
                    33.07887644
                ],
                [
                    -111.97703686,
                    33.07914709
                ],
                [
                    -111.9769059,
                    33.07914644
                ],
                [
                    -111.97690779,
                    33.07887579
                ]
            ]
        ]
    },
    "properties": {
        "plt_label": "p09-3",
        "trt_label": "CSMSWC_NG4936",
        "PLT_AREA": 366.81014,
        "HARM": "Machine",
        "HADAT": "11/16/2022",
        "WBWAH": 4549.8,
        "BWCAH": 4.18,
        "DBWAH": 4359.8,
        "GNDAT": "11/17/2022",
        "FFRAC": 0.332,
        "SFRAC": 0.5576,
        "TFRAC": 0.1104,
        "WFWAH": 1510.4,
        "WSWAH": 2537.0,
        "WSCWAH": 4047.5,
        "DFWAH": 1447.4,
        "DSWAH": 2431.1,
        "DSCWAH": 3878.5,
        "QLDAT": "02/23/2023",
        "FBMIC": 47.7,
        "FBLTH": 1.147,
        "FBUNI": 80.4,
        "FBSTR": 29.3,
        "FBELO": 6.1,
        "FBCRD": 80.3,
        "FBCLB": 8.6,
        "FBTCT": 10.0,
        "FBTAR": 0.1,
        "FBSFI": 9.0,
        "haids": [
            "642229b48ac5472778a6fe29",
            "642229b48ac5472778a6fe2a",
            "642229b48ac5472778a6fe2b",
            "642229b48ac5472778a6fe2c",
            "642229b48ac5472778a6fe2d",
            "642229b48ac5472778a6fe2e"
        ],
        "tids": [
            "642234bc8ac5472aca1a30ca"
        ],
        "chids": [
            "64223bcc8ac5472d7b9433f2",
            "64223bcc8ac5472d7b9433f3",
            "64223bcc8ac5472d7b9433f4"
        ]
    },
    "_id": "641e34c68ac547efd644624e",
    "pid": "641e34c68ac547efd644624e"
}{
    "type": "Feature",
    "geometry": {
        "type": "Polygon",
        "coordinates": [
            [
                [
                    -111.97691032,
                    33.07851496
                ],
                [
                    -111.97704127,
                    33.07851561
                ],
                [
                    -111.97703938,
                    33.07878625
                ],
                [
                    -111.97690842,
                    33.0787856
                ],
                [
                    -111.97691032,
                    33.07851496
                ]
            ]
        ]
    },
    "properties": {
        "plt_label": "p09-4",
        "trt_label": "FAOSWC_NG4936",
        "PLT_AREA": 366.810125,
        "HARM": "Machine",
        "HADAT": "11/16/2022",
        "WBWAH": 3370.4,
        "BWCAH": 4.75,
        "DBWAH": 3210.2,
        "GNDAT": "11/17/2022",
        "FFRAC": 0.3253,
        "SFRAC": 0.5556,
        "TFRAC": 0.119,
        "WFWAH": 1096.5,
        "WSWAH": 1872.7,
        "WSCWAH": 2969.2,
        "DFWAH": 1044.4,
        "DSWAH": 1783.7,
        "DSCWAH": 2828.1,
        "QLDAT": "02/23/2023",
        "FBMIC": 49.1,
        "FBLTH": 1.124,
        "FBUNI": 80.2,
        "FBSTR": 28.2,
        "FBELO": 6.0,
        "FBCRD": 79.1,
        "FBCLB": 8.6,
        "FBTCT": 7.0,
        "FBTAR": 0.08,
        "FBSFI": 9.4,
        "haids": [
            "642229b48ac5472778a6fe2f",
            "642229b48ac5472778a6fe30",
            "642229b48ac5472778a6fe31",
            "642229b48ac5472778a6fe32",
            "642229b48ac5472778a6fe33",
            "642229b48ac5472778a6fe34"
        ],
        "tids": [
            "642234bc8ac5472aca1a30cb"
        ],
        "chids": [
            "64223bcc8ac5472d7b9433f5",
            "64223bcc8ac5472d7b9433f6",
            "64223bcc8ac5472d7b9433f7"
        ]
    },
    "_id": "641e34c68ac547efd644624f",
    "pid": "641e34c68ac547efd644624f"
}{
    "type": "Feature",
    "geometry": {
        "type": "Polygon",
        "coordinates": [
            [
                [
                    -111.97675036,
                    33.07959671
                ],
                [
                    -111.97688132,
                    33.07959736
                ],
                [
                    -111.97687943,
                    33.079868
                ],
                [
                    -111.97674847,
                    33.07986735
                ],
                [
                    -111.97675036,
                    33.07959671
                ]
            ]
        ]
    },
    "properties": {
        "plt_label": "p10-1",
        "trt_label": "AQCSWC_NG3195",
        "PLT_AREA": 366.81014,
        "HARM": "Machine",
        "HADAT": "11/16/2022",
        "WBWAH": 3973.3,
        "BWCAH": 4.55,
        "DBWAH": 3792.4,
        "GNDAT": "11/17/2022",
        "FFRAC": 0.3621,
        "SFRAC": 0.4849,
        "TFRAC": 0.153,
        "WFWAH": 1438.9,
        "WSWAH": 1926.6,
        "WSCWAH": 3365.4,
        "DFWAH": 1373.3,
        "DSWAH": 1838.9,
        "DSCWAH": 3212.2,
        "QLDAT": "02/23/2023",
        "FBMIC": 50.0,
        "FBLTH": 1.04,
        "FBUNI": 79.1,
        "FBSTR": 27.4,
        "FBELO": 5.4,
        "FBCRD": 77.9,
        "FBCLB": 9.2,
        "FBTCT": 12.0,
        "FBTAR": 0.14,
        "FBSFI": 10.8,
        "haids": [
            "642229b48ac5472778a6fe35",
            "642229b48ac5472778a6fe36",
            "642229b48ac5472778a6fe37",
            "642229b48ac5472778a6fe38",
            "642229b48ac5472778a6fe39",
            "642229b48ac5472778a6fe3a"
        ],
        "tids": [
            "642234bc8ac5472aca1a30cc"
        ],
        "chids": [
            "64223bcc8ac5472d7b9433f8",
            "64223bcc8ac5472d7b9433f9",
            "64223bcc8ac5472d7b9433fa"
        ]
    },
    "_id": "641e34c68ac547efd6446250",
    "pid": "641e34c68ac547efd6446250"
}{
    "type": "Feature",
    "geometry": {
        "type": "Polygon",
        "coordinates": [
            [
                [
                    -111.97675289,
                    33.07923587
                ],
                [
                    -111.97688384,
                    33.07923652
                ],
                [
                    -111.97688195,
                    33.07950716
                ],
                [
                    -111.97675099,
                    33.07950651
                ],
                [
                    -111.97675289,
                    33.07923587
                ]
            ]
        ]
    },
    "properties": {
        "plt_label": "p10-2",
        "trt_label": "FAO_NG3195",
        "PLT_AREA": 366.810144,
        "HARM": "Machine",
        "HADAT": "11/16/2022",
        "WBWAH": 5878.2,
        "BWCAH": 5.65,
        "DBWAH": 5546.1,
        "GNDAT": "11/17/2022",
        "FFRAC": 0.3621,
        "SFRAC": 0.4995,
        "TFRAC": 0.1384,
        "WFWAH": 2128.3,
        "WSWAH": 2936.2,
        "WSCWAH": 5064.5,
        "DFWAH": 2008.1,
        "DSWAH": 2770.3,
        "DSCWAH": 4778.3,
        "QLDAT": "02/23/2023",
        "FBMIC": 46.7,
        "FBLTH": 1.112,
        "FBUNI": 81.0,
        "FBSTR": 29.8,
        "FBELO": 5.4,
        "FBCRD": 79.4,
        "FBCLB": 8.4,
        "FBTCT": 13.0,
        "FBTAR": 0.18,
        "FBSFI": 9.0,
        "haids": [
            "642229b48ac5472778a6fe3b",
            "642229b48ac5472778a6fe3c",
            "642229b48ac5472778a6fe3d",
            "642229b48ac5472778a6fe3e",
            "642229b48ac5472778a6fe3f",
            "642229b48ac5472778a6fe40"
        ],
        "tids": [
            "642234bc8ac5472aca1a30cd"
        ],
        "chids": [
            "64223bcc8ac5472d7b9433fb",
            "64223bcc8ac5472d7b9433fc",
            "64223bcc8ac5472d7b9433fd"
        ]
    },
    "_id": "641e34c68ac547efd6446251",
    "pid": "641e34c68ac547efd6446251"
}{
    "type": "Feature",
    "geometry": {
        "type": "Polygon",
        "coordinates": [
            [
                [
                    -111.97675541,
                    33.07887504
                ],
                [
                    -111.97688637,
                    33.07887569
                ],
                [
                    -111.97688447,
                    33.07914633
                ],
                [
                    -111.97675352,
                    33.07914568
                ],
                [
                    -111.97675541,
                    33.07887504
                ]
            ]
        ]
    },
    "properties": {
        "plt_label": "p10-3",
        "trt_label": "CSMSWC_NG3195",
        "PLT_AREA": 366.81011,
        "HARM": "Machine",
        "HADAT": "11/16/2022",
        "WBWAH": 5134.1,
        "BWCAH": 4.36,
        "DBWAH": 4910.3,
        "GNDAT": "11/17/2022",
        "FFRAC": 0.3732,
        "SFRAC": 0.5089,
        "TFRAC": 0.1179,
        "WFWAH": 1916.2,
        "WSWAH": 2612.5,
        "WSCWAH": 4528.7,
        "DFWAH": 1832.7,
        "DSWAH": 2498.6,
        "DSCWAH": 4331.3,
        "QLDAT": "02/23/2023",
        "FBMIC": 47.6,
        "FBLTH": 1.097,
        "FBUNI": 80.5,
        "FBSTR": 29.2,
        "FBELO": 5.4,
        "FBCRD": 79.1,
        "FBCLB": 9.2,
        "FBTCT": 12.0,
        "FBTAR": 0.22,
        "FBSFI": 9.2,
        "haids": [
            "642229b48ac5472778a6fe41",
            "642229b48ac5472778a6fe42",
            "642229b48ac5472778a6fe43",
            "642229b48ac5472778a6fe44",
            "642229b48ac5472778a6fe45",
            "642229b48ac5472778a6fe46"
        ],
        "tids": [
            "642234bc8ac5472aca1a30ce"
        ],
        "chids": [
            "64223bcc8ac5472d7b9433fe",
            "64223bcc8ac5472d7b9433ff",
            "64223bcc8ac5472d7b943400"
        ]
    },
    "_id": "641e34c68ac547efd6446252",
    "pid": "641e34c68ac547efd6446252"
}{
    "type": "Feature",
    "geometry": {
        "type": "Polygon",
        "coordinates": [
            [
                [
                    -111.97675793,
                    33.0785142
                ],
                [
                    -111.97688889,
                    33.07851485
                ],
                [
                    -111.976887,
                    33.0787855
                ],
                [
                    -111.97675604,
                    33.07878485
                ],
                [
                    -111.97675793,
                    33.0785142
                ]
            ]
        ]
    },
    "properties": {
        "plt_label": "p10-4",
        "trt_label": "FAOSWC_NG3195",
        "PLT_AREA": 366.81014,
        "HARM": "Machine",
        "HADAT": "11/16/2022",
        "WBWAH": 4977.9,
        "BWCAH": 4.38,
        "DBWAH": 4759.9,
        "GNDAT": "11/17/2022",
        "FFRAC": 0.3765,
        "SFRAC": 0.4982,
        "TFRAC": 0.1253,
        "WFWAH": 1874.1,
        "WSWAH": 2480.2,
        "WSCWAH": 4354.3,
        "DFWAH": 1792.0,
        "DSWAH": 2371.6,
        "DSCWAH": 4163.6,
        "QLDAT": "02/23/2023",
        "FBMIC": 48.8,
        "FBLTH": 1.065,
        "FBUNI": 80.2,
        "FBSTR": 29.8,
        "FBELO": 5.3,
        "FBCRD": 78.3,
        "FBCLB": 9.6,
        "FBTCT": 6.0,
        "FBTAR": 0.11,
        "FBSFI": 10.0,
        "haids": [
            "642229b48ac5472778a6fe47",
            "642229b48ac5472778a6fe48",
            "642229b48ac5472778a6fe49",
            "642229b48ac5472778a6fe4a",
            "642229b48ac5472778a6fe4b",
            "642229b48ac5472778a6fe4c"
        ],
        "tids": [
            "642234bc8ac5472aca1a30cf"
        ],
        "chids": [
            "64223bcc8ac5472d7b943401",
            "64223bcc8ac5472d7b943402",
            "64223bcc8ac5472d7b943403"
        ]
    },
    "_id": "641e34c68ac547efd6446253",
    "pid": "641e34c68ac547efd6446253"
}{
    "type": "Feature",
    "geometry": {
        "type": "Polygon",
        "coordinates": [
            [
                [
                    -111.97659798,
                    33.07959595
                ],
                [
                    -111.97672894,
                    33.0795966
                ],
                [
                    -111.97672704,
                    33.07986724
                ],
                [
                    -111.97659608,
                    33.07986659
                ],
                [
                    -111.97659798,
                    33.07959595
                ]
            ]
        ]
    },
    "properties": {
        "plt_label": "p11-1",
        "trt_label": "FAOSWC_NG3195",
        "PLT_AREA": 366.810125,
        "HARM": "Machine",
        "HADAT": "11/16/2022",
        "WBWAH": 5154.8,
        "BWCAH": 4.53,
        "DBWAH": 4921.3,
        "GNDAT": "11/17/2022",
        "FFRAC": 0.3527,
        "SFRAC": 0.4926,
        "TFRAC": 0.1547,
        "WFWAH": 1818.2,
        "WSWAH": 2539.2,
        "WSCWAH": 4357.3,
        "DFWAH": 1735.8,
        "DSWAH": 2424.2,
        "DSCWAH": 4160.0,
        "QLDAT": "02/23/2023",
        "FBMIC": 48.3,
        "FBLTH": 1.094,
        "FBUNI": 80.5,
        "FBSTR": 28.2,
        "FBELO": 5.5,
        "FBCRD": 79.1,
        "FBCLB": 9.1,
        "FBTCT": 13.0,
        "FBTAR": 0.31,
        "FBSFI": 9.2,
        "haids": [
            "642229b48ac5472778a6fe4d",
            "642229b48ac5472778a6fe4e",
            "642229b48ac5472778a6fe4f",
            "642229b48ac5472778a6fe50",
            "642229b48ac5472778a6fe51",
            "642229b48ac5472778a6fe52"
        ],
        "tids": [
            "642234bc8ac5472aca1a30d0"
        ],
        "chids": [
            "64223bcc8ac5472d7b943404",
            "64223bcc8ac5472d7b943405",
            "64223bcc8ac5472d7b943406"
        ]
    },
    "_id": "641e34c68ac547efd6446254",
    "pid": "641e34c68ac547efd6446254"
}{
    "type": "Feature",
    "geometry": {
        "type": "Polygon",
        "coordinates": [
            [
                [
                    -111.9766005,
                    33.07923511
                ],
                [
                    -111.97673146,
                    33.07923576
                ],
                [
                    -111.97672957,
                    33.07950641
                ],
                [
                    -111.97659861,
                    33.07950576
                ],
                [
                    -111.9766005,
                    33.07923511
                ]
            ]
        ]
    },
    "properties": {
        "plt_label": "p11-2",
        "trt_label": "AQC_NG3195",
        "PLT_AREA": 366.810125,
        "HARM": "Machine",
        "HADAT": "11/16/2022",
        "WBWAH": 4354.9,
        "BWCAH": 4.31,
        "DBWAH": 4167.3,
        "GNDAT": "11/17/2022",
        "FFRAC": 0.3585,
        "SFRAC": 0.5088,
        "TFRAC": 0.1327,
        "WFWAH": 1561.3,
        "WSWAH": 2215.8,
        "WSCWAH": 3777.1,
        "DFWAH": 1494.1,
        "DSWAH": 2120.3,
        "DSCWAH": 3614.3,
        "QLDAT": "02/23/2023",
        "FBMIC": 47.8,
        "FBLTH": 1.074,
        "FBUNI": 79.8,
        "FBSTR": 27.3,
        "FBELO": 5.5,
        "FBCRD": 78.6,
        "FBCLB": 9.0,
        "FBTCT": 15.0,
        "FBTAR": 0.24,
        "FBSFI": 10.0,
        "haids": [
            "642229b48ac5472778a6fe53",
            "642229b48ac5472778a6fe54",
            "642229b48ac5472778a6fe55",
            "642229b48ac5472778a6fe56",
            "642229b48ac5472778a6fe57",
            "642229b48ac5472778a6fe58"
        ],
        "tids": [
            "642234bc8ac5472aca1a30d1"
        ],
        "chids": [
            "64223bcc8ac5472d7b943407",
            "64223bcc8ac5472d7b943408",
            "64223bcc8ac5472d7b943409"
        ]
    },
    "_id": "641e34c68ac547efd6446255",
    "pid": "641e34c68ac547efd6446255"
}{
    "type": "Feature",
    "geometry": {
        "type": "Polygon",
        "coordinates": [
            [
                [
                    -111.97660303,
                    33.07887428
                ],
                [
                    -111.97673398,
                    33.07887493
                ],
                [
                    -111.97673209,
                    33.07914557
                ],
                [
                    -111.97660113,
                    33.07914492
                ],
                [
                    -111.97660303,
                    33.07887428
                ]
            ]
        ]
    },
    "properties": {
        "plt_label": "p11-3",
        "trt_label": "CSM_NG3195",
        "PLT_AREA": 366.810144,
        "HARM": "Machine",
        "HADAT": "11/16/2022",
        "WBWAH": 5657.1,
        "BWCAH": 4.46,
        "DBWAH": 5405.0,
        "GNDAT": "11/17/2022",
        "FFRAC": 0.3606,
        "SFRAC": 0.5094,
        "TFRAC": 0.13,
        "WFWAH": 2039.9,
        "WSWAH": 2881.8,
        "WSCWAH": 4921.7,
        "DFWAH": 1949.0,
        "DSWAH": 2753.4,
        "DSCWAH": 4702.4,
        "QLDAT": "02/23/2023",
        "FBMIC": 47.7,
        "FBLTH": 1.127,
        "FBUNI": 80.8,
        "FBSTR": 29.8,
        "FBELO": 5.2,
        "FBCRD": 79.4,
        "FBCLB": 9.0,
        "FBTCT": 7.0,
        "FBTAR": 0.1,
        "FBSFI": 8.8,
        "haids": [
            "642229b48ac5472778a6fe59",
            "642229b48ac5472778a6fe5a",
            "642229b48ac5472778a6fe5b",
            "642229b48ac5472778a6fe5c",
            "642229b48ac5472778a6fe5d",
            "642229b48ac5472778a6fe5e"
        ],
        "tids": [
            "642234bc8ac5472aca1a30d2"
        ],
        "chids": [
            "64223bcc8ac5472d7b94340a",
            "64223bcc8ac5472d7b94340b",
            "64223bcc8ac5472d7b94340c"
        ]
    },
    "_id": "641e34c68ac547efd6446256",
    "pid": "641e34c68ac547efd6446256"
}{
    "type": "Feature",
    "geometry": {
        "type": "Polygon",
        "coordinates": [
            [
                [
                    -111.97660555,
                    33.07851345
                ],
                [
                    -111.97673651,
                    33.0785141
                ],
                [
                    -111.97673461,
                    33.07878474
                ],
                [
                    -111.97660366,
                    33.07878409
                ],
                [
                    -111.97660555,
                    33.07851345
                ]
            ]
        ]
    },
    "properties": {
        "plt_label": "p11-4",
        "trt_label": "AQCSWC_NG3195",
        "PLT_AREA": 366.81011,
        "HARM": "Machine",
        "HADAT": "11/16/2022",
        "WBWAH": 3662.9,
        "BWCAH": 4.64,
        "DBWAH": 3493.0,
        "GNDAT": "11/17/2022",
        "FFRAC": 0.3771,
        "SFRAC": 0.4978,
        "TFRAC": 0.1251,
        "WFWAH": 1381.3,
        "WSWAH": 1823.4,
        "WSCWAH": 3204.7,
        "DFWAH": 1317.3,
        "DSWAH": 1738.8,
        "DSCWAH": 3056.0,
        "QLDAT": "02/23/2023",
        "FBMIC": 51.4,
        "FBLTH": 1.044,
        "FBUNI": 80.1,
        "FBSTR": 27.9,
        "FBELO": 5.2,
        "FBCRD": 76.6,
        "FBCLB": 9.4,
        "FBTCT": 5.0,
        "FBTAR": 0.11,
        "FBSFI": 9.6,
        "haids": [
            "642229b48ac5472778a6fe5f",
            "642229b48ac5472778a6fe60",
            "642229b48ac5472778a6fe61",
            "642229b48ac5472778a6fe62",
            "642229b48ac5472778a6fe63",
            "642229b48ac5472778a6fe64"
        ],
        "tids": [
            "642234bc8ac5472aca1a30d3"
        ],
        "chids": [
            "64223bcc8ac5472d7b94340d",
            "64223bcc8ac5472d7b94340e",
            "64223bcc8ac5472d7b94340f"
        ]
    },
    "_id": "641e34c68ac547efd6446257",
    "pid": "641e34c68ac547efd6446257"
}{
    "type": "Feature",
    "geometry": {
        "type": "Polygon",
        "coordinates": [
            [
                [
                    -111.97644559,
                    33.07959519
                ],
                [
                    -111.97657655,
                    33.07959584
                ],
                [
                    -111.97657466,
                    33.07986648
                ],
                [
                    -111.9764437,
                    33.07986583
                ],
                [
                    -111.97644559,
                    33.07959519
                ]
            ]
        ]
    },
    "properties": {
        "plt_label": "p12-1",
        "trt_label": "FAOSWC_NG4936",
        "PLT_AREA": 366.81014,
        "HARM": "Machine",
        "HADAT": "11/16/2022",
        "WBWAH": 4381.4,
        "BWCAH": 4.99,
        "DBWAH": 4162.8,
        "GNDAT": "11/17/2022",
        "FFRAC": 0.3339,
        "SFRAC": 0.5394,
        "TFRAC": 0.1267,
        "WFWAH": 1462.9,
        "WSWAH": 2363.2,
        "WSCWAH": 3826.1,
        "DFWAH": 1389.9,
        "DSWAH": 2245.2,
        "DSCWAH": 3635.1,
        "QLDAT": "02/23/2023",
        "FBMIC": 49.2,
        "FBLTH": 1.123,
        "FBUNI": 80.0,
        "FBSTR": 27.5,
        "FBELO": 6.1,
        "FBCRD": 79.6,
        "FBCLB": 8.6,
        "FBTCT": 8.0,
        "FBTAR": 0.16,
        "FBSFI": 9.8,
        "haids": [
            "642229b48ac5472778a6fe65",
            "642229b48ac5472778a6fe66",
            "642229b48ac5472778a6fe67",
            "642229b48ac5472778a6fe68",
            "642229b48ac5472778a6fe69",
            "642229b48ac5472778a6fe6a"
        ],
        "tids": [
            "642234bc8ac5472aca1a30d4"
        ],
        "chids": [
            "64223bcc8ac5472d7b943410",
            "64223bcc8ac5472d7b943411",
            "64223bcc8ac5472d7b943412"
        ]
    },
    "_id": "641e34c68ac547efd6446258",
    "pid": "641e34c68ac547efd6446258"
}{
    "type": "Feature",
    "geometry": {
        "type": "Polygon",
        "coordinates": [
            [
                [
                    -111.97644812,
                    33.07923436
                ],
                [
                    -111.97657908,
                    33.07923501
                ],
                [
                    -111.97657718,
                    33.07950565
                ],
                [
                    -111.97644622,
                    33.079505
                ],
                [
                    -111.97644812,
                    33.07923436
                ]
            ]
        ]
    },
    "properties": {
        "plt_label": "p12-2",
        "trt_label": "AQC_NG4936",
        "PLT_AREA": 366.810125,
        "HARM": "Machine",
        "HADAT": "11/16/2022",
        "WBWAH": 4206.6,
        "BWCAH": 4.71,
        "DBWAH": 4008.3,
        "GNDAT": "11/17/2022",
        "FFRAC": 0.3206,
        "SFRAC": 0.5411,
        "TFRAC": 0.1384,
        "WFWAH": 1348.4,
        "WSWAH": 2276.1,
        "WSCWAH": 3624.5,
        "DFWAH": 1284.9,
        "DSWAH": 2168.8,
        "DSCWAH": 3453.7,
        "QLDAT": "02/23/2023",
        "FBMIC": 48.0,
        "FBLTH": 1.138,
        "FBUNI": 79.8,
        "FBSTR": 28.0,
        "FBELO": 6.1,
        "FBCRD": 80.4,
        "FBCLB": 8.0,
        "FBTCT": 16.0,
        "FBTAR": 0.18,
        "FBSFI": 9.4,
        "haids": [
            "642229b48ac5472778a6fe6b",
            "642229b48ac5472778a6fe6c",
            "642229b48ac5472778a6fe6d",
            "642229b48ac5472778a6fe6e",
            "642229b48ac5472778a6fe6f",
            "642229b48ac5472778a6fe70"
        ],
        "tids": [
            "642234bc8ac5472aca1a30d5"
        ],
        "chids": [
            "64223bcc8ac5472d7b943413",
            "64223bcc8ac5472d7b943414",
            "64223bcc8ac5472d7b943415"
        ]
    },
    "_id": "641e34c68ac547efd6446259",
    "pid": "641e34c68ac547efd6446259"
}{
    "type": "Feature",
    "geometry": {
        "type": "Polygon",
        "coordinates": [
            [
                [
                    -111.97645064,
                    33.07887352
                ],
                [
                    -111.9765816,
                    33.07887417
                ],
                [
                    -111.97657971,
                    33.07914482
                ],
                [
                    -111.97644875,
                    33.07914416
                ],
                [
                    -111.97645064,
                    33.07887352
                ]
            ]
        ]
    },
    "properties": {
        "plt_label": "p12-3",
        "trt_label": "CSM_NG4936",
        "PLT_AREA": 366.810125,
        "HARM": "Machine",
        "HADAT": "11/16/2022",
        "WBWAH": 4973.0,
        "BWCAH": 4.49,
        "DBWAH": 4749.8,
        "GNDAT": "11/17/2022",
        "FFRAC": 0.3307,
        "SFRAC": 0.5567,
        "TFRAC": 0.1126,
        "WFWAH": 1644.7,
        "WSWAH": 2768.4,
        "WSCWAH": 4413.1,
        "DFWAH": 1570.9,
        "DSWAH": 2644.1,
        "DSCWAH": 4215.1,
        "QLDAT": "02/23/2023",
        "FBMIC": 46.6,
        "FBLTH": 1.152,
        "FBUNI": 80.6,
        "FBSTR": 28.6,
        "FBELO": 6.3,
        "FBCRD": 81.6,
        "FBCLB": 8.2,
        "FBTCT": 8.0,
        "FBTAR": 0.14,
        "FBSFI": 9.1,
        "haids": [
            "642229b48ac5472778a6fe71",
            "642229b48ac5472778a6fe72",
            "642229b48ac5472778a6fe73",
            "642229b48ac5472778a6fe74",
            "642229b48ac5472778a6fe75",
            "642229b48ac5472778a6fe76"
        ],
        "tids": [
            "642234bc8ac5472aca1a30d6"
        ],
        "chids": [
            "64223bcc8ac5472d7b943416",
            "64223bcc8ac5472d7b943417",
            "64223bcc8ac5472d7b943418"
        ]
    },
    "_id": "641e34c68ac547efd644625a",
    "pid": "641e34c68ac547efd644625a"
}{
    "type": "Feature",
    "geometry": {
        "type": "Polygon",
        "coordinates": [
            [
                [
                    -111.97645317,
                    33.07851269
                ],
                [
                    -111.97658412,
                    33.07851334
                ],
                [
                    -111.97658223,
                    33.07878398
                ],
                [
                    -111.97645127,
                    33.07878333
                ],
                [
                    -111.97645317,
                    33.07851269
                ]
            ]
        ]
    },
    "properties": {
        "plt_label": "p12-4",
        "trt_label": "AQCSWC_NG4936",
        "PLT_AREA": 366.81014,
        "HARM": "Machine",
        "HADAT": "11/16/2022",
        "WBWAH": 4649.3,
        "BWCAH": 4.61,
        "DBWAH": 4434.9,
        "GNDAT": "11/17/2022",
        "FFRAC": 0.3341,
        "SFRAC": 0.5479,
        "TFRAC": 0.118,
        "WFWAH": 1553.3,
        "WSWAH": 2547.4,
        "WSCWAH": 4100.7,
        "DFWAH": 1481.7,
        "DSWAH": 2429.9,
        "DSCWAH": 3911.6,
        "QLDAT": "02/23/2023",
        "FBMIC": 47.1,
        "FBLTH": 1.125,
        "FBUNI": 79.9,
        "FBSTR": 28.5,
        "FBELO": 6.1,
        "FBCRD": 80.2,
        "FBCLB": 8.2,
        "FBTCT": 15.0,
        "FBTAR": 0.16,
        "FBSFI": 9.8,
        "haids": [
            "642229b48ac5472778a6fe77",
            "642229b48ac5472778a6fe78",
            "642229b48ac5472778a6fe79",
            "642229b48ac5472778a6fe7a",
            "642229b48ac5472778a6fe7b",
            "642229b48ac5472778a6fe7c"
        ],
        "tids": [
            "642234bc8ac5472aca1a30d7"
        ],
        "chids": [
            "64223bcc8ac5472d7b943419",
            "64223bcc8ac5472d7b94341a",
            "64223bcc8ac5472d7b94341b"
        ]
    },
    "_id": "641e34c68ac547efd644625b",
    "pid": "641e34c68ac547efd644625b"
}