{
    "type": "FeatureCollection",
    "features": [
        {
            "type": "Feature",
            "geometry": {
                "type": "Polygon",
                "coordinates": [
                    [
                        [
                            -111.97088596,
                            33.06695451
                        ],
                        [
                            -111.97188527,
                            33.06695757
                        ],
                        [
                            -111.97189806,
                            33.06784479
                        ],
                        [
                            -111.97089352,
                            33.06785007
                        ],
                        [
                            -111.97088596,
                            33.06695451
                        ]
                    ]
                ]
            },
            "properties": {
                "exp_label": "1999_F105_CO_AGIIS",
                "trt_info": [
                    {
                        "trt_label": "WN",
                        "description": "Optimal water and nitrogen",
                        "pids": [
                            "644c24398ac547c38028980b",
                            "644c24398ac547c380289811",
                            "644c24398ac547c380289816",
                            "644c24398ac547c380289818"
                        ]
                    },
                    {
                        "trt_label": "Wn",
                        "description": "Optimal water and low nitrogen",
                        "pids": [
                            "644c24398ac547c38028980c",
                            "644c24398ac547c380289812",
                            "644c24398ac547c380289813",
                            "644c24398ac547c380289819"
                        ]
                    },
                    {
                        "trt_label": "wN",
                        "description": "Low water and optimal nitrogen",
                        "pids": [
                            "644c24398ac547c38028980d",
                            "644c24398ac547c38028980f",
                            "644c24398ac547c380289814",
                            "644c24398ac547c38028981a"
                        ]
                    },
                    {
                        "trt_label": "wn",
                        "description": "Low water and low nitrogen",
                        "pids": [
                            "644c24398ac547c38028980e",
                            "644c24398ac547c380289810",
                            "644c24398ac547c380289815",
                            "644c24398ac547c380289817"
                        ]
                    }
                ],
                "FAREA": 9244.157016,
                "EXNAME": "Agricultural Irrigation Imaging System (AGIIS, \"Ag Eyes\"), Season 2 of 2",
                "OBJECTIVES": "See Kostrzewski, M., Waller, P., Guertin, P., Haberland, J., Colaizzi, P., Barnes, E., Thompson, T., Clarke, T., Riley, E., Choi, C., 2002. Ground-base remote sensing of water and nitrogen stress. Transactions of the ASAE. 46(1):29-38. doi:10.13031/2013.12546",
                "EXP_NARR": "See Kostrzewski, M., Waller, P., Guertin, P., Haberland, J., Colaizzi, P., Barnes, E., Thompson, T., Clarke, T., Riley, E., Choi, C., 2002. Ground-base remote sensing of water and nitrogen stress. Transactions of the ASAE. 46(1):29-38. doi:10.13031/2013.12546",
                "MAIN_FACTOR": "Optimal and low irrigation and optimal and low nitrogen",
                "FACTORS": "Optimal and low irrigation and optimal and low nitrogen",
                "TRT_COUNT": 4,
                "REP_NO": 4,
                "METHODS": "See Kostrzewski, M., Waller, P., Guertin, P., Haberland, J., Colaizzi, P., Barnes, E., Thompson, T., Clarke, T., Riley, E., Choi, C., 2002. Ground-base remote sensing of water and nitrogen stress. Transactions of the ASAE. 46(1):29-38. doi:10.13031/2013.12546",
                "EXPER_TYPE": "ET001",
                "SITE_NAME": "Maricopa Agricultural Center, Field 105",
                "SITE_TYPE": "ST001",
                "MGMT_TYPE": "MT001",
                "EXP_YEAR": "1999",
                "EXP_DUR": 1,
                "CR_SYSTEM": "Cotton after winter cover crop",
                "LAST_NAME": "",
                "FIRST_NAME": "",
                "MID_INITIAL": "",
                "PERSON_NOTES": "",
                "EX_ADDRESS": "",
                "EX_EMAIL": "",
                "INSTITUTION": "",
                "IN_TYPE": "IT004",
                "IN_ROLE": "IL001",
                "CMPLC": "",
                "SUITE_NAME": "Agricultural Irrigation Imaging System (AGIIS, \"Ag Eyes\")",
                "SUITE_OBJ": "See Kostrzewski, M., Waller, P., Guertin, P., Haberland, J., Colaizzi, P., Barnes, E., Thompson, T., Clarke, T., Riley, E., Choi, C., 2002. Ground-base remote sensing of water and nitrogen stress. Transactions of the ASAE. 46(1):29-38. doi:10.13031/2013.12546",
                "FL_NAME": "Field 105",
                "FL_LAT": 33.067406,
                "FL_LONG": -111.971473,
                "FLELE": 361
            },
            "_id": "644c25908ac547c459bb7b14",
            "eid": "644c25908ac547c459bb7b14"
        }
    ]
}