{
    "type": "FeatureCollection",
    "features": [
        {
            "type": "Feature",
            "geometry": {
                "type": "Polygon",
                "coordinates": [
                    [
                        [
                            -111.97165491,
                            33.06778354
                        ],
                        [
                            -111.97189688,
                            33.06778188
                        ],
                        [
                            -111.97189722,
                            33.06779986
                        ],
                        [
                            -111.9716549,
                            33.0678014
                        ],
                        [
                            -111.97165491,
                            33.06778354
                        ]
                    ]
                ]
            },
            "properties": {
                "ha_label": "p01N",
                "HAREA": 44.910108,
                "HARM": "Machine",
                "HADAT": "11/12/1999",
                "WBWAH": 3507.5,
                "FFRAC": 0.34,
                "SFRAC": 0.5445,
                "TFRAC": 0.1156,
                "WFWAH": 1192.5,
                "WSWAH": 1909.7,
                "WSCWAH": 3102.2
            },
            "_id": "644c3b988ac547caa4c949c2",
            "haid": "644c3b988ac547caa4c949c2"
        },
        {
            "type": "Feature",
            "geometry": {
                "type": "Polygon",
                "coordinates": [
                    [
                        [
                            -111.97189504,
                            33.06768302
                        ],
                        [
                            -111.97189537,
                            33.067701
                        ],
                        [
                            -111.97165496,
                            33.06770316
                        ],
                        [
                            -111.97165497,
                            33.0676853
                        ],
                        [
                            -111.97189504,
                            33.06768302
                        ]
                    ]
                ]
            },
            "properties": {
                "ha_label": "p01S",
                "HAREA": 44.558622,
                "HARM": "Machine",
                "HADAT": "11/12/1999",
                "WBWAH": 3854.2,
                "FFRAC": 0.3353,
                "SFRAC": 0.5465,
                "TFRAC": 0.1181,
                "WFWAH": 1292.5,
                "WSWAH": 2106.5,
                "WSCWAH": 3399.0
            },
            "_id": "644c3b988ac547caa4c949c3",
            "haid": "644c3b988ac547caa4c949c3"
        },
        {
            "type": "Feature",
            "geometry": {
                "type": "Polygon",
                "coordinates": [
                    [
                        [
                            -111.97140895,
                            33.06778545
                        ],
                        [
                            -111.97163526,
                            33.06778433
                        ],
                        [
                            -111.97163545,
                            33.06780219
                        ],
                        [
                            -111.97140887,
                            33.06780331
                        ],
                        [
                            -111.97140895,
                            33.06778545
                        ]
                    ]
                ]
            },
            "properties": {
                "ha_label": "p02N",
                "HAREA": 41.862754,
                "HARM": "Machine",
                "HADAT": "11/12/1999",
                "WBWAH": 3664.1,
                "FFRAC": 0.3654,
                "SFRAC": 0.5584,
                "TFRAC": 0.0763,
                "WFWAH": 1338.7,
                "WSWAH": 2045.9,
                "WSCWAH": 3384.6
            },
            "_id": "644c3b988ac547caa4c949c4",
            "haid": "644c3b988ac547caa4c949c4"
        },
        {
            "type": "Feature",
            "geometry": {
                "type": "Polygon",
                "coordinates": [
                    [
                        [
                            -111.97140939,
                            33.06768721
                        ],
                        [
                            -111.97163418,
                            33.0676861
                        ],
                        [
                            -111.97163437,
                            33.06770396
                        ],
                        [
                            -111.97140931,
                            33.06770507
                        ],
                        [
                            -111.97140939,
                            33.06768721
                        ]
                    ]
                ]
            },
            "properties": {
                "ha_label": "p02S",
                "HAREA": 41.582646,
                "HARM": "Machine",
                "HADAT": "11/12/1999",
                "WBWAH": 3104.9,
                "FFRAC": 0.3482,
                "SFRAC": 0.5219,
                "TFRAC": 0.1299,
                "WFWAH": 1081.1,
                "WSWAH": 1620.4,
                "WSCWAH": 2701.4
            },
            "_id": "644c3b988ac547caa4c949c5",
            "haid": "644c3b988ac547caa4c949c5"
        },
        {
            "type": "Feature",
            "geometry": {
                "type": "Polygon",
                "coordinates": [
                    [
                        [
                            -111.97138781,
                            33.06778585
                        ],
                        [
                            -111.97138815,
                            33.06780382
                        ],
                        [
                            -111.97115239,
                            33.06780665
                        ],
                        [
                            -111.97115198,
                            33.06778856
                        ],
                        [
                            -111.97138781,
                            33.06778585
                        ]
                    ]
                ]
            },
            "properties": {
                "ha_label": "p03N",
                "HAREA": 44.019607,
                "HARM": "Machine",
                "HADAT": "11/12/1999",
                "WBWAH": 3312.9,
                "FFRAC": 0.3436,
                "SFRAC": 0.5353,
                "TFRAC": 0.1211,
                "WFWAH": 1138.2,
                "WSWAH": 1773.4,
                "WSCWAH": 2911.6
            },
            "_id": "644c3b988ac547caa4c949c6",
            "haid": "644c3b988ac547caa4c949c6"
        },
        {
            "type": "Feature",
            "geometry": {
                "type": "Polygon",
                "coordinates": [
                    [
                        [
                            -111.97138597,
                            33.06768699
                        ],
                        [
                            -111.9713863,
                            33.06770496
                        ],
                        [
                            -111.97115016,
                            33.06770715
                        ],
                        [
                            -111.97114975,
                            33.06768906
                        ],
                        [
                            -111.97138597,
                            33.06768699
                        ]
                    ]
                ]
            },
            "properties": {
                "ha_label": "p03S",
                "HAREA": 44.089176,
                "HARM": "Machine",
                "HADAT": "11/12/1999",
                "WBWAH": 3720.0,
                "FFRAC": 0.3491,
                "SFRAC": 0.5584,
                "TFRAC": 0.0925,
                "WFWAH": 1298.7,
                "WSWAH": 2077.4,
                "WSCWAH": 3376.1
            },
            "_id": "644c3b988ac547caa4c949c7",
            "haid": "644c3b988ac547caa4c949c7"
        },
        {
            "type": "Feature",
            "geometry": {
                "type": "Polygon",
                "coordinates": [
                    [
                        [
                            -111.97089212,
                            33.06778817
                        ],
                        [
                            -111.97112567,
                            33.06778833
                        ],
                        [
                            -111.9711258,
                            33.06780636
                        ],
                        [
                            -111.97089252,
                            33.06780586
                        ],
                        [
                            -111.97089212,
                            33.06778817
                        ]
                    ]
                ]
            },
            "properties": {
                "ha_label": "p04N",
                "HAREA": 43.146207,
                "HARM": "Machine",
                "HADAT": "11/12/1999",
                "WBWAH": 4037.7,
                "FFRAC": 0.3525,
                "SFRAC": 0.5476,
                "TFRAC": 0.0999,
                "WFWAH": 1423.3,
                "WSWAH": 2211.1,
                "WSCWAH": 3634.4
            },
            "_id": "644c3b988ac547caa4c949c8",
            "haid": "644c3b988ac547caa4c949c8"
        },
        {
            "type": "Feature",
            "geometry": {
                "type": "Polygon",
                "coordinates": [
                    [
                        [
                            -111.97088991,
                            33.06769091
                        ],
                        [
                            -111.97112496,
                            33.06768914
                        ],
                        [
                            -111.97112509,
                            33.06770717
                        ],
                        [
                            -111.97089031,
                            33.06770859
                        ],
                        [
                            -111.97088991,
                            33.06769091
                        ]
                    ]
                ]
            },
            "properties": {
                "ha_label": "p04S",
                "HAREA": 43.427667,
                "HARM": "Machine",
                "HADAT": "11/12/1999",
                "WBWAH": 4214.4,
                "FFRAC": 0.3532,
                "SFRAC": 0.5395,
                "TFRAC": 0.1074,
                "WFWAH": 1488.4,
                "WSWAH": 2273.6,
                "WSCWAH": 3761.9
            },
            "_id": "644c3b988ac547caa4c949c9",
            "haid": "644c3b988ac547caa4c949c9"
        },
        {
            "type": "Feature",
            "geometry": {
                "type": "Polygon",
                "coordinates": [
                    [
                        [
                            -111.9716582,
                            33.06754972
                        ],
                        [
                            -111.97189278,
                            33.06754981
                        ],
                        [
                            -111.97189292,
                            33.0675683
                        ],
                        [
                            -111.97165847,
                            33.06756822
                        ],
                        [
                            -111.9716582,
                            33.06754972
                        ]
                    ]
                ]
            },
            "properties": {
                "ha_label": "p05N",
                "HAREA": 44.899697,
                "HARM": "Machine",
                "HADAT": "11/12/1999",
                "WBWAH": 3697.7,
                "FFRAC": 0.3451,
                "SFRAC": 0.545,
                "TFRAC": 0.1099,
                "WFWAH": 1276.2,
                "WSWAH": 2015.2,
                "WSCWAH": 3291.4
            },
            "_id": "644c3b988ac547caa4c949ca",
            "haid": "644c3b988ac547caa4c949ca"
        },
        {
            "type": "Feature",
            "geometry": {
                "type": "Polygon",
                "coordinates": [
                    [
                        [
                            -111.9716567,
                            33.06744799
                        ],
                        [
                            -111.97189204,
                            33.06744807
                        ],
                        [
                            -111.97189218,
                            33.06746656
                        ],
                        [
                            -111.97165697,
                            33.06746648
                        ],
                        [
                            -111.9716567,
                            33.06744799
                        ]
                    ]
                ]
            },
            "properties": {
                "ha_label": "p05S",
                "HAREA": 45.044759,
                "HARM": "Machine",
                "HADAT": "11/12/1999",
                "WBWAH": 3661.9,
                "FFRAC": 0.3505,
                "SFRAC": 0.5556,
                "TFRAC": 0.0939,
                "WFWAH": 1283.5,
                "WSWAH": 2034.4,
                "WSCWAH": 3317.9
            },
            "_id": "644c3b988ac547caa4c949cb",
            "haid": "644c3b988ac547caa4c949cb"
        },
        {
            "type": "Feature",
            "geometry": {
                "type": "Polygon",
                "coordinates": [
                    [
                        [
                            -111.97140212,
                            33.06754963
                        ],
                        [
                            -111.97163392,
                            33.06754994
                        ],
                        [
                            -111.97163399,
                            33.06756861
                        ],
                        [
                            -111.9714024,
                            33.06756836
                        ],
                        [
                            -111.97140212,
                            33.06754963
                        ]
                    ]
                ]
            },
            "properties": {
                "ha_label": "p06N",
                "HAREA": 44.846503,
                "HARM": "Machine",
                "HADAT": "11/12/1999",
                "WBWAH": 3869.9,
                "FFRAC": 0.3458,
                "SFRAC": 0.5567,
                "TFRAC": 0.0974,
                "WFWAH": 1338.4,
                "WSWAH": 2154.4,
                "WSCWAH": 3492.8
            },
            "_id": "644c3b988ac547caa4c949cc",
            "haid": "644c3b988ac547caa4c949cc"
        },
        {
            "type": "Feature",
            "geometry": {
                "type": "Polygon",
                "coordinates": [
                    [
                        [
                            -111.97140061,
                            33.06744662
                        ],
                        [
                            -111.97163355,
                            33.06744724
                        ],
                        [
                            -111.97163362,
                            33.06746591
                        ],
                        [
                            -111.97140089,
                            33.06746535
                        ],
                        [
                            -111.97140061,
                            33.06744662
                        ]
                    ]
                ]
            },
            "properties": {
                "ha_label": "p06S",
                "HAREA": 45.06659,
                "HARM": "Machine",
                "HADAT": "11/12/1999",
                "WBWAH": 3847.5,
                "FFRAC": 0.356,
                "SFRAC": 0.5498,
                "TFRAC": 0.0942,
                "WFWAH": 1369.8,
                "WSWAH": 2115.3,
                "WSCWAH": 3485.1
            },
            "_id": "644c3b988ac547caa4c949cd",
            "haid": "644c3b988ac547caa4c949cd"
        },
        {
            "type": "Feature",
            "geometry": {
                "type": "Polygon",
                "coordinates": [
                    [
                        [
                            -111.97114498,
                            33.06754627
                        ],
                        [
                            -111.97138225,
                            33.06754602
                        ],
                        [
                            -111.9713825,
                            33.06756451
                        ],
                        [
                            -111.97114511,
                            33.06756471
                        ],
                        [
                            -111.97114498,
                            33.06754627
                        ]
                    ]
                ]
            },
            "properties": {
                "ha_label": "p07N",
                "HAREA": 45.350242,
                "HARM": "Machine",
                "HADAT": "11/12/1999",
                "WBWAH": 3337.5,
                "FFRAC": 0.3481,
                "SFRAC": 0.551,
                "TFRAC": 0.1009,
                "WFWAH": 1161.9,
                "WSWAH": 1838.9,
                "WSCWAH": 3000.8
            },
            "_id": "644c3b988ac547caa4c949ce",
            "haid": "644c3b988ac547caa4c949ce"
        },
        {
            "type": "Feature",
            "geometry": {
                "type": "Polygon",
                "coordinates": [
                    [
                        [
                            -111.97114425,
                            33.06744484
                        ],
                        [
                            -111.97138085,
                            33.06744437
                        ],
                        [
                            -111.97138111,
                            33.06746285
                        ],
                        [
                            -111.97114438,
                            33.06746328
                        ],
                        [
                            -111.97114425,
                            33.06744484
                        ]
                    ]
                ]
            },
            "properties": {
                "ha_label": "p07S",
                "HAREA": 45.224978,
                "HARM": "Machine",
                "HADAT": "11/12/1999",
                "WBWAH": 3142.9,
                "FFRAC": 0.3372,
                "SFRAC": 0.5419,
                "TFRAC": 0.1209,
                "WFWAH": 1059.9,
                "WSWAH": 1703.0,
                "WSCWAH": 2762.9
            },
            "_id": "644c3b988ac547caa4c949cf",
            "haid": "644c3b988ac547caa4c949cf"
        },
        {
            "type": "Feature",
            "geometry": {
                "type": "Polygon",
                "coordinates": [
                    [
                        [
                            -111.97088923,
                            33.06754759
                        ],
                        [
                            -111.97112308,
                            33.06754661
                        ],
                        [
                            -111.97112363,
                            33.06756481
                        ],
                        [
                            -111.97088971,
                            33.06756585
                        ],
                        [
                            -111.97088923,
                            33.06754759
                        ]
                    ]
                ]
            },
            "properties": {
                "ha_label": "p08N",
                "HAREA": 44.146722,
                "HARM": "Machine",
                "HADAT": "11/12/1999",
                "WBWAH": 3778.2,
                "FFRAC": 0.3502,
                "SFRAC": 0.5448,
                "TFRAC": 0.105,
                "WFWAH": 1323.0,
                "WSWAH": 2058.4,
                "WSCWAH": 3381.4
            },
            "_id": "644c3b988ac547caa4c949d0",
            "haid": "644c3b988ac547caa4c949d0"
        },
        {
            "type": "Feature",
            "geometry": {
                "type": "Polygon",
                "coordinates": [
                    [
                        [
                            -111.97088661,
                            33.06744714
                        ],
                        [
                            -111.97112009,
                            33.06744648
                        ],
                        [
                            -111.97112063,
                            33.06746469
                        ],
                        [
                            -111.97088709,
                            33.0674654
                        ],
                        [
                            -111.97088661,
                            33.06744714
                        ]
                    ]
                ]
            },
            "properties": {
                "ha_label": "p08S",
                "HAREA": 44.074175,
                "HARM": "Machine",
                "HADAT": "11/12/1999",
                "WBWAH": 3963.9,
                "FFRAC": 0.3523,
                "SFRAC": 0.5393,
                "TFRAC": 0.1084,
                "WFWAH": 1396.5,
                "WSWAH": 2137.7,
                "WSCWAH": 3534.3
            },
            "_id": "644c3b988ac547caa4c949d1",
            "haid": "644c3b988ac547caa4c949d1"
        },
        {
            "type": "Feature",
            "geometry": {
                "type": "Polygon",
                "coordinates": [
                    [
                        [
                            -111.9716528,
                            33.06731246
                        ],
                        [
                            -111.9718925,
                            33.06731448
                        ],
                        [
                            -111.97189283,
                            33.06733205
                        ],
                        [
                            -111.97165299,
                            33.06732968
                        ],
                        [
                            -111.9716528,
                            33.06731246
                        ]
                    ]
                ]
            },
            "properties": {
                "ha_label": "p09N",
                "HAREA": 43.165012,
                "HARM": "Machine",
                "HADAT": "11/12/1999",
                "WBWAH": 4131.6,
                "FFRAC": 0.3546,
                "SFRAC": 0.5602,
                "TFRAC": 0.0851,
                "WFWAH": 1465.2,
                "WSWAH": 2314.7,
                "WSCWAH": 3779.9
            },
            "_id": "644c3b988ac547caa4c949d2",
            "haid": "644c3b988ac547caa4c949d2"
        },
        {
            "type": "Feature",
            "geometry": {
                "type": "Polygon",
                "coordinates": [
                    [
                        [
                            -111.97165176,
                            33.06721774
                        ],
                        [
                            -111.97189068,
                            33.06721785
                        ],
                        [
                            -111.97189101,
                            33.06723542
                        ],
                        [
                            -111.97165195,
                            33.06723496
                        ],
                        [
                            -111.97165176,
                            33.06721774
                        ]
                    ]
                ]
            },
            "properties": {
                "ha_label": "p09S",
                "HAREA": 43.029965,
                "HARM": "Machine",
                "HADAT": "11/12/1999",
                "WBWAH": 4377.7,
                "FFRAC": 0.3669,
                "SFRAC": 0.5542,
                "TFRAC": 0.0789,
                "WFWAH": 1606.4,
                "WSWAH": 2425.9,
                "WSCWAH": 4032.3
            },
            "_id": "644c3b988ac547caa4c949d3",
            "haid": "644c3b988ac547caa4c949d3"
        },
        {
            "type": "Feature",
            "geometry": {
                "type": "Polygon",
                "coordinates": [
                    [
                        [
                            -111.97139651,
                            33.06731098
                        ],
                        [
                            -111.97163211,
                            33.06731306
                        ],
                        [
                            -111.97163237,
                            33.06733034
                        ],
                        [
                            -111.97139696,
                            33.06732773
                        ],
                        [
                            -111.97139651,
                            33.06731098
                        ]
                    ]
                ]
            },
            "properties": {
                "ha_label": "p10N",
                "HAREA": 41.472964,
                "HARM": "Machine",
                "HADAT": "11/12/1999",
                "WBWAH": 3547.8,
                "FFRAC": 0.3307,
                "SFRAC": 0.5343,
                "TFRAC": 0.135,
                "WFWAH": 1173.3,
                "WSWAH": 1895.7,
                "WSCWAH": 3069.0
            },
            "_id": "644c3b988ac547caa4c949d4",
            "haid": "644c3b988ac547caa4c949d4"
        },
        {
            "type": "Feature",
            "geometry": {
                "type": "Polygon",
                "coordinates": [
                    [
                        [
                            -111.97139398,
                            33.06721882
                        ],
                        [
                            -111.97163069,
                            33.06721802
                        ],
                        [
                            -111.97163095,
                            33.0672353
                        ],
                        [
                            -111.97139444,
                            33.06723558
                        ],
                        [
                            -111.97139398,
                            33.06721882
                        ]
                    ]
                ]
            },
            "properties": {
                "ha_label": "p10S",
                "HAREA": 41.678262,
                "HARM": "Machine",
                "HADAT": "11/12/1999",
                "WBWAH": 3814.0,
                "FFRAC": 0.3478,
                "SFRAC": 0.552,
                "TFRAC": 0.1002,
                "WFWAH": 1326.6,
                "WSWAH": 2105.3,
                "WSCWAH": 3431.9
            },
            "_id": "644c3b988ac547caa4c949d5",
            "haid": "644c3b988ac547caa4c949d5"
        },
        {
            "type": "Feature",
            "geometry": {
                "type": "Polygon",
                "coordinates": [
                    [
                        [
                            -111.97113909,
                            33.06731127
                        ],
                        [
                            -111.97137753,
                            33.06731133
                        ],
                        [
                            -111.97137779,
                            33.06732803
                        ],
                        [
                            -111.97113907,
                            33.06732797
                        ],
                        [
                            -111.97113909,
                            33.06731127
                        ]
                    ]
                ]
            },
            "properties": {
                "ha_label": "p11N",
                "HAREA": 41.240164,
                "HARM": "Machine",
                "HADAT": "11/12/1999",
                "WBWAH": 3896.7,
                "FFRAC": 0.3383,
                "SFRAC": 0.5155,
                "TFRAC": 0.1462,
                "WFWAH": 1318.3,
                "WSWAH": 2008.7,
                "WSCWAH": 3327.0
            },
            "_id": "644c3b988ac547caa4c949d6",
            "haid": "644c3b988ac547caa4c949d6"
        },
        {
            "type": "Feature",
            "geometry": {
                "type": "Polygon",
                "coordinates": [
                    [
                        [
                            -111.97113922,
                            33.06721941
                        ],
                        [
                            -111.97137615,
                            33.06721948
                        ],
                        [
                            -111.9713764,
                            33.06723618
                        ],
                        [
                            -111.9711392,
                            33.06723612
                        ],
                        [
                            -111.97113922,
                            33.06721941
                        ]
                    ]
                ]
            },
            "properties": {
                "ha_label": "p11S",
                "HAREA": 40.978257,
                "HARM": "Machine",
                "HADAT": "11/12/1999",
                "WBWAH": 4019.8,
                "FFRAC": 0.3375,
                "SFRAC": 0.5148,
                "TFRAC": 0.1477,
                "WFWAH": 1356.9,
                "WSWAH": 2069.3,
                "WSCWAH": 3426.2
            },
            "_id": "644c3b988ac547caa4c949d7",
            "haid": "644c3b988ac547caa4c949d7"
        },
        {
            "type": "Feature",
            "geometry": {
                "type": "Polygon",
                "coordinates": [
                    [
                        [
                            -111.97088712,
                            33.06731132
                        ],
                        [
                            -111.97112071,
                            33.06731165
                        ],
                        [
                            -111.97112096,
                            33.06732846
                        ],
                        [
                            -111.97088744,
                            33.06732802
                        ],
                        [
                            -111.97088712,
                            33.06731132
                        ]
                    ]
                ]
            },
            "properties": {
                "ha_label": "p12N",
                "HAREA": 40.507547,
                "HARM": "Machine",
                "HADAT": "11/12/1999",
                "WBWAH": 3265.9,
                "FFRAC": 0.3223,
                "SFRAC": 0.553,
                "TFRAC": 0.1247,
                "WFWAH": 1052.5,
                "WSWAH": 1806.0,
                "WSCWAH": 2858.5
            },
            "_id": "644c3b988ac547caa4c949d8",
            "haid": "644c3b988ac547caa4c949d8"
        },
        {
            "type": "Feature",
            "geometry": {
                "type": "Polygon",
                "coordinates": [
                    [
                        [
                            -111.97088535,
                            33.06721948
                        ],
                        [
                            -111.97111931,
                            33.06721916
                        ],
                        [
                            -111.97111957,
                            33.06723598
                        ],
                        [
                            -111.97088568,
                            33.06723618
                        ],
                        [
                            -111.97088535,
                            33.06721948
                        ]
                    ]
                ]
            },
            "properties": {
                "ha_label": "p12S",
                "HAREA": 40.573945,
                "HARM": "Machine",
                "HADAT": "11/12/1999",
                "WBWAH": 3816.2,
                "FFRAC": 0.3425,
                "SFRAC": 0.5635,
                "TFRAC": 0.094,
                "WFWAH": 1307.1,
                "WSWAH": 2150.3,
                "WSCWAH": 3457.3
            },
            "_id": "644c3b988ac547caa4c949d9",
            "haid": "644c3b988ac547caa4c949d9"
        },
        {
            "type": "Feature",
            "geometry": {
                "type": "Polygon",
                "coordinates": [
                    [
                        [
                            -111.9716569,
                            33.06709293
                        ],
                        [
                            -111.97188832,
                            33.06709412
                        ],
                        [
                            -111.97188873,
                            33.06711232
                        ],
                        [
                            -111.97165675,
                            33.06711108
                        ],
                        [
                            -111.9716569,
                            33.06709293
                        ]
                    ]
                ]
            },
            "properties": {
                "ha_label": "p13N",
                "HAREA": 43.596403,
                "HARM": "Machine",
                "HADAT": "11/12/1999",
                "WBWAH": 3384.5,
                "FFRAC": 0.357,
                "SFRAC": 0.5534,
                "TFRAC": 0.0895,
                "WFWAH": 1208.4,
                "WSWAH": 1873.1,
                "WSCWAH": 3081.5
            },
            "_id": "644c3b988ac547caa4c949da",
            "haid": "644c3b988ac547caa4c949da"
        },
        {
            "type": "Feature",
            "geometry": {
                "type": "Polygon",
                "coordinates": [
                    [
                        [
                            -111.97165769,
                            33.06699309
                        ],
                        [
                            -111.97188609,
                            33.06699398
                        ],
                        [
                            -111.97188649,
                            33.06701219
                        ],
                        [
                            -111.97165755,
                            33.06701125
                        ],
                        [
                            -111.97165769,
                            33.06699309
                        ]
                    ]
                ]
            },
            "properties": {
                "ha_label": "p13S",
                "HAREA": 43.025969,
                "HARM": "Machine",
                "HADAT": "11/12/1999",
                "WBWAH": 3514.2,
                "FFRAC": 0.3508,
                "SFRAC": 0.5545,
                "TFRAC": 0.0947,
                "WFWAH": 1232.8,
                "WSWAH": 1948.7,
                "WSCWAH": 3181.4
            },
            "_id": "644c3b988ac547caa4c949db",
            "haid": "644c3b988ac547caa4c949db"
        },
        {
            "type": "Feature",
            "geometry": {
                "type": "Polygon",
                "coordinates": [
                    [
                        [
                            -111.97139683,
                            33.06709307
                        ],
                        [
                            -111.97163097,
                            33.0670934
                        ],
                        [
                            -111.97163131,
                            33.06711183
                        ],
                        [
                            -111.97139696,
                            33.0671114
                        ],
                        [
                            -111.97139683,
                            33.06709307
                        ]
                    ]
                ]
            },
            "properties": {
                "ha_label": "p14N",
                "HAREA": 44.564999,
                "HARM": "Machine",
                "HADAT": "11/12/1999",
                "WBWAH": 3279.3,
                "FFRAC": 0.3528,
                "SFRAC": 0.5611,
                "TFRAC": 0.0861,
                "WFWAH": 1157.0,
                "WSWAH": 1839.9,
                "WSCWAH": 2996.9
            },
            "_id": "644c3b988ac547caa4c949dc",
            "haid": "644c3b988ac547caa4c949dc"
        },
        {
            "type": "Feature",
            "geometry": {
                "type": "Polygon",
                "coordinates": [
                    [
                        [
                            -111.9713961,
                            33.06699229
                        ],
                        [
                            -111.9716291,
                            33.06699198
                        ],
                        [
                            -111.97162944,
                            33.06701042
                        ],
                        [
                            -111.97139624,
                            33.06701061
                        ],
                        [
                            -111.9713961,
                            33.06699229
                        ]
                    ]
                ]
            },
            "properties": {
                "ha_label": "p14S",
                "HAREA": 44.349016,
                "HARM": "Machine",
                "HADAT": "11/12/1999",
                "WBWAH": 3572.4,
                "FFRAC": 0.3321,
                "SFRAC": 0.5354,
                "TFRAC": 0.1324,
                "WFWAH": 1186.5,
                "WSWAH": 1912.8,
                "WSCWAH": 3099.3
            },
            "_id": "644c3b988ac547caa4c949dd",
            "haid": "644c3b988ac547caa4c949dd"
        },
        {
            "type": "Feature",
            "geometry": {
                "type": "Polygon",
                "coordinates": [
                    [
                        [
                            -111.97114248,
                            33.06708949
                        ],
                        [
                            -111.97137052,
                            33.06709006
                        ],
                        [
                            -111.97137058,
                            33.06710821
                        ],
                        [
                            -111.97114254,
                            33.06710758
                        ],
                        [
                            -111.97114248,
                            33.06708949
                        ]
                    ]
                ]
            },
            "properties": {
                "ha_label": "p15N",
                "HAREA": 42.773946,
                "HARM": "Machine",
                "HADAT": "11/12/1999",
                "WBWAH": 3843.1,
                "FFRAC": 0.3625,
                "SFRAC": 0.557,
                "TFRAC": 0.0805,
                "WFWAH": 1393.1,
                "WSWAH": 2140.5,
                "WSCWAH": 3533.7
            },
            "_id": "644c3b988ac547caa4c949de",
            "haid": "644c3b988ac547caa4c949de"
        },
        {
            "type": "Feature",
            "geometry": {
                "type": "Polygon",
                "coordinates": [
                    [
                        [
                            -111.97114214,
                            33.06698998
                        ],
                        [
                            -111.97137018,
                            33.06699023
                        ],
                        [
                            -111.97137025,
                            33.06700838
                        ],
                        [
                            -111.9711422,
                            33.06700807
                        ],
                        [
                            -111.97114214,
                            33.06698998
                        ]
                    ]
                ]
            },
            "properties": {
                "ha_label": "p15S",
                "HAREA": 42.773502,
                "HARM": "Machine",
                "HADAT": "11/12/1999",
                "WBWAH": 3572.4,
                "FFRAC": 0.3613,
                "SFRAC": 0.5559,
                "TFRAC": 0.0829,
                "WFWAH": 1290.6,
                "WSWAH": 1985.8,
                "WSCWAH": 3276.4
            },
            "_id": "644c3b988ac547caa4c949df",
            "haid": "644c3b988ac547caa4c949df"
        },
        {
            "type": "Feature",
            "geometry": {
                "type": "Polygon",
                "coordinates": [
                    [
                        [
                            -111.97088694,
                            33.06709107
                        ],
                        [
                            -111.97112113,
                            33.0670917
                        ],
                        [
                            -111.97112167,
                            33.06710993
                        ],
                        [
                            -111.97088707,
                            33.06710928
                        ],
                        [
                            -111.97088694,
                            33.06709107
                        ]
                    ]
                ]
            },
            "properties": {
                "ha_label": "p16N",
                "HAREA": 44.204991,
                "HARM": "Machine",
                "HADAT": "11/12/1999",
                "WBWAH": 3583.6
            },
            "_id": "644c3b988ac547caa4c949e0",
            "haid": "644c3b988ac547caa4c949e0"
        },
        {
            "type": "Feature",
            "geometry": {
                "type": "Polygon",
                "coordinates": [
                    [
                        [
                            -111.97088622,
                            33.06699093
                        ],
                        [
                            -111.97111816,
                            33.0669914
                        ],
                        [
                            -111.9711187,
                            33.06700964
                        ],
                        [
                            -111.97088635,
                            33.06700913
                        ],
                        [
                            -111.97088622,
                            33.06699093
                        ]
                    ]
                ]
            },
            "properties": {
                "ha_label": "p16S",
                "HAREA": 43.780699,
                "HARM": "Machine",
                "HADAT": "11/12/1999",
                "WBWAH": 3565.7,
                "FFRAC": 0.3289,
                "SFRAC": 0.5394,
                "TFRAC": 0.1316,
                "WFWAH": 1172.9,
                "WSWAH": 1923.4,
                "WSCWAH": 3096.3
            },
            "_id": "644c3b988ac547caa4c949e1",
            "haid": "644c3b988ac547caa4c949e1"
        }
    ]
}