{
    "type": "Feature",
    "geometry": {
        "type": "Polygon",
        "coordinates": [
            [
                [
                    -111.97189806,
                    33.06784479
                ],
                [
                    -111.97165488,
                    33.06784605
                ],
                [
                    -111.97165499,
                    33.06764958
                ],
                [
                    -111.97189437,
                    33.06764707
                ],
                [
                    -111.97189806,
                    33.06784479
                ]
            ]
        ]
    },
    "properties": {
        "plt_label": "p01",
        "trt_label": "WN",
        "PLT_AREA": 492.253674,
        "HARM": "Machine",
        "HADAT": "11/12/1999",
        "WBWAH": 3680.9,
        "FFRAC": 0.3377,
        "SFRAC": 0.5455,
        "TFRAC": 0.1168,
        "WFWAH": 1242.9,
        "WSWAH": 2007.9,
        "WSCWAH": 3250.8,
        "haids": [
            "644c3b988ac547caa4c949c2",
            "644c3b988ac547caa4c949c3"
        ],
        "tids": [
            "644c474e8ac547cdc0a12b20",
            "644c474e8ac547cdc0a12b21"
        ]
    },
    "_id": "644c24398ac547c38028980b",
    "pid": "644c24398ac547c38028980b"
}{
    "type": "Feature",
    "geometry": {
        "type": "Polygon",
        "coordinates": [
            [
                [
                    -111.97163594,
                    33.06784684
                ],
                [
                    -111.97140867,
                    33.06784797
                ],
                [
                    -111.97140954,
                    33.06765149
                ],
                [
                    -111.97163379,
                    33.06765038
                ],
                [
                    -111.97163594,
                    33.06784684
                ]
            ]
        ]
    },
    "properties": {
        "plt_label": "p02",
        "trt_label": "Wn",
        "PLT_AREA": 459.089641,
        "HARM": "Machine",
        "HADAT": "11/12/1999",
        "WBWAH": 3384.5,
        "FFRAC": 0.3571,
        "SFRAC": 0.5408,
        "TFRAC": 0.1022,
        "WFWAH": 1208.6,
        "WSWAH": 1830.2,
        "WSCWAH": 3038.7,
        "haids": [
            "644c3b988ac547caa4c949c4",
            "644c3b988ac547caa4c949c5"
        ],
        "tids": [
            "644c474e8ac547cdc0a12b22",
            "644c474e8ac547cdc0a12b23"
        ]
    },
    "_id": "644c24398ac547c38028980c",
    "pid": "644c24398ac547c38028980c"
}{
    "type": "Feature",
    "geometry": {
        "type": "Polygon",
        "coordinates": [
            [
                [
                    -111.97138898,
                    33.06784876
                ],
                [
                    -111.9711534,
                    33.06785187
                ],
                [
                    -111.97114894,
                    33.06765288
                ],
                [
                    -111.9713853,
                    33.06765104
                ],
                [
                    -111.97138898,
                    33.06784876
                ]
            ]
        ]
    },
    "properties": {
        "plt_label": "p03",
        "trt_label": "wN",
        "PLT_AREA": 484.5635,
        "HARM": "Machine",
        "HADAT": "11/12/1999",
        "WBWAH": 3516.5,
        "FFRAC": 0.3461,
        "SFRAC": 0.5458,
        "TFRAC": 0.1081,
        "WFWAH": 1217.0,
        "WSWAH": 1919.4,
        "WSCWAH": 3136.4,
        "haids": [
            "644c3b988ac547caa4c949c6",
            "644c3b988ac547caa4c949c7"
        ],
        "tids": [
            "644c474e8ac547cdc0a12b24",
            "644c474e8ac547cdc0a12b25"
        ]
    },
    "_id": "644c24398ac547c38028980d",
    "pid": "644c24398ac547c38028980d"
}{
    "type": "Feature",
    "geometry": {
        "type": "Polygon",
        "coordinates": [
            [
                [
                    -111.97112612,
                    33.06785145
                ],
                [
                    -111.97089352,
                    33.06785007
                ],
                [
                    -111.97088911,
                    33.06765554
                ],
                [
                    -111.9711247,
                    33.06765307
                ],
                [
                    -111.97112612,
                    33.06785145
                ]
            ]
        ]
    },
    "properties": {
        "plt_label": "p04",
        "trt_label": "wn",
        "PLT_AREA": 476.015527,
        "HARM": "Machine",
        "HADAT": "11/12/1999",
        "WBWAH": 4126.0,
        "FFRAC": 0.3528,
        "SFRAC": 0.5442,
        "TFRAC": 0.103,
        "WFWAH": 1455.6,
        "WSWAH": 2245.3,
        "WSCWAH": 3700.9,
        "haids": [
            "644c3b988ac547caa4c949c8",
            "644c3b988ac547caa4c949c9"
        ],
        "tids": [
            "644c474e8ac547cdc0a12b26",
            "644c474e8ac547cdc0a12b27"
        ]
    },
    "_id": "644c24398ac547c38028980e",
    "pid": "644c24398ac547c38028980e"
}{
    "type": "Feature",
    "geometry": {
        "type": "Polygon",
        "coordinates": [
            [
                [
                    -111.97189325,
                    33.06761455
                ],
                [
                    -111.97165915,
                    33.06761446
                ],
                [
                    -111.97165616,
                    33.06741099
                ],
                [
                    -111.97189177,
                    33.06741107
                ],
                [
                    -111.97189325,
                    33.06761455
                ]
            ]
        ]
    },
    "properties": {
        "plt_label": "p05",
        "trt_label": "wN",
        "PLT_AREA": 494.621997,
        "HARM": "Machine",
        "HADAT": "11/12/1999",
        "WBWAH": 3679.8,
        "FFRAC": 0.3475,
        "SFRAC": 0.5496,
        "TFRAC": 0.1029,
        "WFWAH": 1278.7,
        "WSWAH": 2022.5,
        "WSCWAH": 3301.2,
        "haids": [
            "644c3b988ac547caa4c949ca",
            "644c3b988ac547caa4c949cb"
        ],
        "tids": [
            "644c474e8ac547cdc0a12b28",
            "644c474e8ac547cdc0a12b29"
        ]
    },
    "_id": "644c24398ac547c38028980f",
    "pid": "644c24398ac547c38028980f"
}{
    "type": "Feature",
    "geometry": {
        "type": "Polygon",
        "coordinates": [
            [
                [
                    -111.97163416,
                    33.06761529
                ],
                [
                    -111.97140308,
                    33.06761518
                ],
                [
                    -111.97140006,
                    33.06740916
                ],
                [
                    -111.97163342,
                    33.06740989
                ],
                [
                    -111.97163416,
                    33.06761529
                ]
            ]
        ]
    },
    "properties": {
        "plt_label": "p06",
        "trt_label": "wn",
        "PLT_AREA": 494.411924,
        "HARM": "Machine",
        "HADAT": "11/12/1999",
        "WBWAH": 3858.7,
        "FFRAC": 0.3514,
        "SFRAC": 0.5529,
        "TFRAC": 0.0957,
        "WFWAH": 1356.0,
        "WSWAH": 2133.5,
        "WSCWAH": 3489.6,
        "haids": [
            "644c3b988ac547caa4c949cc",
            "644c3b988ac547caa4c949cd"
        ],
        "tids": [
            "644c474e8ac547cdc0a12b2a",
            "644c474e8ac547cdc0a12b2b"
        ]
    },
    "_id": "644c24398ac547c380289810",
    "pid": "644c24398ac547c380289810"
}{
    "type": "Feature",
    "geometry": {
        "type": "Polygon",
        "coordinates": [
            [
                [
                    -111.97138313,
                    33.06761072
                ],
                [
                    -111.97114545,
                    33.06761081
                ],
                [
                    -111.97114398,
                    33.06740796
                ],
                [
                    -111.97138035,
                    33.0674074
                ],
                [
                    -111.97138313,
                    33.06761072
                ]
            ]
        ]
    },
    "properties": {
        "plt_label": "p07",
        "trt_label": "WN",
        "PLT_AREA": 498.226362,
        "HARM": "Machine",
        "HADAT": "11/12/1999",
        "WBWAH": 3240.2,
        "FFRAC": 0.3421,
        "SFRAC": 0.5459,
        "TFRAC": 0.112,
        "WFWAH": 1108.4,
        "WSWAH": 1768.9,
        "WSCWAH": 2877.3,
        "haids": [
            "644c3b988ac547caa4c949ce",
            "644c3b988ac547caa4c949cf"
        ],
        "tids": [
            "644c474e8ac547cdc0a12b2c",
            "644c474e8ac547cdc0a12b2d"
        ]
    },
    "_id": "644c24398ac547c380289811",
    "pid": "644c24398ac547c380289811"
}{
    "type": "Feature",
    "geometry": {
        "type": "Polygon",
        "coordinates": [
            [
                [
                    -111.97112499,
                    33.06761033
                ],
                [
                    -111.9708909,
                    33.06761151
                ],
                [
                    -111.97088566,
                    33.06741061
                ],
                [
                    -111.971119,
                    33.06741007
                ],
                [
                    -111.97112499,
                    33.06761033
                ]
            ]
        ]
    },
    "properties": {
        "plt_label": "p08",
        "trt_label": "Wn",
        "PLT_AREA": 485.251239,
        "HARM": "Machine",
        "HADAT": "11/12/1999",
        "WBWAH": 3871.0,
        "FFRAC": 0.3513,
        "SFRAC": 0.5419,
        "TFRAC": 0.1068,
        "WFWAH": 1359.9,
        "WSWAH": 2097.9,
        "WSCWAH": 3457.8,
        "haids": [
            "644c3b988ac547caa4c949d0",
            "644c3b988ac547caa4c949d1"
        ],
        "tids": [
            "644c474e8ac547cdc0a12b2e",
            "644c474e8ac547cdc0a12b2f"
        ]
    },
    "_id": "644c24398ac547c380289812",
    "pid": "644c24398ac547c380289812"
}{
    "type": "Feature",
    "geometry": {
        "type": "Polygon",
        "coordinates": [
            [
                [
                    -111.97165346,
                    33.06737274
                ],
                [
                    -111.97165138,
                    33.0671833
                ],
                [
                    -111.97189002,
                    33.06718271
                ],
                [
                    -111.97189366,
                    33.06737597
                ],
                [
                    -111.97165346,
                    33.06737274
                ]
            ]
        ]
    },
    "properties": {
        "plt_label": "p09",
        "trt_label": "Wn",
        "PLT_AREA": 474.139875,
        "HARM": "Machine",
        "HADAT": "11/12/1999",
        "WBWAH": 4254.7,
        "FFRAC": 0.3611,
        "SFRAC": 0.5571,
        "TFRAC": 0.0819,
        "WFWAH": 1536.2,
        "WSWAH": 2370.1,
        "WSCWAH": 3906.3,
        "haids": [
            "644c3b988ac547caa4c949d2",
            "644c3b988ac547caa4c949d3"
        ],
        "tids": [
            "644c474e8ac547cdc0a12b30",
            "644c474e8ac547cdc0a12b31"
        ]
    },
    "_id": "644c24398ac547c380289813",
    "pid": "644c24398ac547c380289813"
}{
    "type": "Feature",
    "geometry": {
        "type": "Polygon",
        "coordinates": [
            [
                [
                    -111.97163302,
                    33.06737354
                ],
                [
                    -111.97139811,
                    33.06736962
                ],
                [
                    -111.97139306,
                    33.06718531
                ],
                [
                    -111.97163017,
                    33.06718346
                ],
                [
                    -111.97163302,
                    33.06737354
                ]
            ]
        ]
    },
    "properties": {
        "plt_label": "p10",
        "trt_label": "wN",
        "PLT_AREA": 457.228994,
        "HARM": "Machine",
        "HADAT": "11/12/1999",
        "WBWAH": 3680.9,
        "FFRAC": 0.3402,
        "SFRAC": 0.5441,
        "TFRAC": 0.1157,
        "WFWAH": 1252.2,
        "WSWAH": 2002.9,
        "WSCWAH": 3255.1,
        "haids": [
            "644c3b988ac547caa4c949d4",
            "644c3b988ac547caa4c949d5"
        ],
        "tids": [
            "644c474e8ac547cdc0a12b32",
            "644c474e8ac547cdc0a12b33"
        ]
    },
    "_id": "644c24398ac547c380289814",
    "pid": "644c24398ac547c380289814"
}{
    "type": "Feature",
    "geometry": {
        "type": "Polygon",
        "coordinates": [
            [
                [
                    -111.97137842,
                    33.06736978
                ],
                [
                    -111.97113901,
                    33.06736973
                ],
                [
                    -111.97113927,
                    33.06718601
                ],
                [
                    -111.97137564,
                    33.06718608
                ],
                [
                    -111.97137842,
                    33.06736978
                ]
            ]
        ]
    },
    "properties": {
        "plt_label": "p11",
        "trt_label": "wn",
        "PLT_AREA": 452.332292,
        "HARM": "Machine",
        "HADAT": "11/12/1999",
        "WBWAH": 3958.3,
        "FFRAC": 0.3379,
        "SFRAC": 0.5151,
        "TFRAC": 0.147,
        "WFWAH": 1337.5,
        "WSWAH": 2038.9,
        "WSCWAH": 3376.4,
        "haids": [
            "644c3b988ac547caa4c949d6",
            "644c3b988ac547caa4c949d7"
        ],
        "tids": [
            "644c474e8ac547cdc0a12b34",
            "644c474e8ac547cdc0a12b35"
        ]
    },
    "_id": "644c24398ac547c380289815",
    "pid": "644c24398ac547c380289815"
}{
    "type": "Feature",
    "geometry": {
        "type": "Polygon",
        "coordinates": [
            [
                [
                    -111.9711216,
                    33.0673705
                ],
                [
                    -111.97088824,
                    33.06736977
                ],
                [
                    -111.97088471,
                    33.06718608
                ],
                [
                    -111.97111881,
                    33.06718553
                ],
                [
                    -111.9711216,
                    33.0673705
                ]
            ]
        ]
    },
    "properties": {
        "plt_label": "p12",
        "trt_label": "WN",
        "PLT_AREA": 445.91506,
        "HARM": "Machine",
        "HADAT": "11/12/1999",
        "WBWAH": 3541.1,
        "FFRAC": 0.3321,
        "SFRAC": 0.5581,
        "TFRAC": 0.1099,
        "WFWAH": 1175.8,
        "WSWAH": 1976.1,
        "WSCWAH": 3151.9,
        "haids": [
            "644c3b988ac547caa4c949d8",
            "644c3b988ac547caa4c949d9"
        ],
        "tids": [
            "644c474e8ac547cdc0a12b36",
            "644c474e8ac547cdc0a12b37"
        ]
    },
    "_id": "644c24398ac547c380289816",
    "pid": "644c24398ac547c380289816"
}{
    "type": "Feature",
    "geometry": {
        "type": "Polygon",
        "coordinates": [
            [
                [
                    -111.97188975,
                    33.06715784
                ],
                [
                    -111.97165639,
                    33.06715647
                ],
                [
                    -111.97165798,
                    33.06695679
                ],
                [
                    -111.97188527,
                    33.06695757
                ],
                [
                    -111.97188975,
                    33.06715784
                ]
            ]
        ]
    },
    "properties": {
        "plt_label": "p13",
        "trt_label": "wn",
        "PLT_AREA": 476.708268,
        "HARM": "Machine",
        "HADAT": "11/12/1999",
        "WBWAH": 3449.4,
        "FFRAC": 0.3538,
        "SFRAC": 0.554,
        "TFRAC": 0.0922,
        "WFWAH": 1220.2,
        "WSWAH": 1911.0,
        "WSCWAH": 3131.2,
        "haids": [
            "644c3b988ac547caa4c949da",
            "644c3b988ac547caa4c949db"
        ],
        "tids": [
            "644c474e8ac547cdc0a12b38",
            "644c474e8ac547cdc0a12b39"
        ]
    },
    "_id": "644c24398ac547c380289817",
    "pid": "644c24398ac547c380289817"
}{
    "type": "Feature",
    "geometry": {
        "type": "Polygon",
        "coordinates": [
            [
                [
                    -111.97139584,
                    33.06695564
                ],
                [
                    -111.97162842,
                    33.06695511
                ],
                [
                    -111.97163216,
                    33.06715793
                ],
                [
                    -111.9713973,
                    33.06715721
                ],
                [
                    -111.97139584,
                    33.06695564
                ]
            ]
        ]
    },
    "properties": {
        "plt_label": "p14",
        "trt_label": "WN",
        "PLT_AREA": 489.135089,
        "HARM": "Machine",
        "HADAT": "11/12/1999",
        "WBWAH": 3425.9,
        "FFRAC": 0.343,
        "SFRAC": 0.5489,
        "TFRAC": 0.1081,
        "WFWAH": 1175.1,
        "WSWAH": 1880.4,
        "WSCWAH": 3055.5,
        "haids": [
            "644c3b988ac547caa4c949dc",
            "644c3b988ac547caa4c949dd"
        ],
        "tids": [
            "644c474e8ac547cdc0a12b3a",
            "644c474e8ac547cdc0a12b3b"
        ]
    },
    "_id": "644c24398ac547c380289818",
    "pid": "644c24398ac547c380289818"
}{
    "type": "Feature",
    "geometry": {
        "type": "Polygon",
        "coordinates": [
            [
                [
                    -111.97137074,
                    33.06715359
                ],
                [
                    -111.97114269,
                    33.06715281
                ],
                [
                    -111.97114202,
                    33.06695379
                ],
                [
                    -111.97137006,
                    33.06695393
                ],
                [
                    -111.97137074,
                    33.06715359
                ]
            ]
        ]
    },
    "properties": {
        "plt_label": "p15",
        "trt_label": "Wn",
        "PLT_AREA": 470.511113,
        "HARM": "Machine",
        "HADAT": "11/12/1999",
        "WBWAH": 3707.7,
        "FFRAC": 0.3618,
        "SFRAC": 0.5564,
        "TFRAC": 0.0818,
        "WFWAH": 1341.5,
        "WSWAH": 2062.9,
        "WSCWAH": 3404.5,
        "haids": [
            "644c3b988ac547caa4c949de",
            "644c3b988ac547caa4c949df"
        ],
        "tids": [
            "644c474e8ac547cdc0a12b3c",
            "644c474e8ac547cdc0a12b3d"
        ]
    },
    "_id": "644c24398ac547c380289819",
    "pid": "644c24398ac547c380289819"
}{
    "type": "Feature",
    "geometry": {
        "type": "Polygon",
        "coordinates": [
            [
                [
                    -111.97112302,
                    33.06715552
                ],
                [
                    -111.9708874,
                    33.0671548
                ],
                [
                    -111.97088596,
                    33.06695451
                ],
                [
                    -111.97111708,
                    33.06695493
                ],
                [
                    -111.97112302,
                    33.06715552
                ]
            ]
        ]
    },
    "properties": {
        "plt_label": "p16",
        "trt_label": "wN",
        "PLT_AREA": 484.133444,
        "HARM": "Machine",
        "HADAT": "11/12/1999",
        "WBWAH": 3574.6,
        "FFRAC": 0.3289,
        "SFRAC": 0.5394,
        "TFRAC": 0.1316,
        "WFWAH": 1175.8,
        "WSWAH": 1928.2,
        "WSCWAH": 3104.1,
        "haids": [
            "644c3b988ac547caa4c949e0",
            "644c3b988ac547caa4c949e1"
        ],
        "tids": [
            "644c474e8ac547cdc0a12b3e",
            "644c474e8ac547cdc0a12b3f"
        ]
    },
    "_id": "644c24398ac547c38028981a",
    "pid": "644c24398ac547c38028981a"
}