{
    "type": "FeatureCollection",
    "features": [
        {
            "type": "Feature",
            "geometry": {
                "type": "Polygon",
                "coordinates": [
                    [
                        [
                            -111.97450367,
                            33.06889249
                        ],
                        [
                            -111.97456899,
                            33.06889292
                        ],
                        [
                            -111.97456882,
                            33.06892854
                        ],
                        [
                            -111.97450351,
                            33.06892812
                        ],
                        [
                            -111.97450367,
                            33.06889249
                        ]
                    ]
                ]
            },
            "properties": {
                "ha_label": "p02",
                "HA_AREA": 24.082794,
                "HARM": "Hand",
                "HADAT": "10/29/2007",
                "WBWAH": 4211.8,
                "GNDAT": "11/14/2007",
                "FFRAC": 0.3692,
                "SFRAC": 0.5811,
                "TFRAC": 0.0497,
                "WFWAH": 1555.0,
                "WSWAH": 2447.3,
                "WSCWAH": 4002.3
            },
            "_id": "644183c18ac547052dfe0d7b",
            "haid": "644183c18ac547052dfe0d7b"
        },
        {
            "type": "Feature",
            "geometry": {
                "type": "Polygon",
                "coordinates": [
                    [
                        [
                            -111.97424276,
                            33.06889061
                        ],
                        [
                            -111.97430808,
                            33.06889104
                        ],
                        [
                            -111.97430791,
                            33.06892666
                        ],
                        [
                            -111.9742426,
                            33.06892624
                        ],
                        [
                            -111.97424276,
                            33.06889061
                        ]
                    ]
                ]
            },
            "properties": {
                "ha_label": "p04",
                "HA_AREA": 24.082794,
                "HARM": "Hand",
                "HADAT": "10/29/2007",
                "WBWAH": 4199.5,
                "GNDAT": "11/14/2007",
                "FFRAC": 0.3607,
                "SFRAC": 0.6008,
                "TFRAC": 0.0385,
                "WFWAH": 1514.9,
                "WSWAH": 2522.9,
                "WSCWAH": 4037.8
            },
            "_id": "644183c18ac547052dfe0d7c",
            "haid": "644183c18ac547052dfe0d7c"
        },
        {
            "type": "Feature",
            "geometry": {
                "type": "Polygon",
                "coordinates": [
                    [
                        [
                            -111.97411222,
                            33.06888984
                        ],
                        [
                            -111.97417754,
                            33.06889026
                        ],
                        [
                            -111.97417737,
                            33.06892589
                        ],
                        [
                            -111.97411205,
                            33.06892546
                        ],
                        [
                            -111.97411222,
                            33.06888984
                        ]
                    ]
                ]
            },
            "properties": {
                "ha_label": "p05",
                "HA_AREA": 24.082794,
                "HARM": "Hand",
                "HADAT": "10/29/2007",
                "WBWAH": 3715.6,
                "GNDAT": "11/14/2007",
                "FFRAC": 0.3429,
                "SFRAC": 0.6185,
                "TFRAC": 0.0386,
                "WFWAH": 1274.1,
                "WSWAH": 2298.1,
                "WSCWAH": 3572.2
            },
            "_id": "644183c18ac547052dfe0d7d",
            "haid": "644183c18ac547052dfe0d7d"
        },
        {
            "type": "Feature",
            "geometry": {
                "type": "Polygon",
                "coordinates": [
                    [
                        [
                            -111.97398091,
                            33.06888908
                        ],
                        [
                            -111.97404622,
                            33.0688895
                        ],
                        [
                            -111.97404606,
                            33.06892513
                        ],
                        [
                            -111.97398074,
                            33.0689247
                        ],
                        [
                            -111.97398091,
                            33.06888908
                        ]
                    ]
                ]
            },
            "properties": {
                "ha_label": "p06",
                "HA_AREA": 24.082794,
                "HARM": "Hand",
                "HADAT": "10/29/2007",
                "WBWAH": 4096.9,
                "GNDAT": "11/14/2007",
                "FFRAC": 0.3703,
                "SFRAC": 0.5843,
                "TFRAC": 0.0454,
                "WFWAH": 1517.2,
                "WSWAH": 2393.9,
                "WSCWAH": 3911.1
            },
            "_id": "644183c18ac547052dfe0d7e",
            "haid": "644183c18ac547052dfe0d7e"
        },
        {
            "type": "Feature",
            "geometry": {
                "type": "Polygon",
                "coordinates": [
                    [
                        [
                            -111.97385093,
                            33.06888786
                        ],
                        [
                            -111.97391625,
                            33.06888828
                        ],
                        [
                            -111.97391608,
                            33.0689239
                        ],
                        [
                            -111.97385077,
                            33.06892348
                        ],
                        [
                            -111.97385093,
                            33.06888786
                        ]
                    ]
                ]
            },
            "properties": {
                "ha_label": "p07",
                "HA_AREA": 24.082794,
                "HARM": "Hand",
                "HADAT": "10/29/2007",
                "WBWAH": 3748.4,
                "GNDAT": "11/14/2007",
                "FFRAC": 0.376,
                "SFRAC": 0.5865,
                "TFRAC": 0.0375,
                "WFWAH": 1409.3,
                "WSWAH": 2198.6,
                "WSCWAH": 3607.9
            },
            "_id": "644183c18ac547052dfe0d7f",
            "haid": "644183c18ac547052dfe0d7f"
        },
        {
            "type": "Feature",
            "geometry": {
                "type": "Polygon",
                "coordinates": [
                    [
                        [
                            -111.97372006,
                            33.06888735
                        ],
                        [
                            -111.97378538,
                            33.06888778
                        ],
                        [
                            -111.97378521,
                            33.0689234
                        ],
                        [
                            -111.9737199,
                            33.06892298
                        ],
                        [
                            -111.97372006,
                            33.06888735
                        ]
                    ]
                ]
            },
            "properties": {
                "ha_label": "p08",
                "HA_AREA": 24.082794,
                "HARM": "Hand",
                "HADAT": "10/29/2007",
                "WBWAH": 2944.6,
                "GNDAT": "11/14/2007",
                "FFRAC": 0.3509,
                "SFRAC": 0.5985,
                "TFRAC": 0.0505,
                "WFWAH": 1033.4,
                "WSWAH": 1762.4,
                "WSCWAH": 2795.8
            },
            "_id": "644183c18ac547052dfe0d80",
            "haid": "644183c18ac547052dfe0d80"
        },
        {
            "type": "Feature",
            "geometry": {
                "type": "Polygon",
                "coordinates": [
                    [
                        [
                            -111.97463526,
                            33.06864954
                        ],
                        [
                            -111.97470058,
                            33.06864997
                        ],
                        [
                            -111.97470041,
                            33.06868559
                        ],
                        [
                            -111.9746351,
                            33.06868516
                        ],
                        [
                            -111.97463526,
                            33.06864954
                        ]
                    ]
                ]
            },
            "properties": {
                "ha_label": "p11",
                "HA_AREA": 24.082794,
                "HARM": "Hand",
                "HADAT": "10/26/2007",
                "WBWAH": 5688.2,
                "GNDAT": "11/14/2007",
                "FFRAC": 0.3569,
                "SFRAC": 0.6029,
                "TFRAC": 0.0402,
                "WFWAH": 2030.2,
                "WSWAH": 3429.5,
                "WSCWAH": 5459.7
            },
            "_id": "644183c18ac547052dfe0d81",
            "haid": "644183c18ac547052dfe0d81"
        },
        {
            "type": "Feature",
            "geometry": {
                "type": "Polygon",
                "coordinates": [
                    [
                        [
                            -111.9745046,
                            33.06864896
                        ],
                        [
                            -111.97456992,
                            33.06864939
                        ],
                        [
                            -111.97456975,
                            33.06868501
                        ],
                        [
                            -111.97450443,
                            33.06868459
                        ],
                        [
                            -111.9745046,
                            33.06864896
                        ]
                    ]
                ]
            },
            "properties": {
                "ha_label": "p12",
                "HA_AREA": 24.082794,
                "HARM": "Hand",
                "HADAT": "10/26/2007",
                "WBWAH": 5487.2,
                "GNDAT": "11/14/2007",
                "FFRAC": 0.3567,
                "SFRAC": 0.6002,
                "TFRAC": 0.0431,
                "WFWAH": 1957.4,
                "WSWAH": 3293.5,
                "WSCWAH": 5250.9
            },
            "_id": "644183c18ac547052dfe0d82",
            "haid": "644183c18ac547052dfe0d82"
        },
        {
            "type": "Feature",
            "geometry": {
                "type": "Polygon",
                "coordinates": [
                    [
                        [
                            -111.974374,
                            33.06864789
                        ],
                        [
                            -111.97443932,
                            33.06864831
                        ],
                        [
                            -111.97443915,
                            33.06868393
                        ],
                        [
                            -111.97437383,
                            33.06868351
                        ],
                        [
                            -111.974374,
                            33.06864789
                        ]
                    ]
                ]
            },
            "properties": {
                "ha_label": "p13",
                "HA_AREA": 24.082794,
                "HARM": "Hand",
                "HADAT": "10/26/2007",
                "WBWAH": 5782.5,
                "GNDAT": "11/14/2007",
                "FFRAC": 0.3647,
                "SFRAC": 0.5983,
                "TFRAC": 0.037,
                "WFWAH": 2109.0,
                "WSWAH": 3459.7,
                "WSCWAH": 5568.7
            },
            "_id": "644183c18ac547052dfe0d83",
            "haid": "644183c18ac547052dfe0d83"
        },
        {
            "type": "Feature",
            "geometry": {
                "type": "Polygon",
                "coordinates": [
                    [
                        [
                            -111.97424356,
                            33.06864737
                        ],
                        [
                            -111.97430888,
                            33.0686478
                        ],
                        [
                            -111.97430871,
                            33.06868342
                        ],
                        [
                            -111.9742434,
                            33.06868299
                        ],
                        [
                            -111.97424356,
                            33.06864737
                        ]
                    ]
                ]
            },
            "properties": {
                "ha_label": "p14",
                "HA_AREA": 24.082794,
                "HARM": "Hand",
                "HADAT": "10/26/2007",
                "WBWAH": 4802.3,
                "GNDAT": "11/14/2007",
                "FFRAC": 0.3662,
                "SFRAC": 0.586,
                "TFRAC": 0.0478,
                "WFWAH": 1758.8,
                "WSWAH": 2813.9,
                "WSCWAH": 4572.7
            },
            "_id": "644183c18ac547052dfe0d84",
            "haid": "644183c18ac547052dfe0d84"
        },
        {
            "type": "Feature",
            "geometry": {
                "type": "Polygon",
                "coordinates": [
                    [
                        [
                            -111.97411288,
                            33.06864623
                        ],
                        [
                            -111.97417819,
                            33.06864666
                        ],
                        [
                            -111.97417803,
                            33.06868228
                        ],
                        [
                            -111.97411271,
                            33.06868186
                        ],
                        [
                            -111.97411288,
                            33.06864623
                        ]
                    ]
                ]
            },
            "properties": {
                "ha_label": "p15",
                "HA_AREA": 24.082794,
                "HARM": "Hand",
                "HADAT": "10/26/2007",
                "WBWAH": 5643.0,
                "GNDAT": "11/14/2007",
                "FFRAC": 0.3699,
                "SFRAC": 0.6085,
                "TFRAC": 0.0215,
                "WFWAH": 2087.6,
                "WSWAH": 3433.9,
                "WSCWAH": 5521.5
            },
            "_id": "644183c18ac547052dfe0d85",
            "haid": "644183c18ac547052dfe0d85"
        },
        {
            "type": "Feature",
            "geometry": {
                "type": "Polygon",
                "coordinates": [
                    [
                        [
                            -111.97398232,
                            33.06864561
                        ],
                        [
                            -111.97404764,
                            33.06864604
                        ],
                        [
                            -111.97404747,
                            33.06868166
                        ],
                        [
                            -111.97398215,
                            33.06868123
                        ],
                        [
                            -111.97398232,
                            33.06864561
                        ]
                    ]
                ]
            },
            "properties": {
                "ha_label": "p16",
                "HA_AREA": 24.082794,
                "HARM": "Hand",
                "HADAT": "10/26/2007",
                "WBWAH": 5556.9,
                "GNDAT": "11/14/2007",
                "FFRAC": 0.3742,
                "SFRAC": 0.5964,
                "TFRAC": 0.0295,
                "WFWAH": 2079.2,
                "WSWAH": 3313.9,
                "WSCWAH": 5393.1
            },
            "_id": "644183c18ac547052dfe0d86",
            "haid": "644183c18ac547052dfe0d86"
        },
        {
            "type": "Feature",
            "geometry": {
                "type": "Polygon",
                "coordinates": [
                    [
                        [
                            -111.9738519,
                            33.06864467
                        ],
                        [
                            -111.97391721,
                            33.0686451
                        ],
                        [
                            -111.97391705,
                            33.06868072
                        ],
                        [
                            -111.97385173,
                            33.0686803
                        ],
                        [
                            -111.9738519,
                            33.06864467
                        ]
                    ]
                ]
            },
            "properties": {
                "ha_label": "p17",
                "HA_AREA": 24.082794,
                "HARM": "Hand",
                "HADAT": "10/26/2007",
                "WBWAH": 5487.2,
                "GNDAT": "11/14/2007",
                "FFRAC": 0.3625,
                "SFRAC": 0.6046,
                "TFRAC": 0.0328,
                "WFWAH": 1989.3,
                "WSWAH": 3317.7,
                "WSCWAH": 5307.0
            },
            "_id": "644183c18ac547052dfe0d87",
            "haid": "644183c18ac547052dfe0d87"
        },
        {
            "type": "Feature",
            "geometry": {
                "type": "Polygon",
                "coordinates": [
                    [
                        [
                            -111.97372118,
                            33.06864388
                        ],
                        [
                            -111.9737865,
                            33.06864431
                        ],
                        [
                            -111.97378633,
                            33.06867993
                        ],
                        [
                            -111.97372102,
                            33.0686795
                        ],
                        [
                            -111.97372118,
                            33.06864388
                        ]
                    ]
                ]
            },
            "properties": {
                "ha_label": "p18",
                "HA_AREA": 24.082794,
                "HARM": "Hand",
                "HADAT": "10/25/2007",
                "WBWAH": 6036.7,
                "GNDAT": "11/14/2007",
                "FFRAC": 0.3729,
                "SFRAC": 0.5967,
                "TFRAC": 0.0304,
                "WFWAH": 2251.4,
                "WSWAH": 3601.9,
                "WSCWAH": 5853.3
            },
            "_id": "644183c18ac547052dfe0d88",
            "haid": "644183c18ac547052dfe0d88"
        },
        {
            "type": "Feature",
            "geometry": {
                "type": "Polygon",
                "coordinates": [
                    [
                        [
                            -111.97463599,
                            33.06848292
                        ],
                        [
                            -111.97470131,
                            33.06848335
                        ],
                        [
                            -111.97470114,
                            33.06851897
                        ],
                        [
                            -111.97463583,
                            33.06851854
                        ],
                        [
                            -111.97463599,
                            33.06848292
                        ]
                    ]
                ]
            },
            "properties": {
                "ha_label": "p21",
                "HA_AREA": 24.082794,
                "HARM": "Hand",
                "HADAT": "10/25/2007",
                "WBWAH": 4092.8,
                "GNDAT": "11/14/2007",
                "FFRAC": 0.3565,
                "SFRAC": 0.6023,
                "TFRAC": 0.0411,
                "WFWAH": 1459.2,
                "WSWAH": 2465.2,
                "WSCWAH": 3924.4
            },
            "_id": "644183c18ac547052dfe0d89",
            "haid": "644183c18ac547052dfe0d89"
        },
        {
            "type": "Feature",
            "geometry": {
                "type": "Polygon",
                "coordinates": [
                    [
                        [
                            -111.97450542,
                            33.06848211
                        ],
                        [
                            -111.97457074,
                            33.06848254
                        ],
                        [
                            -111.97457058,
                            33.06851816
                        ],
                        [
                            -111.97450526,
                            33.06851774
                        ],
                        [
                            -111.97450542,
                            33.06848211
                        ]
                    ]
                ]
            },
            "properties": {
                "ha_label": "p22",
                "HA_AREA": 24.082794,
                "HARM": "Hand",
                "HADAT": "10/25/2007",
                "WBWAH": 4642.4,
                "GNDAT": "11/14/2007",
                "FFRAC": 0.3662,
                "SFRAC": 0.5919,
                "TFRAC": 0.0419,
                "WFWAH": 1700.1,
                "WSWAH": 2747.7,
                "WSCWAH": 4447.7
            },
            "_id": "644183c18ac547052dfe0d8a",
            "haid": "644183c18ac547052dfe0d8a"
        },
        {
            "type": "Feature",
            "geometry": {
                "type": "Polygon",
                "coordinates": [
                    [
                        [
                            -111.97437481,
                            33.06848088
                        ],
                        [
                            -111.97444013,
                            33.06848131
                        ],
                        [
                            -111.97443996,
                            33.06851693
                        ],
                        [
                            -111.97437464,
                            33.06851651
                        ],
                        [
                            -111.97437481,
                            33.06848088
                        ]
                    ]
                ]
            },
            "properties": {
                "ha_label": "p23",
                "HA_AREA": 24.082794,
                "HARM": "Hand",
                "HADAT": "10/25/2007",
                "WBWAH": 5446.2,
                "GNDAT": "11/14/2007",
                "FFRAC": 0.3686,
                "SFRAC": 0.5919,
                "TFRAC": 0.0395,
                "WFWAH": 2007.4,
                "WSWAH": 3223.6,
                "WSCWAH": 5231.0
            },
            "_id": "644183c18ac547052dfe0d8b",
            "haid": "644183c18ac547052dfe0d8b"
        },
        {
            "type": "Feature",
            "geometry": {
                "type": "Polygon",
                "coordinates": [
                    [
                        [
                            -111.97424428,
                            33.0684801
                        ],
                        [
                            -111.9743096,
                            33.06848052
                        ],
                        [
                            -111.97430943,
                            33.06851615
                        ],
                        [
                            -111.97424412,
                            33.06851572
                        ],
                        [
                            -111.97424428,
                            33.0684801
                        ]
                    ]
                ]
            },
            "properties": {
                "ha_label": "p24",
                "HA_AREA": 24.082794,
                "HARM": "Hand",
                "HADAT": "10/25/2007",
                "WBWAH": 5425.7,
                "GNDAT": "11/14/2007",
                "FFRAC": 0.3589,
                "SFRAC": 0.5935,
                "TFRAC": 0.0476,
                "WFWAH": 1947.3,
                "WSWAH": 3220.0,
                "WSCWAH": 5167.3
            },
            "_id": "644183c18ac547052dfe0d8c",
            "haid": "644183c18ac547052dfe0d8c"
        },
        {
            "type": "Feature",
            "geometry": {
                "type": "Polygon",
                "coordinates": [
                    [
                        [
                            -111.97411349,
                            33.06847944
                        ],
                        [
                            -111.9741788,
                            33.06847987
                        ],
                        [
                            -111.97417864,
                            33.06851549
                        ],
                        [
                            -111.97411332,
                            33.06851506
                        ],
                        [
                            -111.97411349,
                            33.06847944
                        ]
                    ]
                ]
            },
            "properties": {
                "ha_label": "p25",
                "HA_AREA": 24.082794,
                "HARM": "Hand",
                "HADAT": "10/25/2007",
                "WBWAH": 5602.0,
                "GNDAT": "11/14/2007",
                "FFRAC": 0.3598,
                "SFRAC": 0.603,
                "TFRAC": 0.0372,
                "WFWAH": 2015.6,
                "WSWAH": 3378.1,
                "WSCWAH": 5393.7
            },
            "_id": "644183c18ac547052dfe0d8d",
            "haid": "644183c18ac547052dfe0d8d"
        },
        {
            "type": "Feature",
            "geometry": {
                "type": "Polygon",
                "coordinates": [
                    [
                        [
                            -111.97398282,
                            33.06847866
                        ],
                        [
                            -111.97404814,
                            33.06847909
                        ],
                        [
                            -111.97404797,
                            33.06851471
                        ],
                        [
                            -111.97398266,
                            33.06851429
                        ],
                        [
                            -111.97398282,
                            33.06847866
                        ]
                    ]
                ]
            },
            "properties": {
                "ha_label": "p26",
                "HA_AREA": 24.082794,
                "HARM": "Hand",
                "HADAT": "10/25/2007",
                "WBWAH": 5548.7,
                "GNDAT": "11/14/2007",
                "FFRAC": 0.3678,
                "SFRAC": 0.6023,
                "TFRAC": 0.0299,
                "WFWAH": 2040.5,
                "WSWAH": 3342.0,
                "WSCWAH": 5382.6
            },
            "_id": "644183c18ac547052dfe0d8e",
            "haid": "644183c18ac547052dfe0d8e"
        },
        {
            "type": "Feature",
            "geometry": {
                "type": "Polygon",
                "coordinates": [
                    [
                        [
                            -111.97385244,
                            33.06847777
                        ],
                        [
                            -111.97391776,
                            33.06847819
                        ],
                        [
                            -111.97391759,
                            33.06851382
                        ],
                        [
                            -111.97385228,
                            33.06851339
                        ],
                        [
                            -111.97385244,
                            33.06847777
                        ]
                    ]
                ]
            },
            "properties": {
                "ha_label": "p27",
                "HA_AREA": 24.082794,
                "HARM": "Hand",
                "HADAT": "10/25/2007",
                "WBWAH": 4859.7,
                "GNDAT": "11/14/2007",
                "FFRAC": 0.3537,
                "SFRAC": 0.592,
                "TFRAC": 0.0543,
                "WFWAH": 1719.1,
                "WSWAH": 2877.0,
                "WSCWAH": 4596.1
            },
            "_id": "644183c18ac547052dfe0d8f",
            "haid": "644183c18ac547052dfe0d8f"
        },
        {
            "type": "Feature",
            "geometry": {
                "type": "Polygon",
                "coordinates": [
                    [
                        [
                            -111.97372178,
                            33.06847686
                        ],
                        [
                            -111.9737871,
                            33.06847729
                        ],
                        [
                            -111.97378693,
                            33.06851291
                        ],
                        [
                            -111.97372161,
                            33.06851249
                        ],
                        [
                            -111.97372178,
                            33.06847686
                        ]
                    ]
                ]
            },
            "properties": {
                "ha_label": "p28",
                "HA_AREA": 24.082794,
                "HARM": "Hand",
                "HADAT": "10/25/2007",
                "WBWAH": 4572.7,
                "GNDAT": "11/14/2007",
                "FFRAC": 0.3592,
                "SFRAC": 0.5903,
                "TFRAC": 0.0505,
                "WFWAH": 1642.4,
                "WSWAH": 2699.2,
                "WSCWAH": 4341.6
            },
            "_id": "644183c18ac547052dfe0d90",
            "haid": "644183c18ac547052dfe0d90"
        },
        {
            "type": "Feature",
            "geometry": {
                "type": "Polygon",
                "coordinates": [
                    [
                        [
                            -111.97463697,
                            33.06823943
                        ],
                        [
                            -111.97470229,
                            33.06823986
                        ],
                        [
                            -111.97470212,
                            33.06827548
                        ],
                        [
                            -111.97463681,
                            33.06827505
                        ],
                        [
                            -111.97463697,
                            33.06823943
                        ]
                    ]
                ]
            },
            "properties": {
                "ha_label": "p31",
                "HA_AREA": 24.082794,
                "HARM": "Hand",
                "HADAT": "10/25/2007",
                "WBWAH": 5433.9,
                "GNDAT": "11/14/2007",
                "FFRAC": 0.363,
                "SFRAC": 0.5907,
                "TFRAC": 0.0463,
                "WFWAH": 1972.7,
                "WSWAH": 3209.6,
                "WSCWAH": 5182.3
            },
            "_id": "644183c18ac547052dfe0d91",
            "haid": "644183c18ac547052dfe0d91"
        },
        {
            "type": "Feature",
            "geometry": {
                "type": "Polygon",
                "coordinates": [
                    [
                        [
                            -111.97450631,
                            33.06823828
                        ],
                        [
                            -111.97457163,
                            33.06823871
                        ],
                        [
                            -111.97457146,
                            33.06827433
                        ],
                        [
                            -111.97450614,
                            33.0682739
                        ],
                        [
                            -111.97450631,
                            33.06823828
                        ]
                    ]
                ]
            },
            "properties": {
                "ha_label": "p32",
                "HA_AREA": 24.082794,
                "HARM": "Hand",
                "HADAT": "10/25/2007",
                "WBWAH": 5196.0,
                "GNDAT": "11/14/2007",
                "FFRAC": 0.3589,
                "SFRAC": 0.5985,
                "TFRAC": 0.0426,
                "WFWAH": 1864.8,
                "WSWAH": 3109.8,
                "WSCWAH": 4974.6
            },
            "_id": "644183c18ac547052dfe0d92",
            "haid": "644183c18ac547052dfe0d92"
        },
        {
            "type": "Feature",
            "geometry": {
                "type": "Polygon",
                "coordinates": [
                    [
                        [
                            -111.97437573,
                            33.06823767
                        ],
                        [
                            -111.97444105,
                            33.0682381
                        ],
                        [
                            -111.97444088,
                            33.06827372
                        ],
                        [
                            -111.97437556,
                            33.06827329
                        ],
                        [
                            -111.97437573,
                            33.06823767
                        ]
                    ]
                ]
            },
            "properties": {
                "ha_label": "p33",
                "HA_AREA": 24.082794,
                "HARM": "Hand",
                "HADAT": "10/25/2007",
                "WBWAH": 4556.3,
                "GNDAT": "11/14/2007",
                "FFRAC": 0.3601,
                "SFRAC": 0.6019,
                "TFRAC": 0.0381,
                "WFWAH": 1640.5,
                "WSWAH": 2742.2,
                "WSCWAH": 4382.7
            },
            "_id": "644183c18ac547052dfe0d93",
            "haid": "644183c18ac547052dfe0d93"
        },
        {
            "type": "Feature",
            "geometry": {
                "type": "Polygon",
                "coordinates": [
                    [
                        [
                            -111.97424512,
                            33.06823681
                        ],
                        [
                            -111.97431044,
                            33.06823724
                        ],
                        [
                            -111.97431027,
                            33.06827286
                        ],
                        [
                            -111.97424496,
                            33.06827243
                        ],
                        [
                            -111.97424512,
                            33.06823681
                        ]
                    ]
                ]
            },
            "properties": {
                "ha_label": "p34",
                "HA_AREA": 24.082794,
                "HARM": "Hand",
                "HADAT": "10/24/2007",
                "WBWAH": 5241.1,
                "GNDAT": "11/14/2007",
                "FFRAC": 0.358,
                "SFRAC": 0.6016,
                "TFRAC": 0.0404,
                "WFWAH": 1876.3,
                "WSWAH": 3153.2,
                "WSCWAH": 5029.6
            },
            "_id": "644183c18ac547052dfe0d94",
            "haid": "644183c18ac547052dfe0d94"
        },
        {
            "type": "Feature",
            "geometry": {
                "type": "Polygon",
                "coordinates": [
                    [
                        [
                            -111.97411453,
                            33.06823594
                        ],
                        [
                            -111.97417985,
                            33.06823637
                        ],
                        [
                            -111.97417968,
                            33.06827199
                        ],
                        [
                            -111.97411437,
                            33.06827156
                        ],
                        [
                            -111.97411453,
                            33.06823594
                        ]
                    ]
                ]
            },
            "properties": {
                "ha_label": "p35",
                "HA_AREA": 24.082794,
                "HARM": "Hand",
                "HADAT": "10/24/2007",
                "WBWAH": 4519.4,
                "GNDAT": "11/14/2007",
                "FFRAC": 0.3595,
                "SFRAC": 0.6112,
                "TFRAC": 0.0293,
                "WFWAH": 1624.9,
                "WSWAH": 2762.3,
                "WSCWAH": 4387.2
            },
            "_id": "644183c18ac547052dfe0d95",
            "haid": "644183c18ac547052dfe0d95"
        },
        {
            "type": "Feature",
            "geometry": {
                "type": "Polygon",
                "coordinates": [
                    [
                        [
                            -111.97398364,
                            33.06823519
                        ],
                        [
                            -111.97404896,
                            33.06823562
                        ],
                        [
                            -111.97404879,
                            33.06827124
                        ],
                        [
                            -111.97398348,
                            33.06827082
                        ],
                        [
                            -111.97398364,
                            33.06823519
                        ]
                    ]
                ]
            },
            "properties": {
                "ha_label": "p36",
                "HA_AREA": 24.082794,
                "HARM": "Hand",
                "HADAT": "10/24/2007",
                "WBWAH": 5191.9,
                "GNDAT": "11/14/2007",
                "FFRAC": 0.3566,
                "SFRAC": 0.6067,
                "TFRAC": 0.0367,
                "WFWAH": 1851.5,
                "WSWAH": 3150.0,
                "WSCWAH": 5001.5
            },
            "_id": "644183c18ac547052dfe0d96",
            "haid": "644183c18ac547052dfe0d96"
        },
        {
            "type": "Feature",
            "geometry": {
                "type": "Polygon",
                "coordinates": [
                    [
                        [
                            -111.97385319,
                            33.06823439
                        ],
                        [
                            -111.97391851,
                            33.06823482
                        ],
                        [
                            -111.97391834,
                            33.06827044
                        ],
                        [
                            -111.97385302,
                            33.06827001
                        ],
                        [
                            -111.97385319,
                            33.06823439
                        ]
                    ]
                ]
            },
            "properties": {
                "ha_label": "p37",
                "HA_AREA": 24.082794,
                "HARM": "Hand",
                "HADAT": "10/24/2007",
                "WBWAH": 4634.2,
                "GNDAT": "11/14/2007",
                "FFRAC": 0.3623,
                "SFRAC": 0.582,
                "TFRAC": 0.0557,
                "WFWAH": 1679.0,
                "WSWAH": 2697.0,
                "WSCWAH": 4376.0
            },
            "_id": "644183c18ac547052dfe0d97",
            "haid": "644183c18ac547052dfe0d97"
        },
        {
            "type": "Feature",
            "geometry": {
                "type": "Polygon",
                "coordinates": [
                    [
                        [
                            -111.97372275,
                            33.06823326
                        ],
                        [
                            -111.97378807,
                            33.06823369
                        ],
                        [
                            -111.9737879,
                            33.06826931
                        ],
                        [
                            -111.97372258,
                            33.06826888
                        ],
                        [
                            -111.97372275,
                            33.06823326
                        ]
                    ]
                ]
            },
            "properties": {
                "ha_label": "p38",
                "HA_AREA": 24.082794,
                "HARM": "Hand",
                "HADAT": "10/24/2007",
                "WBWAH": 4453.7,
                "GNDAT": "11/14/2007",
                "FFRAC": 0.3687,
                "SFRAC": 0.5893,
                "TFRAC": 0.042,
                "WFWAH": 1642.3,
                "WSWAH": 2624.6,
                "WSCWAH": 4266.9
            },
            "_id": "644183c18ac547052dfe0d98",
            "haid": "644183c18ac547052dfe0d98"
        },
        {
            "type": "Feature",
            "geometry": {
                "type": "Polygon",
                "coordinates": [
                    [
                        [
                            -111.97463753,
                            33.06807212
                        ],
                        [
                            -111.97470284,
                            33.06807255
                        ],
                        [
                            -111.97470268,
                            33.06810817
                        ],
                        [
                            -111.97463736,
                            33.06810774
                        ],
                        [
                            -111.97463753,
                            33.06807212
                        ]
                    ]
                ]
            },
            "properties": {
                "ha_label": "p41",
                "HA_AREA": 24.082794,
                "HARM": "Hand",
                "HADAT": "10/24/2007",
                "WBWAH": 2661.6,
                "GNDAT": "11/14/2007",
                "FFRAC": 0.3315,
                "SFRAC": 0.5928,
                "TFRAC": 0.0757,
                "WFWAH": 882.3,
                "WSWAH": 1577.9,
                "WSCWAH": 2460.2
            },
            "_id": "644183c18ac547052dfe0d99",
            "haid": "644183c18ac547052dfe0d99"
        },
        {
            "type": "Feature",
            "geometry": {
                "type": "Polygon",
                "coordinates": [
                    [
                        [
                            -111.97450709,
                            33.06807142
                        ],
                        [
                            -111.97457241,
                            33.06807185
                        ],
                        [
                            -111.97457224,
                            33.06810747
                        ],
                        [
                            -111.97450692,
                            33.06810705
                        ],
                        [
                            -111.97450709,
                            33.06807142
                        ]
                    ]
                ]
            },
            "properties": {
                "ha_label": "p42",
                "HA_AREA": 24.082794,
                "HARM": "Hand",
                "HADAT": "10/24/2007",
                "WBWAH": 3457.2,
                "GNDAT": "11/14/2007",
                "FFRAC": 0.3305,
                "SFRAC": 0.5967,
                "TFRAC": 0.0728,
                "WFWAH": 1142.7,
                "WSWAH": 2062.9,
                "WSCWAH": 3205.7
            },
            "_id": "644183c18ac547052dfe0d9a",
            "haid": "644183c18ac547052dfe0d9a"
        },
        {
            "type": "Feature",
            "geometry": {
                "type": "Polygon",
                "coordinates": [
                    [
                        [
                            -111.97437603,
                            33.06807057
                        ],
                        [
                            -111.97444135,
                            33.06807099
                        ],
                        [
                            -111.97444118,
                            33.06810662
                        ],
                        [
                            -111.97437586,
                            33.06810619
                        ],
                        [
                            -111.97437603,
                            33.06807057
                        ]
                    ]
                ]
            },
            "properties": {
                "ha_label": "p43",
                "HA_AREA": 24.082794,
                "HARM": "Hand",
                "HADAT": "10/24/2007",
                "WBWAH": 4781.8,
                "GNDAT": "11/14/2007",
                "FFRAC": 0.3527,
                "SFRAC": 0.6093,
                "TFRAC": 0.0379,
                "WFWAH": 1686.6,
                "WSWAH": 2913.7,
                "WSCWAH": 4600.4
            },
            "_id": "644183c18ac547052dfe0d9b",
            "haid": "644183c18ac547052dfe0d9b"
        },
        {
            "type": "Feature",
            "geometry": {
                "type": "Polygon",
                "coordinates": [
                    [
                        [
                            -111.97424538,
                            33.06806979
                        ],
                        [
                            -111.9743107,
                            33.06807022
                        ],
                        [
                            -111.97431053,
                            33.06810584
                        ],
                        [
                            -111.97424522,
                            33.06810541
                        ],
                        [
                            -111.97424538,
                            33.06806979
                        ]
                    ]
                ]
            },
            "properties": {
                "ha_label": "p44",
                "HA_AREA": 24.082794,
                "HARM": "Hand",
                "HADAT": "10/24/2007",
                "WBWAH": 4576.8,
                "GNDAT": "11/14/2007",
                "FFRAC": 0.3526,
                "SFRAC": 0.6118,
                "TFRAC": 0.0356,
                "WFWAH": 1613.7,
                "WSWAH": 2800.1,
                "WSCWAH": 4413.8
            },
            "_id": "644183c18ac547052dfe0d9c",
            "haid": "644183c18ac547052dfe0d9c"
        },
        {
            "type": "Feature",
            "geometry": {
                "type": "Polygon",
                "coordinates": [
                    [
                        [
                            -111.97411497,
                            33.06806878
                        ],
                        [
                            -111.97418029,
                            33.06806921
                        ],
                        [
                            -111.97418012,
                            33.06810483
                        ],
                        [
                            -111.9741148,
                            33.0681044
                        ],
                        [
                            -111.97411497,
                            33.06806878
                        ]
                    ]
                ]
            },
            "properties": {
                "ha_label": "p45",
                "HA_AREA": 24.082794,
                "HARM": "Hand",
                "HADAT": "10/24/2007",
                "WBWAH": 4568.6,
                "GNDAT": "11/14/2007",
                "FFRAC": 0.3568,
                "SFRAC": 0.593,
                "TFRAC": 0.0502,
                "WFWAH": 1630.0,
                "WSWAH": 2709.4,
                "WSCWAH": 4339.4
            },
            "_id": "644183c18ac547052dfe0d9d",
            "haid": "644183c18ac547052dfe0d9d"
        },
        {
            "type": "Feature",
            "geometry": {
                "type": "Polygon",
                "coordinates": [
                    [
                        [
                            -111.97398458,
                            33.06806799
                        ],
                        [
                            -111.97404989,
                            33.06806841
                        ],
                        [
                            -111.97404973,
                            33.06810404
                        ],
                        [
                            -111.97398441,
                            33.06810361
                        ],
                        [
                            -111.97398458,
                            33.06806799
                        ]
                    ]
                ]
            },
            "properties": {
                "ha_label": "p46",
                "HA_AREA": 24.082794,
                "HARM": "Hand",
                "HADAT": "10/24/2007",
                "WBWAH": 5269.8,
                "GNDAT": "11/14/2007",
                "FFRAC": 0.3561,
                "SFRAC": 0.6049,
                "TFRAC": 0.039,
                "WFWAH": 1876.5,
                "WSWAH": 3187.9,
                "WSCWAH": 5064.5
            },
            "_id": "644183c18ac547052dfe0d9e",
            "haid": "644183c18ac547052dfe0d9e"
        },
        {
            "type": "Feature",
            "geometry": {
                "type": "Polygon",
                "coordinates": [
                    [
                        [
                            -111.97385422,
                            33.06806722
                        ],
                        [
                            -111.97391953,
                            33.06806765
                        ],
                        [
                            -111.97391937,
                            33.06810327
                        ],
                        [
                            -111.97385405,
                            33.06810284
                        ],
                        [
                            -111.97385422,
                            33.06806722
                        ]
                    ]
                ]
            },
            "properties": {
                "ha_label": "p47",
                "HA_AREA": 24.082794,
                "HARM": "Hand",
                "HADAT": "10/24/2007",
                "WBWAH": 3461.3,
                "GNDAT": "11/14/2007",
                "FFRAC": 0.3456,
                "SFRAC": 0.5999,
                "TFRAC": 0.0545,
                "WFWAH": 1196.2,
                "WSWAH": 2076.5,
                "WSCWAH": 3272.8
            },
            "_id": "644183c18ac547052dfe0d9f",
            "haid": "644183c18ac547052dfe0d9f"
        },
        {
            "type": "Feature",
            "geometry": {
                "type": "Polygon",
                "coordinates": [
                    [
                        [
                            -111.97372321,
                            33.06806661
                        ],
                        [
                            -111.97378853,
                            33.06806703
                        ],
                        [
                            -111.97378836,
                            33.06810266
                        ],
                        [
                            -111.97372305,
                            33.06810223
                        ],
                        [
                            -111.97372321,
                            33.06806661
                        ]
                    ]
                ]
            },
            "properties": {
                "ha_label": "p48",
                "HA_AREA": 24.082794,
                "HARM": "Hand",
                "HADAT": "10/24/2007",
                "WBWAH": 4728.5,
                "GNDAT": "11/14/2007",
                "FFRAC": 0.3594,
                "SFRAC": 0.5972,
                "TFRAC": 0.0434,
                "WFWAH": 1699.4,
                "WSWAH": 2823.9,
                "WSCWAH": 4523.3
            },
            "_id": "644183c18ac547052dfe0da0",
            "haid": "644183c18ac547052dfe0da0"
        }
    ]
}