{
    "type": "Feature",
    "geometry": {
        "type": "Point",
        "coordinates": [
            33.079843,
            -111.97813488
        ]
    },
    "properties": {
        "ht_label": "11N"
    },
    "_id": "6424c98b8ac547208ee09e68",
    "chid": "6424c98b8ac547208ee09e68"
}{
    "type": "Feature",
    "geometry": {
        "type": "Point",
        "coordinates": [
            33.07967806,
            -111.97813603
        ]
    },
    "properties": {
        "ht_label": "11S"
    },
    "_id": "6424c98b8ac547208ee09e69",
    "chid": "6424c98b8ac547208ee09e69"
}{
    "type": "Feature",
    "geometry": {
        "type": "Point",
        "coordinates": [
            33.07946775,
            -111.9781375
        ]
    },
    "properties": {
        "ht_label": "12N"
    },
    "_id": "6424c98b8ac547208ee09e6a",
    "chid": "6424c98b8ac547208ee09e6a"
}{
    "type": "Feature",
    "geometry": {
        "type": "Point",
        "coordinates": [
            33.0793028,
            -111.97813865
        ]
    },
    "properties": {
        "ht_label": "12S"
    },
    "_id": "6424c98b8ac547208ee09e6b",
    "chid": "6424c98b8ac547208ee09e6b"
}{
    "type": "Feature",
    "geometry": {
        "type": "Point",
        "coordinates": [
            33.07909249,
            -111.97814012
        ]
    },
    "properties": {
        "ht_label": "13N"
    },
    "_id": "6424c98b8ac547208ee09e6c",
    "chid": "6424c98b8ac547208ee09e6c"
}{
    "type": "Feature",
    "geometry": {
        "type": "Point",
        "coordinates": [
            33.07892755,
            -111.97814127
        ]
    },
    "properties": {
        "ht_label": "13S"
    },
    "_id": "6424c98b8ac547208ee09e6d",
    "chid": "6424c98b8ac547208ee09e6d"
}{
    "type": "Feature",
    "geometry": {
        "type": "Point",
        "coordinates": [
            33.07871723,
            -111.97814273
        ]
    },
    "properties": {
        "ht_label": "14N"
    },
    "_id": "6424c98b8ac547208ee09e6e",
    "chid": "6424c98b8ac547208ee09e6e"
}{
    "type": "Feature",
    "geometry": {
        "type": "Point",
        "coordinates": [
            33.07855229,
            -111.97814389
        ]
    },
    "properties": {
        "ht_label": "14S"
    },
    "_id": "6424c98b8ac547208ee09e6f",
    "chid": "6424c98b8ac547208ee09e6f"
}{
    "type": "Feature",
    "geometry": {
        "type": "Point",
        "coordinates": [
            33.0798415,
            -111.97783011
        ]
    },
    "properties": {
        "ht_label": "21N"
    },
    "_id": "6424c98b8ac547208ee09e70",
    "chid": "6424c98b8ac547208ee09e70"
}{
    "type": "Feature",
    "geometry": {
        "type": "Point",
        "coordinates": [
            33.07967655,
            -111.97783126
        ]
    },
    "properties": {
        "ht_label": "21S"
    },
    "_id": "6424c98b8ac547208ee09e71",
    "chid": "6424c98b8ac547208ee09e71"
}{
    "type": "Feature",
    "geometry": {
        "type": "Point",
        "coordinates": [
            33.07946624,
            -111.97783273
        ]
    },
    "properties": {
        "ht_label": "22N"
    },
    "_id": "6424c98b8ac547208ee09e72",
    "chid": "6424c98b8ac547208ee09e72"
}{
    "type": "Feature",
    "geometry": {
        "type": "Point",
        "coordinates": [
            33.0793013,
            -111.97783388
        ]
    },
    "properties": {
        "ht_label": "22S"
    },
    "_id": "6424c98b8ac547208ee09e73",
    "chid": "6424c98b8ac547208ee09e73"
}{
    "type": "Feature",
    "geometry": {
        "type": "Point",
        "coordinates": [
            33.07909098,
            -111.97783535
        ]
    },
    "properties": {
        "ht_label": "23N"
    },
    "_id": "6424c98b8ac547208ee09e74",
    "chid": "6424c98b8ac547208ee09e74"
}{
    "type": "Feature",
    "geometry": {
        "type": "Point",
        "coordinates": [
            33.07892604,
            -111.9778365
        ]
    },
    "properties": {
        "ht_label": "23S"
    },
    "_id": "6424c98b8ac547208ee09e75",
    "chid": "6424c98b8ac547208ee09e75"
}{
    "type": "Feature",
    "geometry": {
        "type": "Point",
        "coordinates": [
            33.07871572,
            -111.97783797
        ]
    },
    "properties": {
        "ht_label": "24N"
    },
    "_id": "6424c98b8ac547208ee09e76",
    "chid": "6424c98b8ac547208ee09e76"
}{
    "type": "Feature",
    "geometry": {
        "type": "Point",
        "coordinates": [
            33.07855078,
            -111.97783912
        ]
    },
    "properties": {
        "ht_label": "24S"
    },
    "_id": "6424c98b8ac547208ee09e77",
    "chid": "6424c98b8ac547208ee09e77"
}{
    "type": "Feature",
    "geometry": {
        "type": "Point",
        "coordinates": [
            33.07983998,
            -111.97752627
        ]
    },
    "properties": {
        "ht_label": "31N"
    },
    "_id": "6424c98b8ac547208ee09e78",
    "chid": "6424c98b8ac547208ee09e78"
}{
    "type": "Feature",
    "geometry": {
        "type": "Point",
        "coordinates": [
            33.07967504,
            -111.97752742
        ]
    },
    "properties": {
        "ht_label": "31S"
    },
    "_id": "6424c98b8ac547208ee09e79",
    "chid": "6424c98b8ac547208ee09e79"
}{
    "type": "Feature",
    "geometry": {
        "type": "Point",
        "coordinates": [
            33.07946473,
            -111.97752889
        ]
    },
    "properties": {
        "ht_label": "32N"
    },
    "_id": "6424c98b8ac547208ee09e7a",
    "chid": "6424c98b8ac547208ee09e7a"
}{
    "type": "Feature",
    "geometry": {
        "type": "Point",
        "coordinates": [
            33.07929978,
            -111.97753004
        ]
    },
    "properties": {
        "ht_label": "32S"
    },
    "_id": "6424c98b8ac547208ee09e7b",
    "chid": "6424c98b8ac547208ee09e7b"
}{
    "type": "Feature",
    "geometry": {
        "type": "Point",
        "coordinates": [
            33.07908947,
            -111.97753151
        ]
    },
    "properties": {
        "ht_label": "33N"
    },
    "_id": "6424c98b8ac547208ee09e7c",
    "chid": "6424c98b8ac547208ee09e7c"
}{
    "type": "Feature",
    "geometry": {
        "type": "Point",
        "coordinates": [
            33.07892453,
            -111.97753266
        ]
    },
    "properties": {
        "ht_label": "33S"
    },
    "_id": "6424c98b8ac547208ee09e7d",
    "chid": "6424c98b8ac547208ee09e7d"
}{
    "type": "Feature",
    "geometry": {
        "type": "Point",
        "coordinates": [
            33.07871421,
            -111.97753413
        ]
    },
    "properties": {
        "ht_label": "34N"
    },
    "_id": "6424c98b8ac547208ee09e7e",
    "chid": "6424c98b8ac547208ee09e7e"
}{
    "type": "Feature",
    "geometry": {
        "type": "Point",
        "coordinates": [
            33.07854927,
            -111.97753529
        ]
    },
    "properties": {
        "ht_label": "34S"
    },
    "_id": "6424c98b8ac547208ee09e7f",
    "chid": "6424c98b8ac547208ee09e7f"
}{
    "type": "Feature",
    "geometry": {
        "type": "Point",
        "coordinates": [
            33.07983847,
            -111.9772215
        ]
    },
    "properties": {
        "ht_label": "41N"
    },
    "_id": "6424c98b8ac547208ee09e80",
    "chid": "6424c98b8ac547208ee09e80"
}{
    "type": "Feature",
    "geometry": {
        "type": "Point",
        "coordinates": [
            33.07967353,
            -111.97722265
        ]
    },
    "properties": {
        "ht_label": "41S"
    },
    "_id": "6424c98b8ac547208ee09e81",
    "chid": "6424c98b8ac547208ee09e81"
}{
    "type": "Feature",
    "geometry": {
        "type": "Point",
        "coordinates": [
            33.07946322,
            -111.97722412
        ]
    },
    "properties": {
        "ht_label": "42N"
    },
    "_id": "6424c98b8ac547208ee09e82",
    "chid": "6424c98b8ac547208ee09e82"
}{
    "type": "Feature",
    "geometry": {
        "type": "Point",
        "coordinates": [
            33.07929827,
            -111.97722528
        ]
    },
    "properties": {
        "ht_label": "42S"
    },
    "_id": "6424c98b8ac547208ee09e83",
    "chid": "6424c98b8ac547208ee09e83"
}{
    "type": "Feature",
    "geometry": {
        "type": "Point",
        "coordinates": [
            33.07908796,
            -111.97722675
        ]
    },
    "properties": {
        "ht_label": "43N"
    },
    "_id": "6424c98b8ac547208ee09e84",
    "chid": "6424c98b8ac547208ee09e84"
}{
    "type": "Feature",
    "geometry": {
        "type": "Point",
        "coordinates": [
            33.07892302,
            -111.9772279
        ]
    },
    "properties": {
        "ht_label": "43S"
    },
    "_id": "6424c98b8ac547208ee09e85",
    "chid": "6424c98b8ac547208ee09e85"
}{
    "type": "Feature",
    "geometry": {
        "type": "Point",
        "coordinates": [
            33.0787127,
            -111.97722937
        ]
    },
    "properties": {
        "ht_label": "44N"
    },
    "_id": "6424c98b8ac547208ee09e86",
    "chid": "6424c98b8ac547208ee09e86"
}{
    "type": "Feature",
    "geometry": {
        "type": "Point",
        "coordinates": [
            33.07854776,
            -111.97723052
        ]
    },
    "properties": {
        "ht_label": "44S"
    },
    "_id": "6424c98b8ac547208ee09e87",
    "chid": "6424c98b8ac547208ee09e87"
}{
    "type": "Feature",
    "geometry": {
        "type": "Point",
        "coordinates": [
            33.07983696,
            -111.97691757
        ]
    },
    "properties": {
        "ht_label": "51N"
    },
    "_id": "6424c98b8ac547208ee09e88",
    "chid": "6424c98b8ac547208ee09e88"
}{
    "type": "Feature",
    "geometry": {
        "type": "Point",
        "coordinates": [
            33.07967202,
            -111.97691872
        ]
    },
    "properties": {
        "ht_label": "51S"
    },
    "_id": "6424c98b8ac547208ee09e89",
    "chid": "6424c98b8ac547208ee09e89"
}{
    "type": "Feature",
    "geometry": {
        "type": "Point",
        "coordinates": [
            33.0794617,
            -111.97692019
        ]
    },
    "properties": {
        "ht_label": "52N"
    },
    "_id": "6424c98b8ac547208ee09e8a",
    "chid": "6424c98b8ac547208ee09e8a"
}{
    "type": "Feature",
    "geometry": {
        "type": "Point",
        "coordinates": [
            33.07929676,
            -111.97692135
        ]
    },
    "properties": {
        "ht_label": "52S"
    },
    "_id": "6424c98b8ac547208ee09e8b",
    "chid": "6424c98b8ac547208ee09e8b"
}{
    "type": "Feature",
    "geometry": {
        "type": "Point",
        "coordinates": [
            33.07908645,
            -111.97692282
        ]
    },
    "properties": {
        "ht_label": "53N"
    },
    "_id": "6424c98b8ac547208ee09e8c",
    "chid": "6424c98b8ac547208ee09e8c"
}{
    "type": "Feature",
    "geometry": {
        "type": "Point",
        "coordinates": [
            33.07892151,
            -111.97692397
        ]
    },
    "properties": {
        "ht_label": "53S"
    },
    "_id": "6424c98b8ac547208ee09e8d",
    "chid": "6424c98b8ac547208ee09e8d"
}{
    "type": "Feature",
    "geometry": {
        "type": "Point",
        "coordinates": [
            33.07871119,
            -111.97692544
        ]
    },
    "properties": {
        "ht_label": "54N"
    },
    "_id": "6424c98b8ac547208ee09e8e",
    "chid": "6424c98b8ac547208ee09e8e"
}{
    "type": "Feature",
    "geometry": {
        "type": "Point",
        "coordinates": [
            33.07854625,
            -111.97692659
        ]
    },
    "properties": {
        "ht_label": "54S"
    },
    "_id": "6424c98b8ac547208ee09e8f",
    "chid": "6424c98b8ac547208ee09e8f"
}{
    "type": "Feature",
    "geometry": {
        "type": "Point",
        "coordinates": [
            33.07983545,
            -111.9766128
        ]
    },
    "properties": {
        "ht_label": "61N"
    },
    "_id": "6424c98b8ac547208ee09e90",
    "chid": "6424c98b8ac547208ee09e90"
}{
    "type": "Feature",
    "geometry": {
        "type": "Point",
        "coordinates": [
            33.07967051,
            -111.97661396
        ]
    },
    "properties": {
        "ht_label": "61S"
    },
    "_id": "6424c98b8ac547208ee09e91",
    "chid": "6424c98b8ac547208ee09e91"
}{
    "type": "Feature",
    "geometry": {
        "type": "Point",
        "coordinates": [
            33.07946019,
            -111.97661543
        ]
    },
    "properties": {
        "ht_label": "62N"
    },
    "_id": "6424c98b8ac547208ee09e92",
    "chid": "6424c98b8ac547208ee09e92"
}{
    "type": "Feature",
    "geometry": {
        "type": "Point",
        "coordinates": [
            33.07929525,
            -111.97661658
        ]
    },
    "properties": {
        "ht_label": "62S"
    },
    "_id": "6424c98b8ac547208ee09e93",
    "chid": "6424c98b8ac547208ee09e93"
}{
    "type": "Feature",
    "geometry": {
        "type": "Point",
        "coordinates": [
            33.07908494,
            -111.97661805
        ]
    },
    "properties": {
        "ht_label": "63N"
    },
    "_id": "6424c98b8ac547208ee09e94",
    "chid": "6424c98b8ac547208ee09e94"
}{
    "type": "Feature",
    "geometry": {
        "type": "Point",
        "coordinates": [
            33.07891999,
            -111.97661921
        ]
    },
    "properties": {
        "ht_label": "63S"
    },
    "_id": "6424c98b8ac547208ee09e95",
    "chid": "6424c98b8ac547208ee09e95"
}{
    "type": "Feature",
    "geometry": {
        "type": "Point",
        "coordinates": [
            33.07870968,
            -111.97662068
        ]
    },
    "properties": {
        "ht_label": "64N"
    },
    "_id": "6424c98b8ac547208ee09e96",
    "chid": "6424c98b8ac547208ee09e96"
}{
    "type": "Feature",
    "geometry": {
        "type": "Point",
        "coordinates": [
            33.07854474,
            -111.97662183
        ]
    },
    "properties": {
        "ht_label": "64S"
    },
    "_id": "6424c98b8ac547208ee09e97",
    "chid": "6424c98b8ac547208ee09e97"
}