{
    "type": "FeatureCollection",
    "features": [
        {
            "type": "Feature",
            "geometry": {
                "type": "Point",
                "coordinates": [
                    33.078607,
                    -111.97808908
                ]
            },
            "properties": {
                "sa_label": "p14",
                "SOIL_DATE": "05/08/2019",
                "SNO3": {
                    "20": 9.8,
                    "60": 2.7,
                    "100": 0.4,
                    "140": 0.9,
                    "180": 0.1
                },
                "SNH4": {
                    "20": 1.8,
                    "60": 0.1,
                    "100": 0.2,
                    "140": 0.0,
                    "180": 0.0
                }
            },
            "_id": "681932b98ac547dff49dfd51",
            "said": "681932b98ac547dff49dfd51"
        },
        {
            "type": "Feature",
            "geometry": {
                "type": "Point",
                "coordinates": [
                    33.07973127,
                    -111.97777645
                ]
            },
            "properties": {
                "sa_label": "p21",
                "SOIL_DATE": "05/08/2019",
                "SNO3": {
                    "20": 9.3,
                    "60": 4.3,
                    "100": 3.8,
                    "140": 3.5,
                    "180": 3.2
                },
                "SNH4": {
                    "20": 1.6,
                    "60": 0.3,
                    "100": 0.0,
                    "140": 0.0,
                    "180": 0.0
                }
            },
            "_id": "681932b98ac547dff49dfd52",
            "said": "681932b98ac547dff49dfd52"
        },
        {
            "type": "Feature",
            "geometry": {
                "type": "Point",
                "coordinates": [
                    33.07897924,
                    -111.97747786
                ]
            },
            "properties": {
                "sa_label": "p33",
                "SOIL_DATE": "05/08/2019",
                "SNO3": {
                    "20": 8.6,
                    "60": 2.3,
                    "100": 0.8,
                    "140": 0.8,
                    "180": 0.7
                },
                "SNH4": {
                    "20": 1.4,
                    "60": 0.0,
                    "100": 0.0,
                    "140": 0.0,
                    "180": 0.0
                }
            },
            "_id": "681932b98ac547dff49dfd53",
            "said": "681932b98ac547dff49dfd53"
        },
        {
            "type": "Feature",
            "geometry": {
                "type": "Point",
                "coordinates": [
                    33.07897773,
                    -111.97717309
                ]
            },
            "properties": {
                "sa_label": "p43",
                "SOIL_DATE": "05/08/2019",
                "SNO3": {
                    "20": 8.3,
                    "60": 1.8,
                    "100": 0.4,
                    "140": 1.7,
                    "180": 3.8
                },
                "SNH4": {
                    "20": 1.0,
                    "60": 0.0,
                    "100": 0.6,
                    "140": 0.0,
                    "180": 0.0
                }
            },
            "_id": "681932b98ac547dff49dfd54",
            "said": "681932b98ac547dff49dfd54"
        },
        {
            "type": "Feature",
            "geometry": {
                "type": "Point",
                "coordinates": [
                    33.07935147,
                    -111.97686654
                ]
            },
            "properties": {
                "sa_label": "p52",
                "SOIL_DATE": "05/08/2019",
                "SNO3": {
                    "20": 8.0,
                    "60": 1.3,
                    "100": 0.4,
                    "140": 1.4,
                    "180": 2.9
                },
                "SNH4": {
                    "20": 1.2,
                    "60": 0.0,
                    "100": 0.0,
                    "140": 0.0,
                    "180": 0.0
                }
            },
            "_id": "681932b98ac547dff49dfd55",
            "said": "681932b98ac547dff49dfd55"
        },
        {
            "type": "Feature",
            "geometry": {
                "type": "Point",
                "coordinates": [
                    33.07859945,
                    -111.97656702
                ]
            },
            "properties": {
                "sa_label": "p64",
                "SOIL_DATE": "05/08/2019",
                "SNO3": {
                    "20": 5.5,
                    "60": 1.2,
                    "100": 0.6,
                    "140": 4.2,
                    "180": 6.5
                },
                "SNH4": {
                    "20": 0.6,
                    "60": 0.0,
                    "100": 0.0,
                    "140": 0.0,
                    "180": 0.0
                }
            },
            "_id": "681932b98ac547dff49dfd56",
            "said": "681932b98ac547dff49dfd56"
        }
    ]
}