{
    "type": "Feature",
    "geometry": {
        "type": "Polygon",
        "coordinates": [
            [
                [
                    -111.97815165,
                    33.07977894
                ],
                [
                    -111.97817342,
                    33.07977905
                ],
                [
                    -111.97817329,
                    33.07979738
                ],
                [
                    -111.97815153,
                    33.07979727
                ],
                [
                    -111.97815165,
                    33.07977894
                ]
            ]
        ]
    },
    "properties": {
        "ha_label": "p11W",
        "HA_AREA": 4.129024,
        "HARM": "Hand",
        "HADAT": "10/30/2019",
        "WBWAH": 5118.1,
        "GNDAT": "11/18/2019",
        "FFRAC": 0.3942,
        "SFRAC": 0.4904,
        "TFRAC": 0.1154,
        "FWCAG": 2.83,
        "SWCAG": 3.98,
        "WFWAH": 2017.7,
        "WSWAH": 2509.8,
        "WSCWAH": 4527.6,
        "DFWAH": 1960.6,
        "DSWAH": 2409.9,
        "DSCWAH": 4370.5,
        "QLDAT": "12/04/2019",
        "FBMIC": 48.3,
        "FBLTH": 1.07,
        "FBUNI": 79.5,
        "FBSTR": 26.3,
        "FBELO": 8.8,
        "FBSFI": 10.9
    },
    "_id": "6424c4458ac5471d818247f9",
    "haid": "6424c4458ac5471d818247f9"
}{
    "type": "Feature",
    "geometry": {
        "type": "Polygon",
        "coordinates": [
            [
                [
                    -111.97804319,
                    33.07972342
                ],
                [
                    -111.97806496,
                    33.07972353
                ],
                [
                    -111.97806483,
                    33.07974186
                ],
                [
                    -111.97804306,
                    33.07974175
                ],
                [
                    -111.97804319,
                    33.07972342
                ]
            ]
        ]
    },
    "properties": {
        "ha_label": "p11E",
        "HA_AREA": 4.129024,
        "HARM": "Hand",
        "HADAT": "10/30/2019",
        "WBWAH": 5610.2,
        "GNDAT": "11/18/2019",
        "FFRAC": 0.386,
        "SFRAC": 0.5088,
        "TFRAC": 0.1053,
        "FWCAG": 2.57,
        "SWCAG": 4.08,
        "WFWAH": 2165.4,
        "WSWAH": 2854.3,
        "WSCWAH": 5019.7,
        "DFWAH": 2109.7,
        "DSWAH": 2737.9,
        "DSCWAH": 4847.5,
        "QLDAT": "12/04/2019",
        "FBMIC": 48.6,
        "FBLTH": 1.0,
        "FBUNI": 77.3,
        "FBSTR": 24.2,
        "FBELO": 9.4,
        "FBSFI": 13.4
    },
    "_id": "6424c4458ac5471d818247fa",
    "haid": "6424c4458ac5471d818247fa"
}{
    "type": "Feature",
    "geometry": {
        "type": "Polygon",
        "coordinates": [
            [
                [
                    -111.97815427,
                    33.07940368
                ],
                [
                    -111.97817604,
                    33.07940379
                ],
                [
                    -111.97817591,
                    33.07942212
                ],
                [
                    -111.97815414,
                    33.07942201
                ],
                [
                    -111.97815427,
                    33.07940368
                ]
            ]
        ]
    },
    "properties": {
        "ha_label": "p12W",
        "HA_AREA": 4.129024,
        "HARM": "Hand",
        "HADAT": "10/30/2019",
        "WBWAH": 5511.8,
        "GNDAT": "11/18/2019",
        "FFRAC": 0.375,
        "SFRAC": 0.5446,
        "TFRAC": 0.0804,
        "FWCAG": 2.8,
        "SWCAG": 4.08,
        "WFWAH": 2066.9,
        "WSWAH": 3002.0,
        "WSCWAH": 5068.9,
        "DFWAH": 2009.0,
        "DSWAH": 2879.5,
        "DSCWAH": 4888.5,
        "QLDAT": "12/04/2019",
        "FBMIC": 49.0,
        "FBLTH": 1.1,
        "FBUNI": 81.0,
        "FBSTR": 27.5,
        "FBELO": 9.1,
        "FBSFI": 10.0
    },
    "_id": "6424c4458ac5471d818247fb",
    "haid": "6424c4458ac5471d818247fb"
}{
    "type": "Feature",
    "geometry": {
        "type": "Polygon",
        "coordinates": [
            [
                [
                    -111.97804581,
                    33.07934816
                ],
                [
                    -111.97806758,
                    33.07934827
                ],
                [
                    -111.97806745,
                    33.0793666
                ],
                [
                    -111.97804568,
                    33.07936649
                ],
                [
                    -111.97804581,
                    33.07934816
                ]
            ]
        ]
    },
    "properties": {
        "ha_label": "p12E",
        "HA_AREA": 4.129024,
        "HARM": "Hand",
        "HADAT": "10/30/2019",
        "WBWAH": 6053.1,
        "GNDAT": "11/18/2019",
        "FFRAC": 0.3577,
        "SFRAC": 0.5041,
        "TFRAC": 0.1382,
        "FWCAG": 2.82,
        "SWCAG": 4.09,
        "WFWAH": 2165.4,
        "WSWAH": 3051.2,
        "WSCWAH": 5216.5,
        "DFWAH": 2104.3,
        "DSWAH": 2926.2,
        "DSCWAH": 5030.5,
        "QLDAT": "12/04/2019",
        "FBMIC": 48.5,
        "FBLTH": 1.05,
        "FBUNI": 79.4,
        "FBSTR": 26.6,
        "FBELO": 8.7,
        "FBSFI": 11.4
    },
    "_id": "6424c4458ac5471d818247fc",
    "haid": "6424c4458ac5471d818247fc"
}{
    "type": "Feature",
    "geometry": {
        "type": "Polygon",
        "coordinates": [
            [
                [
                    -111.97815689,
                    33.07902842
                ],
                [
                    -111.97817866,
                    33.07902853
                ],
                [
                    -111.97817853,
                    33.07904686
                ],
                [
                    -111.97815676,
                    33.07904675
                ],
                [
                    -111.97815689,
                    33.07902842
                ]
            ]
        ]
    },
    "properties": {
        "ha_label": "p13W",
        "HA_AREA": 4.129024,
        "HARM": "Hand",
        "HADAT": "10/30/2019",
        "WBWAH": 4478.3,
        "GNDAT": "11/18/2019",
        "FFRAC": 0.3846,
        "SFRAC": 0.5165,
        "TFRAC": 0.0989,
        "FWCAG": 2.76,
        "SWCAG": 3.92,
        "WFWAH": 1722.4,
        "WSWAH": 2313.0,
        "WSCWAH": 4035.4,
        "DFWAH": 1674.8,
        "DSWAH": 2222.4,
        "DSCWAH": 3897.3,
        "QLDAT": "12/04/2019",
        "FBMIC": 51.1,
        "FBLTH": 1.04,
        "FBUNI": 80.0,
        "FBSTR": 25.6,
        "FBELO": 9.2,
        "FBSFI": 10.9
    },
    "_id": "6424c4458ac5471d818247fd",
    "haid": "6424c4458ac5471d818247fd"
}{
    "type": "Feature",
    "geometry": {
        "type": "Polygon",
        "coordinates": [
            [
                [
                    -111.97804843,
                    33.07897291
                ],
                [
                    -111.9780702,
                    33.07897301
                ],
                [
                    -111.97807007,
                    33.07899134
                ],
                [
                    -111.9780483,
                    33.07899123
                ],
                [
                    -111.97804843,
                    33.07897291
                ]
            ]
        ]
    },
    "properties": {
        "ha_label": "p13E",
        "HA_AREA": 4.129024,
        "HARM": "Hand",
        "HADAT": "10/30/2019",
        "WBWAH": 4060.0,
        "GNDAT": "11/18/2019",
        "FFRAC": 0.3879,
        "SFRAC": 0.4848,
        "TFRAC": 0.1273,
        "FWCAG": 2.79,
        "SWCAG": 3.85,
        "WFWAH": 1574.8,
        "WSWAH": 1968.5,
        "WSCWAH": 3543.3,
        "DFWAH": 1530.9,
        "DSWAH": 1892.7,
        "DSCWAH": 3423.6,
        "QLDAT": "12/04/2019",
        "FBMIC": 48.0,
        "FBLTH": 1.05,
        "FBUNI": 81.3,
        "FBSTR": 26.4,
        "FBELO": 9.0,
        "FBSFI": 10.6
    },
    "_id": "6424c4458ac5471d818247fe",
    "haid": "6424c4458ac5471d818247fe"
}{
    "type": "Feature",
    "geometry": {
        "type": "Polygon",
        "coordinates": [
            [
                [
                    -111.97815951,
                    33.07865317
                ],
                [
                    -111.97818128,
                    33.07865327
                ],
                [
                    -111.97818115,
                    33.0786716
                ],
                [
                    -111.97815938,
                    33.07867149
                ],
                [
                    -111.97815951,
                    33.07865317
                ]
            ]
        ]
    },
    "properties": {
        "ha_label": "p14W",
        "HA_AREA": 4.129024,
        "HARM": "Hand",
        "HADAT": "10/30/2019",
        "WBWAH": 6274.6,
        "GNDAT": "11/18/2019",
        "FFRAC": 0.3843,
        "SFRAC": 0.5176,
        "TFRAC": 0.098,
        "FWCAG": 2.76,
        "SWCAG": 3.98,
        "WFWAH": 2411.4,
        "WSWAH": 3248.0,
        "WSCWAH": 5659.4,
        "DFWAH": 2344.8,
        "DSWAH": 3118.7,
        "DSCWAH": 5463.5,
        "QLDAT": "12/04/2019",
        "FBMIC": 49.8,
        "FBLTH": 1.1,
        "FBUNI": 80.7,
        "FBSTR": 26.9,
        "FBELO": 8.5,
        "FBSFI": 10.6
    },
    "_id": "6424c4458ac5471d818247ff",
    "haid": "6424c4458ac5471d818247ff"
}{
    "type": "Feature",
    "geometry": {
        "type": "Polygon",
        "coordinates": [
            [
                [
                    -111.97805105,
                    33.07859765
                ],
                [
                    -111.97807282,
                    33.07859775
                ],
                [
                    -111.97807269,
                    33.07861608
                ],
                [
                    -111.97805092,
                    33.07861597
                ],
                [
                    -111.97805105,
                    33.07859765
                ]
            ]
        ]
    },
    "properties": {
        "ha_label": "p14E",
        "HA_AREA": 4.129024,
        "HARM": "Hand",
        "HADAT": "10/30/2019",
        "WBWAH": 5167.3,
        "GNDAT": "11/18/2019",
        "FFRAC": 0.3905,
        "SFRAC": 0.5238,
        "TFRAC": 0.0857,
        "FWCAG": 2.82,
        "SWCAG": 3.81,
        "WFWAH": 2017.7,
        "WSWAH": 2706.7,
        "WSCWAH": 4724.4,
        "DFWAH": 1960.8,
        "DSWAH": 2603.5,
        "DSCWAH": 4564.3,
        "QLDAT": "12/04/2019",
        "FBMIC": 51.4,
        "FBLTH": 1.06,
        "FBUNI": 80.3,
        "FBSTR": 27.0,
        "FBELO": 9.4,
        "FBSFI": 10.9
    },
    "_id": "6424c4458ac5471d81824800",
    "haid": "6424c4458ac5471d81824800"
}{
    "type": "Feature",
    "geometry": {
        "type": "Polygon",
        "coordinates": [
            [
                [
                    -111.97784688,
                    33.07977743
                ],
                [
                    -111.97786865,
                    33.07977754
                ],
                [
                    -111.97786853,
                    33.07979587
                ],
                [
                    -111.97784676,
                    33.07979576
                ],
                [
                    -111.97784688,
                    33.07977743
                ]
            ]
        ]
    },
    "properties": {
        "ha_label": "p21W",
        "HA_AREA": 4.129024,
        "HARM": "Hand",
        "HADAT": "10/30/2019",
        "WBWAH": 5954.7,
        "GNDAT": "11/18/2019",
        "FFRAC": 0.4215,
        "SFRAC": 0.5455,
        "TFRAC": 0.0331,
        "FWCAG": 2.74,
        "SWCAG": 3.89,
        "WFWAH": 2509.8,
        "WSWAH": 3248.0,
        "WSCWAH": 5757.9,
        "DFWAH": 2441.1,
        "DSWAH": 3121.8,
        "DSCWAH": 5562.9,
        "QLDAT": "12/04/2019",
        "FBMIC": 47.7,
        "FBLTH": 1.11,
        "FBUNI": 80.7,
        "FBSTR": 27.2,
        "FBELO": 9.3,
        "FBSFI": 9.5
    },
    "_id": "6424c4458ac5471d81824801",
    "haid": "6424c4458ac5471d81824801"
}{
    "type": "Feature",
    "geometry": {
        "type": "Polygon",
        "coordinates": [
            [
                [
                    -111.97773842,
                    33.07972191
                ],
                [
                    -111.97776019,
                    33.07972202
                ],
                [
                    -111.97776006,
                    33.07974035
                ],
                [
                    -111.97773829,
                    33.07974024
                ],
                [
                    -111.97773842,
                    33.07972191
                ]
            ]
        ]
    },
    "properties": {
        "ha_label": "p21E",
        "HA_AREA": 4.129024,
        "HARM": "Hand",
        "HADAT": "10/30/2019",
        "WBWAH": 5880.9,
        "GNDAT": "11/18/2019",
        "FFRAC": 0.3431,
        "SFRAC": 0.5021,
        "TFRAC": 0.1548,
        "FWCAG": 2.66,
        "SWCAG": 3.97,
        "WFWAH": 2017.7,
        "WSWAH": 2952.8,
        "WSCWAH": 4970.5,
        "DFWAH": 1964.1,
        "DSWAH": 2835.6,
        "DSCWAH": 4799.8,
        "QLDAT": "12/04/2019",
        "FBMIC": 46.4,
        "FBLTH": 1.1,
        "FBUNI": 80.8,
        "FBSTR": 27.3,
        "FBELO": 9.1,
        "FBSFI": 10.0
    },
    "_id": "6424c4458ac5471d81824802",
    "haid": "6424c4458ac5471d81824802"
}{
    "type": "Feature",
    "geometry": {
        "type": "Polygon",
        "coordinates": [
            [
                [
                    -111.9778495,
                    33.07940217
                ],
                [
                    -111.97787127,
                    33.07940228
                ],
                [
                    -111.97787115,
                    33.07942061
                ],
                [
                    -111.97784938,
                    33.0794205
                ],
                [
                    -111.9778495,
                    33.07940217
                ]
            ]
        ]
    },
    "properties": {
        "ha_label": "p22W",
        "HA_AREA": 4.129024,
        "HARM": "Hand",
        "HADAT": "10/30/2019",
        "WBWAH": 5782.5,
        "GNDAT": "11/18/2019",
        "FFRAC": 0.4,
        "SFRAC": 0.5191,
        "TFRAC": 0.0809,
        "FWCAG": 2.65,
        "SWCAG": 4.0,
        "WFWAH": 2313.0,
        "WSWAH": 3002.0,
        "WSCWAH": 5315.0,
        "DFWAH": 2251.7,
        "DSWAH": 2881.9,
        "DSCWAH": 5133.6,
        "QLDAT": "12/04/2019",
        "FBMIC": 47.7,
        "FBLTH": 1.07,
        "FBUNI": 81.0,
        "FBSTR": 26.5,
        "FBELO": 9.2,
        "FBSFI": 10.3
    },
    "_id": "6424c4458ac5471d81824803",
    "haid": "6424c4458ac5471d81824803"
}{
    "type": "Feature",
    "geometry": {
        "type": "Polygon",
        "coordinates": [
            [
                [
                    -111.97774104,
                    33.07934665
                ],
                [
                    -111.97776281,
                    33.07934676
                ],
                [
                    -111.97776268,
                    33.07936509
                ],
                [
                    -111.97774091,
                    33.07936498
                ],
                [
                    -111.97774104,
                    33.07934665
                ]
            ]
        ]
    },
    "properties": {
        "ha_label": "p22E",
        "HA_AREA": 4.129024,
        "HARM": "Hand",
        "HADAT": "10/30/2019",
        "WBWAH": 6988.2,
        "GNDAT": "11/18/2019",
        "FFRAC": 0.3944,
        "SFRAC": 0.5211,
        "TFRAC": 0.0845,
        "FWCAG": 2.67,
        "SWCAG": 4.02,
        "WFWAH": 2755.9,
        "WSWAH": 3641.7,
        "WSCWAH": 6397.6,
        "DFWAH": 2682.5,
        "DSWAH": 3495.4,
        "DSCWAH": 6177.9,
        "QLDAT": "12/04/2019",
        "FBMIC": 46.6,
        "FBLTH": 1.09,
        "FBUNI": 80.8,
        "FBSTR": 27.0,
        "FBELO": 8.9,
        "FBSFI": 10.6
    },
    "_id": "6424c4458ac5471d81824804",
    "haid": "6424c4458ac5471d81824804"
}{
    "type": "Feature",
    "geometry": {
        "type": "Polygon",
        "coordinates": [
            [
                [
                    -111.97785212,
                    33.07902692
                ],
                [
                    -111.97787389,
                    33.07902702
                ],
                [
                    -111.97787377,
                    33.07904535
                ],
                [
                    -111.977852,
                    33.07904524
                ],
                [
                    -111.97785212,
                    33.07902692
                ]
            ]
        ]
    },
    "properties": {
        "ha_label": "p23W",
        "HA_AREA": 4.129024,
        "HARM": "Hand",
        "HADAT": "10/30/2019",
        "WBWAH": 5388.8,
        "GNDAT": "11/18/2019",
        "FFRAC": 0.3744,
        "SFRAC": 0.5023,
        "TFRAC": 0.1233,
        "FWCAG": 2.59,
        "SWCAG": 3.96,
        "WFWAH": 2017.7,
        "WSWAH": 2706.7,
        "WSCWAH": 4724.4,
        "DFWAH": 1965.4,
        "DSWAH": 2599.6,
        "DSCWAH": 4565.0,
        "QLDAT": "12/04/2019",
        "FBMIC": 48.3,
        "FBLTH": 1.08,
        "FBUNI": 80.3,
        "FBSTR": 28.4,
        "FBELO": 8.9,
        "FBSFI": 9.7
    },
    "_id": "6424c4458ac5471d81824805",
    "haid": "6424c4458ac5471d81824805"
}{
    "type": "Feature",
    "geometry": {
        "type": "Polygon",
        "coordinates": [
            [
                [
                    -111.97774366,
                    33.0789714
                ],
                [
                    -111.97776543,
                    33.0789715
                ],
                [
                    -111.9777653,
                    33.07898983
                ],
                [
                    -111.97774354,
                    33.07898972
                ],
                [
                    -111.97774366,
                    33.0789714
                ]
            ]
        ]
    },
    "properties": {
        "ha_label": "p23E",
        "HA_AREA": 4.129024,
        "HARM": "Hand",
        "HADAT": "10/30/2019",
        "WBWAH": 5093.5,
        "GNDAT": "11/18/2019",
        "FFRAC": 0.3768,
        "SFRAC": 0.5121,
        "TFRAC": 0.1111,
        "FWCAG": 2.57,
        "SWCAG": 3.9,
        "WFWAH": 1919.3,
        "WSWAH": 2608.3,
        "WSCWAH": 4527.6,
        "DFWAH": 1869.9,
        "DSWAH": 2506.4,
        "DSCWAH": 4376.3,
        "QLDAT": "12/04/2019",
        "FBMIC": 49.4,
        "FBLTH": 1.03,
        "FBUNI": 79.4,
        "FBSTR": 24.4,
        "FBELO": 9.5,
        "FBSFI": 12.2
    },
    "_id": "6424c4458ac5471d81824806",
    "haid": "6424c4458ac5471d81824806"
}{
    "type": "Feature",
    "geometry": {
        "type": "Polygon",
        "coordinates": [
            [
                [
                    -111.97785474,
                    33.07865166
                ],
                [
                    -111.97787651,
                    33.07865177
                ],
                [
                    -111.97787638,
                    33.07867009
                ],
                [
                    -111.97785462,
                    33.07866998
                ],
                [
                    -111.97785474,
                    33.07865166
                ]
            ]
        ]
    },
    "properties": {
        "ha_label": "p24W",
        "HA_AREA": 4.129024,
        "HARM": "Hand",
        "HADAT": "10/30/2019",
        "WBWAH": 5511.8,
        "GNDAT": "11/18/2019",
        "FFRAC": 0.4018,
        "SFRAC": 0.5,
        "TFRAC": 0.0982,
        "FWCAG": 2.44,
        "SWCAG": 3.86,
        "WFWAH": 2214.6,
        "WSWAH": 2755.9,
        "WSCWAH": 4970.5,
        "DFWAH": 2160.4,
        "DSWAH": 2649.7,
        "DSCWAH": 4810.1,
        "QLDAT": "12/04/2019",
        "FBMIC": 49.9,
        "FBLTH": 1.03,
        "FBUNI": 80.6,
        "FBSTR": 26.5,
        "FBELO": 8.5,
        "FBSFI": 11.2
    },
    "_id": "6424c4458ac5471d81824807",
    "haid": "6424c4458ac5471d81824807"
}{
    "type": "Feature",
    "geometry": {
        "type": "Polygon",
        "coordinates": [
            [
                [
                    -111.97774628,
                    33.07859614
                ],
                [
                    -111.97776805,
                    33.07859625
                ],
                [
                    -111.97776792,
                    33.07861457
                ],
                [
                    -111.97774616,
                    33.07861446
                ],
                [
                    -111.97774628,
                    33.07859614
                ]
            ]
        ]
    },
    "properties": {
        "ha_label": "p24E",
        "HA_AREA": 4.129024,
        "HARM": "Hand",
        "HADAT": "10/30/2019",
        "WBWAH": 4970.5,
        "GNDAT": "11/18/2019",
        "FFRAC": 0.396,
        "SFRAC": 0.5149,
        "TFRAC": 0.0891,
        "FWCAG": 2.52,
        "SWCAG": 3.83,
        "WFWAH": 1968.5,
        "WSWAH": 2559.1,
        "WSCWAH": 4527.6,
        "DFWAH": 1918.9,
        "DSWAH": 2461.1,
        "DSCWAH": 4380.0,
        "QLDAT": "12/04/2019",
        "FBMIC": 47.6,
        "FBLTH": 1.06,
        "FBUNI": 79.3,
        "FBSTR": 25.7,
        "FBELO": 9.0,
        "FBSFI": 11.5
    },
    "_id": "6424c4458ac5471d81824808",
    "haid": "6424c4458ac5471d81824808"
}{
    "type": "Feature",
    "geometry": {
        "type": "Polygon",
        "coordinates": [
            [
                [
                    -111.97754305,
                    33.07977592
                ],
                [
                    -111.97756481,
                    33.07977603
                ],
                [
                    -111.97756469,
                    33.07979435
                ],
                [
                    -111.97754292,
                    33.07979425
                ],
                [
                    -111.97754305,
                    33.07977592
                ]
            ]
        ]
    },
    "properties": {
        "ha_label": "p31W",
        "HA_AREA": 4.129024,
        "HARM": "Hand",
        "HADAT": "10/30/2019",
        "WBWAH": 5684.1,
        "GNDAT": "11/18/2019",
        "FFRAC": 0.3896,
        "SFRAC": 0.5281,
        "TFRAC": 0.0823,
        "FWCAG": 2.41,
        "SWCAG": 4.02,
        "WFWAH": 2214.6,
        "WSWAH": 3002.0,
        "WSCWAH": 5216.5,
        "DFWAH": 2161.3,
        "DSWAH": 2881.2,
        "DSCWAH": 5042.5,
        "QLDAT": "12/04/2019",
        "FBMIC": 47.7,
        "FBLTH": 1.13,
        "FBUNI": 81.7,
        "FBSTR": 26.5,
        "FBELO": 9.0,
        "FBSFI": 9.1
    },
    "_id": "6424c4458ac5471d81824809",
    "haid": "6424c4458ac5471d81824809"
}{
    "type": "Feature",
    "geometry": {
        "type": "Polygon",
        "coordinates": [
            [
                [
                    -111.97743458,
                    33.0797204
                ],
                [
                    -111.97745635,
                    33.07972051
                ],
                [
                    -111.97745622,
                    33.07973883
                ],
                [
                    -111.97743446,
                    33.07973873
                ],
                [
                    -111.97743458,
                    33.0797204
                ]
            ]
        ]
    },
    "properties": {
        "ha_label": "p31E",
        "HA_AREA": 4.129024,
        "HARM": "Hand",
        "HADAT": "10/30/2019",
        "WBWAH": 6692.9,
        "GNDAT": "11/18/2019",
        "FFRAC": 0.3897,
        "SFRAC": 0.5221,
        "TFRAC": 0.0882,
        "FWCAG": 2.61,
        "SWCAG": 3.95,
        "WFWAH": 2608.3,
        "WSWAH": 3494.1,
        "WSCWAH": 6102.4,
        "DFWAH": 2540.2,
        "DSWAH": 3356.0,
        "DSCWAH": 5896.3,
        "QLDAT": "12/04/2019",
        "FBMIC": 49.3,
        "FBLTH": 1.1,
        "FBUNI": 80.7,
        "FBSTR": 26.9,
        "FBELO": 8.5,
        "FBSFI": 10.4
    },
    "_id": "6424c4458ac5471d8182480a",
    "haid": "6424c4458ac5471d8182480a"
}{
    "type": "Feature",
    "geometry": {
        "type": "Polygon",
        "coordinates": [
            [
                [
                    -111.97754567,
                    33.07940066
                ],
                [
                    -111.97756744,
                    33.07940077
                ],
                [
                    -111.97756731,
                    33.0794191
                ],
                [
                    -111.97754554,
                    33.07941899
                ],
                [
                    -111.97754567,
                    33.07940066
                ]
            ]
        ]
    },
    "properties": {
        "ha_label": "p32W",
        "HA_AREA": 4.129024,
        "HARM": "Hand",
        "HADAT": "10/30/2019",
        "WBWAH": 5757.9,
        "GNDAT": "11/18/2019",
        "FFRAC": 0.3846,
        "SFRAC": 0.5299,
        "TFRAC": 0.0855,
        "FWCAG": 2.43,
        "SWCAG": 4.06,
        "WFWAH": 2214.6,
        "WSWAH": 3051.2,
        "WSCWAH": 5265.7,
        "DFWAH": 2160.7,
        "DSWAH": 2927.4,
        "DSCWAH": 5088.1,
        "QLDAT": "12/04/2019",
        "FBMIC": 49.1,
        "FBLTH": 1.1,
        "FBUNI": 81.1,
        "FBSTR": 27.3,
        "FBELO": 8.4,
        "FBSFI": 10.4
    },
    "_id": "6424c4458ac5471d8182480b",
    "haid": "6424c4458ac5471d8182480b"
}{
    "type": "Feature",
    "geometry": {
        "type": "Polygon",
        "coordinates": [
            [
                [
                    -111.9774372,
                    33.07934514
                ],
                [
                    -111.97745897,
                    33.07934525
                ],
                [
                    -111.97745885,
                    33.07936358
                ],
                [
                    -111.97743708,
                    33.07936347
                ],
                [
                    -111.9774372,
                    33.07934514
                ]
            ]
        ]
    },
    "properties": {
        "ha_label": "p32E",
        "HA_AREA": 4.129024,
        "HARM": "Hand",
        "HADAT": "10/30/2019",
        "WBWAH": 5265.7,
        "GNDAT": "11/18/2019",
        "FFRAC": 0.4112,
        "SFRAC": 0.5327,
        "TFRAC": 0.0561,
        "FWCAG": 2.39,
        "SWCAG": 3.89,
        "WFWAH": 2165.4,
        "WSWAH": 2805.1,
        "WSCWAH": 4970.5,
        "DFWAH": 2113.5,
        "DSWAH": 2696.1,
        "DSCWAH": 4809.6,
        "QLDAT": "12/04/2019",
        "FBMIC": 48.5,
        "FBLTH": 1.1,
        "FBUNI": 81.6,
        "FBSTR": 27.2,
        "FBELO": 8.5,
        "FBSFI": 9.5
    },
    "_id": "6424c4458ac5471d8182480c",
    "haid": "6424c4458ac5471d8182480c"
}{
    "type": "Feature",
    "geometry": {
        "type": "Polygon",
        "coordinates": [
            [
                [
                    -111.97754829,
                    33.07902541
                ],
                [
                    -111.97757006,
                    33.07902551
                ],
                [
                    -111.97756993,
                    33.07904384
                ],
                [
                    -111.97754816,
                    33.07904373
                ],
                [
                    -111.97754829,
                    33.07902541
                ]
            ]
        ]
    },
    "properties": {
        "ha_label": "p33W",
        "HA_AREA": 4.129024,
        "HARM": "Hand",
        "HADAT": "10/30/2019",
        "WBWAH": 4970.5,
        "GNDAT": "11/18/2019",
        "FFRAC": 0.3762,
        "SFRAC": 0.5248,
        "TFRAC": 0.099,
        "FWCAG": 2.41,
        "SWCAG": 3.94,
        "WFWAH": 1870.1,
        "WSWAH": 2608.3,
        "WSCWAH": 4478.3,
        "DFWAH": 1825.1,
        "DSWAH": 2505.4,
        "DSCWAH": 4330.5,
        "QLDAT": "12/04/2019",
        "FBMIC": 48.8,
        "FBLTH": 1.01,
        "FBUNI": 78.9,
        "FBSTR": 25.5,
        "FBELO": 9.0,
        "FBSFI": 12.5
    },
    "_id": "6424c4458ac5471d8182480d",
    "haid": "6424c4458ac5471d8182480d"
}{
    "type": "Feature",
    "geometry": {
        "type": "Polygon",
        "coordinates": [
            [
                [
                    -111.97743983,
                    33.07896989
                ],
                [
                    -111.9774616,
                    33.07896999
                ],
                [
                    -111.97746147,
                    33.07898832
                ],
                [
                    -111.9774397,
                    33.07898821
                ],
                [
                    -111.97743983,
                    33.07896989
                ]
            ]
        ]
    },
    "properties": {
        "ha_label": "p33E",
        "HA_AREA": 4.129024,
        "HARM": "Hand",
        "HADAT": "10/30/2019",
        "WBWAH": 4945.9,
        "GNDAT": "11/18/2019",
        "FFRAC": 0.398,
        "SFRAC": 0.5174,
        "TFRAC": 0.0846,
        "FWCAG": 2.39,
        "SWCAG": 3.9,
        "WFWAH": 1968.5,
        "WSWAH": 2559.1,
        "WSCWAH": 4527.6,
        "DFWAH": 1921.4,
        "DSWAH": 2459.3,
        "DSCWAH": 4380.7,
        "QLDAT": "12/04/2019",
        "FBMIC": 48.0,
        "FBLTH": 1.04,
        "FBUNI": 79.5,
        "FBSTR": 25.1,
        "FBELO": 8.7,
        "FBSFI": 11.5
    },
    "_id": "6424c4458ac5471d8182480e",
    "haid": "6424c4458ac5471d8182480e"
}{
    "type": "Feature",
    "geometry": {
        "type": "Polygon",
        "coordinates": [
            [
                [
                    -111.97755091,
                    33.07865015
                ],
                [
                    -111.97757268,
                    33.07865026
                ],
                [
                    -111.97757255,
                    33.07866858
                ],
                [
                    -111.97755078,
                    33.07866848
                ],
                [
                    -111.97755091,
                    33.07865015
                ]
            ]
        ]
    },
    "properties": {
        "ha_label": "p34W",
        "HA_AREA": 4.129024,
        "HARM": "Hand",
        "HADAT": "10/30/2019",
        "WBWAH": 5536.4,
        "GNDAT": "11/18/2019",
        "FFRAC": 0.4089,
        "SFRAC": 0.5333,
        "TFRAC": 0.0578,
        "FWCAG": 2.31,
        "SWCAG": 3.94,
        "WFWAH": 2263.8,
        "WSWAH": 2952.8,
        "WSCWAH": 5216.5,
        "DFWAH": 2211.5,
        "DSWAH": 2836.3,
        "DSCWAH": 5047.8,
        "QLDAT": "12/04/2019",
        "FBMIC": 47.9,
        "FBLTH": 1.08,
        "FBUNI": 80.9,
        "FBSTR": 25.6,
        "FBELO": 9.3,
        "FBSFI": 10.7
    },
    "_id": "6424c4458ac5471d8182480f",
    "haid": "6424c4458ac5471d8182480f"
}{
    "type": "Feature",
    "geometry": {
        "type": "Polygon",
        "coordinates": [
            [
                [
                    -111.97744245,
                    33.07859463
                ],
                [
                    -111.97746422,
                    33.07859474
                ],
                [
                    -111.97746409,
                    33.07861306
                ],
                [
                    -111.97744232,
                    33.07861296
                ],
                [
                    -111.97744245,
                    33.07859463
                ]
            ]
        ]
    },
    "properties": {
        "ha_label": "p34E",
        "HA_AREA": 4.129024,
        "HARM": "Hand",
        "HADAT": "10/30/2019",
        "WBWAH": 5118.1,
        "GNDAT": "11/18/2019",
        "FFRAC": 0.3942,
        "SFRAC": 0.5096,
        "TFRAC": 0.0962,
        "FWCAG": 2.37,
        "SWCAG": 3.83,
        "WFWAH": 2017.7,
        "WSWAH": 2608.3,
        "WSCWAH": 4626.0,
        "DFWAH": 1970.0,
        "DSWAH": 2508.2,
        "DSCWAH": 4478.2,
        "QLDAT": "12/04/2019",
        "FBMIC": 48.6,
        "FBLTH": 1.05,
        "FBUNI": 80.0,
        "FBSTR": 24.4,
        "FBELO": 9.0,
        "FBSFI": 11.7
    },
    "_id": "6424c4458ac5471d81824810",
    "haid": "6424c4458ac5471d81824810"
}{
    "type": "Feature",
    "geometry": {
        "type": "Polygon",
        "coordinates": [
            [
                [
                    -111.97723828,
                    33.07977441
                ],
                [
                    -111.97726005,
                    33.07977452
                ],
                [
                    -111.97725992,
                    33.07979284
                ],
                [
                    -111.97723815,
                    33.07979274
                ],
                [
                    -111.97723828,
                    33.07977441
                ]
            ]
        ]
    },
    "properties": {
        "ha_label": "p41W",
        "HA_AREA": 4.129024,
        "HARM": "Hand",
        "HADAT": "10/31/2019",
        "WBWAH": 6569.9,
        "GNDAT": "11/18/2019",
        "FFRAC": 0.3745,
        "SFRAC": 0.5243,
        "TFRAC": 0.1011,
        "FWCAG": 2.22,
        "SWCAG": 3.81,
        "WFWAH": 2460.6,
        "WSWAH": 3444.9,
        "WSCWAH": 5905.5,
        "DFWAH": 2405.9,
        "DSWAH": 3313.6,
        "DSCWAH": 5719.5,
        "QLDAT": "12/04/2019",
        "FBMIC": 45.8,
        "FBLTH": 1.09,
        "FBUNI": 81.4,
        "FBSTR": 26.7,
        "FBELO": 8.8,
        "FBSFI": 10.0
    },
    "_id": "6424c4458ac5471d81824811",
    "haid": "6424c4458ac5471d81824811"
}{
    "type": "Feature",
    "geometry": {
        "type": "Polygon",
        "coordinates": [
            [
                [
                    -111.97712981,
                    33.07971889
                ],
                [
                    -111.97715158,
                    33.079719
                ],
                [
                    -111.97715146,
                    33.07973732
                ],
                [
                    -111.97712969,
                    33.07973722
                ],
                [
                    -111.97712981,
                    33.07971889
                ]
            ]
        ]
    },
    "properties": {
        "ha_label": "p41E",
        "HA_AREA": 4.129024,
        "HARM": "Hand",
        "HADAT": "10/31/2019",
        "WBWAH": 5339.6,
        "GNDAT": "11/18/2019",
        "FFRAC": 0.4055,
        "SFRAC": 0.5069,
        "TFRAC": 0.0876,
        "FWCAG": 2.32,
        "SWCAG": 3.84,
        "WFWAH": 2165.4,
        "WSWAH": 2706.7,
        "WSCWAH": 4872.0,
        "DFWAH": 2115.2,
        "DSWAH": 2602.7,
        "DSCWAH": 4717.8,
        "QLDAT": "12/04/2019",
        "FBMIC": 48.5,
        "FBLTH": 1.07,
        "FBUNI": 81.5,
        "FBSTR": 28.3,
        "FBELO": 9.1,
        "FBSFI": 10.4
    },
    "_id": "6424c4458ac5471d81824812",
    "haid": "6424c4458ac5471d81824812"
}{
    "type": "Feature",
    "geometry": {
        "type": "Polygon",
        "coordinates": [
            [
                [
                    -111.9772409,
                    33.07939915
                ],
                [
                    -111.97726267,
                    33.07939926
                ],
                [
                    -111.97726254,
                    33.07941759
                ],
                [
                    -111.97724077,
                    33.07941748
                ],
                [
                    -111.9772409,
                    33.07939915
                ]
            ]
        ]
    },
    "properties": {
        "ha_label": "p42W",
        "HA_AREA": 4.129024,
        "HARM": "Hand",
        "HADAT": "10/31/2019",
        "WBWAH": 5954.7,
        "GNDAT": "11/18/2019",
        "FFRAC": 0.3967,
        "SFRAC": 0.5207,
        "TFRAC": 0.0826,
        "FWCAG": 2.18,
        "SWCAG": 3.92,
        "WFWAH": 2362.2,
        "WSWAH": 3100.4,
        "WSCWAH": 5462.6,
        "DFWAH": 2310.7,
        "DSWAH": 2978.9,
        "DSCWAH": 5289.6,
        "QLDAT": "12/04/2019",
        "FBMIC": 48.0,
        "FBLTH": 1.1,
        "FBUNI": 81.7,
        "FBSTR": 27.9,
        "FBELO": 8.4,
        "FBSFI": 9.6
    },
    "_id": "6424c4458ac5471d81824813",
    "haid": "6424c4458ac5471d81824813"
}{
    "type": "Feature",
    "geometry": {
        "type": "Polygon",
        "coordinates": [
            [
                [
                    -111.97713244,
                    33.07934363
                ],
                [
                    -111.97715421,
                    33.07934374
                ],
                [
                    -111.97715408,
                    33.07936207
                ],
                [
                    -111.97713231,
                    33.07936196
                ],
                [
                    -111.97713244,
                    33.07934363
                ]
            ]
        ]
    },
    "properties": {
        "ha_label": "p42E",
        "HA_AREA": 4.129024,
        "HARM": "Hand",
        "HADAT": "10/31/2019",
        "WBWAH": 6077.8,
        "GNDAT": "11/18/2019",
        "FFRAC": 0.3968,
        "SFRAC": 0.5263,
        "TFRAC": 0.0769,
        "FWCAG": 2.19,
        "SWCAG": 3.92,
        "WFWAH": 2411.4,
        "WSWAH": 3198.8,
        "WSCWAH": 5610.2,
        "DFWAH": 2358.7,
        "DSWAH": 3073.5,
        "DSCWAH": 5432.2,
        "QLDAT": "12/04/2019",
        "FBMIC": 48.4,
        "FBLTH": 1.09,
        "FBUNI": 80.2,
        "FBSTR": 27.3,
        "FBELO": 8.8,
        "FBSFI": 10.0
    },
    "_id": "6424c4458ac5471d81824814",
    "haid": "6424c4458ac5471d81824814"
}{
    "type": "Feature",
    "geometry": {
        "type": "Polygon",
        "coordinates": [
            [
                [
                    -111.97724352,
                    33.0790239
                ],
                [
                    -111.97726529,
                    33.079024
                ],
                [
                    -111.97726516,
                    33.07904233
                ],
                [
                    -111.97724339,
                    33.07904222
                ],
                [
                    -111.97724352,
                    33.0790239
                ]
            ]
        ]
    },
    "properties": {
        "ha_label": "p43W",
        "HA_AREA": 4.129024,
        "HARM": "Hand",
        "HADAT": "10/31/2019",
        "WBWAH": 5905.5,
        "GNDAT": "11/18/2019",
        "FFRAC": 0.375,
        "SFRAC": 0.5,
        "TFRAC": 0.125,
        "FWCAG": 2.32,
        "SWCAG": 3.83,
        "WFWAH": 2214.6,
        "WSWAH": 2952.8,
        "WSCWAH": 5167.3,
        "DFWAH": 2163.1,
        "DSWAH": 2839.6,
        "DSCWAH": 5002.7,
        "QLDAT": "12/04/2019",
        "FBMIC": 47.9,
        "FBLTH": 1.09,
        "FBUNI": 81.0,
        "FBSTR": 26.5,
        "FBELO": 8.5,
        "FBSFI": 10.2
    },
    "_id": "6424c4458ac5471d81824815",
    "haid": "6424c4458ac5471d81824815"
}{
    "type": "Feature",
    "geometry": {
        "type": "Polygon",
        "coordinates": [
            [
                [
                    -111.97713506,
                    33.07896838
                ],
                [
                    -111.97715683,
                    33.07896848
                ],
                [
                    -111.9771567,
                    33.07898681
                ],
                [
                    -111.97713493,
                    33.0789867
                ],
                [
                    -111.97713506,
                    33.07896838
                ]
            ]
        ]
    },
    "properties": {
        "ha_label": "p43E",
        "HA_AREA": 4.129024,
        "HARM": "Hand",
        "HADAT": "10/31/2019",
        "WBWAH": 6299.2,
        "GNDAT": "11/18/2019",
        "FFRAC": 0.4062,
        "SFRAC": 0.5078,
        "TFRAC": 0.0859,
        "FWCAG": 2.26,
        "SWCAG": 3.91,
        "WFWAH": 2559.1,
        "WSWAH": 3198.8,
        "WSCWAH": 5757.9,
        "DFWAH": 2501.3,
        "DSWAH": 3073.8,
        "DSCWAH": 5575.1,
        "QLDAT": "12/04/2019",
        "FBMIC": 47.3,
        "FBLTH": 1.07,
        "FBUNI": 80.0,
        "FBSTR": 26.7,
        "FBELO": 8.6,
        "FBSFI": 11.1
    },
    "_id": "6424c4458ac5471d81824816",
    "haid": "6424c4458ac5471d81824816"
}{
    "type": "Feature",
    "geometry": {
        "type": "Polygon",
        "coordinates": [
            [
                [
                    -111.97724614,
                    33.07864864
                ],
                [
                    -111.97726791,
                    33.07864875
                ],
                [
                    -111.97726778,
                    33.07866707
                ],
                [
                    -111.97724602,
                    33.07866697
                ],
                [
                    -111.97724614,
                    33.07864864
                ]
            ]
        ]
    },
    "properties": {
        "ha_label": "p44W",
        "HA_AREA": 4.129024,
        "HARM": "Hand",
        "HADAT": "10/31/2019",
        "WBWAH": 5167.3,
        "GNDAT": "11/18/2019",
        "FFRAC": 0.381,
        "SFRAC": 0.5238,
        "TFRAC": 0.0952,
        "FWCAG": 2.26,
        "SWCAG": 3.79,
        "WFWAH": 1968.5,
        "WSWAH": 2706.7,
        "WSCWAH": 4675.2,
        "DFWAH": 1923.9,
        "DSWAH": 2604.2,
        "DSCWAH": 4528.1,
        "QLDAT": "12/04/2019",
        "FBMIC": 46.7,
        "FBLTH": 1.06,
        "FBUNI": 80.9,
        "FBSTR": 27.7,
        "FBELO": 8.5,
        "FBSFI": 10.8
    },
    "_id": "6424c4458ac5471d81824817",
    "haid": "6424c4458ac5471d81824817"
}{
    "type": "Feature",
    "geometry": {
        "type": "Polygon",
        "coordinates": [
            [
                [
                    -111.97713768,
                    33.07859312
                ],
                [
                    -111.97715945,
                    33.07859323
                ],
                [
                    -111.97715932,
                    33.07861155
                ],
                [
                    -111.97713756,
                    33.07861145
                ],
                [
                    -111.97713768,
                    33.07859312
                ]
            ]
        ]
    },
    "properties": {
        "ha_label": "p44E",
        "HA_AREA": 4.129024,
        "HARM": "Hand",
        "HADAT": "10/31/2019",
        "WBWAH": 4872.0,
        "GNDAT": "11/18/2019",
        "FFRAC": 0.3939,
        "SFRAC": 0.5152,
        "TFRAC": 0.0909,
        "FWCAG": 2.3,
        "SWCAG": 3.77,
        "WFWAH": 1919.3,
        "WSWAH": 2509.8,
        "WSCWAH": 4429.1,
        "DFWAH": 1875.1,
        "DSWAH": 2415.2,
        "DSCWAH": 4290.3,
        "QLDAT": "12/04/2019",
        "FBMIC": 48.1,
        "FBLTH": 1.05,
        "FBUNI": 79.8,
        "FBSTR": 26.6,
        "FBELO": 8.5,
        "FBSFI": 11.2
    },
    "_id": "6424c4458ac5471d81824818",
    "haid": "6424c4458ac5471d81824818"
}{
    "type": "Feature",
    "geometry": {
        "type": "Polygon",
        "coordinates": [
            [
                [
                    -111.97693435,
                    33.0797729
                ],
                [
                    -111.97695612,
                    33.079773
                ],
                [
                    -111.97695599,
                    33.07979133
                ],
                [
                    -111.97693422,
                    33.07979122
                ],
                [
                    -111.97693435,
                    33.0797729
                ]
            ]
        ]
    },
    "properties": {
        "ha_label": "p51W",
        "HA_AREA": 4.129024,
        "HARM": "Hand",
        "HADAT": "10/31/2019",
        "WBWAH": 5880.9,
        "GNDAT": "11/18/2019",
        "FFRAC": 0.3849,
        "SFRAC": 0.5188,
        "TFRAC": 0.0962,
        "FWCAG": 2.4,
        "SWCAG": 3.93,
        "WFWAH": 2263.8,
        "WSWAH": 3051.2,
        "WSCWAH": 5315.0,
        "DFWAH": 2209.4,
        "DSWAH": 2931.4,
        "DSCWAH": 5140.8,
        "QLDAT": "12/04/2019",
        "FBMIC": 47.1,
        "FBLTH": 1.1,
        "FBUNI": 80.1,
        "FBSTR": 26.0,
        "FBELO": 8.9,
        "FBSFI": 10.3
    },
    "_id": "6424c4458ac5471d81824819",
    "haid": "6424c4458ac5471d81824819"
}{
    "type": "Feature",
    "geometry": {
        "type": "Polygon",
        "coordinates": [
            [
                [
                    -111.97682588,
                    33.07971737
                ],
                [
                    -111.97684765,
                    33.07971748
                ],
                [
                    -111.97684753,
                    33.07973581
                ],
                [
                    -111.97682576,
                    33.0797357
                ],
                [
                    -111.97682588,
                    33.07971737
                ]
            ]
        ]
    },
    "properties": {
        "ha_label": "p51E",
        "HA_AREA": 4.129024,
        "HARM": "Hand",
        "HADAT": "10/31/2019",
        "WBWAH": 5733.3,
        "GNDAT": "11/18/2019",
        "FFRAC": 0.3948,
        "SFRAC": 0.5236,
        "TFRAC": 0.0815,
        "FWCAG": 2.31,
        "SWCAG": 3.95,
        "WFWAH": 2263.8,
        "WSWAH": 3002.0,
        "WSCWAH": 5265.7,
        "DFWAH": 2211.5,
        "DSWAH": 2883.3,
        "DSCWAH": 5094.8,
        "QLDAT": "12/04/2019",
        "FBMIC": 49.0,
        "FBLTH": 1.05,
        "FBUNI": 79.6,
        "FBSTR": 26.2,
        "FBELO": 9.4,
        "FBSFI": 11.7
    },
    "_id": "6424c4458ac5471d8182481a",
    "haid": "6424c4458ac5471d8182481a"
}{
    "type": "Feature",
    "geometry": {
        "type": "Polygon",
        "coordinates": [
            [
                [
                    -111.97693697,
                    33.07939764
                ],
                [
                    -111.97695874,
                    33.07939775
                ],
                [
                    -111.97695861,
                    33.07941608
                ],
                [
                    -111.97693684,
                    33.07941597
                ],
                [
                    -111.97693697,
                    33.07939764
                ]
            ]
        ]
    },
    "properties": {
        "ha_label": "p52W",
        "HA_AREA": 4.129024,
        "HARM": "Hand",
        "HADAT": "10/31/2019",
        "WBWAH": 6250.0,
        "GNDAT": "11/18/2019",
        "FFRAC": 0.3937,
        "SFRAC": 0.5354,
        "TFRAC": 0.0709,
        "FWCAG": 2.22,
        "SWCAG": 3.86,
        "WFWAH": 2460.6,
        "WSWAH": 3346.5,
        "WSCWAH": 5807.1,
        "DFWAH": 2406.1,
        "DSWAH": 3217.2,
        "DSCWAH": 5623.3,
        "QLDAT": "12/04/2019",
        "FBMIC": 46.9,
        "FBLTH": 1.1,
        "FBUNI": 80.2,
        "FBSTR": 26.9,
        "FBELO": 8.8,
        "FBSFI": 10.4
    },
    "_id": "6424c4458ac5471d8182481b",
    "haid": "6424c4458ac5471d8182481b"
}{
    "type": "Feature",
    "geometry": {
        "type": "Polygon",
        "coordinates": [
            [
                [
                    -111.97682851,
                    33.07934212
                ],
                [
                    -111.97685028,
                    33.07934223
                ],
                [
                    -111.97685015,
                    33.07936055
                ],
                [
                    -111.97682838,
                    33.07936045
                ],
                [
                    -111.97682851,
                    33.07934212
                ]
            ]
        ]
    },
    "properties": {
        "ha_label": "p52E",
        "HA_AREA": 4.129024,
        "HARM": "Hand",
        "HADAT": "10/31/2019",
        "WBWAH": 6053.1,
        "GNDAT": "11/18/2019",
        "FFRAC": 0.3902,
        "SFRAC": 0.5285,
        "TFRAC": 0.0813,
        "FWCAG": 2.24,
        "SWCAG": 3.94,
        "WFWAH": 2362.2,
        "WSWAH": 3198.8,
        "WSCWAH": 5561.0,
        "DFWAH": 2309.3,
        "DSWAH": 3072.8,
        "DSCWAH": 5382.1,
        "QLDAT": "12/04/2019",
        "FBMIC": 48.9,
        "FBLTH": 1.05,
        "FBUNI": 79.2,
        "FBSTR": 25.6,
        "FBELO": 9.2,
        "FBSFI": 11.5
    },
    "_id": "6424c4458ac5471d8182481c",
    "haid": "6424c4458ac5471d8182481c"
}{
    "type": "Feature",
    "geometry": {
        "type": "Polygon",
        "coordinates": [
            [
                [
                    -111.97693959,
                    33.07902239
                ],
                [
                    -111.97696136,
                    33.07902249
                ],
                [
                    -111.97696123,
                    33.07904082
                ],
                [
                    -111.97693947,
                    33.07904071
                ],
                [
                    -111.97693959,
                    33.07902239
                ]
            ]
        ]
    },
    "properties": {
        "ha_label": "p53W",
        "HA_AREA": 4.129024,
        "HARM": "Hand",
        "HADAT": "10/31/2019",
        "WBWAH": 5979.3,
        "GNDAT": "11/18/2019",
        "FFRAC": 0.4033,
        "SFRAC": 0.5267,
        "TFRAC": 0.07,
        "FWCAG": 2.19,
        "SWCAG": 3.81,
        "WFWAH": 2411.4,
        "WSWAH": 3149.6,
        "WSCWAH": 5561.0,
        "DFWAH": 2358.6,
        "DSWAH": 3029.5,
        "DSCWAH": 5388.1,
        "QLDAT": "12/04/2019",
        "FBMIC": 48.6,
        "FBLTH": 1.1,
        "FBUNI": 81.1,
        "FBSTR": 26.7,
        "FBELO": 9.0,
        "FBSFI": 9.7
    },
    "_id": "6424c4458ac5471d8182481d",
    "haid": "6424c4458ac5471d8182481d"
}{
    "type": "Feature",
    "geometry": {
        "type": "Polygon",
        "coordinates": [
            [
                [
                    -111.97683113,
                    33.07896687
                ],
                [
                    -111.9768529,
                    33.07896697
                ],
                [
                    -111.97685277,
                    33.0789853
                ],
                [
                    -111.976831,
                    33.07898519
                ],
                [
                    -111.97683113,
                    33.07896687
                ]
            ]
        ]
    },
    "properties": {
        "ha_label": "p53E",
        "HA_AREA": 4.129024,
        "HARM": "Hand",
        "HADAT": "10/31/2019",
        "WBWAH": 5708.7,
        "GNDAT": "11/18/2019",
        "FFRAC": 0.3966,
        "SFRAC": 0.5086,
        "TFRAC": 0.0948,
        "FWCAG": 2.29,
        "SWCAG": 3.83,
        "WFWAH": 2263.8,
        "WSWAH": 2903.5,
        "WSCWAH": 5167.3,
        "DFWAH": 2212.0,
        "DSWAH": 2792.4,
        "DSCWAH": 5004.4,
        "QLDAT": "12/04/2019",
        "FBMIC": 46.3,
        "FBLTH": 1.12,
        "FBUNI": 81.5,
        "FBSTR": 28.2,
        "FBELO": 8.7,
        "FBSFI": 9.5
    },
    "_id": "6424c4458ac5471d8182481e",
    "haid": "6424c4458ac5471d8182481e"
}{
    "type": "Feature",
    "geometry": {
        "type": "Polygon",
        "coordinates": [
            [
                [
                    -111.97694222,
                    33.07864713
                ],
                [
                    -111.97696399,
                    33.07864724
                ],
                [
                    -111.97696386,
                    33.07866557
                ],
                [
                    -111.97694209,
                    33.07866546
                ],
                [
                    -111.97694222,
                    33.07864713
                ]
            ]
        ]
    },
    "properties": {
        "ha_label": "p54W",
        "HA_AREA": 4.129024,
        "HARM": "Hand",
        "HADAT": "10/31/2019",
        "WBWAH": 5585.6,
        "GNDAT": "11/18/2019",
        "FFRAC": 0.3877,
        "SFRAC": 0.511,
        "TFRAC": 0.1013,
        "FWCAG": 2.25,
        "SWCAG": 3.86,
        "WFWAH": 2165.4,
        "WSWAH": 2854.3,
        "WSCWAH": 5019.7,
        "DFWAH": 2116.6,
        "DSWAH": 2744.2,
        "DSCWAH": 4860.7,
        "QLDAT": "12/04/2019",
        "FBMIC": 46.6,
        "FBLTH": 1.06,
        "FBUNI": 81.1,
        "FBSTR": 26.3,
        "FBELO": 8.7,
        "FBSFI": 10.3
    },
    "_id": "6424c4458ac5471d8182481f",
    "haid": "6424c4458ac5471d8182481f"
}{
    "type": "Feature",
    "geometry": {
        "type": "Polygon",
        "coordinates": [
            [
                [
                    -111.97683376,
                    33.07859161
                ],
                [
                    -111.97685553,
                    33.07859172
                ],
                [
                    -111.9768554,
                    33.07861005
                ],
                [
                    -111.97683363,
                    33.07860994
                ],
                [
                    -111.97683376,
                    33.07859161
                ]
            ]
        ]
    },
    "properties": {
        "ha_label": "p54E",
        "HA_AREA": 4.129024,
        "HARM": "Hand",
        "HADAT": "10/31/2019",
        "WBWAH": 4749.0,
        "GNDAT": "11/18/2019",
        "FFRAC": 0.4041,
        "SFRAC": 0.5181,
        "TFRAC": 0.0777,
        "FWCAG": 2.18,
        "SWCAG": 3.81,
        "WFWAH": 1919.3,
        "WSWAH": 2460.6,
        "WSCWAH": 4379.9,
        "DFWAH": 1877.5,
        "DSWAH": 2366.8,
        "DSCWAH": 4244.2,
        "QLDAT": "12/04/2019",
        "FBMIC": 48.9,
        "FBLTH": 1.1,
        "FBUNI": 81.4,
        "FBSTR": 28.5,
        "FBELO": 8.5,
        "FBSFI": 9.3
    },
    "_id": "6424c4458ac5471d81824820",
    "haid": "6424c4458ac5471d81824820"
}{
    "type": "Feature",
    "geometry": {
        "type": "Polygon",
        "coordinates": [
            [
                [
                    -111.97662958,
                    33.07977138
                ],
                [
                    -111.97665135,
                    33.07977149
                ],
                [
                    -111.97665122,
                    33.07978982
                ],
                [
                    -111.97662945,
                    33.07978971
                ],
                [
                    -111.97662958,
                    33.07977138
                ]
            ]
        ]
    },
    "properties": {
        "ha_label": "p61W",
        "HA_AREA": 4.129024,
        "HARM": "Hand",
        "HADAT": "10/31/2019",
        "WBWAH": 5290.4,
        "GNDAT": "11/18/2019",
        "FFRAC": 0.4,
        "SFRAC": 0.5302,
        "TFRAC": 0.0698,
        "FWCAG": 2.34,
        "SWCAG": 3.81,
        "WFWAH": 2116.1,
        "WSWAH": 2805.1,
        "WSCWAH": 4921.3,
        "DFWAH": 2066.6,
        "DSWAH": 2698.2,
        "DSCWAH": 4764.8,
        "QLDAT": "12/04/2019",
        "FBMIC": 47.5,
        "FBLTH": 1.09,
        "FBUNI": 81.0,
        "FBSTR": 27.4,
        "FBELO": 8.5,
        "FBSFI": 10.0
    },
    "_id": "6424c4458ac5471d81824821",
    "haid": "6424c4458ac5471d81824821"
}{
    "type": "Feature",
    "geometry": {
        "type": "Polygon",
        "coordinates": [
            [
                [
                    -111.97652112,
                    33.07971586
                ],
                [
                    -111.97654288,
                    33.07971597
                ],
                [
                    -111.97654276,
                    33.0797343
                ],
                [
                    -111.97652099,
                    33.07973419
                ],
                [
                    -111.97652112,
                    33.07971586
                ]
            ]
        ]
    },
    "properties": {
        "ha_label": "p61E",
        "HA_AREA": 4.129024,
        "HARM": "Hand",
        "HADAT": "10/31/2019",
        "WBWAH": 6102.4,
        "GNDAT": "11/18/2019",
        "FFRAC": 0.3952,
        "SFRAC": 0.5,
        "TFRAC": 0.1048,
        "FWCAG": 2.2,
        "SWCAG": 3.8,
        "WFWAH": 2411.4,
        "WSWAH": 3051.2,
        "WSCWAH": 5462.6,
        "DFWAH": 2358.4,
        "DSWAH": 2935.4,
        "DSCWAH": 5293.8,
        "QLDAT": "12/04/2019",
        "FBMIC": 47.5,
        "FBLTH": 1.01,
        "FBUNI": 78.5,
        "FBSTR": 25.2,
        "FBELO": 8.8,
        "FBSFI": 12.4
    },
    "_id": "6424c4458ac5471d81824822",
    "haid": "6424c4458ac5471d81824822"
}{
    "type": "Feature",
    "geometry": {
        "type": "Polygon",
        "coordinates": [
            [
                [
                    -111.9766322,
                    33.07939613
                ],
                [
                    -111.97665397,
                    33.07939624
                ],
                [
                    -111.97665384,
                    33.07941456
                ],
                [
                    -111.97663207,
                    33.07941446
                ],
                [
                    -111.9766322,
                    33.07939613
                ]
            ]
        ]
    },
    "properties": {
        "ha_label": "p62W",
        "HA_AREA": 4.129024,
        "HARM": "Hand",
        "HADAT": "10/31/2019",
        "WBWAH": 4256.9,
        "GNDAT": "11/18/2019",
        "FFRAC": 0.3931,
        "SFRAC": 0.5318,
        "TFRAC": 0.0751,
        "FWCAG": 2.02,
        "SWCAG": 3.83,
        "WFWAH": 1673.2,
        "WSWAH": 2263.8,
        "WSCWAH": 3937.0,
        "DFWAH": 1639.4,
        "DSWAH": 2177.0,
        "DSCWAH": 3816.4,
        "QLDAT": "12/04/2019",
        "FBMIC": 49.0,
        "FBLTH": 1.07,
        "FBUNI": 80.2,
        "FBSTR": 27.2,
        "FBELO": 8.8,
        "FBSFI": 10.8
    },
    "_id": "6424c4458ac5471d81824823",
    "haid": "6424c4458ac5471d81824823"
}{
    "type": "Feature",
    "geometry": {
        "type": "Polygon",
        "coordinates": [
            [
                [
                    -111.97652374,
                    33.07934061
                ],
                [
                    -111.97654551,
                    33.07934072
                ],
                [
                    -111.97654538,
                    33.07935904
                ],
                [
                    -111.97652361,
                    33.07935894
                ],
                [
                    -111.97652374,
                    33.07934061
                ]
            ]
        ]
    },
    "properties": {
        "ha_label": "p62E",
        "HA_AREA": 4.129024,
        "HARM": "Hand",
        "HADAT": "10/31/2019",
        "WBWAH": 6865.2,
        "GNDAT": "11/18/2019",
        "FFRAC": 0.3871,
        "SFRAC": 0.5161,
        "TFRAC": 0.0968,
        "FWCAG": 2.31,
        "SWCAG": 3.9,
        "WFWAH": 2657.5,
        "WSWAH": 3543.3,
        "WSCWAH": 6200.8,
        "DFWAH": 2596.1,
        "DSWAH": 3405.1,
        "DSCWAH": 6001.2,
        "QLDAT": "12/04/2019",
        "FBMIC": 47.9,
        "FBLTH": 1.08,
        "FBUNI": 80.6,
        "FBSTR": 27.8,
        "FBELO": 8.4,
        "FBSFI": 10.2
    },
    "_id": "6424c4458ac5471d81824824",
    "haid": "6424c4458ac5471d81824824"
}{
    "type": "Feature",
    "geometry": {
        "type": "Polygon",
        "coordinates": [
            [
                [
                    -111.97663483,
                    33.07902087
                ],
                [
                    -111.9766566,
                    33.07902098
                ],
                [
                    -111.97665647,
                    33.07903931
                ],
                [
                    -111.9766347,
                    33.0790392
                ],
                [
                    -111.97663483,
                    33.07902087
                ]
            ]
        ]
    },
    "properties": {
        "ha_label": "p63W",
        "HA_AREA": 4.129024,
        "HARM": "Hand",
        "HADAT": "10/31/2019",
        "WBWAH": 4404.5,
        "GNDAT": "11/18/2019",
        "FFRAC": 0.3911,
        "SFRAC": 0.5251,
        "TFRAC": 0.0838,
        "FWCAG": 2.12,
        "SWCAG": 3.76,
        "WFWAH": 1722.4,
        "WSWAH": 2313.0,
        "WSCWAH": 4035.4,
        "DFWAH": 1685.9,
        "DSWAH": 2226.1,
        "DSCWAH": 3912.0,
        "QLDAT": "12/04/2019",
        "FBMIC": 49.3,
        "FBLTH": 1.07,
        "FBUNI": 81.2,
        "FBSTR": 27.8,
        "FBELO": 8.8,
        "FBSFI": 9.7
    },
    "_id": "6424c4458ac5471d81824825",
    "haid": "6424c4458ac5471d81824825"
}{
    "type": "Feature",
    "geometry": {
        "type": "Polygon",
        "coordinates": [
            [
                [
                    -111.97652637,
                    33.07896535
                ],
                [
                    -111.97654814,
                    33.07896546
                ],
                [
                    -111.97654801,
                    33.07898379
                ],
                [
                    -111.97652624,
                    33.07898368
                ],
                [
                    -111.97652637,
                    33.07896535
                ]
            ]
        ]
    },
    "properties": {
        "ha_label": "p63E",
        "HA_AREA": 4.129024,
        "HARM": "Hand",
        "HADAT": "10/31/2019",
        "WBWAH": 5807.1,
        "GNDAT": "11/18/2019",
        "FFRAC": 0.3983,
        "SFRAC": 0.5085,
        "TFRAC": 0.0932,
        "FWCAG": 2.08,
        "SWCAG": 3.65,
        "WFWAH": 2313.0,
        "WSWAH": 2952.8,
        "WSCWAH": 5265.7,
        "DFWAH": 2265.0,
        "DSWAH": 2844.9,
        "DSCWAH": 5109.8,
        "QLDAT": "12/04/2019",
        "FBMIC": 49.9,
        "FBLTH": 1.05,
        "FBUNI": 79.2,
        "FBSTR": 25.2,
        "FBELO": 9.6,
        "FBSFI": 11.5
    },
    "_id": "6424c4458ac5471d81824826",
    "haid": "6424c4458ac5471d81824826"
}{
    "type": "Feature",
    "geometry": {
        "type": "Polygon",
        "coordinates": [
            [
                [
                    -111.97663745,
                    33.07864562
                ],
                [
                    -111.97665922,
                    33.07864573
                ],
                [
                    -111.97665909,
                    33.07866405
                ],
                [
                    -111.97663732,
                    33.07866395
                ],
                [
                    -111.97663745,
                    33.07864562
                ]
            ]
        ]
    },
    "properties": {
        "ha_label": "p64W",
        "HA_AREA": 4.129024,
        "HARM": "Hand",
        "HADAT": "10/31/2019",
        "WBWAH": 3174.2,
        "GNDAT": "11/18/2019",
        "FFRAC": 0.4031,
        "SFRAC": 0.5271,
        "TFRAC": 0.0698,
        "FWCAG": 2.19,
        "SWCAG": 3.62,
        "WFWAH": 1279.5,
        "WSWAH": 1673.2,
        "WSCWAH": 2952.8,
        "DFWAH": 1251.5,
        "DSWAH": 1612.7,
        "DSCWAH": 2864.2,
        "QLDAT": "12/04/2019",
        "FBMIC": 46.1,
        "FBLTH": 1.04,
        "FBUNI": 80.2,
        "FBSTR": 26.3,
        "FBELO": 8.6,
        "FBSFI": 10.7
    },
    "_id": "6424c4458ac5471d81824827",
    "haid": "6424c4458ac5471d81824827"
}{
    "type": "Feature",
    "geometry": {
        "type": "Polygon",
        "coordinates": [
            [
                [
                    -111.97652899,
                    33.0785901
                ],
                [
                    -111.97655076,
                    33.07859021
                ],
                [
                    -111.97655063,
                    33.07860853
                ],
                [
                    -111.97652886,
                    33.07860843
                ],
                [
                    -111.97652899,
                    33.0785901
                ]
            ]
        ]
    },
    "properties": {
        "ha_label": "p64E",
        "HA_AREA": 4.129024,
        "HARM": "Hand",
        "HADAT": "10/31/2019",
        "WBWAH": 4773.6,
        "GNDAT": "11/18/2019",
        "FFRAC": 0.3711,
        "SFRAC": 0.5052,
        "TFRAC": 0.1237,
        "FWCAG": 2.18,
        "SWCAG": 3.71,
        "WFWAH": 1771.7,
        "WSWAH": 2411.4,
        "WSCWAH": 4183.1,
        "DFWAH": 1732.9,
        "DSWAH": 2321.9,
        "DSCWAH": 4054.8,
        "QLDAT": "12/04/2019",
        "FBMIC": 46.5,
        "FBLTH": 1.06,
        "FBUNI": 80.5,
        "FBSTR": 27.7,
        "FBELO": 8.3,
        "FBSFI": 10.7
    },
    "_id": "6424c4458ac5471d81824828",
    "haid": "6424c4458ac5471d81824828"
}