{
    "type": "FeatureCollection",
    "features": [
        {
            "type": "Feature",
            "geometry": {
                "type": "Point",
                "coordinates": [
                    33.078607,
                    -111.97808908
                ]
            },
            "properties": {
                "sc_label": "p14",
                "SOIL_DATE": "2019-05-08",
                "SNO3": [
                    {
                        "depth": 20,
                        "mindepth": 0,
                        "maxdepth": 40,
                        "value": 9.8
                    },
                    {
                        "depth": 60,
                        "mindepth": 40,
                        "maxdepth": 80,
                        "value": 2.7
                    },
                    {
                        "depth": 100,
                        "mindepth": 80,
                        "maxdepth": 120,
                        "value": 0.4
                    },
                    {
                        "depth": 140,
                        "mindepth": 120,
                        "maxdepth": 160,
                        "value": 0.9
                    },
                    {
                        "depth": 180,
                        "mindepth": 160,
                        "maxdepth": 200,
                        "value": 0.1
                    }
                ],
                "SNH4": [
                    {
                        "depth": 20,
                        "mindepth": 0,
                        "maxdepth": 40,
                        "value": 1.8
                    },
                    {
                        "depth": 60,
                        "mindepth": 40,
                        "maxdepth": 80,
                        "value": 0.1
                    },
                    {
                        "depth": 100,
                        "mindepth": 80,
                        "maxdepth": 120,
                        "value": 0.2
                    },
                    {
                        "depth": 140,
                        "mindepth": 120,
                        "maxdepth": 160,
                        "value": 0.0
                    },
                    {
                        "depth": 180,
                        "mindepth": 160,
                        "maxdepth": 200,
                        "value": 0.0
                    }
                ]
            },
            "_id": "681932b98ac547dff49dfd51",
            "scid": "681932b98ac547dff49dfd51"
        },
        {
            "type": "Feature",
            "geometry": {
                "type": "Point",
                "coordinates": [
                    33.07973127,
                    -111.97777645
                ]
            },
            "properties": {
                "sc_label": "p21",
                "SOIL_DATE": "2019-05-08",
                "SNO3": [
                    {
                        "depth": 20,
                        "mindepth": 0,
                        "maxdepth": 40,
                        "value": 9.3
                    },
                    {
                        "depth": 60,
                        "mindepth": 40,
                        "maxdepth": 80,
                        "value": 4.3
                    },
                    {
                        "depth": 100,
                        "mindepth": 80,
                        "maxdepth": 120,
                        "value": 3.8
                    },
                    {
                        "depth": 140,
                        "mindepth": 120,
                        "maxdepth": 160,
                        "value": 3.5
                    },
                    {
                        "depth": 180,
                        "mindepth": 160,
                        "maxdepth": 200,
                        "value": 3.2
                    }
                ],
                "SNH4": [
                    {
                        "depth": 20,
                        "mindepth": 0,
                        "maxdepth": 40,
                        "value": 1.6
                    },
                    {
                        "depth": 60,
                        "mindepth": 40,
                        "maxdepth": 80,
                        "value": 0.3
                    },
                    {
                        "depth": 100,
                        "mindepth": 80,
                        "maxdepth": 120,
                        "value": 0.0
                    },
                    {
                        "depth": 140,
                        "mindepth": 120,
                        "maxdepth": 160,
                        "value": 0.0
                    },
                    {
                        "depth": 180,
                        "mindepth": 160,
                        "maxdepth": 200,
                        "value": 0.0
                    }
                ]
            },
            "_id": "681932b98ac547dff49dfd52",
            "scid": "681932b98ac547dff49dfd52"
        },
        {
            "type": "Feature",
            "geometry": {
                "type": "Point",
                "coordinates": [
                    33.07897924,
                    -111.97747786
                ]
            },
            "properties": {
                "sc_label": "p33",
                "SOIL_DATE": "2019-05-08",
                "SNO3": [
                    {
                        "depth": 20,
                        "mindepth": 0,
                        "maxdepth": 40,
                        "value": 8.6
                    },
                    {
                        "depth": 60,
                        "mindepth": 40,
                        "maxdepth": 80,
                        "value": 2.3
                    },
                    {
                        "depth": 100,
                        "mindepth": 80,
                        "maxdepth": 120,
                        "value": 0.8
                    },
                    {
                        "depth": 140,
                        "mindepth": 120,
                        "maxdepth": 160,
                        "value": 0.8
                    },
                    {
                        "depth": 180,
                        "mindepth": 160,
                        "maxdepth": 200,
                        "value": 0.7
                    }
                ],
                "SNH4": [
                    {
                        "depth": 20,
                        "mindepth": 0,
                        "maxdepth": 40,
                        "value": 1.4
                    },
                    {
                        "depth": 60,
                        "mindepth": 40,
                        "maxdepth": 80,
                        "value": 0.0
                    },
                    {
                        "depth": 100,
                        "mindepth": 80,
                        "maxdepth": 120,
                        "value": 0.0
                    },
                    {
                        "depth": 140,
                        "mindepth": 120,
                        "maxdepth": 160,
                        "value": 0.0
                    },
                    {
                        "depth": 180,
                        "mindepth": 160,
                        "maxdepth": 200,
                        "value": 0.0
                    }
                ]
            },
            "_id": "681932b98ac547dff49dfd53",
            "scid": "681932b98ac547dff49dfd53"
        },
        {
            "type": "Feature",
            "geometry": {
                "type": "Point",
                "coordinates": [
                    33.07897773,
                    -111.97717309
                ]
            },
            "properties": {
                "sc_label": "p43",
                "SOIL_DATE": "2019-05-08",
                "SNO3": [
                    {
                        "depth": 20,
                        "mindepth": 0,
                        "maxdepth": 40,
                        "value": 8.3
                    },
                    {
                        "depth": 60,
                        "mindepth": 40,
                        "maxdepth": 80,
                        "value": 1.8
                    },
                    {
                        "depth": 100,
                        "mindepth": 80,
                        "maxdepth": 120,
                        "value": 0.4
                    },
                    {
                        "depth": 140,
                        "mindepth": 120,
                        "maxdepth": 160,
                        "value": 1.7
                    },
                    {
                        "depth": 180,
                        "mindepth": 160,
                        "maxdepth": 200,
                        "value": 3.8
                    }
                ],
                "SNH4": [
                    {
                        "depth": 20,
                        "mindepth": 0,
                        "maxdepth": 40,
                        "value": 1.0
                    },
                    {
                        "depth": 60,
                        "mindepth": 40,
                        "maxdepth": 80,
                        "value": 0.0
                    },
                    {
                        "depth": 100,
                        "mindepth": 80,
                        "maxdepth": 120,
                        "value": 0.6
                    },
                    {
                        "depth": 140,
                        "mindepth": 120,
                        "maxdepth": 160,
                        "value": 0.0
                    },
                    {
                        "depth": 180,
                        "mindepth": 160,
                        "maxdepth": 200,
                        "value": 0.0
                    }
                ]
            },
            "_id": "681932b98ac547dff49dfd54",
            "scid": "681932b98ac547dff49dfd54"
        },
        {
            "type": "Feature",
            "geometry": {
                "type": "Point",
                "coordinates": [
                    33.07935147,
                    -111.97686654
                ]
            },
            "properties": {
                "sc_label": "p52",
                "SOIL_DATE": "2019-05-08",
                "SNO3": [
                    {
                        "depth": 20,
                        "mindepth": 0,
                        "maxdepth": 40,
                        "value": 8.0
                    },
                    {
                        "depth": 60,
                        "mindepth": 40,
                        "maxdepth": 80,
                        "value": 1.3
                    },
                    {
                        "depth": 100,
                        "mindepth": 80,
                        "maxdepth": 120,
                        "value": 0.4
                    },
                    {
                        "depth": 140,
                        "mindepth": 120,
                        "maxdepth": 160,
                        "value": 1.4
                    },
                    {
                        "depth": 180,
                        "mindepth": 160,
                        "maxdepth": 200,
                        "value": 2.9
                    }
                ],
                "SNH4": [
                    {
                        "depth": 20,
                        "mindepth": 0,
                        "maxdepth": 40,
                        "value": 1.2
                    },
                    {
                        "depth": 60,
                        "mindepth": 40,
                        "maxdepth": 80,
                        "value": 0.0
                    },
                    {
                        "depth": 100,
                        "mindepth": 80,
                        "maxdepth": 120,
                        "value": 0.0
                    },
                    {
                        "depth": 140,
                        "mindepth": 120,
                        "maxdepth": 160,
                        "value": 0.0
                    },
                    {
                        "depth": 180,
                        "mindepth": 160,
                        "maxdepth": 200,
                        "value": 0.0
                    }
                ]
            },
            "_id": "681932b98ac547dff49dfd55",
            "scid": "681932b98ac547dff49dfd55"
        },
        {
            "type": "Feature",
            "geometry": {
                "type": "Point",
                "coordinates": [
                    33.07859945,
                    -111.97656702
                ]
            },
            "properties": {
                "sc_label": "p64",
                "SOIL_DATE": "2019-05-08",
                "SNO3": [
                    {
                        "depth": 20,
                        "mindepth": 0,
                        "maxdepth": 40,
                        "value": 5.5
                    },
                    {
                        "depth": 60,
                        "mindepth": 40,
                        "maxdepth": 80,
                        "value": 1.2
                    },
                    {
                        "depth": 100,
                        "mindepth": 80,
                        "maxdepth": 120,
                        "value": 0.6
                    },
                    {
                        "depth": 140,
                        "mindepth": 120,
                        "maxdepth": 160,
                        "value": 4.2
                    },
                    {
                        "depth": 180,
                        "mindepth": 160,
                        "maxdepth": 200,
                        "value": 6.5
                    }
                ],
                "SNH4": [
                    {
                        "depth": 20,
                        "mindepth": 0,
                        "maxdepth": 40,
                        "value": 0.6
                    },
                    {
                        "depth": 60,
                        "mindepth": 40,
                        "maxdepth": 80,
                        "value": 0.0
                    },
                    {
                        "depth": 100,
                        "mindepth": 80,
                        "maxdepth": 120,
                        "value": 0.0
                    },
                    {
                        "depth": 140,
                        "mindepth": 120,
                        "maxdepth": 160,
                        "value": 0.0
                    },
                    {
                        "depth": 180,
                        "mindepth": 160,
                        "maxdepth": 200,
                        "value": 0.0
                    }
                ]
            },
            "_id": "681932b98ac547dff49dfd56",
            "scid": "681932b98ac547dff49dfd56"
        }
    ]
}