{
    "type": "FeatureCollection",
    "features": [
        {
            "type": "Feature",
            "geometry": {
                "type": "Point",
                "coordinates": [
                    33.07978837,
                    -111.97482547
                ]
            },
            "properties": {
                "cc_label": "p01-1",
                "CHTD": {
                    "2014154": 0.18,
                    "2014167": 0.39,
                    "2014181": 0.48,
                    "2014195": 0.68,
                    "2014209": 0.74,
                    "2014224": 0.72
                },
                "CWID": {
                    "2014167": 0.31,
                    "2014181": 0.41,
                    "2014195": 0.58,
                    "2014209": 0.75,
                    "2014224": 0.08
                },
                "LAID_FLD": {
                    "2014167": 0.41,
                    "2014181": 0.52,
                    "2014196": 1.53,
                    "2014211": 2.26,
                    "2014217": 1.66,
                    "2014230": 1.85,
                    "2014245": 2.03
                },
                "ADAT": "07/06/2025",
                "ADOY": 187,
                "NAWF": {
                    "2014195": 7.0,
                    "2014202": 4.0,
                    "2014209": 2.0,
                    "2014216": 1.5
                }
            },
            "_id": "643828918ac547f0dd69c0c5",
            "ccid": "643828918ac547f0dd69c0c5"
        },
        {
            "type": "Feature",
            "geometry": {
                "type": "Point",
                "coordinates": [
                    33.07952496,
                    -111.9748283
                ]
            },
            "properties": {
                "cc_label": "p01-2",
                "CHTD": {
                    "2014154": 0.18,
                    "2014167": 0.39,
                    "2014181": 0.48,
                    "2014195": 0.69,
                    "2014209": 0.62,
                    "2014224": 0.7
                },
                "CWID": {
                    "2014167": 0.37,
                    "2014181": 0.39,
                    "2014195": 0.63,
                    "2014209": 0.7,
                    "2014224": 0.81
                },
                "LAID_FLD": {
                    "2014167": 0.46,
                    "2014181": 1.08,
                    "2014196": 1.79,
                    "2014211": 2.02,
                    "2014217": 1.95,
                    "2014230": 1.92,
                    "2014245": 3.22
                },
                "ADAT": "07/07/2025",
                "ADOY": 188,
                "NAWF": {
                    "2014195": 6.0,
                    "2014202": 4.5,
                    "2014209": 2.0,
                    "2014216": 1.5
                }
            },
            "_id": "643828918ac547f0dd69c0c6",
            "ccid": "643828918ac547f0dd69c0c6"
        },
        {
            "type": "Feature",
            "geometry": {
                "type": "Point",
                "coordinates": [
                    33.07926153,
                    -111.97482926
                ]
            },
            "properties": {
                "cc_label": "p01-3",
                "CHTD": {
                    "2014154": 0.19,
                    "2014167": 0.33,
                    "2014181": 0.57,
                    "2014195": 0.74,
                    "2014209": 0.74,
                    "2014224": 0.84
                },
                "CWID": {
                    "2014167": 0.34,
                    "2014181": 0.45,
                    "2014195": 0.69,
                    "2014209": 0.73,
                    "2014224": 0.91
                },
                "LAID_FLD": {
                    "2014167": 1.11,
                    "2014181": 1.03,
                    "2014196": 2.0,
                    "2014211": 2.85,
                    "2014217": 2.21,
                    "2014230": 2.26,
                    "2014245": 2.28
                },
                "ADAT": "07/05/2025",
                "ADOY": 186,
                "NAWF": {
                    "2014195": 7.0,
                    "2014202": 4.0,
                    "2014209": 2.0,
                    "2014216": 1.0
                }
            },
            "_id": "643828918ac547f0dd69c0c7",
            "ccid": "643828918ac547f0dd69c0c7"
        },
        {
            "type": "Feature",
            "geometry": {
                "type": "Point",
                "coordinates": [
                    33.07899812,
                    -111.97483168
                ]
            },
            "properties": {
                "cc_label": "p01-4",
                "CHTD": {
                    "2014154": 0.19,
                    "2014167": 0.38,
                    "2014181": 0.51,
                    "2014195": 0.68,
                    "2014209": 0.64,
                    "2014224": 0.66
                },
                "CWID": {
                    "2014167": 0.31,
                    "2014181": 0.38,
                    "2014195": 0.51,
                    "2014209": 0.55,
                    "2014224": 0.65
                },
                "LAID_FLD": {
                    "2014167": 0.39,
                    "2014181": 0.44,
                    "2014196": 1.17,
                    "2014211": 1.24,
                    "2014217": 1.22,
                    "2014230": 1.3,
                    "2014245": 1.68
                },
                "ADAT": "07/06/2025",
                "ADOY": 187,
                "NAWF": {
                    "2014195": 6.0,
                    "2014202": 4.5,
                    "2014209": 2.0,
                    "2014216": 1.5
                }
            },
            "_id": "643828918ac547f0dd69c0c8",
            "ccid": "643828918ac547f0dd69c0c8"
        },
        {
            "type": "Feature",
            "geometry": {
                "type": "Point",
                "coordinates": [
                    33.0787347,
                    -111.97483319
                ]
            },
            "properties": {
                "cc_label": "p01-5",
                "CHTD": {
                    "2014154": 0.17,
                    "2014167": 0.38,
                    "2014181": 0.54,
                    "2014195": 0.69,
                    "2014209": 0.69,
                    "2014224": 0.74
                },
                "CWID": {
                    "2014167": 0.33,
                    "2014181": 0.44,
                    "2014195": 0.6,
                    "2014209": 0.61,
                    "2014224": 0.76
                },
                "LAID_FLD": {
                    "2014167": 0.75,
                    "2014181": 0.81,
                    "2014196": 1.62,
                    "2014211": 1.93,
                    "2014217": 1.89,
                    "2014230": 1.98,
                    "2014245": 2.14
                },
                "ADAT": "07/05/2025",
                "ADOY": 186,
                "NAWF": {
                    "2014195": 6.0,
                    "2014202": 4.0,
                    "2014209": 2.0,
                    "2014216": 1.5
                }
            },
            "_id": "643828918ac547f0dd69c0c9",
            "ccid": "643828918ac547f0dd69c0c9"
        },
        {
            "type": "Feature",
            "geometry": {
                "type": "Point",
                "coordinates": [
                    33.07847128,
                    -111.97483497
                ]
            },
            "properties": {
                "cc_label": "p01-6",
                "CHTD": {
                    "2014154": 0.19,
                    "2014167": 0.38,
                    "2014181": 0.46,
                    "2014195": 0.56,
                    "2014209": 0.57,
                    "2014224": 0.62
                },
                "CWID": {
                    "2014167": 0.29,
                    "2014181": 0.37,
                    "2014195": 0.5,
                    "2014209": 0.64,
                    "2014224": 0.66
                },
                "LAID_FLD": {
                    "2014167": 0.38,
                    "2014181": 0.45,
                    "2014196": 1.52,
                    "2014211": 1.19,
                    "2014217": 1.55,
                    "2014230": 2.39,
                    "2014245": 2.2
                },
                "ADAT": "07/03/2025",
                "ADOY": 184,
                "NAWF": {
                    "2014195": 6.0,
                    "2014202": 6.0,
                    "2014209": 2.0,
                    "2014216": 1.0
                }
            },
            "_id": "643828918ac547f0dd69c0ca",
            "ccid": "643828918ac547f0dd69c0ca"
        },
        {
            "type": "Feature",
            "geometry": {
                "type": "Point",
                "coordinates": [
                    33.0797899,
                    -111.97513063
                ]
            },
            "properties": {
                "cc_label": "p02-1",
                "CHTD": {
                    "2014154": 0.19,
                    "2014167": 0.31,
                    "2014181": 0.6,
                    "2014195": 0.88,
                    "2014209": 0.98,
                    "2014224": 1.02
                },
                "CWID": {
                    "2014167": 0.3,
                    "2014181": 0.52,
                    "2014195": 0.71,
                    "2014209": 1.02,
                    "2014224": 1.02
                },
                "LAID_FLD": {
                    "2014167": 1.02,
                    "2014181": 0.91,
                    "2014196": 3.04,
                    "2014211": 3.91,
                    "2014217": 3.76,
                    "2014230": 5.32,
                    "2014245": 4.52
                },
                "ADAT": "07/07/2025",
                "ADOY": 188,
                "NAWF": {
                    "2014195": 7.0,
                    "2014202": 5.5,
                    "2014209": 3.0,
                    "2014216": 2.5
                }
            },
            "_id": "643828918ac547f0dd69c0cb",
            "ccid": "643828918ac547f0dd69c0cb"
        },
        {
            "type": "Feature",
            "geometry": {
                "type": "Point",
                "coordinates": [
                    33.07952648,
                    -111.97513239
                ]
            },
            "properties": {
                "cc_label": "p02-2",
                "CHTD": {
                    "2014154": 0.17,
                    "2014167": 0.39,
                    "2014181": 0.7,
                    "2014195": 0.97,
                    "2014209": 1.1,
                    "2014224": 1.18
                },
                "CWID": {
                    "2014167": 0.32,
                    "2014181": 0.58,
                    "2014195": 0.85,
                    "2014209": 1.02,
                    "2014224": 1.02
                },
                "LAID_FLD": {
                    "2014167": 0.41,
                    "2014181": 1.49,
                    "2014196": 3.28,
                    "2014211": 5.3,
                    "2014217": 4.64,
                    "2014230": 5.61,
                    "2014245": 3.69
                },
                "ADAT": "07/07/2025",
                "ADOY": 188,
                "NAWF": {
                    "2014195": 7.0,
                    "2014202": 6.5,
                    "2014209": 4.0,
                    "2014216": 2.5,
                    "2014224": 1.0
                }
            },
            "_id": "643828918ac547f0dd69c0cc",
            "ccid": "643828918ac547f0dd69c0cc"
        },
        {
            "type": "Feature",
            "geometry": {
                "type": "Point",
                "coordinates": [
                    33.07926306,
                    -111.97513402
                ]
            },
            "properties": {
                "cc_label": "p02-3",
                "CHTD": {
                    "2014154": 0.19,
                    "2014167": 0.35,
                    "2014181": 0.68,
                    "2014195": 1.0,
                    "2014209": 1.04,
                    "2014224": 1.02
                },
                "CWID": {
                    "2014167": 0.34,
                    "2014181": 0.62,
                    "2014195": 0.82,
                    "2014209": 1.02,
                    "2014224": 1.02
                },
                "LAID_FLD": {
                    "2014167": 0.27,
                    "2014181": 1.5,
                    "2014196": 3.25,
                    "2014211": 5.14,
                    "2014217": 3.22,
                    "2014230": 4.36,
                    "2014245": 4.22
                },
                "ADAT": "07/02/2025",
                "ADOY": 183,
                "NAWF": {
                    "2014195": 8.0,
                    "2014202": 5.5,
                    "2014209": 4.5,
                    "2014216": 2.5
                }
            },
            "_id": "643828918ac547f0dd69c0cd",
            "ccid": "643828918ac547f0dd69c0cd"
        },
        {
            "type": "Feature",
            "geometry": {
                "type": "Point",
                "coordinates": [
                    33.07899964,
                    -111.97513634
                ]
            },
            "properties": {
                "cc_label": "p02-4",
                "CHTD": {
                    "2014154": 0.16,
                    "2014167": 0.36,
                    "2014181": 0.65,
                    "2014195": 0.92,
                    "2014209": 1.03,
                    "2014224": 0.97
                },
                "CWID": {
                    "2014167": 0.36,
                    "2014181": 0.54,
                    "2014195": 0.85,
                    "2014209": 1.02,
                    "2014224": 1.02
                },
                "LAID_FLD": {
                    "2014167": 1.62,
                    "2014181": 1.17,
                    "2014196": 2.73,
                    "2014211": 4.36,
                    "2014217": 4.3,
                    "2014230": 4.04,
                    "2014245": 3.97
                },
                "ADAT": "07/02/2025",
                "ADOY": 183,
                "NAWF": {
                    "2014195": 7.0,
                    "2014202": 5.5,
                    "2014209": 3.5,
                    "2014216": 2.0
                }
            },
            "_id": "643828918ac547f0dd69c0ce",
            "ccid": "643828918ac547f0dd69c0ce"
        },
        {
            "type": "Feature",
            "geometry": {
                "type": "Point",
                "coordinates": [
                    33.07873622,
                    -111.97513781
                ]
            },
            "properties": {
                "cc_label": "p02-5",
                "CHTD": {
                    "2014154": 0.15,
                    "2014167": 0.33,
                    "2014181": 0.65,
                    "2014195": 0.92,
                    "2014209": 0.98,
                    "2014224": 0.97
                },
                "CWID": {
                    "2014167": 0.34,
                    "2014181": 0.52,
                    "2014195": 0.68,
                    "2014209": 0.89,
                    "2014224": 1.02
                },
                "LAID_FLD": {
                    "2014167": 0.51,
                    "2014181": 0.82,
                    "2014196": 2.96,
                    "2014211": 3.64,
                    "2014217": 5.2,
                    "2014230": 4.78,
                    "2014245": 4.74
                },
                "ADAT": "07/03/2025",
                "ADOY": 184,
                "NAWF": {
                    "2014195": 8.0,
                    "2014202": 6.0,
                    "2014209": 3.0,
                    "2014216": 1.5
                }
            },
            "_id": "643828918ac547f0dd69c0cf",
            "ccid": "643828918ac547f0dd69c0cf"
        },
        {
            "type": "Feature",
            "geometry": {
                "type": "Point",
                "coordinates": [
                    33.0784728,
                    -111.97513988
                ]
            },
            "properties": {
                "cc_label": "p02-6",
                "CHTD": {
                    "2014154": 0.16,
                    "2014167": 0.33,
                    "2014181": 0.55,
                    "2014195": 0.71,
                    "2014209": 0.76,
                    "2014224": 0.77
                },
                "CWID": {
                    "2014167": 0.34,
                    "2014181": 0.44,
                    "2014195": 0.62,
                    "2014209": 0.74,
                    "2014224": 0.8
                },
                "LAID_FLD": {
                    "2014167": 0.62,
                    "2014181": 0.7,
                    "2014196": 1.68,
                    "2014211": 1.96,
                    "2014217": 1.82,
                    "2014230": 2.4,
                    "2014245": 2.76
                },
                "ADAT": "07/11/2025",
                "ADOY": 192,
                "NAWF": {
                    "2014195": 6.0,
                    "2014202": 5.0,
                    "2014209": 3.0,
                    "2014216": 2.0,
                    "2014224": 2.0
                }
            },
            "_id": "643828918ac547f0dd69c0d0",
            "ccid": "643828918ac547f0dd69c0d0"
        },
        {
            "type": "Feature",
            "geometry": {
                "type": "Point",
                "coordinates": [
                    33.07979142,
                    -111.97543561
                ]
            },
            "properties": {
                "cc_label": "p03-1",
                "CHTD": {
                    "2014154": 0.19,
                    "2014167": 0.35,
                    "2014181": 0.59,
                    "2014195": 0.96,
                    "2014209": 1.11,
                    "2014224": 1.26
                },
                "CWID": {
                    "2014167": 0.29,
                    "2014181": 0.51,
                    "2014195": 0.81,
                    "2014209": 1.02,
                    "2014224": 1.02
                },
                "LAID_FLD": {
                    "2014167": 0.45,
                    "2014181": 0.73,
                    "2014196": 3.61,
                    "2014211": 5.38,
                    "2014217": 2.9,
                    "2014230": 5.6,
                    "2014245": 5.22
                },
                "ADAT": "07/05/2025",
                "ADOY": 186,
                "NAWF": {
                    "2014195": 9.0,
                    "2014202": 7.5,
                    "2014209": 6.0,
                    "2014216": 4.0,
                    "2014224": 3.5
                }
            },
            "_id": "643828918ac547f0dd69c0d1",
            "ccid": "643828918ac547f0dd69c0d1"
        },
        {
            "type": "Feature",
            "geometry": {
                "type": "Point",
                "coordinates": [
                    33.079528,
                    -111.97543718
                ]
            },
            "properties": {
                "cc_label": "p03-2",
                "CHTD": {
                    "2014154": 0.17,
                    "2014167": 0.33,
                    "2014181": 0.61,
                    "2014195": 0.99,
                    "2014209": 1.12,
                    "2014224": 1.07
                },
                "CWID": {
                    "2014167": 0.28,
                    "2014181": 0.56,
                    "2014195": 0.73,
                    "2014209": 1.02,
                    "2014224": 1.02
                },
                "LAID_FLD": {
                    "2014167": 1.49,
                    "2014181": 1.18,
                    "2014196": 3.67,
                    "2014211": 5.43,
                    "2014217": 3.97,
                    "2014230": 5.84,
                    "2014245": 4.19
                },
                "ADAT": "07/12/2025",
                "ADOY": 193,
                "NAWF": {
                    "2014195": 10.0,
                    "2014202": 7.5,
                    "2014209": 5.5,
                    "2014216": 3.5,
                    "2014224": 2.5
                }
            },
            "_id": "643828918ac547f0dd69c0d2",
            "ccid": "643828918ac547f0dd69c0d2"
        },
        {
            "type": "Feature",
            "geometry": {
                "type": "Point",
                "coordinates": [
                    33.07926458,
                    -111.97543922
                ]
            },
            "properties": {
                "cc_label": "p03-3",
                "CHTD": {
                    "2014154": 0.22,
                    "2014167": 0.39,
                    "2014181": 0.7,
                    "2014195": 1.03,
                    "2014209": 1.16,
                    "2014224": 1.13
                },
                "CWID": {
                    "2014167": 0.36,
                    "2014181": 0.58,
                    "2014195": 0.89,
                    "2014209": 1.02,
                    "2014224": 1.02
                },
                "LAID_FLD": {
                    "2014167": 1.1,
                    "2014181": 1.42,
                    "2014196": 4.31,
                    "2014211": 5.97,
                    "2014230": 6.39,
                    "2014245": 5.94
                },
                "ADAT": "07/03/2025",
                "ADOY": 184,
                "NAWF": {
                    "2014195": 8.0,
                    "2014202": 7.5,
                    "2014209": 6.0,
                    "2014216": 4.0,
                    "2014224": 2.5
                }
            },
            "_id": "643828918ac547f0dd69c0d3",
            "ccid": "643828918ac547f0dd69c0d3"
        },
        {
            "type": "Feature",
            "geometry": {
                "type": "Point",
                "coordinates": [
                    33.07900116,
                    -111.9754405
                ]
            },
            "properties": {
                "cc_label": "p03-4",
                "CHTD": {
                    "2014154": 0.2,
                    "2014167": 0.34,
                    "2014181": 0.54,
                    "2014195": 0.79,
                    "2014209": 1.02,
                    "2014224": 1.01
                },
                "CWID": {
                    "2014167": 0.29,
                    "2014181": 0.51,
                    "2014195": 0.74,
                    "2014209": 1.02,
                    "2014224": 1.02
                },
                "LAID_FLD": {
                    "2014167": 0.55,
                    "2014181": 0.72,
                    "2014196": 2.85,
                    "2014211": 4.0,
                    "2014217": 5.59,
                    "2014230": 4.52,
                    "2014245": 5.47
                },
                "ADAT": "07/02/2025",
                "ADOY": 183,
                "NAWF": {
                    "2014195": 7.0,
                    "2014202": 7.0,
                    "2014209": 5.0,
                    "2014216": 3.0,
                    "2014224": 3.5
                }
            },
            "_id": "643828918ac547f0dd69c0d4",
            "ccid": "643828918ac547f0dd69c0d4"
        },
        {
            "type": "Feature",
            "geometry": {
                "type": "Point",
                "coordinates": [
                    33.07873774,
                    -111.97544265
                ]
            },
            "properties": {
                "cc_label": "p03-5",
                "CHTD": {
                    "2014154": 0.21,
                    "2014167": 0.34,
                    "2014181": 0.6,
                    "2014195": 0.86,
                    "2014209": 0.95,
                    "2014224": 0.94
                },
                "CWID": {
                    "2014167": 0.31,
                    "2014181": 0.5,
                    "2014195": 0.68,
                    "2014209": 1.02,
                    "2014224": 1.02
                },
                "LAID_FLD": {
                    "2014167": 1.06,
                    "2014181": 0.94,
                    "2014196": 2.75,
                    "2014211": 3.95,
                    "2014217": 3.34,
                    "2014230": 4.54,
                    "2014245": 2.73
                },
                "ADAT": "07/05/2025",
                "ADOY": 186,
                "NAWF": {
                    "2014195": 6.0,
                    "2014202": 7.5,
                    "2014209": 3.5,
                    "2014216": 3.0,
                    "2014224": 2.0
                }
            },
            "_id": "643828918ac547f0dd69c0d5",
            "ccid": "643828918ac547f0dd69c0d5"
        },
        {
            "type": "Feature",
            "geometry": {
                "type": "Point",
                "coordinates": [
                    33.07847432,
                    -111.97544436
                ]
            },
            "properties": {
                "cc_label": "p03-6",
                "CHTD": {
                    "2014154": 0.18,
                    "2014167": 0.33,
                    "2014181": 0.55,
                    "2014195": 0.83,
                    "2014209": 0.88,
                    "2014224": 0.89
                },
                "CWID": {
                    "2014167": 0.27,
                    "2014181": 0.48,
                    "2014195": 0.63,
                    "2014209": 0.69,
                    "2014224": 1.02
                },
                "LAID_FLD": {
                    "2014167": 0.93,
                    "2014181": 0.87,
                    "2014196": 2.55,
                    "2014211": 3.84,
                    "2014217": 8.77,
                    "2014230": 3.79,
                    "2014245": 4.43
                },
                "ADAT": "07/03/2025",
                "ADOY": 184,
                "NAWF": {
                    "2014195": 7.0,
                    "2014202": 5.5,
                    "2014209": 3.5,
                    "2014216": 2.0,
                    "2014224": 1.0
                }
            },
            "_id": "643828918ac547f0dd69c0d6",
            "ccid": "643828918ac547f0dd69c0d6"
        },
        {
            "type": "Feature",
            "geometry": {
                "type": "Point",
                "coordinates": [
                    33.07979294,
                    -111.97573991
                ]
            },
            "properties": {
                "cc_label": "p04-1",
                "CHTD": {
                    "2014154": 0.21,
                    "2014167": 0.42,
                    "2014181": 0.73,
                    "2014195": 0.97,
                    "2014209": 1.14,
                    "2014224": 1.16
                },
                "CWID": {
                    "2014167": 0.36,
                    "2014181": 0.63,
                    "2014195": 0.93,
                    "2014209": 1.02,
                    "2014224": 1.02
                }
            },
            "_id": "643828918ac547f0dd69c0d7",
            "ccid": "643828918ac547f0dd69c0d7"
        },
        {
            "type": "Feature",
            "geometry": {
                "type": "Point",
                "coordinates": [
                    33.07952952,
                    -111.97574201
                ]
            },
            "properties": {
                "cc_label": "p04-2",
                "CHTD": {
                    "2014154": 0.2,
                    "2014167": 0.41,
                    "2014181": 0.76,
                    "2014195": 0.99,
                    "2014209": 1.09,
                    "2014224": 1.13
                },
                "CWID": {
                    "2014167": 0.36,
                    "2014181": 0.61,
                    "2014195": 0.93,
                    "2014209": 1.02,
                    "2014224": 1.02
                }
            },
            "_id": "643828918ac547f0dd69c0d8",
            "ccid": "643828918ac547f0dd69c0d8"
        },
        {
            "type": "Feature",
            "geometry": {
                "type": "Point",
                "coordinates": [
                    33.0792661,
                    -111.97574377
                ]
            },
            "properties": {
                "cc_label": "p04-3",
                "CHTD": {
                    "2014154": 0.21,
                    "2014167": 0.41,
                    "2014181": 0.78,
                    "2014195": 1.05,
                    "2014209": 1.09,
                    "2014224": 1.11
                },
                "CWID": {
                    "2014167": 0.38,
                    "2014181": 0.63,
                    "2014195": 0.85,
                    "2014209": 1.02,
                    "2014224": 1.02
                }
            },
            "_id": "643828918ac547f0dd69c0d9",
            "ccid": "643828918ac547f0dd69c0d9"
        },
        {
            "type": "Feature",
            "geometry": {
                "type": "Point",
                "coordinates": [
                    33.07900268,
                    -111.9757457
                ]
            },
            "properties": {
                "cc_label": "p04-4",
                "CHTD": {
                    "2014154": 0.21,
                    "2014167": 0.42,
                    "2014181": 0.67,
                    "2014195": 0.86,
                    "2014209": 0.95,
                    "2014224": 0.97
                },
                "CWID": {
                    "2014167": 0.39,
                    "2014181": 0.62,
                    "2014195": 0.77,
                    "2014209": 1.02,
                    "2014224": 1.02
                }
            },
            "_id": "643828918ac547f0dd69c0da",
            "ccid": "643828918ac547f0dd69c0da"
        },
        {
            "type": "Feature",
            "geometry": {
                "type": "Point",
                "coordinates": [
                    33.07873926,
                    -111.97574761
                ]
            },
            "properties": {
                "cc_label": "p04-5",
                "CHTD": {
                    "2014154": 0.19,
                    "2014167": 0.29,
                    "2014181": 0.58,
                    "2014195": 0.82,
                    "2014209": 0.9,
                    "2014224": 0.96
                },
                "CWID": {
                    "2014167": 0.24,
                    "2014181": 0.51,
                    "2014195": 0.75,
                    "2014209": 1.02,
                    "2014224": 1.02
                }
            },
            "_id": "643828918ac547f0dd69c0db",
            "ccid": "643828918ac547f0dd69c0db"
        },
        {
            "type": "Feature",
            "geometry": {
                "type": "Point",
                "coordinates": [
                    33.07847584,
                    -111.97574923
                ]
            },
            "properties": {
                "cc_label": "p04-6",
                "CHTD": {
                    "2014154": 0.19,
                    "2014167": 0.32,
                    "2014181": 0.51,
                    "2014195": 0.74,
                    "2014209": 0.72,
                    "2014224": 0.77
                },
                "CWID": {
                    "2014167": 0.27,
                    "2014181": 0.44,
                    "2014195": 0.64,
                    "2014209": 0.79,
                    "2014224": 0.83
                }
            },
            "_id": "643828918ac547f0dd69c0dc",
            "ccid": "643828918ac547f0dd69c0dc"
        },
        {
            "type": "Feature",
            "geometry": {
                "type": "Point",
                "coordinates": [
                    33.07979441,
                    -111.97603403
                ]
            },
            "properties": {
                "cc_label": "p05-1",
                "CHTD": {
                    "2014154": 0.21,
                    "2014167": 0.36,
                    "2014181": 0.62,
                    "2014195": 0.97,
                    "2014209": 0.9,
                    "2014224": 1.1
                },
                "CWID": {
                    "2014167": 0.36,
                    "2014181": 0.52,
                    "2014195": 0.78,
                    "2014209": 0.78,
                    "2014224": 1.02
                }
            },
            "_id": "643828918ac547f0dd69c0dd",
            "ccid": "643828918ac547f0dd69c0dd"
        },
        {
            "type": "Feature",
            "geometry": {
                "type": "Point",
                "coordinates": [
                    33.07953099,
                    -111.97603573
                ]
            },
            "properties": {
                "cc_label": "p05-2",
                "CHTD": {
                    "2014154": 0.21,
                    "2014167": 0.4,
                    "2014181": 0.72,
                    "2014195": 1.03,
                    "2014209": 1.1,
                    "2014224": 1.21
                },
                "CWID": {
                    "2014167": 0.3,
                    "2014181": 0.6,
                    "2014195": 0.91,
                    "2014209": 1.02,
                    "2014224": 1.02
                }
            },
            "_id": "643828918ac547f0dd69c0de",
            "ccid": "643828918ac547f0dd69c0de"
        },
        {
            "type": "Feature",
            "geometry": {
                "type": "Point",
                "coordinates": [
                    33.07926757,
                    -111.97603777
                ]
            },
            "properties": {
                "cc_label": "p05-3",
                "CHTD": {
                    "2014154": 0.24,
                    "2014167": 0.4,
                    "2014181": 0.75,
                    "2014195": 1.08,
                    "2014209": 1.21,
                    "2014224": 1.24
                },
                "CWID": {
                    "2014167": 0.34,
                    "2014181": 0.58,
                    "2014195": 0.91,
                    "2014209": 1.02,
                    "2014224": 1.02
                }
            },
            "_id": "643828918ac547f0dd69c0df",
            "ccid": "643828918ac547f0dd69c0df"
        },
        {
            "type": "Feature",
            "geometry": {
                "type": "Point",
                "coordinates": [
                    33.07900415,
                    -111.97603959
                ]
            },
            "properties": {
                "cc_label": "p05-4",
                "CHTD": {
                    "2014154": 0.22,
                    "2014167": 0.39,
                    "2014181": 0.7,
                    "2014195": 1.0,
                    "2014209": 1.09,
                    "2014224": 1.0
                },
                "CWID": {
                    "2014167": 0.32,
                    "2014181": 0.63,
                    "2014195": 0.84,
                    "2014209": 1.02,
                    "2014224": 1.02
                }
            },
            "_id": "643828918ac547f0dd69c0e0",
            "ccid": "643828918ac547f0dd69c0e0"
        },
        {
            "type": "Feature",
            "geometry": {
                "type": "Point",
                "coordinates": [
                    33.07874073,
                    -111.97604117
                ]
            },
            "properties": {
                "cc_label": "p05-5",
                "CHTD": {
                    "2014154": 0.22,
                    "2014167": 0.4,
                    "2014181": 0.7,
                    "2014195": 0.97,
                    "2014209": 1.07,
                    "2014224": 1.02
                },
                "CWID": {
                    "2014167": 0.36,
                    "2014181": 0.58,
                    "2014195": 0.85,
                    "2014209": 1.02,
                    "2014224": 1.02
                }
            },
            "_id": "643828918ac547f0dd69c0e1",
            "ccid": "643828918ac547f0dd69c0e1"
        },
        {
            "type": "Feature",
            "geometry": {
                "type": "Point",
                "coordinates": [
                    33.07847731,
                    -111.9760433
                ]
            },
            "properties": {
                "cc_label": "p05-6",
                "CHTD": {
                    "2014154": 0.2,
                    "2014167": 0.34,
                    "2014181": 0.61,
                    "2014195": 0.78,
                    "2014209": 0.76,
                    "2014224": 0.91
                },
                "CWID": {
                    "2014167": 0.31,
                    "2014181": 0.45,
                    "2014195": 0.65,
                    "2014209": 0.72,
                    "2014224": 0.88
                }
            },
            "_id": "643828918ac547f0dd69c0e2",
            "ccid": "643828918ac547f0dd69c0e2"
        },
        {
            "type": "Feature",
            "geometry": {
                "type": "Point",
                "coordinates": [
                    33.07979593,
                    -111.97633878
                ]
            },
            "properties": {
                "cc_label": "p06-1",
                "CHTD": {
                    "2014154": 0.16,
                    "2014167": 0.3,
                    "2014181": 0.46,
                    "2014195": 0.68,
                    "2014209": 0.64,
                    "2014224": 0.69
                },
                "CWID": {
                    "2014167": 0.28,
                    "2014181": 0.38,
                    "2014195": 0.56,
                    "2014209": 0.5,
                    "2014224": 0.7
                },
                "LAID_FLD": {
                    "2014167": 0.55,
                    "2014181": 0.58,
                    "2014196": 1.91,
                    "2014211": 1.5,
                    "2014217": 1.6,
                    "2014230": 1.67,
                    "2014245": 1.85
                },
                "ADAT": "07/07/2025",
                "ADOY": 188,
                "NAWF": {
                    "2014195": 7.0,
                    "2014202": 5.0,
                    "2014209": 2.0,
                    "2014216": 1.5
                }
            },
            "_id": "643828918ac547f0dd69c0e3",
            "ccid": "643828918ac547f0dd69c0e3"
        },
        {
            "type": "Feature",
            "geometry": {
                "type": "Point",
                "coordinates": [
                    33.0795325,
                    -111.97634057
                ]
            },
            "properties": {
                "cc_label": "p06-2",
                "CHTD": {
                    "2014154": 0.21,
                    "2014167": 0.33,
                    "2014181": 0.55,
                    "2014195": 0.76,
                    "2014209": 0.82,
                    "2014224": 0.83
                },
                "CWID": {
                    "2014167": 0.28,
                    "2014181": 0.39,
                    "2014195": 0.58,
                    "2014209": 0.63,
                    "2014224": 0.75
                },
                "LAID_FLD": {
                    "2014167": 0.62,
                    "2014181": 0.64,
                    "2014196": 2.06,
                    "2014211": 2.12,
                    "2014217": 2.36,
                    "2014230": 2.27,
                    "2014245": 2.27
                },
                "ADAT": "07/07/2025",
                "ADOY": 188,
                "NAWF": {
                    "2014195": 7.0,
                    "2014202": 4.0,
                    "2014209": 2.0,
                    "2014216": 1.5
                }
            },
            "_id": "643828918ac547f0dd69c0e4",
            "ccid": "643828918ac547f0dd69c0e4"
        },
        {
            "type": "Feature",
            "geometry": {
                "type": "Point",
                "coordinates": [
                    33.07926909,
                    -111.97634241
                ]
            },
            "properties": {
                "cc_label": "p06-3",
                "CHTD": {
                    "2014154": 0.22,
                    "2014167": 0.35,
                    "2014181": 0.53,
                    "2014195": 0.68,
                    "2014209": 0.78,
                    "2014224": 0.8
                },
                "CWID": {
                    "2014167": 0.31,
                    "2014181": 0.41,
                    "2014195": 0.63,
                    "2014209": 0.63,
                    "2014224": 0.81
                },
                "LAID_FLD": {
                    "2014167": 0.78,
                    "2014181": 0.74,
                    "2014196": 1.97,
                    "2014211": 2.36,
                    "2014217": 2.04,
                    "2014230": 2.25,
                    "2014245": 2.5
                },
                "ADAT": "07/04/2025",
                "ADOY": 185,
                "NAWF": {
                    "2014195": 6.0,
                    "2014202": 4.5,
                    "2014209": 2.0,
                    "2014216": 2.0,
                    "2014224": 2.0
                }
            },
            "_id": "643828918ac547f0dd69c0e5",
            "ccid": "643828918ac547f0dd69c0e5"
        },
        {
            "type": "Feature",
            "geometry": {
                "type": "Point",
                "coordinates": [
                    33.07900566,
                    -111.9763441
                ]
            },
            "properties": {
                "cc_label": "p06-4",
                "CHTD": {
                    "2014154": 0.22,
                    "2014167": 0.35,
                    "2014181": 0.52,
                    "2014195": 0.67,
                    "2014209": 0.7,
                    "2014224": 0.77
                },
                "CWID": {
                    "2014167": 0.29,
                    "2014181": 0.38,
                    "2014195": 0.61,
                    "2014209": 0.63,
                    "2014224": 0.77
                },
                "LAID_FLD": {
                    "2014167": 0.94,
                    "2014181": 0.7,
                    "2014196": 1.59,
                    "2014211": 1.9,
                    "2014217": 1.8,
                    "2014230": 1.84,
                    "2014245": 1.99
                },
                "ADAT": "07/13/2025",
                "ADOY": 194,
                "NAWF": {
                    "2014195": 7.0,
                    "2014202": 4.0,
                    "2014209": 2.5,
                    "2014216": 2.0
                }
            },
            "_id": "643828918ac547f0dd69c0e6",
            "ccid": "643828918ac547f0dd69c0e6"
        },
        {
            "type": "Feature",
            "geometry": {
                "type": "Point",
                "coordinates": [
                    33.07874224,
                    -111.97634593
                ]
            },
            "properties": {
                "cc_label": "p06-5",
                "CHTD": {
                    "2014154": 0.16,
                    "2014167": 0.39,
                    "2014181": 0.52,
                    "2014195": 0.66,
                    "2014209": 0.61,
                    "2014224": 0.72
                },
                "CWID": {
                    "2014167": 0.32,
                    "2014181": 0.45,
                    "2014195": 0.6,
                    "2014209": 0.61,
                    "2014224": 0.74
                },
                "LAID_FLD": {
                    "2014167": 1.16,
                    "2014181": 0.74,
                    "2014196": 1.82,
                    "2014211": 1.92,
                    "2014217": 1.73,
                    "2014230": 2.02,
                    "2014245": 2.4
                },
                "ADAT": "07/02/2025",
                "ADOY": 183,
                "NAWF": {
                    "2014195": 6.0,
                    "2014202": 4.5,
                    "2014209": 2.5,
                    "2014216": 2.0
                }
            },
            "_id": "643828918ac547f0dd69c0e7",
            "ccid": "643828918ac547f0dd69c0e7"
        },
        {
            "type": "Feature",
            "geometry": {
                "type": "Point",
                "coordinates": [
                    33.07847883,
                    -111.97634791
                ]
            },
            "properties": {
                "cc_label": "p06-6",
                "CHTD": {
                    "2014154": 0.21,
                    "2014167": 0.3,
                    "2014181": 0.51,
                    "2014195": 0.65,
                    "2014209": 0.68,
                    "2014224": 0.74
                },
                "CWID": {
                    "2014167": 0.25,
                    "2014181": 0.41,
                    "2014195": 0.59,
                    "2014209": 0.6,
                    "2014224": 0.76
                },
                "LAID_FLD": {
                    "2014167": 1.54,
                    "2014181": 0.61,
                    "2014196": 1.55,
                    "2014211": 1.41,
                    "2014217": 1.43,
                    "2014230": 2.19,
                    "2014245": 2.83
                },
                "ADAT": "07/07/2025",
                "ADOY": 188,
                "NAWF": {
                    "2014195": 6.0,
                    "2014202": 4.0,
                    "2014209": 2.0,
                    "2014216": 2.0
                }
            },
            "_id": "643828918ac547f0dd69c0e8",
            "ccid": "643828918ac547f0dd69c0e8"
        },
        {
            "type": "Feature",
            "geometry": {
                "type": "Point",
                "coordinates": [
                    33.07979739,
                    -111.97663267
                ]
            },
            "properties": {
                "cc_label": "p07-1",
                "CHTD": {
                    "2014154": 0.2,
                    "2014167": 0.3,
                    "2014181": 0.54,
                    "2014195": 0.9,
                    "2014209": 1.12,
                    "2014224": 1.16
                },
                "CWID": {
                    "2014167": 0.23,
                    "2014181": 0.44,
                    "2014195": 0.72,
                    "2014209": 1.02,
                    "2014224": 1.02
                },
                "LAID_FLD": {
                    "2014167": 0.75,
                    "2014181": 0.79,
                    "2014196": 2.34,
                    "2014217": 5.07,
                    "2014230": 3.73,
                    "2014245": 3.81
                },
                "ADAT": "07/04/2025",
                "ADOY": 184,
                "NAWF": {
                    "2014195": 9.0,
                    "2014202": 6.5,
                    "2014209": 5.0,
                    "2014216": 2.5,
                    "2014224": 1.5
                }
            },
            "_id": "643828918ac547f0dd69c0e9",
            "ccid": "643828918ac547f0dd69c0e9"
        },
        {
            "type": "Feature",
            "geometry": {
                "type": "Point",
                "coordinates": [
                    33.07953397,
                    -111.97663448
                ]
            },
            "properties": {
                "cc_label": "p07-2",
                "CHTD": {
                    "2014154": 0.2,
                    "2014167": 0.32,
                    "2014181": 0.65,
                    "2014195": 0.9,
                    "2014209": 1.1,
                    "2014224": 1.3
                },
                "CWID": {
                    "2014167": 0.3,
                    "2014181": 0.49,
                    "2014195": 0.74,
                    "2014209": 1.02,
                    "2014224": 1.02
                },
                "LAID_FLD": {
                    "2014167": 0.06,
                    "2014181": 1.2,
                    "2014196": 3.28,
                    "2014217": 6.7,
                    "2014230": 5.1,
                    "2014245": 4.39
                },
                "ADAT": "07/14/2025",
                "ADOY": 195,
                "NAWF": {
                    "2014195": 8.0,
                    "2014202": 6.5,
                    "2014209": 6.0,
                    "2014216": 3.5,
                    "2014224": 3.5
                }
            },
            "_id": "643828918ac547f0dd69c0ea",
            "ccid": "643828918ac547f0dd69c0ea"
        },
        {
            "type": "Feature",
            "geometry": {
                "type": "Point",
                "coordinates": [
                    33.07927055,
                    -111.97663647
                ]
            },
            "properties": {
                "cc_label": "p07-3",
                "CHTD": {
                    "2014154": 0.18,
                    "2014167": 0.3,
                    "2014181": 0.55,
                    "2014195": 0.85,
                    "2014209": 1.0,
                    "2014224": 1.11
                },
                "CWID": {
                    "2014167": 0.26,
                    "2014181": 0.44,
                    "2014195": 0.69,
                    "2014209": 1.02,
                    "2014224": 1.02
                },
                "LAID_FLD": {
                    "2014167": 0.54,
                    "2014181": 0.73,
                    "2014196": 3.46,
                    "2014217": 3.96,
                    "2014230": 4.72,
                    "2014245": 4.45
                },
                "ADAT": "07/03/2025",
                "ADOY": 184,
                "NAWF": {
                    "2014195": 8.0,
                    "2014202": 7.0,
                    "2014209": 5.5,
                    "2014216": 4.5,
                    "2014224": 3.0
                }
            },
            "_id": "643828918ac547f0dd69c0eb",
            "ccid": "643828918ac547f0dd69c0eb"
        },
        {
            "type": "Feature",
            "geometry": {
                "type": "Point",
                "coordinates": [
                    33.07900713,
                    -111.97663814
                ]
            },
            "properties": {
                "cc_label": "p07-4",
                "CHTD": {
                    "2014154": 0.21,
                    "2014167": 0.36,
                    "2014181": 0.65,
                    "2014195": 0.93,
                    "2014209": 1.08,
                    "2014224": 1.13
                },
                "CWID": {
                    "2014167": 0.26,
                    "2014181": 0.51,
                    "2014195": 0.77,
                    "2014209": 1.02,
                    "2014224": 1.02
                },
                "LAID_FLD": {
                    "2014167": 0.47,
                    "2014181": 1.07,
                    "2014196": 2.98,
                    "2014217": 4.17,
                    "2014230": 4.56,
                    "2014245": 4.39
                },
                "ADAT": "07/04/2025",
                "ADOY": 185,
                "NAWF": {
                    "2014195": 7.0,
                    "2014202": 6.5,
                    "2014209": 5.0,
                    "2014216": 4.0,
                    "2014224": 3.0
                }
            },
            "_id": "643828918ac547f0dd69c0ec",
            "ccid": "643828918ac547f0dd69c0ec"
        },
        {
            "type": "Feature",
            "geometry": {
                "type": "Point",
                "coordinates": [
                    33.07874371,
                    -111.97664007
                ]
            },
            "properties": {
                "cc_label": "p07-5",
                "CHTD": {
                    "2014154": 0.22,
                    "2014167": 0.33,
                    "2014181": 0.55,
                    "2014195": 0.83,
                    "2014209": 1.01,
                    "2014224": 0.97
                },
                "CWID": {
                    "2014167": 0.3,
                    "2014181": 0.45,
                    "2014195": 0.72,
                    "2014209": 1.02,
                    "2014224": 1.02
                },
                "LAID_FLD": {
                    "2014167": 0.65,
                    "2014181": 0.78,
                    "2014196": 2.26,
                    "2014217": 3.19,
                    "2014230": 4.16,
                    "2014245": 3.77
                },
                "ADAT": "07/05/2025",
                "ADOY": 186,
                "NAWF": {
                    "2014195": 7.0,
                    "2014202": 7.0,
                    "2014209": 4.0,
                    "2014216": 3.0,
                    "2014224": 3.0
                }
            },
            "_id": "643828918ac547f0dd69c0ed",
            "ccid": "643828918ac547f0dd69c0ed"
        },
        {
            "type": "Feature",
            "geometry": {
                "type": "Point",
                "coordinates": [
                    33.07848029,
                    -111.97664168
                ]
            },
            "properties": {
                "cc_label": "p07-6",
                "CHTD": {
                    "2014154": 0.23,
                    "2014167": 0.29,
                    "2014181": 0.55,
                    "2014195": 0.74,
                    "2014209": 0.82,
                    "2014224": 0.84
                },
                "CWID": {
                    "2014167": 0.23,
                    "2014181": 0.43,
                    "2014195": 0.74,
                    "2014209": 0.82,
                    "2014224": 0.9
                },
                "LAID_FLD": {
                    "2014167": 0.92,
                    "2014181": 0.6,
                    "2014196": 1.63,
                    "2014230": 2.44,
                    "2014245": 2.62
                },
                "ADAT": "07/02/2025",
                "ADOY": 183,
                "NAWF": {
                    "2014195": 7.0,
                    "2014202": 5.5,
                    "2014209": 3.0,
                    "2014216": 2.5
                }
            },
            "_id": "643828918ac547f0dd69c0ee",
            "ccid": "643828918ac547f0dd69c0ee"
        },
        {
            "type": "Feature",
            "geometry": {
                "type": "Point",
                "coordinates": [
                    33.07979891,
                    -111.97693753
                ]
            },
            "properties": {
                "cc_label": "p08-1",
                "CHTD": {
                    "2014154": 0.2,
                    "2014167": 0.33,
                    "2014181": 0.65,
                    "2014195": 0.9,
                    "2014209": 0.91,
                    "2014224": 0.96
                },
                "CWID": {
                    "2014167": 0.26,
                    "2014181": 0.54,
                    "2014195": 0.72,
                    "2014209": 1.02,
                    "2014224": 1.02
                }
            },
            "_id": "643828918ac547f0dd69c0ef",
            "ccid": "643828918ac547f0dd69c0ef"
        },
        {
            "type": "Feature",
            "geometry": {
                "type": "Point",
                "coordinates": [
                    33.07953549,
                    -111.97693947
                ]
            },
            "properties": {
                "cc_label": "p08-2",
                "CHTD": {
                    "2014154": 0.21,
                    "2014167": 0.39,
                    "2014181": 0.73,
                    "2014195": 1.03,
                    "2014209": 1.11,
                    "2014224": 1.13
                },
                "CWID": {
                    "2014167": 0.32,
                    "2014181": 0.51,
                    "2014195": 0.8,
                    "2014209": 1.02,
                    "2014224": 1.02
                }
            },
            "_id": "643828918ac547f0dd69c0f0",
            "ccid": "643828918ac547f0dd69c0f0"
        },
        {
            "type": "Feature",
            "geometry": {
                "type": "Point",
                "coordinates": [
                    33.07927207,
                    -111.97694115
                ]
            },
            "properties": {
                "cc_label": "p08-3",
                "CHTD": {
                    "2014154": 0.15,
                    "2014167": 0.44,
                    "2014181": 0.58,
                    "2014195": 0.86,
                    "2014209": 0.9,
                    "2014224": 0.92
                },
                "CWID": {
                    "2014167": 0.35,
                    "2014181": 0.52,
                    "2014195": 0.7,
                    "2014209": 1.02,
                    "2014224": 1.02
                }
            },
            "_id": "643828918ac547f0dd69c0f1",
            "ccid": "643828918ac547f0dd69c0f1"
        },
        {
            "type": "Feature",
            "geometry": {
                "type": "Point",
                "coordinates": [
                    33.07900865,
                    -111.97694317
                ]
            },
            "properties": {
                "cc_label": "p08-4",
                "CHTD": {
                    "2014154": 0.2,
                    "2014167": 0.33,
                    "2014181": 0.62,
                    "2014195": 1.0,
                    "2014209": 1.11,
                    "2014224": 1.16
                },
                "CWID": {
                    "2014167": 0.3,
                    "2014181": 0.5,
                    "2014195": 0.79,
                    "2014209": 1.02,
                    "2014224": 1.02
                }
            },
            "_id": "643828918ac547f0dd69c0f2",
            "ccid": "643828918ac547f0dd69c0f2"
        },
        {
            "type": "Feature",
            "geometry": {
                "type": "Point",
                "coordinates": [
                    33.07874523,
                    -111.97694473
                ]
            },
            "properties": {
                "cc_label": "p08-5",
                "CHTD": {
                    "2014154": 0.23,
                    "2014167": 0.4,
                    "2014181": 0.58,
                    "2014195": 0.78,
                    "2014209": 0.76,
                    "2014224": 0.81
                },
                "CWID": {
                    "2014167": 0.32,
                    "2014181": 0.46,
                    "2014195": 0.59,
                    "2014209": 0.74,
                    "2014224": 0.23
                }
            },
            "_id": "643828918ac547f0dd69c0f3",
            "ccid": "643828918ac547f0dd69c0f3"
        },
        {
            "type": "Feature",
            "geometry": {
                "type": "Point",
                "coordinates": [
                    33.07848181,
                    -111.97694662
                ]
            },
            "properties": {
                "cc_label": "p08-6",
                "CHTD": {
                    "2014154": 0.2,
                    "2014167": 0.3,
                    "2014181": 0.5,
                    "2014195": 0.69,
                    "2014209": 0.73,
                    "2014224": 0.77
                },
                "CWID": {
                    "2014167": 0.25,
                    "2014181": 0.48,
                    "2014195": 0.55,
                    "2014209": 0.7,
                    "2014224": 0.21
                }
            },
            "_id": "643828918ac547f0dd69c0f4",
            "ccid": "643828918ac547f0dd69c0f4"
        },
        {
            "type": "Feature",
            "geometry": {
                "type": "Point",
                "coordinates": [
                    33.07980042,
                    -111.9772421
                ]
            },
            "properties": {
                "cc_label": "p09-1",
                "CHTD": {
                    "2014154": 0.2,
                    "2014167": 0.35,
                    "2014181": 0.54,
                    "2014195": 0.68,
                    "2014209": 0.8,
                    "2014224": 0.95
                },
                "CWID": {
                    "2014167": 0.29,
                    "2014181": 0.42,
                    "2014195": 0.59,
                    "2014209": 0.7,
                    "2014224": 1.02
                }
            },
            "_id": "643828918ac547f0dd69c0f5",
            "ccid": "643828918ac547f0dd69c0f5"
        },
        {
            "type": "Feature",
            "geometry": {
                "type": "Point",
                "coordinates": [
                    33.07953701,
                    -111.97724417
                ]
            },
            "properties": {
                "cc_label": "p09-2",
                "CHTD": {
                    "2014154": 0.17,
                    "2014167": 0.38,
                    "2014181": 0.66,
                    "2014195": 1.02,
                    "2014209": 1.19,
                    "2014224": 1.22
                },
                "CWID": {
                    "2014167": 0.34,
                    "2014181": 0.53,
                    "2014195": 0.84,
                    "2014209": 1.02,
                    "2014224": 1.02
                }
            },
            "_id": "643828918ac547f0dd69c0f6",
            "ccid": "643828918ac547f0dd69c0f6"
        },
        {
            "type": "Feature",
            "geometry": {
                "type": "Point",
                "coordinates": [
                    33.07927359,
                    -111.97724598
                ]
            },
            "properties": {
                "cc_label": "p09-3",
                "CHTD": {
                    "2014154": 0.21,
                    "2014167": 0.37,
                    "2014181": 0.63,
                    "2014195": 0.96,
                    "2014209": 1.11,
                    "2014224": 1.1
                },
                "CWID": {
                    "2014167": 0.35,
                    "2014181": 0.55,
                    "2014195": 0.76,
                    "2014209": 1.02,
                    "2014224": 1.02
                }
            },
            "_id": "643828918ac547f0dd69c0f7",
            "ccid": "643828918ac547f0dd69c0f7"
        },
        {
            "type": "Feature",
            "geometry": {
                "type": "Point",
                "coordinates": [
                    33.07901017,
                    -111.97724792
                ]
            },
            "properties": {
                "cc_label": "p09-4",
                "CHTD": {
                    "2014154": 0.24,
                    "2014167": 0.4,
                    "2014181": 0.6,
                    "2014195": 0.92,
                    "2014209": 1.08,
                    "2014224": 1.11
                },
                "CWID": {
                    "2014167": 0.38,
                    "2014181": 0.54,
                    "2014195": 0.78,
                    "2014209": 1.02,
                    "2014224": 1.02
                }
            },
            "_id": "643828918ac547f0dd69c0f8",
            "ccid": "643828918ac547f0dd69c0f8"
        },
        {
            "type": "Feature",
            "geometry": {
                "type": "Point",
                "coordinates": [
                    33.07874674,
                    -111.97724946
                ]
            },
            "properties": {
                "cc_label": "p09-5",
                "CHTD": {
                    "2014154": 0.22,
                    "2014167": 0.31,
                    "2014181": 0.52,
                    "2014195": 0.76,
                    "2014209": 0.81,
                    "2014224": 0.93
                },
                "CWID": {
                    "2014167": 0.3,
                    "2014181": 0.49,
                    "2014195": 0.7,
                    "2014209": 0.84,
                    "2014224": 1.02
                }
            },
            "_id": "643828918ac547f0dd69c0f9",
            "ccid": "643828918ac547f0dd69c0f9"
        },
        {
            "type": "Feature",
            "geometry": {
                "type": "Point",
                "coordinates": [
                    33.07848332,
                    -111.97725124
                ]
            },
            "properties": {
                "cc_label": "p09-6",
                "CHTD": {
                    "2014154": 0.2,
                    "2014167": 0.31,
                    "2014181": 0.54,
                    "2014195": 0.83,
                    "2014209": 0.88,
                    "2014224": 0.99
                },
                "CWID": {
                    "2014167": 0.25,
                    "2014181": 0.46,
                    "2014195": 0.66,
                    "2014209": 0.79,
                    "2014224": 1.02
                }
            },
            "_id": "643828918ac547f0dd69c0fa",
            "ccid": "643828918ac547f0dd69c0fa"
        },
        {
            "type": "Feature",
            "geometry": {
                "type": "Point",
                "coordinates": [
                    33.07980194,
                    -111.97754707
                ]
            },
            "properties": {
                "cc_label": "p10-1",
                "CHTD": {
                    "2014154": 0.21,
                    "2014167": 0.32,
                    "2014181": 0.55,
                    "2014195": 0.71,
                    "2014209": 0.78,
                    "2014224": 1.01
                },
                "CWID": {
                    "2014167": 0.32,
                    "2014181": 0.43,
                    "2014195": 0.59,
                    "2014209": 0.31,
                    "2014224": 1.02
                },
                "LAID_FLD": {
                    "2014167": 0.74,
                    "2014181": 0.82,
                    "2014196": 1.79,
                    "2014217": 2.09,
                    "2014230": 2.29,
                    "2014245": 2.4
                },
                "ADAT": "07/06/2025",
                "ADOY": 187,
                "NAWF": {
                    "2014195": 6.0,
                    "2014202": 4.0,
                    "2014209": 2.5,
                    "2014216": 2.5,
                    "2014224": 2.0
                }
            },
            "_id": "643828918ac547f0dd69c0fb",
            "ccid": "643828918ac547f0dd69c0fb"
        },
        {
            "type": "Feature",
            "geometry": {
                "type": "Point",
                "coordinates": [
                    33.07953852,
                    -111.97754872
                ]
            },
            "properties": {
                "cc_label": "p10-2",
                "CHTD": {
                    "2014154": 0.23,
                    "2014167": 0.38,
                    "2014181": 0.64,
                    "2014195": 0.84,
                    "2014209": 0.89,
                    "2014224": 0.87
                },
                "CWID": {
                    "2014167": 0.32,
                    "2014181": 0.46,
                    "2014195": 0.69,
                    "2014209": 0.76,
                    "2014224": 0.91
                },
                "LAID_FLD": {
                    "2014167": 0.43,
                    "2014181": 0.9,
                    "2014196": 2.89,
                    "2014217": 2.63,
                    "2014230": 4.48,
                    "2014245": 4.78
                },
                "ADAT": "07/11/2025",
                "ADOY": 192,
                "NAWF": {
                    "2014195": 6.0,
                    "2014202": 4.0,
                    "2014209": 3.0,
                    "2014216": 2.0,
                    "2014224": 1.0
                }
            },
            "_id": "643828918ac547f0dd69c0fc",
            "ccid": "643828918ac547f0dd69c0fc"
        },
        {
            "type": "Feature",
            "geometry": {
                "type": "Point",
                "coordinates": [
                    33.0792751,
                    -111.97755063
                ]
            },
            "properties": {
                "cc_label": "p10-3",
                "CHTD": {
                    "2014154": 0.23,
                    "2014167": 0.4,
                    "2014181": 0.66,
                    "2014195": 0.92,
                    "2014209": 0.98,
                    "2014224": 1.09
                },
                "CWID": {
                    "2014167": 0.34,
                    "2014181": 0.54,
                    "2014195": 0.79,
                    "2014209": 1.02,
                    "2014224": 1.02
                },
                "LAID_FLD": {
                    "2014167": 1.55,
                    "2014181": 1.63,
                    "2014196": 3.37,
                    "2014217": 3.33,
                    "2014230": 5.62,
                    "2014245": 6.31
                },
                "ADAT": "07/08/2025",
                "ADOY": 189,
                "NAWF": {
                    "2014195": 6.0,
                    "2014202": 4.5,
                    "2014209": 3.5,
                    "2014216": 2.5,
                    "2014224": 2.5
                }
            },
            "_id": "643828918ac547f0dd69c0fd",
            "ccid": "643828918ac547f0dd69c0fd"
        },
        {
            "type": "Feature",
            "geometry": {
                "type": "Point",
                "coordinates": [
                    33.07901168,
                    -111.97755237
                ]
            },
            "properties": {
                "cc_label": "p10-4",
                "CHTD": {
                    "2014154": 0.24,
                    "2014167": 0.42,
                    "2014181": 0.76,
                    "2014195": 0.87,
                    "2014209": 0.9,
                    "2014224": 0.92
                },
                "CWID": {
                    "2014167": 0.38,
                    "2014181": 0.48,
                    "2014195": 0.69,
                    "2014209": 0.85,
                    "2014224": 1.02
                },
                "LAID_FLD": {
                    "2014167": 1.61,
                    "2014181": 1.69,
                    "2014196": 3.27,
                    "2014217": 5.81,
                    "2014230": 5.36,
                    "2014245": 4.65
                },
                "ADAT": "07/11/2025",
                "ADOY": 192,
                "NAWF": {
                    "2014195": 6.0,
                    "2014202": 4.5,
                    "2014209": 3.5,
                    "2014216": 2.5,
                    "2014224": 2.0
                }
            },
            "_id": "643828918ac547f0dd69c0fe",
            "ccid": "643828918ac547f0dd69c0fe"
        },
        {
            "type": "Feature",
            "geometry": {
                "type": "Point",
                "coordinates": [
                    33.07874826,
                    -111.97755417
                ]
            },
            "properties": {
                "cc_label": "p10-5",
                "CHTD": {
                    "2014154": 0.22,
                    "2014167": 0.38,
                    "2014181": 0.56,
                    "2014195": 0.75,
                    "2014209": 0.76,
                    "2014224": 0.84
                },
                "CWID": {
                    "2014167": 0.33,
                    "2014181": 0.47,
                    "2014195": 0.67,
                    "2014209": 0.77,
                    "2014224": 0.92
                },
                "LAID_FLD": {
                    "2014167": 1.25,
                    "2014181": 1.16,
                    "2014196": 2.78,
                    "2014217": 2.97,
                    "2014230": 4.41,
                    "2014245": 4.05
                },
                "ADAT": "07/09/2025",
                "ADOY": 190,
                "NAWF": {
                    "2014195": 6.0,
                    "2014202": 4.0,
                    "2014209": 2.5,
                    "2014216": 2.5,
                    "2014224": 2.0
                }
            },
            "_id": "643828918ac547f0dd69c0ff",
            "ccid": "643828918ac547f0dd69c0ff"
        },
        {
            "type": "Feature",
            "geometry": {
                "type": "Point",
                "coordinates": [
                    33.07848484,
                    -111.97755616
                ]
            },
            "properties": {
                "cc_label": "p10-6",
                "CHTD": {
                    "2014154": 0.2,
                    "2014167": 0.34,
                    "2014181": 0.53,
                    "2014195": 0.68,
                    "2014209": 0.74,
                    "2014224": 0.77
                },
                "CWID": {
                    "2014167": 0.26,
                    "2014181": 0.37,
                    "2014195": 0.59,
                    "2014209": 0.66,
                    "2014224": 0.82
                },
                "LAID_FLD": {
                    "2014167": 0.51,
                    "2014181": 0.76,
                    "2014196": 1.5,
                    "2014217": 1.78,
                    "2014230": 2.39,
                    "2014245": 3.97
                },
                "ADAT": "07/06/2025",
                "ADOY": 187,
                "NAWF": {
                    "2014195": 6.0,
                    "2014202": 4.0,
                    "2014209": 2.5,
                    "2014216": 1.5,
                    "2014224": 2.0
                }
            },
            "_id": "643828918ac547f0dd69c100",
            "ccid": "643828918ac547f0dd69c100"
        },
        {
            "type": "Feature",
            "geometry": {
                "type": "Point",
                "coordinates": [
                    33.07980648,
                    -111.9784611
                ]
            },
            "properties": {
                "cc_label": "p11-1",
                "CHTD": {
                    "2014154": 0.19,
                    "2014167": 0.34,
                    "2014181": 0.5,
                    "2014195": 0.71,
                    "2014209": 0.8,
                    "2014224": 0.88
                },
                "CWID": {
                    "2014167": 0.29,
                    "2014181": 0.33,
                    "2014195": 0.56,
                    "2014209": 0.78,
                    "2014224": 1.02
                },
                "LAID_FLD": {
                    "2014167": 0.83,
                    "2014181": 0.7,
                    "2014196": 2.14,
                    "2014217": 3.52,
                    "2014230": 4.09,
                    "2014245": 3.05
                },
                "ADAT": "07/10/2025",
                "ADOY": 190,
                "NAWF": {
                    "2014195": 7.0,
                    "2014202": 6.5,
                    "2014209": 4.5,
                    "2014216": 3.0,
                    "2014224": 2.5
                }
            },
            "_id": "643828918ac547f0dd69c101",
            "ccid": "643828918ac547f0dd69c101"
        },
        {
            "type": "Feature",
            "geometry": {
                "type": "Point",
                "coordinates": [
                    33.07954307,
                    -111.97846346
                ]
            },
            "properties": {
                "cc_label": "p11-2",
                "CHTD": {
                    "2014154": 0.19,
                    "2014167": 0.34,
                    "2014181": 0.54,
                    "2014195": 0.84,
                    "2014209": 0.97,
                    "2014224": 1.05
                },
                "CWID": {
                    "2014167": 0.25,
                    "2014181": 0.35,
                    "2014195": 0.61,
                    "2014209": 0.8,
                    "2014224": 1.02
                },
                "LAID_FLD": {
                    "2014167": 1.38,
                    "2014181": 0.99,
                    "2014196": 3.17,
                    "2014217": 3.9,
                    "2014230": 5.14,
                    "2014245": 3.95
                },
                "ADAT": "07/10/2025",
                "ADOY": 191,
                "NAWF": {
                    "2014195": 7.0,
                    "2014202": 7.0,
                    "2014209": 5.0,
                    "2014216": 4.5,
                    "2014224": 3.0
                }
            },
            "_id": "643828918ac547f0dd69c102",
            "ccid": "643828918ac547f0dd69c102"
        },
        {
            "type": "Feature",
            "geometry": {
                "type": "Point",
                "coordinates": [
                    33.07927965,
                    -111.97846517
                ]
            },
            "properties": {
                "cc_label": "p11-3",
                "CHTD": {
                    "2014154": 0.21,
                    "2014167": 0.37,
                    "2014181": 0.58,
                    "2014195": 0.81,
                    "2014209": 0.97,
                    "2014224": 1.02
                },
                "CWID": {
                    "2014167": 0.31,
                    "2014181": 0.42,
                    "2014195": 0.71,
                    "2014209": 1.02,
                    "2014224": 1.02
                },
                "LAID_FLD": {
                    "2014167": 0.85,
                    "2014181": 1.17,
                    "2014196": 2.96,
                    "2014217": 3.25,
                    "2014230": 5.75,
                    "2014245": 3.11
                },
                "ADAT": "07/09/2025",
                "ADOY": 190,
                "NAWF": {
                    "2014195": 7.0,
                    "2014202": 6.0,
                    "2014209": 5.5,
                    "2014216": 5.0,
                    "2014224": 2.5
                }
            },
            "_id": "643828918ac547f0dd69c103",
            "ccid": "643828918ac547f0dd69c103"
        },
        {
            "type": "Feature",
            "geometry": {
                "type": "Point",
                "coordinates": [
                    33.07901623,
                    -111.97846718
                ]
            },
            "properties": {
                "cc_label": "p11-4",
                "CHTD": {
                    "2014154": 0.18,
                    "2014167": 0.35,
                    "2014181": 0.54,
                    "2014195": 0.71,
                    "2014209": 0.9,
                    "2014224": 0.92
                },
                "CWID": {
                    "2014167": 0.34,
                    "2014181": 0.38,
                    "2014195": 0.61,
                    "2014209": 0.8,
                    "2014224": 1.02
                },
                "LAID_FLD": {
                    "2014167": 0.86,
                    "2014181": 0.85,
                    "2014196": 2.03,
                    "2014217": 3.78,
                    "2014230": 5.86,
                    "2014245": 3.74
                },
                "ADAT": "07/10/2025",
                "ADOY": 191,
                "NAWF": {
                    "2014195": 7.0,
                    "2014202": 6.5,
                    "2014209": 4.5,
                    "2014216": 4.5,
                    "2014224": 2.0
                }
            },
            "_id": "643828918ac547f0dd69c104",
            "ccid": "643828918ac547f0dd69c104"
        },
        {
            "type": "Feature",
            "geometry": {
                "type": "Point",
                "coordinates": [
                    33.07875281,
                    -111.97846873
                ]
            },
            "properties": {
                "cc_label": "p11-5",
                "CHTD": {
                    "2014154": 0.19,
                    "2014167": 0.38,
                    "2014181": 0.52,
                    "2014195": 0.7,
                    "2014209": 0.81,
                    "2014224": 0.84
                },
                "CWID": {
                    "2014167": 0.28,
                    "2014181": 0.37,
                    "2014195": 0.57,
                    "2014209": 0.75,
                    "2014224": 1.02
                },
                "LAID_FLD": {
                    "2014167": 0.51,
                    "2014181": 0.8,
                    "2014196": 1.96,
                    "2014217": 2.17,
                    "2014230": 3.33,
                    "2014245": 2.75
                },
                "ADAT": "07/09/2025",
                "ADOY": 190,
                "NAWF": {
                    "2014195": 6.0,
                    "2014202": 6.5,
                    "2014209": 4.0,
                    "2014216": 4.0,
                    "2014224": 2.0
                }
            },
            "_id": "643828918ac547f0dd69c105",
            "ccid": "643828918ac547f0dd69c105"
        },
        {
            "type": "Feature",
            "geometry": {
                "type": "Point",
                "coordinates": [
                    33.07848939,
                    -111.97847029
                ]
            },
            "properties": {
                "cc_label": "p11-6",
                "CHTD": {
                    "2014154": 0.21,
                    "2014167": 0.32,
                    "2014181": 0.5,
                    "2014195": 0.8,
                    "2014209": 0.91,
                    "2014224": 0.93
                },
                "CWID": {
                    "2014167": 0.31,
                    "2014181": 0.37,
                    "2014195": 0.63,
                    "2014209": 0.78,
                    "2014224": 1.02
                },
                "LAID_FLD": {
                    "2014167": 1.26,
                    "2014181": 1.28,
                    "2014196": 2.73,
                    "2014217": 3.08,
                    "2014230": 4.31,
                    "2014245": 4.33
                },
                "ADAT": "07/10/2025",
                "ADOY": 191,
                "NAWF": {
                    "2014195": 8.0,
                    "2014202": 6.0,
                    "2014209": 3.5,
                    "2014216": 3.0,
                    "2014224": 2.0
                }
            },
            "_id": "643828918ac547f0dd69c106",
            "ccid": "643828918ac547f0dd69c106"
        }
    ]
}