{
    "type": "FeatureCollection",
    "features": [
        {
            "type": "Feature",
            "geometry": {
                "type": "Point",
                "coordinates": [
                    33.07978821,
                    -111.9748469
                ]
            },
            "properties": {
                "cc_label": "p01-1",
                "CHTD": {
                    "2014154": 0.18,
                    "2014167": 0.39,
                    "2014181": 0.48,
                    "2014195": 0.68,
                    "2014209": 0.74,
                    "2014224": 0.72
                },
                "CWID": {
                    "2014167": 0.31,
                    "2014181": 0.41,
                    "2014195": 0.58,
                    "2014209": 0.75,
                    "2014224": 0.08
                }
            },
            "_id": "643828918ac547f0dd69c0c5",
            "ccid": "643828918ac547f0dd69c0c5"
        },
        {
            "type": "Feature",
            "geometry": {
                "type": "Point",
                "coordinates": [
                    33.07952479,
                    -111.97484973
                ]
            },
            "properties": {
                "cc_label": "p01-2",
                "CHTD": {
                    "2014154": 0.18,
                    "2014167": 0.39,
                    "2014181": 0.48,
                    "2014195": 0.69,
                    "2014209": 0.62,
                    "2014224": 0.7
                },
                "CWID": {
                    "2014167": 0.37,
                    "2014181": 0.39,
                    "2014195": 0.63,
                    "2014209": 0.7,
                    "2014224": 0.81
                }
            },
            "_id": "643828918ac547f0dd69c0c6",
            "ccid": "643828918ac547f0dd69c0c6"
        },
        {
            "type": "Feature",
            "geometry": {
                "type": "Point",
                "coordinates": [
                    33.07926137,
                    -111.97485069
                ]
            },
            "properties": {
                "cc_label": "p01-3",
                "CHTD": {
                    "2014154": 0.19,
                    "2014167": 0.33,
                    "2014181": 0.57,
                    "2014195": 0.74,
                    "2014209": 0.74,
                    "2014224": 0.84
                },
                "CWID": {
                    "2014167": 0.34,
                    "2014181": 0.45,
                    "2014195": 0.69,
                    "2014209": 0.73,
                    "2014224": 0.91
                }
            },
            "_id": "643828918ac547f0dd69c0c7",
            "ccid": "643828918ac547f0dd69c0c7"
        },
        {
            "type": "Feature",
            "geometry": {
                "type": "Point",
                "coordinates": [
                    33.07899795,
                    -111.97485311
                ]
            },
            "properties": {
                "cc_label": "p01-4",
                "CHTD": {
                    "2014154": 0.19,
                    "2014167": 0.38,
                    "2014181": 0.51,
                    "2014195": 0.68,
                    "2014209": 0.64,
                    "2014224": 0.66
                },
                "CWID": {
                    "2014167": 0.31,
                    "2014181": 0.38,
                    "2014195": 0.51,
                    "2014209": 0.55,
                    "2014224": 0.65
                }
            },
            "_id": "643828918ac547f0dd69c0c8",
            "ccid": "643828918ac547f0dd69c0c8"
        },
        {
            "type": "Feature",
            "geometry": {
                "type": "Point",
                "coordinates": [
                    33.07873453,
                    -111.97485462
                ]
            },
            "properties": {
                "cc_label": "p01-5",
                "CHTD": {
                    "2014154": 0.17,
                    "2014167": 0.38,
                    "2014181": 0.54,
                    "2014195": 0.69,
                    "2014209": 0.69,
                    "2014224": 0.74
                },
                "CWID": {
                    "2014167": 0.33,
                    "2014181": 0.44,
                    "2014195": 0.6,
                    "2014209": 0.61,
                    "2014224": 0.76
                }
            },
            "_id": "643828918ac547f0dd69c0c9",
            "ccid": "643828918ac547f0dd69c0c9"
        },
        {
            "type": "Feature",
            "geometry": {
                "type": "Point",
                "coordinates": [
                    33.07847111,
                    -111.9748564
                ]
            },
            "properties": {
                "cc_label": "p01-6",
                "CHTD": {
                    "2014154": 0.19,
                    "2014167": 0.38,
                    "2014181": 0.46,
                    "2014195": 0.56,
                    "2014209": 0.57,
                    "2014224": 0.62
                },
                "CWID": {
                    "2014167": 0.29,
                    "2014181": 0.37,
                    "2014195": 0.5,
                    "2014209": 0.64,
                    "2014224": 0.66
                }
            },
            "_id": "643828918ac547f0dd69c0ca",
            "ccid": "643828918ac547f0dd69c0ca"
        },
        {
            "type": "Feature",
            "geometry": {
                "type": "Point",
                "coordinates": [
                    33.07978973,
                    -111.97515206
                ]
            },
            "properties": {
                "cc_label": "p02-1",
                "CHTD": {
                    "2014154": 0.19,
                    "2014167": 0.31,
                    "2014181": 0.6,
                    "2014195": 0.88,
                    "2014209": 0.98,
                    "2014224": 1.02
                },
                "CWID": {
                    "2014167": 0.3,
                    "2014181": 0.52,
                    "2014195": 0.71,
                    "2014209": 1.02,
                    "2014224": 1.02
                }
            },
            "_id": "643828918ac547f0dd69c0cb",
            "ccid": "643828918ac547f0dd69c0cb"
        },
        {
            "type": "Feature",
            "geometry": {
                "type": "Point",
                "coordinates": [
                    33.07952631,
                    -111.97515382
                ]
            },
            "properties": {
                "cc_label": "p02-2",
                "CHTD": {
                    "2014154": 0.17,
                    "2014167": 0.39,
                    "2014181": 0.7,
                    "2014195": 0.97,
                    "2014209": 1.1,
                    "2014224": 1.18
                },
                "CWID": {
                    "2014167": 0.32,
                    "2014181": 0.58,
                    "2014195": 0.85,
                    "2014209": 1.02,
                    "2014224": 1.02
                }
            },
            "_id": "643828918ac547f0dd69c0cc",
            "ccid": "643828918ac547f0dd69c0cc"
        },
        {
            "type": "Feature",
            "geometry": {
                "type": "Point",
                "coordinates": [
                    33.07926289,
                    -111.97515544
                ]
            },
            "properties": {
                "cc_label": "p02-3",
                "CHTD": {
                    "2014154": 0.19,
                    "2014167": 0.35,
                    "2014181": 0.68,
                    "2014195": 1.0,
                    "2014209": 1.04,
                    "2014224": 1.02
                },
                "CWID": {
                    "2014167": 0.34,
                    "2014181": 0.62,
                    "2014195": 0.82,
                    "2014209": 1.02,
                    "2014224": 1.02
                }
            },
            "_id": "643828918ac547f0dd69c0cd",
            "ccid": "643828918ac547f0dd69c0cd"
        },
        {
            "type": "Feature",
            "geometry": {
                "type": "Point",
                "coordinates": [
                    33.07899947,
                    -111.97515777
                ]
            },
            "properties": {
                "cc_label": "p02-4",
                "CHTD": {
                    "2014154": 0.16,
                    "2014167": 0.36,
                    "2014181": 0.65,
                    "2014195": 0.92,
                    "2014209": 1.03,
                    "2014224": 0.97
                },
                "CWID": {
                    "2014167": 0.36,
                    "2014181": 0.54,
                    "2014195": 0.85,
                    "2014209": 1.02,
                    "2014224": 1.02
                }
            },
            "_id": "643828918ac547f0dd69c0ce",
            "ccid": "643828918ac547f0dd69c0ce"
        },
        {
            "type": "Feature",
            "geometry": {
                "type": "Point",
                "coordinates": [
                    33.07873605,
                    -111.97515924
                ]
            },
            "properties": {
                "cc_label": "p02-5",
                "CHTD": {
                    "2014154": 0.15,
                    "2014167": 0.33,
                    "2014181": 0.65,
                    "2014195": 0.92,
                    "2014209": 0.98,
                    "2014224": 0.97
                },
                "CWID": {
                    "2014167": 0.34,
                    "2014181": 0.52,
                    "2014195": 0.68,
                    "2014209": 0.89,
                    "2014224": 1.02
                }
            },
            "_id": "643828918ac547f0dd69c0cf",
            "ccid": "643828918ac547f0dd69c0cf"
        },
        {
            "type": "Feature",
            "geometry": {
                "type": "Point",
                "coordinates": [
                    33.07847263,
                    -111.9751613
                ]
            },
            "properties": {
                "cc_label": "p02-6",
                "CHTD": {
                    "2014154": 0.16,
                    "2014167": 0.33,
                    "2014181": 0.55,
                    "2014195": 0.71,
                    "2014209": 0.76,
                    "2014224": 0.77
                },
                "CWID": {
                    "2014167": 0.34,
                    "2014181": 0.44,
                    "2014195": 0.62,
                    "2014209": 0.74,
                    "2014224": 0.8
                }
            },
            "_id": "643828918ac547f0dd69c0d0",
            "ccid": "643828918ac547f0dd69c0d0"
        },
        {
            "type": "Feature",
            "geometry": {
                "type": "Point",
                "coordinates": [
                    33.07979125,
                    -111.97545703
                ]
            },
            "properties": {
                "cc_label": "p03-1",
                "CHTD": {
                    "2014154": 0.19,
                    "2014167": 0.35,
                    "2014181": 0.59,
                    "2014195": 0.96,
                    "2014209": 1.11,
                    "2014224": 1.26
                },
                "CWID": {
                    "2014167": 0.29,
                    "2014181": 0.51,
                    "2014195": 0.81,
                    "2014209": 1.02,
                    "2014224": 1.02
                }
            },
            "_id": "643828918ac547f0dd69c0d1",
            "ccid": "643828918ac547f0dd69c0d1"
        },
        {
            "type": "Feature",
            "geometry": {
                "type": "Point",
                "coordinates": [
                    33.07952783,
                    -111.9754586
                ]
            },
            "properties": {
                "cc_label": "p03-2",
                "CHTD": {
                    "2014154": 0.17,
                    "2014167": 0.33,
                    "2014181": 0.61,
                    "2014195": 0.99,
                    "2014209": 1.12,
                    "2014224": 1.07
                },
                "CWID": {
                    "2014167": 0.28,
                    "2014181": 0.56,
                    "2014195": 0.73,
                    "2014209": 1.02,
                    "2014224": 1.02
                }
            },
            "_id": "643828918ac547f0dd69c0d2",
            "ccid": "643828918ac547f0dd69c0d2"
        },
        {
            "type": "Feature",
            "geometry": {
                "type": "Point",
                "coordinates": [
                    33.07926441,
                    -111.97546064
                ]
            },
            "properties": {
                "cc_label": "p03-3",
                "CHTD": {
                    "2014154": 0.22,
                    "2014167": 0.39,
                    "2014181": 0.7,
                    "2014195": 1.03,
                    "2014209": 1.16,
                    "2014224": 1.13
                },
                "CWID": {
                    "2014167": 0.36,
                    "2014181": 0.58,
                    "2014195": 0.89,
                    "2014209": 1.02,
                    "2014224": 1.02
                }
            },
            "_id": "643828918ac547f0dd69c0d3",
            "ccid": "643828918ac547f0dd69c0d3"
        },
        {
            "type": "Feature",
            "geometry": {
                "type": "Point",
                "coordinates": [
                    33.07900099,
                    -111.97546192
                ]
            },
            "properties": {
                "cc_label": "p03-4",
                "CHTD": {
                    "2014154": 0.2,
                    "2014167": 0.34,
                    "2014181": 0.54,
                    "2014195": 0.79,
                    "2014209": 1.02,
                    "2014224": 1.01
                },
                "CWID": {
                    "2014167": 0.29,
                    "2014181": 0.51,
                    "2014195": 0.74,
                    "2014209": 1.02,
                    "2014224": 1.02
                }
            },
            "_id": "643828918ac547f0dd69c0d4",
            "ccid": "643828918ac547f0dd69c0d4"
        },
        {
            "type": "Feature",
            "geometry": {
                "type": "Point",
                "coordinates": [
                    33.07873757,
                    -111.97546407
                ]
            },
            "properties": {
                "cc_label": "p03-5",
                "CHTD": {
                    "2014154": 0.21,
                    "2014167": 0.34,
                    "2014181": 0.6,
                    "2014195": 0.86,
                    "2014209": 0.95,
                    "2014224": 0.94
                },
                "CWID": {
                    "2014167": 0.31,
                    "2014181": 0.5,
                    "2014195": 0.68,
                    "2014209": 1.02,
                    "2014224": 1.02
                }
            },
            "_id": "643828918ac547f0dd69c0d5",
            "ccid": "643828918ac547f0dd69c0d5"
        },
        {
            "type": "Feature",
            "geometry": {
                "type": "Point",
                "coordinates": [
                    33.07847415,
                    -111.97546578
                ]
            },
            "properties": {
                "cc_label": "p03-6",
                "CHTD": {
                    "2014154": 0.18,
                    "2014167": 0.33,
                    "2014181": 0.55,
                    "2014195": 0.83,
                    "2014209": 0.88,
                    "2014224": 0.89
                },
                "CWID": {
                    "2014167": 0.27,
                    "2014181": 0.48,
                    "2014195": 0.63,
                    "2014209": 0.69,
                    "2014224": 1.02
                }
            },
            "_id": "643828918ac547f0dd69c0d6",
            "ccid": "643828918ac547f0dd69c0d6"
        },
        {
            "type": "Feature",
            "geometry": {
                "type": "Point",
                "coordinates": [
                    33.07979277,
                    -111.97576134
                ]
            },
            "properties": {
                "cc_label": "p04-1",
                "CHTD": {
                    "2014154": 0.21,
                    "2014167": 0.42,
                    "2014181": 0.73,
                    "2014195": 0.97,
                    "2014209": 1.14,
                    "2014224": 1.16
                },
                "CWID": {
                    "2014167": 0.36,
                    "2014181": 0.63,
                    "2014195": 0.93,
                    "2014209": 1.02,
                    "2014224": 1.02
                }
            },
            "_id": "643828918ac547f0dd69c0d7",
            "ccid": "643828918ac547f0dd69c0d7"
        },
        {
            "type": "Feature",
            "geometry": {
                "type": "Point",
                "coordinates": [
                    33.07952935,
                    -111.97576344
                ]
            },
            "properties": {
                "cc_label": "p04-2",
                "CHTD": {
                    "2014154": 0.2,
                    "2014167": 0.41,
                    "2014181": 0.76,
                    "2014195": 0.99,
                    "2014209": 1.09,
                    "2014224": 1.13
                },
                "CWID": {
                    "2014167": 0.36,
                    "2014181": 0.61,
                    "2014195": 0.93,
                    "2014209": 1.02,
                    "2014224": 1.02
                }
            },
            "_id": "643828918ac547f0dd69c0d8",
            "ccid": "643828918ac547f0dd69c0d8"
        },
        {
            "type": "Feature",
            "geometry": {
                "type": "Point",
                "coordinates": [
                    33.07926593,
                    -111.97576519
                ]
            },
            "properties": {
                "cc_label": "p04-3",
                "CHTD": {
                    "2014154": 0.21,
                    "2014167": 0.41,
                    "2014181": 0.78,
                    "2014195": 1.05,
                    "2014209": 1.09,
                    "2014224": 1.11
                },
                "CWID": {
                    "2014167": 0.38,
                    "2014181": 0.63,
                    "2014195": 0.85,
                    "2014209": 1.02,
                    "2014224": 1.02
                }
            },
            "_id": "643828918ac547f0dd69c0d9",
            "ccid": "643828918ac547f0dd69c0d9"
        },
        {
            "type": "Feature",
            "geometry": {
                "type": "Point",
                "coordinates": [
                    33.07900251,
                    -111.97576713
                ]
            },
            "properties": {
                "cc_label": "p04-4",
                "CHTD": {
                    "2014154": 0.21,
                    "2014167": 0.42,
                    "2014181": 0.67,
                    "2014195": 0.86,
                    "2014209": 0.95,
                    "2014224": 0.97
                },
                "CWID": {
                    "2014167": 0.39,
                    "2014181": 0.62,
                    "2014195": 0.77,
                    "2014209": 1.02,
                    "2014224": 1.02
                }
            },
            "_id": "643828918ac547f0dd69c0da",
            "ccid": "643828918ac547f0dd69c0da"
        },
        {
            "type": "Feature",
            "geometry": {
                "type": "Point",
                "coordinates": [
                    33.07873909,
                    -111.97576903
                ]
            },
            "properties": {
                "cc_label": "p04-5",
                "CHTD": {
                    "2014154": 0.19,
                    "2014167": 0.29,
                    "2014181": 0.58,
                    "2014195": 0.82,
                    "2014209": 0.9,
                    "2014224": 0.96
                },
                "CWID": {
                    "2014167": 0.24,
                    "2014181": 0.51,
                    "2014195": 0.75,
                    "2014209": 1.02,
                    "2014224": 1.02
                }
            },
            "_id": "643828918ac547f0dd69c0db",
            "ccid": "643828918ac547f0dd69c0db"
        },
        {
            "type": "Feature",
            "geometry": {
                "type": "Point",
                "coordinates": [
                    33.07847567,
                    -111.97577065
                ]
            },
            "properties": {
                "cc_label": "p04-6",
                "CHTD": {
                    "2014154": 0.19,
                    "2014167": 0.32,
                    "2014181": 0.51,
                    "2014195": 0.74,
                    "2014209": 0.72,
                    "2014224": 0.77
                },
                "CWID": {
                    "2014167": 0.27,
                    "2014181": 0.44,
                    "2014195": 0.64,
                    "2014209": 0.79,
                    "2014224": 0.83
                }
            },
            "_id": "643828918ac547f0dd69c0dc",
            "ccid": "643828918ac547f0dd69c0dc"
        },
        {
            "type": "Feature",
            "geometry": {
                "type": "Point",
                "coordinates": [
                    33.07979424,
                    -111.97605546
                ]
            },
            "properties": {
                "cc_label": "p05-1",
                "CHTD": {
                    "2014154": 0.21,
                    "2014167": 0.36,
                    "2014181": 0.62,
                    "2014195": 0.97,
                    "2014209": 0.9,
                    "2014224": 1.1
                },
                "CWID": {
                    "2014167": 0.36,
                    "2014181": 0.52,
                    "2014195": 0.78,
                    "2014209": 0.78,
                    "2014224": 1.02
                }
            },
            "_id": "643828918ac547f0dd69c0dd",
            "ccid": "643828918ac547f0dd69c0dd"
        },
        {
            "type": "Feature",
            "geometry": {
                "type": "Point",
                "coordinates": [
                    33.07953082,
                    -111.97605716
                ]
            },
            "properties": {
                "cc_label": "p05-2",
                "CHTD": {
                    "2014154": 0.21,
                    "2014167": 0.4,
                    "2014181": 0.72,
                    "2014195": 1.03,
                    "2014209": 1.1,
                    "2014224": 1.21
                },
                "CWID": {
                    "2014167": 0.3,
                    "2014181": 0.6,
                    "2014195": 0.91,
                    "2014209": 1.02,
                    "2014224": 1.02
                }
            },
            "_id": "643828918ac547f0dd69c0de",
            "ccid": "643828918ac547f0dd69c0de"
        },
        {
            "type": "Feature",
            "geometry": {
                "type": "Point",
                "coordinates": [
                    33.0792674,
                    -111.97605919
                ]
            },
            "properties": {
                "cc_label": "p05-3",
                "CHTD": {
                    "2014154": 0.24,
                    "2014167": 0.4,
                    "2014181": 0.75,
                    "2014195": 1.08,
                    "2014209": 1.21,
                    "2014224": 1.24
                },
                "CWID": {
                    "2014167": 0.34,
                    "2014181": 0.58,
                    "2014195": 0.91,
                    "2014209": 1.02,
                    "2014224": 1.02
                }
            },
            "_id": "643828918ac547f0dd69c0df",
            "ccid": "643828918ac547f0dd69c0df"
        },
        {
            "type": "Feature",
            "geometry": {
                "type": "Point",
                "coordinates": [
                    33.07900398,
                    -111.97606102
                ]
            },
            "properties": {
                "cc_label": "p05-4",
                "CHTD": {
                    "2014154": 0.22,
                    "2014167": 0.39,
                    "2014181": 0.7,
                    "2014195": 1.0,
                    "2014209": 1.09,
                    "2014224": 1.0
                },
                "CWID": {
                    "2014167": 0.32,
                    "2014181": 0.63,
                    "2014195": 0.84,
                    "2014209": 1.02,
                    "2014224": 1.02
                }
            },
            "_id": "643828918ac547f0dd69c0e0",
            "ccid": "643828918ac547f0dd69c0e0"
        },
        {
            "type": "Feature",
            "geometry": {
                "type": "Point",
                "coordinates": [
                    33.07874056,
                    -111.9760626
                ]
            },
            "properties": {
                "cc_label": "p05-5",
                "CHTD": {
                    "2014154": 0.22,
                    "2014167": 0.4,
                    "2014181": 0.7,
                    "2014195": 0.97,
                    "2014209": 1.07,
                    "2014224": 1.02
                },
                "CWID": {
                    "2014167": 0.36,
                    "2014181": 0.58,
                    "2014195": 0.85,
                    "2014209": 1.02,
                    "2014224": 1.02
                }
            },
            "_id": "643828918ac547f0dd69c0e1",
            "ccid": "643828918ac547f0dd69c0e1"
        },
        {
            "type": "Feature",
            "geometry": {
                "type": "Point",
                "coordinates": [
                    33.07847714,
                    -111.97606473
                ]
            },
            "properties": {
                "cc_label": "p05-6",
                "CHTD": {
                    "2014154": 0.2,
                    "2014167": 0.34,
                    "2014181": 0.61,
                    "2014195": 0.78,
                    "2014209": 0.76,
                    "2014224": 0.91
                },
                "CWID": {
                    "2014167": 0.31,
                    "2014181": 0.45,
                    "2014195": 0.65,
                    "2014209": 0.72,
                    "2014224": 0.88
                }
            },
            "_id": "643828918ac547f0dd69c0e2",
            "ccid": "643828918ac547f0dd69c0e2"
        },
        {
            "type": "Feature",
            "geometry": {
                "type": "Point",
                "coordinates": [
                    33.07979576,
                    -111.97636021
                ]
            },
            "properties": {
                "cc_label": "p06-1",
                "CHTD": {
                    "2014154": 0.16,
                    "2014167": 0.3,
                    "2014181": 0.46,
                    "2014195": 0.68,
                    "2014209": 0.64,
                    "2014224": 0.69
                },
                "CWID": {
                    "2014167": 0.28,
                    "2014181": 0.38,
                    "2014195": 0.56,
                    "2014209": 0.5,
                    "2014224": 0.7
                }
            },
            "_id": "643828918ac547f0dd69c0e3",
            "ccid": "643828918ac547f0dd69c0e3"
        },
        {
            "type": "Feature",
            "geometry": {
                "type": "Point",
                "coordinates": [
                    33.07953234,
                    -111.97636199
                ]
            },
            "properties": {
                "cc_label": "p06-2",
                "CHTD": {
                    "2014154": 0.21,
                    "2014167": 0.33,
                    "2014181": 0.55,
                    "2014195": 0.76,
                    "2014209": 0.82,
                    "2014224": 0.83
                },
                "CWID": {
                    "2014167": 0.28,
                    "2014181": 0.39,
                    "2014195": 0.58,
                    "2014209": 0.63,
                    "2014224": 0.75
                }
            },
            "_id": "643828918ac547f0dd69c0e4",
            "ccid": "643828918ac547f0dd69c0e4"
        },
        {
            "type": "Feature",
            "geometry": {
                "type": "Point",
                "coordinates": [
                    33.07926892,
                    -111.97636384
                ]
            },
            "properties": {
                "cc_label": "p06-3",
                "CHTD": {
                    "2014154": 0.22,
                    "2014167": 0.35,
                    "2014181": 0.53,
                    "2014195": 0.68,
                    "2014209": 0.78,
                    "2014224": 0.8
                },
                "CWID": {
                    "2014167": 0.31,
                    "2014181": 0.41,
                    "2014195": 0.63,
                    "2014209": 0.63,
                    "2014224": 0.81
                }
            },
            "_id": "643828918ac547f0dd69c0e5",
            "ccid": "643828918ac547f0dd69c0e5"
        },
        {
            "type": "Feature",
            "geometry": {
                "type": "Point",
                "coordinates": [
                    33.0790055,
                    -111.97636553
                ]
            },
            "properties": {
                "cc_label": "p06-4",
                "CHTD": {
                    "2014154": 0.22,
                    "2014167": 0.35,
                    "2014181": 0.52,
                    "2014195": 0.67,
                    "2014209": 0.7,
                    "2014224": 0.77
                },
                "CWID": {
                    "2014167": 0.29,
                    "2014181": 0.38,
                    "2014195": 0.61,
                    "2014209": 0.63,
                    "2014224": 0.77
                }
            },
            "_id": "643828918ac547f0dd69c0e6",
            "ccid": "643828918ac547f0dd69c0e6"
        },
        {
            "type": "Feature",
            "geometry": {
                "type": "Point",
                "coordinates": [
                    33.07874208,
                    -111.97636736
                ]
            },
            "properties": {
                "cc_label": "p06-5",
                "CHTD": {
                    "2014154": 0.16,
                    "2014167": 0.39,
                    "2014181": 0.52,
                    "2014195": 0.66,
                    "2014209": 0.61,
                    "2014224": 0.72
                },
                "CWID": {
                    "2014167": 0.32,
                    "2014181": 0.45,
                    "2014195": 0.6,
                    "2014209": 0.61,
                    "2014224": 0.74
                }
            },
            "_id": "643828918ac547f0dd69c0e7",
            "ccid": "643828918ac547f0dd69c0e7"
        },
        {
            "type": "Feature",
            "geometry": {
                "type": "Point",
                "coordinates": [
                    33.07847866,
                    -111.97636934
                ]
            },
            "properties": {
                "cc_label": "p06-6",
                "CHTD": {
                    "2014154": 0.21,
                    "2014167": 0.3,
                    "2014181": 0.51,
                    "2014195": 0.65,
                    "2014209": 0.68,
                    "2014224": 0.74
                },
                "CWID": {
                    "2014167": 0.25,
                    "2014181": 0.41,
                    "2014195": 0.59,
                    "2014209": 0.6,
                    "2014224": 0.76
                }
            },
            "_id": "643828918ac547f0dd69c0e8",
            "ccid": "643828918ac547f0dd69c0e8"
        },
        {
            "type": "Feature",
            "geometry": {
                "type": "Point",
                "coordinates": [
                    33.07979722,
                    -111.9766541
                ]
            },
            "properties": {
                "cc_label": "p07-1",
                "CHTD": {
                    "2014154": 0.2,
                    "2014167": 0.3,
                    "2014181": 0.54,
                    "2014195": 0.9,
                    "2014209": 1.12,
                    "2014224": 1.16
                },
                "CWID": {
                    "2014167": 0.23,
                    "2014181": 0.44,
                    "2014195": 0.72,
                    "2014209": 1.02,
                    "2014224": 1.02
                }
            },
            "_id": "643828918ac547f0dd69c0e9",
            "ccid": "643828918ac547f0dd69c0e9"
        },
        {
            "type": "Feature",
            "geometry": {
                "type": "Point",
                "coordinates": [
                    33.0795338,
                    -111.97665591
                ]
            },
            "properties": {
                "cc_label": "p07-2",
                "CHTD": {
                    "2014154": 0.2,
                    "2014167": 0.32,
                    "2014181": 0.65,
                    "2014195": 0.9,
                    "2014209": 1.1,
                    "2014224": 1.3
                },
                "CWID": {
                    "2014167": 0.3,
                    "2014181": 0.49,
                    "2014195": 0.74,
                    "2014209": 1.02,
                    "2014224": 1.02
                }
            },
            "_id": "643828918ac547f0dd69c0ea",
            "ccid": "643828918ac547f0dd69c0ea"
        },
        {
            "type": "Feature",
            "geometry": {
                "type": "Point",
                "coordinates": [
                    33.07927038,
                    -111.97665789
                ]
            },
            "properties": {
                "cc_label": "p07-3",
                "CHTD": {
                    "2014154": 0.18,
                    "2014167": 0.3,
                    "2014181": 0.55,
                    "2014195": 0.85,
                    "2014209": 1.0,
                    "2014224": 1.11
                },
                "CWID": {
                    "2014167": 0.26,
                    "2014181": 0.44,
                    "2014195": 0.69,
                    "2014209": 1.02,
                    "2014224": 1.02
                }
            },
            "_id": "643828918ac547f0dd69c0eb",
            "ccid": "643828918ac547f0dd69c0eb"
        },
        {
            "type": "Feature",
            "geometry": {
                "type": "Point",
                "coordinates": [
                    33.07900696,
                    -111.97665957
                ]
            },
            "properties": {
                "cc_label": "p07-4",
                "CHTD": {
                    "2014154": 0.21,
                    "2014167": 0.36,
                    "2014181": 0.65,
                    "2014195": 0.93,
                    "2014209": 1.08,
                    "2014224": 1.13
                },
                "CWID": {
                    "2014167": 0.26,
                    "2014181": 0.51,
                    "2014195": 0.77,
                    "2014209": 1.02,
                    "2014224": 1.02
                }
            },
            "_id": "643828918ac547f0dd69c0ec",
            "ccid": "643828918ac547f0dd69c0ec"
        },
        {
            "type": "Feature",
            "geometry": {
                "type": "Point",
                "coordinates": [
                    33.07874354,
                    -111.9766615
                ]
            },
            "properties": {
                "cc_label": "p07-5",
                "CHTD": {
                    "2014154": 0.22,
                    "2014167": 0.33,
                    "2014181": 0.55,
                    "2014195": 0.83,
                    "2014209": 1.01,
                    "2014224": 0.97
                },
                "CWID": {
                    "2014167": 0.3,
                    "2014181": 0.45,
                    "2014195": 0.72,
                    "2014209": 1.02,
                    "2014224": 1.02
                }
            },
            "_id": "643828918ac547f0dd69c0ed",
            "ccid": "643828918ac547f0dd69c0ed"
        },
        {
            "type": "Feature",
            "geometry": {
                "type": "Point",
                "coordinates": [
                    33.07848012,
                    -111.9766631
                ]
            },
            "properties": {
                "cc_label": "p07-6",
                "CHTD": {
                    "2014154": 0.23,
                    "2014167": 0.29,
                    "2014181": 0.55,
                    "2014195": 0.74,
                    "2014209": 0.82,
                    "2014224": 0.84
                },
                "CWID": {
                    "2014167": 0.23,
                    "2014181": 0.43,
                    "2014195": 0.74,
                    "2014209": 0.82,
                    "2014224": 0.9
                }
            },
            "_id": "643828918ac547f0dd69c0ee",
            "ccid": "643828918ac547f0dd69c0ee"
        },
        {
            "type": "Feature",
            "geometry": {
                "type": "Point",
                "coordinates": [
                    33.07979874,
                    -111.97695895
                ]
            },
            "properties": {
                "cc_label": "p08-1",
                "CHTD": {
                    "2014154": 0.2,
                    "2014167": 0.33,
                    "2014181": 0.65,
                    "2014195": 0.9,
                    "2014209": 0.91,
                    "2014224": 0.96
                },
                "CWID": {
                    "2014167": 0.26,
                    "2014181": 0.54,
                    "2014195": 0.72,
                    "2014209": 1.02,
                    "2014224": 1.02
                }
            },
            "_id": "643828918ac547f0dd69c0ef",
            "ccid": "643828918ac547f0dd69c0ef"
        },
        {
            "type": "Feature",
            "geometry": {
                "type": "Point",
                "coordinates": [
                    33.07953532,
                    -111.9769609
                ]
            },
            "properties": {
                "cc_label": "p08-2",
                "CHTD": {
                    "2014154": 0.21,
                    "2014167": 0.39,
                    "2014181": 0.73,
                    "2014195": 1.03,
                    "2014209": 1.11,
                    "2014224": 1.13
                },
                "CWID": {
                    "2014167": 0.32,
                    "2014181": 0.51,
                    "2014195": 0.8,
                    "2014209": 1.02,
                    "2014224": 1.02
                }
            },
            "_id": "643828918ac547f0dd69c0f0",
            "ccid": "643828918ac547f0dd69c0f0"
        },
        {
            "type": "Feature",
            "geometry": {
                "type": "Point",
                "coordinates": [
                    33.0792719,
                    -111.97696257
                ]
            },
            "properties": {
                "cc_label": "p08-3",
                "CHTD": {
                    "2014154": 0.15,
                    "2014167": 0.44,
                    "2014181": 0.58,
                    "2014195": 0.86,
                    "2014209": 0.9,
                    "2014224": 0.92
                },
                "CWID": {
                    "2014167": 0.35,
                    "2014181": 0.52,
                    "2014195": 0.7,
                    "2014209": 1.02,
                    "2014224": 1.02
                }
            },
            "_id": "643828918ac547f0dd69c0f1",
            "ccid": "643828918ac547f0dd69c0f1"
        },
        {
            "type": "Feature",
            "geometry": {
                "type": "Point",
                "coordinates": [
                    33.07900848,
                    -111.97696459
                ]
            },
            "properties": {
                "cc_label": "p08-4",
                "CHTD": {
                    "2014154": 0.2,
                    "2014167": 0.33,
                    "2014181": 0.62,
                    "2014195": 1.0,
                    "2014209": 1.11,
                    "2014224": 1.16
                },
                "CWID": {
                    "2014167": 0.3,
                    "2014181": 0.5,
                    "2014195": 0.79,
                    "2014209": 1.02,
                    "2014224": 1.02
                }
            },
            "_id": "643828918ac547f0dd69c0f2",
            "ccid": "643828918ac547f0dd69c0f2"
        },
        {
            "type": "Feature",
            "geometry": {
                "type": "Point",
                "coordinates": [
                    33.07874506,
                    -111.97696616
                ]
            },
            "properties": {
                "cc_label": "p08-5",
                "CHTD": {
                    "2014154": 0.23,
                    "2014167": 0.4,
                    "2014181": 0.58,
                    "2014195": 0.78,
                    "2014209": 0.76,
                    "2014224": 0.81
                },
                "CWID": {
                    "2014167": 0.32,
                    "2014181": 0.46,
                    "2014195": 0.59,
                    "2014209": 0.74,
                    "2014224": 0.23
                }
            },
            "_id": "643828918ac547f0dd69c0f3",
            "ccid": "643828918ac547f0dd69c0f3"
        },
        {
            "type": "Feature",
            "geometry": {
                "type": "Point",
                "coordinates": [
                    33.07848164,
                    -111.97696804
                ]
            },
            "properties": {
                "cc_label": "p08-6",
                "CHTD": {
                    "2014154": 0.2,
                    "2014167": 0.3,
                    "2014181": 0.5,
                    "2014195": 0.69,
                    "2014209": 0.73,
                    "2014224": 0.77
                },
                "CWID": {
                    "2014167": 0.25,
                    "2014181": 0.48,
                    "2014195": 0.55,
                    "2014209": 0.7,
                    "2014224": 0.21
                }
            },
            "_id": "643828918ac547f0dd69c0f4",
            "ccid": "643828918ac547f0dd69c0f4"
        },
        {
            "type": "Feature",
            "geometry": {
                "type": "Point",
                "coordinates": [
                    33.07980026,
                    -111.97726353
                ]
            },
            "properties": {
                "cc_label": "p09-1",
                "CHTD": {
                    "2014154": 0.2,
                    "2014167": 0.35,
                    "2014181": 0.54,
                    "2014195": 0.68,
                    "2014209": 0.8,
                    "2014224": 0.95
                },
                "CWID": {
                    "2014167": 0.29,
                    "2014181": 0.42,
                    "2014195": 0.59,
                    "2014209": 0.7,
                    "2014224": 1.02
                }
            },
            "_id": "643828918ac547f0dd69c0f5",
            "ccid": "643828918ac547f0dd69c0f5"
        },
        {
            "type": "Feature",
            "geometry": {
                "type": "Point",
                "coordinates": [
                    33.07953684,
                    -111.9772656
                ]
            },
            "properties": {
                "cc_label": "p09-2",
                "CHTD": {
                    "2014154": 0.17,
                    "2014167": 0.38,
                    "2014181": 0.66,
                    "2014195": 1.02,
                    "2014209": 1.19,
                    "2014224": 1.22
                },
                "CWID": {
                    "2014167": 0.34,
                    "2014181": 0.53,
                    "2014195": 0.84,
                    "2014209": 1.02,
                    "2014224": 1.02
                }
            },
            "_id": "643828918ac547f0dd69c0f6",
            "ccid": "643828918ac547f0dd69c0f6"
        },
        {
            "type": "Feature",
            "geometry": {
                "type": "Point",
                "coordinates": [
                    33.07927342,
                    -111.97726741
                ]
            },
            "properties": {
                "cc_label": "p09-3",
                "CHTD": {
                    "2014154": 0.21,
                    "2014167": 0.37,
                    "2014181": 0.63,
                    "2014195": 0.96,
                    "2014209": 1.11,
                    "2014224": 1.1
                },
                "CWID": {
                    "2014167": 0.35,
                    "2014181": 0.55,
                    "2014195": 0.76,
                    "2014209": 1.02,
                    "2014224": 1.02
                }
            },
            "_id": "643828918ac547f0dd69c0f7",
            "ccid": "643828918ac547f0dd69c0f7"
        },
        {
            "type": "Feature",
            "geometry": {
                "type": "Point",
                "coordinates": [
                    33.07901,
                    -111.97726935
                ]
            },
            "properties": {
                "cc_label": "p09-4",
                "CHTD": {
                    "2014154": 0.24,
                    "2014167": 0.4,
                    "2014181": 0.6,
                    "2014195": 0.92,
                    "2014209": 1.08,
                    "2014224": 1.11
                },
                "CWID": {
                    "2014167": 0.38,
                    "2014181": 0.54,
                    "2014195": 0.78,
                    "2014209": 1.02,
                    "2014224": 1.02
                }
            },
            "_id": "643828918ac547f0dd69c0f8",
            "ccid": "643828918ac547f0dd69c0f8"
        },
        {
            "type": "Feature",
            "geometry": {
                "type": "Point",
                "coordinates": [
                    33.07874658,
                    -111.97727088
                ]
            },
            "properties": {
                "cc_label": "p09-5",
                "CHTD": {
                    "2014154": 0.22,
                    "2014167": 0.31,
                    "2014181": 0.52,
                    "2014195": 0.76,
                    "2014209": 0.81,
                    "2014224": 0.93
                },
                "CWID": {
                    "2014167": 0.3,
                    "2014181": 0.49,
                    "2014195": 0.7,
                    "2014209": 0.84,
                    "2014224": 1.02
                }
            },
            "_id": "643828918ac547f0dd69c0f9",
            "ccid": "643828918ac547f0dd69c0f9"
        },
        {
            "type": "Feature",
            "geometry": {
                "type": "Point",
                "coordinates": [
                    33.07848316,
                    -111.97727266
                ]
            },
            "properties": {
                "cc_label": "p09-6",
                "CHTD": {
                    "2014154": 0.2,
                    "2014167": 0.31,
                    "2014181": 0.54,
                    "2014195": 0.83,
                    "2014209": 0.88,
                    "2014224": 0.99
                },
                "CWID": {
                    "2014167": 0.25,
                    "2014181": 0.46,
                    "2014195": 0.66,
                    "2014209": 0.79,
                    "2014224": 1.02
                }
            },
            "_id": "643828918ac547f0dd69c0fa",
            "ccid": "643828918ac547f0dd69c0fa"
        },
        {
            "type": "Feature",
            "geometry": {
                "type": "Point",
                "coordinates": [
                    33.07980177,
                    -111.9775685
                ]
            },
            "properties": {
                "cc_label": "p10-1",
                "CHTD": {
                    "2014154": 0.21,
                    "2014167": 0.32,
                    "2014181": 0.55,
                    "2014195": 0.71,
                    "2014209": 0.78,
                    "2014224": 1.01
                },
                "CWID": {
                    "2014167": 0.32,
                    "2014181": 0.43,
                    "2014195": 0.59,
                    "2014209": 0.31,
                    "2014224": 1.02
                }
            },
            "_id": "643828918ac547f0dd69c0fb",
            "ccid": "643828918ac547f0dd69c0fb"
        },
        {
            "type": "Feature",
            "geometry": {
                "type": "Point",
                "coordinates": [
                    33.07953835,
                    -111.97757015
                ]
            },
            "properties": {
                "cc_label": "p10-2",
                "CHTD": {
                    "2014154": 0.23,
                    "2014167": 0.38,
                    "2014181": 0.64,
                    "2014195": 0.84,
                    "2014209": 0.89,
                    "2014224": 0.87
                },
                "CWID": {
                    "2014167": 0.32,
                    "2014181": 0.46,
                    "2014195": 0.69,
                    "2014209": 0.76,
                    "2014224": 0.91
                }
            },
            "_id": "643828918ac547f0dd69c0fc",
            "ccid": "643828918ac547f0dd69c0fc"
        },
        {
            "type": "Feature",
            "geometry": {
                "type": "Point",
                "coordinates": [
                    33.07927493,
                    -111.97757205
                ]
            },
            "properties": {
                "cc_label": "p10-3",
                "CHTD": {
                    "2014154": 0.23,
                    "2014167": 0.4,
                    "2014181": 0.66,
                    "2014195": 0.92,
                    "2014209": 0.98,
                    "2014224": 1.09
                },
                "CWID": {
                    "2014167": 0.34,
                    "2014181": 0.54,
                    "2014195": 0.79,
                    "2014209": 1.02,
                    "2014224": 1.02
                }
            },
            "_id": "643828918ac547f0dd69c0fd",
            "ccid": "643828918ac547f0dd69c0fd"
        },
        {
            "type": "Feature",
            "geometry": {
                "type": "Point",
                "coordinates": [
                    33.07901151,
                    -111.9775738
                ]
            },
            "properties": {
                "cc_label": "p10-4",
                "CHTD": {
                    "2014154": 0.24,
                    "2014167": 0.42,
                    "2014181": 0.76,
                    "2014195": 0.87,
                    "2014209": 0.9,
                    "2014224": 0.92
                },
                "CWID": {
                    "2014167": 0.38,
                    "2014181": 0.48,
                    "2014195": 0.69,
                    "2014209": 0.85,
                    "2014224": 1.02
                }
            },
            "_id": "643828918ac547f0dd69c0fe",
            "ccid": "643828918ac547f0dd69c0fe"
        },
        {
            "type": "Feature",
            "geometry": {
                "type": "Point",
                "coordinates": [
                    33.07874809,
                    -111.9775756
                ]
            },
            "properties": {
                "cc_label": "p10-5",
                "CHTD": {
                    "2014154": 0.22,
                    "2014167": 0.38,
                    "2014181": 0.56,
                    "2014195": 0.75,
                    "2014209": 0.76,
                    "2014224": 0.84
                },
                "CWID": {
                    "2014167": 0.33,
                    "2014181": 0.47,
                    "2014195": 0.67,
                    "2014209": 0.77,
                    "2014224": 0.92
                }
            },
            "_id": "643828918ac547f0dd69c0ff",
            "ccid": "643828918ac547f0dd69c0ff"
        },
        {
            "type": "Feature",
            "geometry": {
                "type": "Point",
                "coordinates": [
                    33.07848467,
                    -111.97757759
                ]
            },
            "properties": {
                "cc_label": "p10-6",
                "CHTD": {
                    "2014154": 0.2,
                    "2014167": 0.34,
                    "2014181": 0.53,
                    "2014195": 0.68,
                    "2014209": 0.74,
                    "2014224": 0.77
                },
                "CWID": {
                    "2014167": 0.26,
                    "2014181": 0.37,
                    "2014195": 0.59,
                    "2014209": 0.66,
                    "2014224": 0.82
                }
            },
            "_id": "643828918ac547f0dd69c100",
            "ccid": "643828918ac547f0dd69c100"
        },
        {
            "type": "Feature",
            "geometry": {
                "type": "Point",
                "coordinates": [
                    33.07980632,
                    -111.97848253
                ]
            },
            "properties": {
                "cc_label": "p11-1",
                "CHTD": {
                    "2014154": 0.19,
                    "2014167": 0.34,
                    "2014181": 0.5,
                    "2014195": 0.71,
                    "2014209": 0.8,
                    "2014224": 0.88
                },
                "CWID": {
                    "2014167": 0.29,
                    "2014181": 0.33,
                    "2014195": 0.56,
                    "2014209": 0.78,
                    "2014224": 1.02
                }
            },
            "_id": "643828918ac547f0dd69c101",
            "ccid": "643828918ac547f0dd69c101"
        },
        {
            "type": "Feature",
            "geometry": {
                "type": "Point",
                "coordinates": [
                    33.0795429,
                    -111.97848489
                ]
            },
            "properties": {
                "cc_label": "p11-2",
                "CHTD": {
                    "2014154": 0.19,
                    "2014167": 0.34,
                    "2014181": 0.54,
                    "2014195": 0.84,
                    "2014209": 0.97,
                    "2014224": 1.05
                },
                "CWID": {
                    "2014167": 0.25,
                    "2014181": 0.35,
                    "2014195": 0.61,
                    "2014209": 0.8,
                    "2014224": 1.02
                }
            },
            "_id": "643828918ac547f0dd69c102",
            "ccid": "643828918ac547f0dd69c102"
        },
        {
            "type": "Feature",
            "geometry": {
                "type": "Point",
                "coordinates": [
                    33.07927948,
                    -111.97848659
                ]
            },
            "properties": {
                "cc_label": "p11-3",
                "CHTD": {
                    "2014154": 0.21,
                    "2014167": 0.37,
                    "2014181": 0.58,
                    "2014195": 0.81,
                    "2014209": 0.97,
                    "2014224": 1.02
                },
                "CWID": {
                    "2014167": 0.31,
                    "2014181": 0.42,
                    "2014195": 0.71,
                    "2014209": 1.02,
                    "2014224": 1.02
                }
            },
            "_id": "643828918ac547f0dd69c103",
            "ccid": "643828918ac547f0dd69c103"
        },
        {
            "type": "Feature",
            "geometry": {
                "type": "Point",
                "coordinates": [
                    33.07901606,
                    -111.97848861
                ]
            },
            "properties": {
                "cc_label": "p11-4",
                "CHTD": {
                    "2014154": 0.18,
                    "2014167": 0.35,
                    "2014181": 0.54,
                    "2014195": 0.71,
                    "2014209": 0.9,
                    "2014224": 0.92
                },
                "CWID": {
                    "2014167": 0.34,
                    "2014181": 0.38,
                    "2014195": 0.61,
                    "2014209": 0.8,
                    "2014224": 1.02
                }
            },
            "_id": "643828918ac547f0dd69c104",
            "ccid": "643828918ac547f0dd69c104"
        },
        {
            "type": "Feature",
            "geometry": {
                "type": "Point",
                "coordinates": [
                    33.07875264,
                    -111.97849016
                ]
            },
            "properties": {
                "cc_label": "p11-5",
                "CHTD": {
                    "2014154": 0.19,
                    "2014167": 0.38,
                    "2014181": 0.52,
                    "2014195": 0.7,
                    "2014209": 0.81,
                    "2014224": 0.84
                },
                "CWID": {
                    "2014167": 0.28,
                    "2014181": 0.37,
                    "2014195": 0.57,
                    "2014209": 0.75,
                    "2014224": 1.02
                }
            },
            "_id": "643828918ac547f0dd69c105",
            "ccid": "643828918ac547f0dd69c105"
        },
        {
            "type": "Feature",
            "geometry": {
                "type": "Point",
                "coordinates": [
                    33.07848922,
                    -111.97849171
                ]
            },
            "properties": {
                "cc_label": "p11-6",
                "CHTD": {
                    "2014154": 0.21,
                    "2014167": 0.32,
                    "2014181": 0.5,
                    "2014195": 0.8,
                    "2014209": 0.91,
                    "2014224": 0.93
                },
                "CWID": {
                    "2014167": 0.31,
                    "2014181": 0.37,
                    "2014195": 0.63,
                    "2014209": 0.78,
                    "2014224": 1.02
                }
            },
            "_id": "643828918ac547f0dd69c106",
            "ccid": "643828918ac547f0dd69c106"
        }
    ]
}