{
    "type": "Feature",
    "geometry": {
        "type": "Point",
        "coordinates": [
            33.07978821,
            -111.9748469
        ]
    },
    "properties": {
        "ht_label": "p01-1"
    },
    "_id": "643828918ac547f0dd69c0c5",
    "chid": "643828918ac547f0dd69c0c5"
}{
    "type": "Feature",
    "geometry": {
        "type": "Point",
        "coordinates": [
            33.07952479,
            -111.97484973
        ]
    },
    "properties": {
        "ht_label": "p01-2"
    },
    "_id": "643828918ac547f0dd69c0c6",
    "chid": "643828918ac547f0dd69c0c6"
}{
    "type": "Feature",
    "geometry": {
        "type": "Point",
        "coordinates": [
            33.07926137,
            -111.97485069
        ]
    },
    "properties": {
        "ht_label": "p01-3"
    },
    "_id": "643828918ac547f0dd69c0c7",
    "chid": "643828918ac547f0dd69c0c7"
}{
    "type": "Feature",
    "geometry": {
        "type": "Point",
        "coordinates": [
            33.07899795,
            -111.97485311
        ]
    },
    "properties": {
        "ht_label": "p01-4"
    },
    "_id": "643828918ac547f0dd69c0c8",
    "chid": "643828918ac547f0dd69c0c8"
}{
    "type": "Feature",
    "geometry": {
        "type": "Point",
        "coordinates": [
            33.07873453,
            -111.97485462
        ]
    },
    "properties": {
        "ht_label": "p01-5"
    },
    "_id": "643828918ac547f0dd69c0c9",
    "chid": "643828918ac547f0dd69c0c9"
}{
    "type": "Feature",
    "geometry": {
        "type": "Point",
        "coordinates": [
            33.07847111,
            -111.9748564
        ]
    },
    "properties": {
        "ht_label": "p01-6"
    },
    "_id": "643828918ac547f0dd69c0ca",
    "chid": "643828918ac547f0dd69c0ca"
}{
    "type": "Feature",
    "geometry": {
        "type": "Point",
        "coordinates": [
            33.07978973,
            -111.97515206
        ]
    },
    "properties": {
        "ht_label": "p02-1"
    },
    "_id": "643828918ac547f0dd69c0cb",
    "chid": "643828918ac547f0dd69c0cb"
}{
    "type": "Feature",
    "geometry": {
        "type": "Point",
        "coordinates": [
            33.07952631,
            -111.97515382
        ]
    },
    "properties": {
        "ht_label": "p02-2"
    },
    "_id": "643828918ac547f0dd69c0cc",
    "chid": "643828918ac547f0dd69c0cc"
}{
    "type": "Feature",
    "geometry": {
        "type": "Point",
        "coordinates": [
            33.07926289,
            -111.97515544
        ]
    },
    "properties": {
        "ht_label": "p02-3"
    },
    "_id": "643828918ac547f0dd69c0cd",
    "chid": "643828918ac547f0dd69c0cd"
}{
    "type": "Feature",
    "geometry": {
        "type": "Point",
        "coordinates": [
            33.07899947,
            -111.97515777
        ]
    },
    "properties": {
        "ht_label": "p02-4"
    },
    "_id": "643828918ac547f0dd69c0ce",
    "chid": "643828918ac547f0dd69c0ce"
}{
    "type": "Feature",
    "geometry": {
        "type": "Point",
        "coordinates": [
            33.07873605,
            -111.97515924
        ]
    },
    "properties": {
        "ht_label": "p02-5"
    },
    "_id": "643828918ac547f0dd69c0cf",
    "chid": "643828918ac547f0dd69c0cf"
}{
    "type": "Feature",
    "geometry": {
        "type": "Point",
        "coordinates": [
            33.07847263,
            -111.9751613
        ]
    },
    "properties": {
        "ht_label": "p02-6"
    },
    "_id": "643828918ac547f0dd69c0d0",
    "chid": "643828918ac547f0dd69c0d0"
}{
    "type": "Feature",
    "geometry": {
        "type": "Point",
        "coordinates": [
            33.07979125,
            -111.97545703
        ]
    },
    "properties": {
        "ht_label": "p03-1"
    },
    "_id": "643828918ac547f0dd69c0d1",
    "chid": "643828918ac547f0dd69c0d1"
}{
    "type": "Feature",
    "geometry": {
        "type": "Point",
        "coordinates": [
            33.07952783,
            -111.9754586
        ]
    },
    "properties": {
        "ht_label": "p03-2"
    },
    "_id": "643828918ac547f0dd69c0d2",
    "chid": "643828918ac547f0dd69c0d2"
}{
    "type": "Feature",
    "geometry": {
        "type": "Point",
        "coordinates": [
            33.07926441,
            -111.97546064
        ]
    },
    "properties": {
        "ht_label": "p03-3"
    },
    "_id": "643828918ac547f0dd69c0d3",
    "chid": "643828918ac547f0dd69c0d3"
}{
    "type": "Feature",
    "geometry": {
        "type": "Point",
        "coordinates": [
            33.07900099,
            -111.97546192
        ]
    },
    "properties": {
        "ht_label": "p03-4"
    },
    "_id": "643828918ac547f0dd69c0d4",
    "chid": "643828918ac547f0dd69c0d4"
}{
    "type": "Feature",
    "geometry": {
        "type": "Point",
        "coordinates": [
            33.07873757,
            -111.97546407
        ]
    },
    "properties": {
        "ht_label": "p03-5"
    },
    "_id": "643828918ac547f0dd69c0d5",
    "chid": "643828918ac547f0dd69c0d5"
}{
    "type": "Feature",
    "geometry": {
        "type": "Point",
        "coordinates": [
            33.07847415,
            -111.97546578
        ]
    },
    "properties": {
        "ht_label": "p03-6"
    },
    "_id": "643828918ac547f0dd69c0d6",
    "chid": "643828918ac547f0dd69c0d6"
}{
    "type": "Feature",
    "geometry": {
        "type": "Point",
        "coordinates": [
            33.07979277,
            -111.97576134
        ]
    },
    "properties": {
        "ht_label": "p04-1"
    },
    "_id": "643828918ac547f0dd69c0d7",
    "chid": "643828918ac547f0dd69c0d7"
}{
    "type": "Feature",
    "geometry": {
        "type": "Point",
        "coordinates": [
            33.07952935,
            -111.97576344
        ]
    },
    "properties": {
        "ht_label": "p04-2"
    },
    "_id": "643828918ac547f0dd69c0d8",
    "chid": "643828918ac547f0dd69c0d8"
}{
    "type": "Feature",
    "geometry": {
        "type": "Point",
        "coordinates": [
            33.07926593,
            -111.97576519
        ]
    },
    "properties": {
        "ht_label": "p04-3"
    },
    "_id": "643828918ac547f0dd69c0d9",
    "chid": "643828918ac547f0dd69c0d9"
}{
    "type": "Feature",
    "geometry": {
        "type": "Point",
        "coordinates": [
            33.07900251,
            -111.97576713
        ]
    },
    "properties": {
        "ht_label": "p04-4"
    },
    "_id": "643828918ac547f0dd69c0da",
    "chid": "643828918ac547f0dd69c0da"
}{
    "type": "Feature",
    "geometry": {
        "type": "Point",
        "coordinates": [
            33.07873909,
            -111.97576903
        ]
    },
    "properties": {
        "ht_label": "p04-5"
    },
    "_id": "643828918ac547f0dd69c0db",
    "chid": "643828918ac547f0dd69c0db"
}{
    "type": "Feature",
    "geometry": {
        "type": "Point",
        "coordinates": [
            33.07847567,
            -111.97577065
        ]
    },
    "properties": {
        "ht_label": "p04-6"
    },
    "_id": "643828918ac547f0dd69c0dc",
    "chid": "643828918ac547f0dd69c0dc"
}{
    "type": "Feature",
    "geometry": {
        "type": "Point",
        "coordinates": [
            33.07979424,
            -111.97605546
        ]
    },
    "properties": {
        "ht_label": "p05-1"
    },
    "_id": "643828918ac547f0dd69c0dd",
    "chid": "643828918ac547f0dd69c0dd"
}{
    "type": "Feature",
    "geometry": {
        "type": "Point",
        "coordinates": [
            33.07953082,
            -111.97605716
        ]
    },
    "properties": {
        "ht_label": "p05-2"
    },
    "_id": "643828918ac547f0dd69c0de",
    "chid": "643828918ac547f0dd69c0de"
}{
    "type": "Feature",
    "geometry": {
        "type": "Point",
        "coordinates": [
            33.0792674,
            -111.97605919
        ]
    },
    "properties": {
        "ht_label": "p05-3"
    },
    "_id": "643828918ac547f0dd69c0df",
    "chid": "643828918ac547f0dd69c0df"
}{
    "type": "Feature",
    "geometry": {
        "type": "Point",
        "coordinates": [
            33.07900398,
            -111.97606102
        ]
    },
    "properties": {
        "ht_label": "p05-4"
    },
    "_id": "643828918ac547f0dd69c0e0",
    "chid": "643828918ac547f0dd69c0e0"
}{
    "type": "Feature",
    "geometry": {
        "type": "Point",
        "coordinates": [
            33.07874056,
            -111.9760626
        ]
    },
    "properties": {
        "ht_label": "p05-5"
    },
    "_id": "643828918ac547f0dd69c0e1",
    "chid": "643828918ac547f0dd69c0e1"
}{
    "type": "Feature",
    "geometry": {
        "type": "Point",
        "coordinates": [
            33.07847714,
            -111.97606473
        ]
    },
    "properties": {
        "ht_label": "p05-6"
    },
    "_id": "643828918ac547f0dd69c0e2",
    "chid": "643828918ac547f0dd69c0e2"
}{
    "type": "Feature",
    "geometry": {
        "type": "Point",
        "coordinates": [
            33.07979576,
            -111.97636021
        ]
    },
    "properties": {
        "ht_label": "p06-1"
    },
    "_id": "643828918ac547f0dd69c0e3",
    "chid": "643828918ac547f0dd69c0e3"
}{
    "type": "Feature",
    "geometry": {
        "type": "Point",
        "coordinates": [
            33.07953234,
            -111.97636199
        ]
    },
    "properties": {
        "ht_label": "p06-2"
    },
    "_id": "643828918ac547f0dd69c0e4",
    "chid": "643828918ac547f0dd69c0e4"
}{
    "type": "Feature",
    "geometry": {
        "type": "Point",
        "coordinates": [
            33.07926892,
            -111.97636384
        ]
    },
    "properties": {
        "ht_label": "p06-3"
    },
    "_id": "643828918ac547f0dd69c0e5",
    "chid": "643828918ac547f0dd69c0e5"
}{
    "type": "Feature",
    "geometry": {
        "type": "Point",
        "coordinates": [
            33.0790055,
            -111.97636553
        ]
    },
    "properties": {
        "ht_label": "p06-4"
    },
    "_id": "643828918ac547f0dd69c0e6",
    "chid": "643828918ac547f0dd69c0e6"
}{
    "type": "Feature",
    "geometry": {
        "type": "Point",
        "coordinates": [
            33.07874208,
            -111.97636736
        ]
    },
    "properties": {
        "ht_label": "p06-5"
    },
    "_id": "643828918ac547f0dd69c0e7",
    "chid": "643828918ac547f0dd69c0e7"
}{
    "type": "Feature",
    "geometry": {
        "type": "Point",
        "coordinates": [
            33.07847866,
            -111.97636934
        ]
    },
    "properties": {
        "ht_label": "p06-6"
    },
    "_id": "643828918ac547f0dd69c0e8",
    "chid": "643828918ac547f0dd69c0e8"
}{
    "type": "Feature",
    "geometry": {
        "type": "Point",
        "coordinates": [
            33.07979722,
            -111.9766541
        ]
    },
    "properties": {
        "ht_label": "p07-1"
    },
    "_id": "643828918ac547f0dd69c0e9",
    "chid": "643828918ac547f0dd69c0e9"
}{
    "type": "Feature",
    "geometry": {
        "type": "Point",
        "coordinates": [
            33.0795338,
            -111.97665591
        ]
    },
    "properties": {
        "ht_label": "p07-2"
    },
    "_id": "643828918ac547f0dd69c0ea",
    "chid": "643828918ac547f0dd69c0ea"
}{
    "type": "Feature",
    "geometry": {
        "type": "Point",
        "coordinates": [
            33.07927038,
            -111.97665789
        ]
    },
    "properties": {
        "ht_label": "p07-3"
    },
    "_id": "643828918ac547f0dd69c0eb",
    "chid": "643828918ac547f0dd69c0eb"
}{
    "type": "Feature",
    "geometry": {
        "type": "Point",
        "coordinates": [
            33.07900696,
            -111.97665957
        ]
    },
    "properties": {
        "ht_label": "p07-4"
    },
    "_id": "643828918ac547f0dd69c0ec",
    "chid": "643828918ac547f0dd69c0ec"
}{
    "type": "Feature",
    "geometry": {
        "type": "Point",
        "coordinates": [
            33.07874354,
            -111.9766615
        ]
    },
    "properties": {
        "ht_label": "p07-5"
    },
    "_id": "643828918ac547f0dd69c0ed",
    "chid": "643828918ac547f0dd69c0ed"
}{
    "type": "Feature",
    "geometry": {
        "type": "Point",
        "coordinates": [
            33.07848012,
            -111.9766631
        ]
    },
    "properties": {
        "ht_label": "p07-6"
    },
    "_id": "643828918ac547f0dd69c0ee",
    "chid": "643828918ac547f0dd69c0ee"
}{
    "type": "Feature",
    "geometry": {
        "type": "Point",
        "coordinates": [
            33.07979874,
            -111.97695895
        ]
    },
    "properties": {
        "ht_label": "p08-1"
    },
    "_id": "643828918ac547f0dd69c0ef",
    "chid": "643828918ac547f0dd69c0ef"
}{
    "type": "Feature",
    "geometry": {
        "type": "Point",
        "coordinates": [
            33.07953532,
            -111.9769609
        ]
    },
    "properties": {
        "ht_label": "p08-2"
    },
    "_id": "643828918ac547f0dd69c0f0",
    "chid": "643828918ac547f0dd69c0f0"
}{
    "type": "Feature",
    "geometry": {
        "type": "Point",
        "coordinates": [
            33.0792719,
            -111.97696257
        ]
    },
    "properties": {
        "ht_label": "p08-3"
    },
    "_id": "643828918ac547f0dd69c0f1",
    "chid": "643828918ac547f0dd69c0f1"
}{
    "type": "Feature",
    "geometry": {
        "type": "Point",
        "coordinates": [
            33.07900848,
            -111.97696459
        ]
    },
    "properties": {
        "ht_label": "p08-4"
    },
    "_id": "643828918ac547f0dd69c0f2",
    "chid": "643828918ac547f0dd69c0f2"
}{
    "type": "Feature",
    "geometry": {
        "type": "Point",
        "coordinates": [
            33.07874506,
            -111.97696616
        ]
    },
    "properties": {
        "ht_label": "p08-5"
    },
    "_id": "643828918ac547f0dd69c0f3",
    "chid": "643828918ac547f0dd69c0f3"
}{
    "type": "Feature",
    "geometry": {
        "type": "Point",
        "coordinates": [
            33.07848164,
            -111.97696804
        ]
    },
    "properties": {
        "ht_label": "p08-6"
    },
    "_id": "643828918ac547f0dd69c0f4",
    "chid": "643828918ac547f0dd69c0f4"
}{
    "type": "Feature",
    "geometry": {
        "type": "Point",
        "coordinates": [
            33.07980026,
            -111.97726353
        ]
    },
    "properties": {
        "ht_label": "p09-1"
    },
    "_id": "643828918ac547f0dd69c0f5",
    "chid": "643828918ac547f0dd69c0f5"
}{
    "type": "Feature",
    "geometry": {
        "type": "Point",
        "coordinates": [
            33.07953684,
            -111.9772656
        ]
    },
    "properties": {
        "ht_label": "p09-2"
    },
    "_id": "643828918ac547f0dd69c0f6",
    "chid": "643828918ac547f0dd69c0f6"
}{
    "type": "Feature",
    "geometry": {
        "type": "Point",
        "coordinates": [
            33.07927342,
            -111.97726741
        ]
    },
    "properties": {
        "ht_label": "p09-3"
    },
    "_id": "643828918ac547f0dd69c0f7",
    "chid": "643828918ac547f0dd69c0f7"
}{
    "type": "Feature",
    "geometry": {
        "type": "Point",
        "coordinates": [
            33.07901,
            -111.97726935
        ]
    },
    "properties": {
        "ht_label": "p09-4"
    },
    "_id": "643828918ac547f0dd69c0f8",
    "chid": "643828918ac547f0dd69c0f8"
}{
    "type": "Feature",
    "geometry": {
        "type": "Point",
        "coordinates": [
            33.07874658,
            -111.97727088
        ]
    },
    "properties": {
        "ht_label": "p09-5"
    },
    "_id": "643828918ac547f0dd69c0f9",
    "chid": "643828918ac547f0dd69c0f9"
}{
    "type": "Feature",
    "geometry": {
        "type": "Point",
        "coordinates": [
            33.07848316,
            -111.97727266
        ]
    },
    "properties": {
        "ht_label": "p09-6"
    },
    "_id": "643828918ac547f0dd69c0fa",
    "chid": "643828918ac547f0dd69c0fa"
}{
    "type": "Feature",
    "geometry": {
        "type": "Point",
        "coordinates": [
            33.07980177,
            -111.9775685
        ]
    },
    "properties": {
        "ht_label": "p10-1"
    },
    "_id": "643828918ac547f0dd69c0fb",
    "chid": "643828918ac547f0dd69c0fb"
}{
    "type": "Feature",
    "geometry": {
        "type": "Point",
        "coordinates": [
            33.07953835,
            -111.97757015
        ]
    },
    "properties": {
        "ht_label": "p10-2"
    },
    "_id": "643828918ac547f0dd69c0fc",
    "chid": "643828918ac547f0dd69c0fc"
}{
    "type": "Feature",
    "geometry": {
        "type": "Point",
        "coordinates": [
            33.07927493,
            -111.97757205
        ]
    },
    "properties": {
        "ht_label": "p10-3"
    },
    "_id": "643828918ac547f0dd69c0fd",
    "chid": "643828918ac547f0dd69c0fd"
}{
    "type": "Feature",
    "geometry": {
        "type": "Point",
        "coordinates": [
            33.07901151,
            -111.9775738
        ]
    },
    "properties": {
        "ht_label": "p10-4"
    },
    "_id": "643828918ac547f0dd69c0fe",
    "chid": "643828918ac547f0dd69c0fe"
}{
    "type": "Feature",
    "geometry": {
        "type": "Point",
        "coordinates": [
            33.07874809,
            -111.9775756
        ]
    },
    "properties": {
        "ht_label": "p10-5"
    },
    "_id": "643828918ac547f0dd69c0ff",
    "chid": "643828918ac547f0dd69c0ff"
}{
    "type": "Feature",
    "geometry": {
        "type": "Point",
        "coordinates": [
            33.07848467,
            -111.97757759
        ]
    },
    "properties": {
        "ht_label": "p10-6"
    },
    "_id": "643828918ac547f0dd69c100",
    "chid": "643828918ac547f0dd69c100"
}{
    "type": "Feature",
    "geometry": {
        "type": "Point",
        "coordinates": [
            33.07980632,
            -111.97848253
        ]
    },
    "properties": {
        "ht_label": "p11-1"
    },
    "_id": "643828918ac547f0dd69c101",
    "chid": "643828918ac547f0dd69c101"
}{
    "type": "Feature",
    "geometry": {
        "type": "Point",
        "coordinates": [
            33.0795429,
            -111.97848489
        ]
    },
    "properties": {
        "ht_label": "p11-2"
    },
    "_id": "643828918ac547f0dd69c102",
    "chid": "643828918ac547f0dd69c102"
}{
    "type": "Feature",
    "geometry": {
        "type": "Point",
        "coordinates": [
            33.07927948,
            -111.97848659
        ]
    },
    "properties": {
        "ht_label": "p11-3"
    },
    "_id": "643828918ac547f0dd69c103",
    "chid": "643828918ac547f0dd69c103"
}{
    "type": "Feature",
    "geometry": {
        "type": "Point",
        "coordinates": [
            33.07901606,
            -111.97848861
        ]
    },
    "properties": {
        "ht_label": "p11-4"
    },
    "_id": "643828918ac547f0dd69c104",
    "chid": "643828918ac547f0dd69c104"
}{
    "type": "Feature",
    "geometry": {
        "type": "Point",
        "coordinates": [
            33.07875264,
            -111.97849016
        ]
    },
    "properties": {
        "ht_label": "p11-5"
    },
    "_id": "643828918ac547f0dd69c105",
    "chid": "643828918ac547f0dd69c105"
}{
    "type": "Feature",
    "geometry": {
        "type": "Point",
        "coordinates": [
            33.07848922,
            -111.97849171
        ]
    },
    "properties": {
        "ht_label": "p11-6"
    },
    "_id": "643828918ac547f0dd69c106",
    "chid": "643828918ac547f0dd69c106"
}