{
    "type": "FeatureCollection",
    "features": [
        {
            "type": "Feature",
            "geometry": {
                "type": "Polygon",
                "coordinates": [
                    [
                        [
                            -111.97476722,
                            33.07912892
                        ],
                        [
                            -111.97478899,
                            33.07912902
                        ],
                        [
                            -111.97478437,
                            33.07978742
                        ],
                        [
                            -111.9747626,
                            33.07978732
                        ],
                        [
                            -111.97476722,
                            33.07912892
                        ]
                    ]
                ]
            },
            "properties": {
                "pa_label": "p01N-S1",
                "PSDATE": "06/24/2014",
                "SQRNUM": 9.0,
                "FLRNUM": 0.0,
                "GBNUM": 0.0,
                "MBNUM": 0.0,
                "LWPD": 7.83,
                "SWPD": 7.18,
                "CWPD": 15.77,
                "LWAD": 616.6,
                "SWAD": 565.6,
                "PWAD": 59.1,
                "CWAD": 1241.3,
                "LAID_LAB": 0.478,
                "CHTD": 0.46,
                "CWID": 0.39,
                "LAID_FLD": 0.61
            },
            "_id": "6849d8308ac54758047f716d",
            "paid": "6849d8308ac54758047f716d"
        },
        {
            "type": "Feature",
            "geometry": {
                "type": "Polygon",
                "coordinates": [
                    [
                        [
                            -111.97477184,
                            33.07847051
                        ],
                        [
                            -111.97479361,
                            33.07847062
                        ],
                        [
                            -111.97478899,
                            33.07912902
                        ],
                        [
                            -111.97476722,
                            33.07912892
                        ],
                        [
                            -111.97477184,
                            33.07847051
                        ]
                    ]
                ]
            },
            "properties": {
                "pa_label": "p01S-S1",
                "PSDATE": "06/24/2014",
                "SQRNUM": 12.8,
                "FLRNUM": 0.1,
                "GBNUM": 0.0,
                "MBNUM": 0.0,
                "LWPD": 9.2,
                "SWPD": 8.45,
                "CWPD": 18.57,
                "LWAD": 724.6,
                "SWAD": 665.6,
                "PWAD": 72.0,
                "CWAD": 1462.3,
                "LAID_LAB": 0.904,
                "CHTD": 0.47,
                "CWID": 0.34,
                "LAID_FLD": 0.75
            },
            "_id": "6849d8308ac54758047f716e",
            "paid": "6849d8308ac54758047f716e"
        },
        {
            "type": "Feature",
            "geometry": {
                "type": "Polygon",
                "coordinates": [
                    [
                        [
                            -111.97507198,
                            33.07913043
                        ],
                        [
                            -111.97509375,
                            33.07913054
                        ],
                        [
                            -111.97508914,
                            33.07978894
                        ],
                        [
                            -111.97506737,
                            33.07978883
                        ],
                        [
                            -111.97507198,
                            33.07913043
                        ]
                    ]
                ]
            },
            "properties": {
                "pa_label": "p02N-S1",
                "PSDATE": "06/24/2014",
                "SQRNUM": 7.4,
                "FLRNUM": 0.0,
                "GBNUM": 0.0,
                "MBNUM": 0.0,
                "LWPD": 7.24,
                "SWPD": 6.37,
                "CWPD": 14.11,
                "LWAD": 570.0,
                "SWAD": 501.8,
                "PWAD": 39.0,
                "CWAD": 1110.7,
                "LAID_LAB": 1.121,
                "CHTD": 0.53,
                "CWID": 0.46,
                "LAID_FLD": 1.0
            },
            "_id": "6849d8308ac54758047f716f",
            "paid": "6849d8308ac54758047f716f"
        },
        {
            "type": "Feature",
            "geometry": {
                "type": "Polygon",
                "coordinates": [
                    [
                        [
                            -111.9750766,
                            33.07847203
                        ],
                        [
                            -111.97509837,
                            33.07847214
                        ],
                        [
                            -111.97509375,
                            33.07913054
                        ],
                        [
                            -111.97507198,
                            33.07913043
                        ],
                        [
                            -111.9750766,
                            33.07847203
                        ]
                    ]
                ]
            },
            "properties": {
                "pa_label": "p02S-S1",
                "PSDATE": "06/24/2014",
                "SQRNUM": 10.1,
                "FLRNUM": 0.0,
                "GBNUM": 0.0,
                "MBNUM": 0.0,
                "LWPD": 9.58,
                "SWPD": 9.48,
                "CWPD": 19.59,
                "LWAD": 754.6,
                "SWAD": 746.8,
                "PWAD": 41.3,
                "CWAD": 1542.7,
                "LAID_LAB": 1.123,
                "CHTD": 0.56,
                "CWID": 0.46,
                "LAID_FLD": 0.86
            },
            "_id": "6849d8308ac54758047f7170",
            "paid": "6849d8308ac54758047f7170"
        },
        {
            "type": "Feature",
            "geometry": {
                "type": "Polygon",
                "coordinates": [
                    [
                        [
                            -111.97537675,
                            33.07913195
                        ],
                        [
                            -111.97539852,
                            33.07913205
                        ],
                        [
                            -111.9753939,
                            33.07979045
                        ],
                        [
                            -111.97537214,
                            33.07979035
                        ],
                        [
                            -111.97537675,
                            33.07913195
                        ]
                    ]
                ]
            },
            "properties": {
                "pa_label": "p03N-S1",
                "PSDATE": "06/24/2014",
                "SQRNUM": 2.6,
                "FLRNUM": 0.0,
                "GBNUM": 0.0,
                "MBNUM": 0.0,
                "LWPD": 4.52,
                "SWPD": 3.92,
                "CWPD": 8.63,
                "LWAD": 578.1,
                "SWAD": 501.8,
                "PWAD": 24.4,
                "CWAD": 1104.2,
                "LAID_LAB": 0.744,
                "CHTD": 0.44,
                "CWID": 0.35,
                "LAID_FLD": 0.65
            },
            "_id": "6849d8308ac54758047f7171",
            "paid": "6849d8308ac54758047f7171"
        },
        {
            "type": "Feature",
            "geometry": {
                "type": "Polygon",
                "coordinates": [
                    [
                        [
                            -111.97538137,
                            33.07847354
                        ],
                        [
                            -111.97540313,
                            33.07847365
                        ],
                        [
                            -111.97539852,
                            33.07913205
                        ],
                        [
                            -111.97537675,
                            33.07913195
                        ],
                        [
                            -111.97538137,
                            33.07847354
                        ]
                    ]
                ]
            },
            "properties": {
                "pa_label": "p03S-S1",
                "PSDATE": "06/24/2014",
                "SQRNUM": 3.2,
                "FLRNUM": 0.0,
                "GBNUM": 0.0,
                "MBNUM": 0.0,
                "LWPD": 6.89,
                "SWPD": 6.43,
                "CWPD": 13.56,
                "LWAD": 813.3,
                "SWAD": 759.0,
                "PWAD": 29.5,
                "CWAD": 1601.8,
                "LAID_LAB": 1.073,
                "CHTD": 0.5,
                "CWID": 0.41,
                "LAID_FLD": 0.81
            },
            "_id": "6849d8308ac54758047f7172",
            "paid": "6849d8308ac54758047f7172"
        },
        {
            "type": "Feature",
            "geometry": {
                "type": "Polygon",
                "coordinates": [
                    [
                        [
                            -111.97628312,
                            33.07913641
                        ],
                        [
                            -111.97630489,
                            33.07913652
                        ],
                        [
                            -111.97630028,
                            33.07979492
                        ],
                        [
                            -111.97627852,
                            33.07979481
                        ],
                        [
                            -111.97628312,
                            33.07913641
                        ]
                    ]
                ]
            },
            "properties": {
                "pa_label": "p06N-S1",
                "PSDATE": "06/24/2014",
                "SQRNUM": 5.8,
                "FLRNUM": 0.0,
                "GBNUM": 0.0,
                "MBNUM": 0.0,
                "LWPD": 7.62,
                "SWPD": 6.13,
                "CWPD": 14.04,
                "LWAD": 675.4,
                "SWAD": 542.7,
                "PWAD": 25.4,
                "CWAD": 1243.5,
                "LAID_LAB": 0.803,
                "CHTD": 0.43,
                "CWID": 0.32,
                "LAID_FLD": 0.72
            },
            "_id": "6849d8308ac54758047f7173",
            "paid": "6849d8308ac54758047f7173"
        },
        {
            "type": "Feature",
            "geometry": {
                "type": "Polygon",
                "coordinates": [
                    [
                        [
                            -111.97628773,
                            33.07847801
                        ],
                        [
                            -111.9763095,
                            33.07847811
                        ],
                        [
                            -111.97630489,
                            33.07913652
                        ],
                        [
                            -111.97628312,
                            33.07913641
                        ],
                        [
                            -111.97628773,
                            33.07847801
                        ]
                    ]
                ]
            },
            "properties": {
                "pa_label": "p06S-S1",
                "PSDATE": "06/24/2014",
                "SQRNUM": 5.4,
                "FLRNUM": 0.0,
                "GBNUM": 0.0,
                "MBNUM": 0.0,
                "LWPD": 7.18,
                "SWPD": 6.31,
                "CWPD": 13.82,
                "LWAD": 565.6,
                "SWAD": 497.0,
                "PWAD": 25.4,
                "CWAD": 1088.0,
                "LAID_LAB": 0.714,
                "CHTD": 0.49,
                "CWID": 0.38,
                "LAID_FLD": 0.67
            },
            "_id": "6849d8308ac54758047f7174",
            "paid": "6849d8308ac54758047f7174"
        },
        {
            "type": "Feature",
            "geometry": {
                "type": "Polygon",
                "coordinates": [
                    [
                        [
                            -111.97657958,
                            33.07913784
                        ],
                        [
                            -111.97660135,
                            33.07913795
                        ],
                        [
                            -111.97659675,
                            33.07979635
                        ],
                        [
                            -111.97657498,
                            33.07979625
                        ],
                        [
                            -111.97657958,
                            33.07913784
                        ]
                    ]
                ]
            },
            "properties": {
                "pa_label": "p07N-S1",
                "PSDATE": "06/24/2014",
                "SQRNUM": 9.9,
                "FLRNUM": 0.0,
                "GBNUM": 0.0,
                "MBNUM": 0.0,
                "LWPD": 8.33,
                "SWPD": 6.97,
                "CWPD": 15.83,
                "LWAD": 574.0,
                "SWAD": 480.2,
                "PWAD": 36.4,
                "CWAD": 1090.6,
                "LAID_LAB": 0.722,
                "CHTD": 0.43,
                "CWID": 0.34,
                "LAID_FLD": 0.91
            },
            "_id": "6849d8308ac54758047f7175",
            "paid": "6849d8308ac54758047f7175"
        },
        {
            "type": "Feature",
            "geometry": {
                "type": "Polygon",
                "coordinates": [
                    [
                        [
                            -111.97658419,
                            33.07847944
                        ],
                        [
                            -111.97660596,
                            33.07847955
                        ],
                        [
                            -111.97660135,
                            33.07913795
                        ],
                        [
                            -111.97657958,
                            33.07913784
                        ],
                        [
                            -111.97658419,
                            33.07847944
                        ]
                    ]
                ]
            },
            "properties": {
                "pa_label": "p07S-S1",
                "PSDATE": "06/24/2014",
                "SQRNUM": 2.8,
                "FLRNUM": 0.0,
                "GBNUM": 0.0,
                "MBNUM": 0.0,
                "LWPD": 8.14,
                "SWPD": 7.17,
                "CWPD": 15.45,
                "LWAD": 720.8,
                "SWAD": 635.4,
                "PWAD": 12.6,
                "CWAD": 1368.8,
                "LAID_LAB": 1.305,
                "CHTD": 0.51,
                "CWID": 0.47,
                "LAID_FLD": 0.8
            },
            "_id": "6849d8308ac54758047f7176",
            "paid": "6849d8308ac54758047f7176"
        },
        {
            "type": "Feature",
            "geometry": {
                "type": "Polygon",
                "coordinates": [
                    [
                        [
                            -111.97749305,
                            33.07914238
                        ],
                        [
                            -111.97751481,
                            33.07914249
                        ],
                        [
                            -111.97751022,
                            33.07980089
                        ],
                        [
                            -111.97748845,
                            33.07980078
                        ],
                        [
                            -111.97749305,
                            33.07914238
                        ]
                    ]
                ]
            },
            "properties": {
                "pa_label": "p10N-S1",
                "PSDATE": "06/24/2014",
                "SQRNUM": 5.5,
                "FLRNUM": 0.0,
                "GBNUM": 0.0,
                "MBNUM": 0.0,
                "LWPD": 6.76,
                "SWPD": 6.32,
                "CWPD": 13.34,
                "LWAD": 532.4,
                "SWAD": 497.6,
                "PWAD": 20.4,
                "CWAD": 1050.4,
                "LAID_LAB": 0.702,
                "CHTD": 0.47,
                "CWID": 0.38,
                "LAID_FLD": 0.96
            },
            "_id": "6849d8308ac54758047f7177",
            "paid": "6849d8308ac54758047f7177"
        },
        {
            "type": "Feature",
            "geometry": {
                "type": "Polygon",
                "coordinates": [
                    [
                        [
                            -111.97749764,
                            33.07848398
                        ],
                        [
                            -111.97751941,
                            33.07848409
                        ],
                        [
                            -111.97751481,
                            33.07914249
                        ],
                        [
                            -111.97749305,
                            33.07914238
                        ],
                        [
                            -111.97749764,
                            33.07848398
                        ]
                    ]
                ]
            },
            "properties": {
                "pa_label": "p10S-S1",
                "PSDATE": "06/24/2014",
                "SQRNUM": 3.1,
                "FLRNUM": 0.1,
                "GBNUM": 0.0,
                "MBNUM": 0.0,
                "LWPD": 5.41,
                "SWPD": 4.78,
                "CWPD": 10.39,
                "LWAD": 851.3,
                "SWAD": 753.0,
                "PWAD": 31.4,
                "CWAD": 1635.6,
                "LAID_LAB": 0.823,
                "CHTD": 0.49,
                "CWID": 0.39,
                "LAID_FLD": 1.09
            },
            "_id": "6849d8308ac54758047f7178",
            "paid": "6849d8308ac54758047f7178"
        },
        {
            "type": "Feature",
            "geometry": {
                "type": "Polygon",
                "coordinates": [
                    [
                        [
                            -111.97840642,
                            33.07914691
                        ],
                        [
                            -111.97842819,
                            33.07914702
                        ],
                        [
                            -111.97842359,
                            33.07980542
                        ],
                        [
                            -111.97840182,
                            33.07980531
                        ],
                        [
                            -111.97840642,
                            33.07914691
                        ]
                    ]
                ]
            },
            "properties": {
                "pa_label": "p11N-S1",
                "PSDATE": "06/24/2014",
                "SQRNUM": 2.7,
                "FLRNUM": 0.0,
                "GBNUM": 0.0,
                "MBNUM": 0.0,
                "LWPD": 5.83,
                "SWPD": 4.69,
                "CWPD": 10.75,
                "LWAD": 631.4,
                "SWAD": 507.9,
                "PWAD": 24.5,
                "CWAD": 1163.8,
                "LAID_LAB": 0.73,
                "CHTD": 0.4,
                "CWID": 0.34,
                "LAID_FLD": 0.66
            },
            "_id": "6849d8308ac54758047f7179",
            "paid": "6849d8308ac54758047f7179"
        },
        {
            "type": "Feature",
            "geometry": {
                "type": "Polygon",
                "coordinates": [
                    [
                        [
                            -111.97841101,
                            33.07848851
                        ],
                        [
                            -111.97843278,
                            33.07848862
                        ],
                        [
                            -111.97842819,
                            33.07914702
                        ],
                        [
                            -111.97840642,
                            33.07914691
                        ],
                        [
                            -111.97841101,
                            33.07848851
                        ]
                    ]
                ]
            },
            "properties": {
                "pa_label": "p11S-S1",
                "PSDATE": "06/24/2014",
                "SQRNUM": 1.6,
                "FLRNUM": 0.0,
                "GBNUM": 0.0,
                "MBNUM": 0.0,
                "LWPD": 4.74,
                "SWPD": 4.17,
                "CWPD": 9.02,
                "LWAD": 793.4,
                "SWAD": 697.9,
                "PWAD": 18.6,
                "CWAD": 1509.9,
                "LAID_LAB": 1.079,
                "CHTD": 0.41,
                "CWID": 0.32,
                "LAID_FLD": 0.94
            },
            "_id": "6849d8308ac54758047f717a",
            "paid": "6849d8308ac54758047f717a"
        },
        {
            "type": "Feature",
            "geometry": {
                "type": "Polygon",
                "coordinates": [
                    [
                        [
                            -111.97476722,
                            33.07912892
                        ],
                        [
                            -111.97478899,
                            33.07912902
                        ],
                        [
                            -111.97478437,
                            33.07978742
                        ],
                        [
                            -111.9747626,
                            33.07978732
                        ],
                        [
                            -111.97476722,
                            33.07912892
                        ]
                    ]
                ]
            },
            "properties": {
                "pa_label": "p01N-S2",
                "PSDATE": "07/22/2014",
                "SQRNUM": 19.1,
                "FLRNUM": 1.6,
                "GBNUM": 13.9,
                "MBNUM": 0.0,
                "LWPD": 25.63,
                "SWPD": 26.88,
                "CWPD": 71.88,
                "LWAD": 1765.9,
                "SWAD": 1851.8,
                "PWAD": 1334.4,
                "CWAD": 4952.1,
                "LAID_LAB": 2.408,
                "CHTD": 0.69,
                "CWID": 0.69,
                "LAID_FLD": 2.36
            },
            "_id": "6849d8308ac54758047f717b",
            "paid": "6849d8308ac54758047f717b"
        },
        {
            "type": "Feature",
            "geometry": {
                "type": "Polygon",
                "coordinates": [
                    [
                        [
                            -111.97477184,
                            33.07847051
                        ],
                        [
                            -111.97479361,
                            33.07847062
                        ],
                        [
                            -111.97478899,
                            33.07912902
                        ],
                        [
                            -111.97476722,
                            33.07912892
                        ],
                        [
                            -111.97477184,
                            33.07847051
                        ]
                    ]
                ]
            },
            "properties": {
                "pa_label": "p01S-S2",
                "PSDATE": "07/22/2014",
                "SQRNUM": 13.2,
                "FLRNUM": 2.0,
                "GBNUM": 15.4,
                "MBNUM": 0.0,
                "LWPD": 19.8,
                "SWPD": 20.5,
                "CWPD": 57.05,
                "LWAD": 1559.4,
                "SWAD": 1614.1,
                "PWAD": 1318.5,
                "CWAD": 4491.9,
                "LAID_LAB": 2.259,
                "CHTD": 0.69,
                "CWID": 0.69,
                "LAID_FLD": 2.16
            },
            "_id": "6849d8308ac54758047f717c",
            "paid": "6849d8308ac54758047f717c"
        },
        {
            "type": "Feature",
            "geometry": {
                "type": "Polygon",
                "coordinates": [
                    [
                        [
                            -111.97507198,
                            33.07913043
                        ],
                        [
                            -111.97509375,
                            33.07913054
                        ],
                        [
                            -111.97508914,
                            33.07978894
                        ],
                        [
                            -111.97506737,
                            33.07978883
                        ],
                        [
                            -111.97507198,
                            33.07913043
                        ]
                    ]
                ]
            },
            "properties": {
                "pa_label": "p02N-S2",
                "PSDATE": "07/22/2014",
                "SQRNUM": 30.1,
                "FLRNUM": 1.3,
                "GBNUM": 33.1,
                "MBNUM": 0.0,
                "LWPD": 45.87,
                "SWPD": 64.61,
                "CWPD": 142.37,
                "LWAD": 3160.2,
                "SWAD": 4451.8,
                "PWAD": 2196.8,
                "CWAD": 9808.8,
                "LAID_LAB": 5.214,
                "CHTD": 0.96,
                "CWID": 0.83,
                "LAID_FLD": 4.33
            },
            "_id": "6849d8308ac54758047f717d",
            "paid": "6849d8308ac54758047f717d"
        },
        {
            "type": "Feature",
            "geometry": {
                "type": "Polygon",
                "coordinates": [
                    [
                        [
                            -111.9750766,
                            33.07847203
                        ],
                        [
                            -111.97509837,
                            33.07847214
                        ],
                        [
                            -111.97509375,
                            33.07913054
                        ],
                        [
                            -111.97507198,
                            33.07913043
                        ],
                        [
                            -111.9750766,
                            33.07847203
                        ]
                    ]
                ]
            },
            "properties": {
                "pa_label": "p02S-S2",
                "PSDATE": "07/22/2014",
                "SQRNUM": 10.2,
                "FLRNUM": 0.5,
                "GBNUM": 20.8,
                "MBNUM": 0.0,
                "LWPD": 26.74,
                "SWPD": 36.72,
                "CWPD": 84.73,
                "LWAD": 2895.4,
                "SWAD": 3975.1,
                "PWAD": 2302.6,
                "CWAD": 9173.0,
                "LAID_LAB": 4.676,
                "CHTD": 1.06,
                "CWID": 0.88,
                "LAID_FLD": 4.57
            },
            "_id": "6849d8308ac54758047f717e",
            "paid": "6849d8308ac54758047f717e"
        },
        {
            "type": "Feature",
            "geometry": {
                "type": "Polygon",
                "coordinates": [
                    [
                        [
                            -111.97537675,
                            33.07913195
                        ],
                        [
                            -111.97539852,
                            33.07913205
                        ],
                        [
                            -111.9753939,
                            33.07979045
                        ],
                        [
                            -111.97537214,
                            33.07979035
                        ],
                        [
                            -111.97537675,
                            33.07913195
                        ]
                    ]
                ]
            },
            "properties": {
                "pa_label": "p03N-S2",
                "PSDATE": "07/22/2014",
                "SQRNUM": 12.6,
                "FLRNUM": 1.2,
                "GBNUM": 7.7,
                "MBNUM": 0.0,
                "LWPD": 19.91,
                "SWPD": 28.16,
                "CWPD": 53.9,
                "LWAD": 2351.0,
                "SWAD": 3326.0,
                "PWAD": 689.3,
                "CWAD": 6366.2,
                "LAID_LAB": 4.214,
                "CHTD": 1.11,
                "CWID": 0.85,
                "LAID_FLD": 4.76
            },
            "_id": "6849d8308ac54758047f717f",
            "paid": "6849d8308ac54758047f717f"
        },
        {
            "type": "Feature",
            "geometry": {
                "type": "Polygon",
                "coordinates": [
                    [
                        [
                            -111.97538137,
                            33.07847354
                        ],
                        [
                            -111.97540313,
                            33.07847365
                        ],
                        [
                            -111.97539852,
                            33.07913205
                        ],
                        [
                            -111.97537675,
                            33.07913195
                        ],
                        [
                            -111.97538137,
                            33.07847354
                        ]
                    ]
                ]
            },
            "properties": {
                "pa_label": "p03S-S2",
                "PSDATE": "07/22/2014",
                "SQRNUM": 17.3,
                "FLRNUM": 2.7,
                "GBNUM": 18.5,
                "MBNUM": 0.0,
                "LWPD": 30.48,
                "SWPD": 35.35,
                "CWPD": 83.97,
                "LWAD": 2999.5,
                "SWAD": 3479.4,
                "PWAD": 1785.8,
                "CWAD": 8264.8,
                "LAID_LAB": 5.493,
                "CHTD": 1.1,
                "CWID": 0.81,
                "LAID_FLD": 5.23
            },
            "_id": "6849d8308ac54758047f7180",
            "paid": "6849d8308ac54758047f7180"
        },
        {
            "type": "Feature",
            "geometry": {
                "type": "Polygon",
                "coordinates": [
                    [
                        [
                            -111.97628312,
                            33.07913641
                        ],
                        [
                            -111.97630489,
                            33.07913652
                        ],
                        [
                            -111.97630028,
                            33.07979492
                        ],
                        [
                            -111.97627852,
                            33.07979481
                        ],
                        [
                            -111.97628312,
                            33.07913641
                        ]
                    ]
                ]
            },
            "properties": {
                "pa_label": "p06N-S2",
                "PSDATE": "07/22/2014",
                "SQRNUM": 7.6,
                "FLRNUM": 0.7,
                "GBNUM": 9.7,
                "MBNUM": 0.0,
                "LWPD": 15.43,
                "SWPD": 17.65,
                "CWPD": 42.8,
                "LWAD": 1974.2,
                "SWAD": 2259.0,
                "PWAD": 1242.8,
                "CWAD": 5476.0,
                "LAID_LAB": 1.976,
                "CHTD": 0.8,
                "CWID": 0.69,
                "LAID_FLD": 2.51
            },
            "_id": "6849d8308ac54758047f7181",
            "paid": "6849d8308ac54758047f7181"
        },
        {
            "type": "Feature",
            "geometry": {
                "type": "Polygon",
                "coordinates": [
                    [
                        [
                            -111.97628773,
                            33.07847801
                        ],
                        [
                            -111.9763095,
                            33.07847811
                        ],
                        [
                            -111.97630489,
                            33.07913652
                        ],
                        [
                            -111.97628312,
                            33.07913641
                        ],
                        [
                            -111.97628773,
                            33.07847801
                        ]
                    ]
                ]
            },
            "properties": {
                "pa_label": "p06S-S2",
                "PSDATE": "07/22/2014",
                "SQRNUM": 12.0,
                "FLRNUM": 1.2,
                "GBNUM": 16.0,
                "MBNUM": 0.0,
                "LWPD": 22.03,
                "SWPD": 25.64,
                "CWPD": 61.66,
                "LWAD": 1734.5,
                "SWAD": 2018.9,
                "PWAD": 1101.3,
                "CWAD": 4854.7,
                "LAID_LAB": 2.132,
                "CHTD": 0.8,
                "CWID": 0.64,
                "LAID_FLD": 2.39
            },
            "_id": "6849d8308ac54758047f7182",
            "paid": "6849d8308ac54758047f7182"
        },
        {
            "type": "Feature",
            "geometry": {
                "type": "Polygon",
                "coordinates": [
                    [
                        [
                            -111.97657958,
                            33.07913784
                        ],
                        [
                            -111.97660135,
                            33.07913795
                        ],
                        [
                            -111.97659675,
                            33.07979635
                        ],
                        [
                            -111.97657498,
                            33.07979625
                        ],
                        [
                            -111.97657958,
                            33.07913784
                        ]
                    ]
                ]
            },
            "properties": {
                "pa_label": "p07N-S2",
                "PSDATE": "07/22/2014",
                "SQRNUM": 13.5,
                "FLRNUM": 1.1,
                "GBNUM": 10.4,
                "MBNUM": 0.0,
                "LWPD": 23.94,
                "SWPD": 30.79,
                "CWPD": 64.24,
                "LWAD": 3063.5,
                "SWAD": 3939.1,
                "PWAD": 1216.7,
                "CWAD": 8219.3,
                "LAID_LAB": 5.451,
                "CHTD": 1.08,
                "CWID": 0.91,
                "LAID_FLD": 4.85
            },
            "_id": "6849d8308ac54758047f7183",
            "paid": "6849d8308ac54758047f7183"
        },
        {
            "type": "Feature",
            "geometry": {
                "type": "Polygon",
                "coordinates": [
                    [
                        [
                            -111.97658419,
                            33.07847944
                        ],
                        [
                            -111.97660596,
                            33.07847955
                        ],
                        [
                            -111.97660135,
                            33.07913795
                        ],
                        [
                            -111.97657958,
                            33.07913784
                        ],
                        [
                            -111.97658419,
                            33.07847944
                        ]
                    ]
                ]
            },
            "properties": {
                "pa_label": "p07S-S2",
                "PSDATE": "07/22/2014",
                "SQRNUM": 15.5,
                "FLRNUM": 0.6,
                "GBNUM": 12.4,
                "MBNUM": 0.0,
                "LWPD": 25.79,
                "SWPD": 34.72,
                "CWPD": 70.02,
                "LWAD": 2538.8,
                "SWAD": 3417.4,
                "PWAD": 935.5,
                "CWAD": 6891.7,
                "LAID_LAB": 4.655,
                "CHTD": 1.13,
                "CWID": 0.88,
                "LAID_FLD": 5.11
            },
            "_id": "6849d8308ac54758047f7184",
            "paid": "6849d8308ac54758047f7184"
        },
        {
            "type": "Feature",
            "geometry": {
                "type": "Polygon",
                "coordinates": [
                    [
                        [
                            -111.97749305,
                            33.07914238
                        ],
                        [
                            -111.97751481,
                            33.07914249
                        ],
                        [
                            -111.97751022,
                            33.07980089
                        ],
                        [
                            -111.97748845,
                            33.07980078
                        ],
                        [
                            -111.97749305,
                            33.07914238
                        ]
                    ]
                ]
            },
            "properties": {
                "pa_label": "p10N-S2",
                "PSDATE": "07/22/2014",
                "SQRNUM": 11.3,
                "FLRNUM": 1.5,
                "GBNUM": 10.4,
                "MBNUM": 0.0,
                "LWPD": 22.59,
                "SWPD": 29.64,
                "CWPD": 62.95,
                "LWAD": 2223.1,
                "SWAD": 2916.9,
                "PWAD": 1056.2,
                "CWAD": 6196.3,
                "LAID_LAB": 3.301,
                "CHTD": 0.96,
                "CWID": 0.69,
                "LAID_FLD": 4.27
            },
            "_id": "6849d8308ac54758047f7185",
            "paid": "6849d8308ac54758047f7185"
        },
        {
            "type": "Feature",
            "geometry": {
                "type": "Polygon",
                "coordinates": [
                    [
                        [
                            -111.97749764,
                            33.07848398
                        ],
                        [
                            -111.97751941,
                            33.07848409
                        ],
                        [
                            -111.97751481,
                            33.07914249
                        ],
                        [
                            -111.97749305,
                            33.07914238
                        ],
                        [
                            -111.97749764,
                            33.07848398
                        ]
                    ]
                ]
            },
            "properties": {
                "pa_label": "p10S-S2",
                "PSDATE": "07/22/2014",
                "SQRNUM": 9.6,
                "FLRNUM": 1.2,
                "GBNUM": 11.4,
                "MBNUM": 0.0,
                "LWPD": 18.53,
                "SWPD": 23.81,
                "CWPD": 50.83,
                "LWAD": 2917.5,
                "SWAD": 3750.0,
                "PWAD": 1337.9,
                "CWAD": 8005.4,
                "LAID_LAB": 4.903,
                "CHTD": 1.03,
                "CWID": 0.86,
                "LAID_FLD": 5.12
            },
            "_id": "6849d8308ac54758047f7186",
            "paid": "6849d8308ac54758047f7186"
        },
        {
            "type": "Feature",
            "geometry": {
                "type": "Polygon",
                "coordinates": [
                    [
                        [
                            -111.97840642,
                            33.07914691
                        ],
                        [
                            -111.97842819,
                            33.07914702
                        ],
                        [
                            -111.97842359,
                            33.07980542
                        ],
                        [
                            -111.97840182,
                            33.07980531
                        ],
                        [
                            -111.97840642,
                            33.07914691
                        ]
                    ]
                ]
            },
            "properties": {
                "pa_label": "p11N-S2",
                "PSDATE": "07/22/2014",
                "SQRNUM": 8.0,
                "FLRNUM": 0.4,
                "GBNUM": 5.2,
                "MBNUM": 0.0,
                "LWPD": 15.03,
                "SWPD": 19.92,
                "CWPD": 39.7,
                "LWAD": 2810.2,
                "SWAD": 3726.1,
                "PWAD": 887.5,
                "CWAD": 7423.8,
                "LAID_LAB": 4.438,
                "CHTD": 0.97,
                "CWID": 0.71,
                "LAID_FLD": 4.66
            },
            "_id": "6849d8308ac54758047f7187",
            "paid": "6849d8308ac54758047f7187"
        },
        {
            "type": "Feature",
            "geometry": {
                "type": "Polygon",
                "coordinates": [
                    [
                        [
                            -111.97841101,
                            33.07848851
                        ],
                        [
                            -111.97843278,
                            33.07848862
                        ],
                        [
                            -111.97842819,
                            33.07914702
                        ],
                        [
                            -111.97840642,
                            33.07914691
                        ],
                        [
                            -111.97841101,
                            33.07848851
                        ]
                    ]
                ]
            },
            "properties": {
                "pa_label": "p11S-S2",
                "PSDATE": "07/22/2014",
                "SQRNUM": 6.1,
                "FLRNUM": 0.7,
                "GBNUM": 8.9,
                "MBNUM": 0.0,
                "LWPD": 15.24,
                "SWPD": 18.19,
                "CWPD": 40.32,
                "LWAD": 2250.5,
                "SWAD": 2684.9,
                "PWAD": 1017.4,
                "CWAD": 5952.9,
                "LAID_LAB": 7.573,
                "CHTD": 0.9,
                "CWID": 0.73,
                "LAID_FLD": 3.87
            },
            "_id": "6849d8308ac54758047f7188",
            "paid": "6849d8308ac54758047f7188"
        },
        {
            "type": "Feature",
            "geometry": {
                "type": "Polygon",
                "coordinates": [
                    [
                        [
                            -111.97476722,
                            33.07912892
                        ],
                        [
                            -111.97478899,
                            33.07912902
                        ],
                        [
                            -111.97478437,
                            33.07978742
                        ],
                        [
                            -111.9747626,
                            33.07978732
                        ],
                        [
                            -111.97476722,
                            33.07912892
                        ]
                    ]
                ]
            },
            "properties": {
                "pa_label": "p01N-S3",
                "PSDATE": "08/17/2014",
                "SQRNUM": 1.1,
                "FLRNUM": 0.0,
                "GBNUM": 9.1,
                "MBNUM": 3.2,
                "LWPD": 30.42,
                "SWPD": 36.18,
                "CWPD": 114.4,
                "LWAD": 2395.5,
                "SWAD": 2849.0,
                "PWAD": 3763.2,
                "CWAD": 9007.7,
                "LAID_LAB": 3.194,
                "SDPB": 27.9,
                "BBFRAC": 0.223,
                "BSFRAC": 0.452,
                "BFFRAC": 0.325,
                "CHTD": 0.73,
                "CWID": 0.61,
                "LAID_FLD": 1.95
            },
            "_id": "6849d8308ac54758047f7189",
            "paid": "6849d8308ac54758047f7189"
        },
        {
            "type": "Feature",
            "geometry": {
                "type": "Polygon",
                "coordinates": [
                    [
                        [
                            -111.97507198,
                            33.07913043
                        ],
                        [
                            -111.97509375,
                            33.07913054
                        ],
                        [
                            -111.97508914,
                            33.07978894
                        ],
                        [
                            -111.97506737,
                            33.07978883
                        ],
                        [
                            -111.97507198,
                            33.07913043
                        ]
                    ]
                ]
            },
            "properties": {
                "pa_label": "p02N-S3",
                "PSDATE": "08/17/2014",
                "SQRNUM": 0.2,
                "FLRNUM": 0.0,
                "GBNUM": 19.7,
                "MBNUM": 0.8,
                "LWPD": 35.44,
                "SWPD": 48.05,
                "CWPD": 162.9,
                "LWAD": 3139.2,
                "SWAD": 4256.0,
                "PWAD": 7035.2,
                "CWAD": 14430.4,
                "LAID_LAB": 5.238,
                "SDPB": 37.1,
                "BBFRAC": 0.19,
                "BSFRAC": 0.479,
                "BFFRAC": 0.331,
                "CHTD": 0.97,
                "CWID": 1.02,
                "LAID_FLD": 4.66
            },
            "_id": "6849d8308ac54758047f718a",
            "paid": "6849d8308ac54758047f718a"
        },
        {
            "type": "Feature",
            "geometry": {
                "type": "Polygon",
                "coordinates": [
                    [
                        [
                            -111.97537675,
                            33.07913195
                        ],
                        [
                            -111.97539852,
                            33.07913205
                        ],
                        [
                            -111.9753939,
                            33.07979045
                        ],
                        [
                            -111.97537214,
                            33.07979035
                        ],
                        [
                            -111.97537675,
                            33.07913195
                        ]
                    ]
                ]
            },
            "properties": {
                "pa_label": "p03N-S3",
                "PSDATE": "08/17/2014",
                "SQRNUM": 2.5,
                "FLRNUM": 0.0,
                "GBNUM": 14.5,
                "MBNUM": 0.7,
                "LWPD": 22.07,
                "SWPD": 28.07,
                "CWPD": 89.26,
                "LWAD": 2824.5,
                "SWAD": 3591.1,
                "PWAD": 5005.4,
                "CWAD": 11421.1,
                "LAID_LAB": 4.583,
                "SDPB": 58.2,
                "BBFRAC": 0.185,
                "BSFRAC": 0.468,
                "BFFRAC": 0.347,
                "CHTD": 0.95,
                "CWID": 1.02,
                "LAID_FLD": 4.75
            },
            "_id": "6849d8308ac54758047f718b",
            "paid": "6849d8308ac54758047f718b"
        },
        {
            "type": "Feature",
            "geometry": {
                "type": "Polygon",
                "coordinates": [
                    [
                        [
                            -111.97628312,
                            33.07913641
                        ],
                        [
                            -111.97630489,
                            33.07913652
                        ],
                        [
                            -111.97630028,
                            33.07979492
                        ],
                        [
                            -111.97627852,
                            33.07979481
                        ],
                        [
                            -111.97628312,
                            33.07913641
                        ]
                    ]
                ]
            },
            "properties": {
                "pa_label": "p06N-S3",
                "PSDATE": "08/17/2014",
                "SQRNUM": 1.3,
                "FLRNUM": 0.0,
                "GBNUM": 5.8,
                "MBNUM": 1.9,
                "LWPD": 24.6,
                "SWPD": 28.01,
                "CWPD": 91.9,
                "LWAD": 2420.9,
                "SWAD": 2756.7,
                "PWAD": 3867.6,
                "CWAD": 9045.2,
                "LAID_LAB": 3.258,
                "SDPB": 30.1,
                "BBFRAC": 0.218,
                "BSFRAC": 0.457,
                "BFFRAC": 0.325,
                "CHTD": 0.78,
                "CWID": 0.79,
                "LAID_FLD": 2.36
            },
            "_id": "6849d8308ac54758047f718c",
            "paid": "6849d8308ac54758047f718c"
        },
        {
            "type": "Feature",
            "geometry": {
                "type": "Polygon",
                "coordinates": [
                    [
                        [
                            -111.97657958,
                            33.07913784
                        ],
                        [
                            -111.97660135,
                            33.07913795
                        ],
                        [
                            -111.97659675,
                            33.07979635
                        ],
                        [
                            -111.97657498,
                            33.07979625
                        ],
                        [
                            -111.97657958,
                            33.07913784
                        ]
                    ]
                ]
            },
            "properties": {
                "pa_label": "p07N-S3",
                "PSDATE": "08/17/2014",
                "SQRNUM": 0.7,
                "FLRNUM": 0.0,
                "GBNUM": 16.7,
                "MBNUM": 1.0,
                "LWPD": 28.52,
                "SWPD": 36.52,
                "CWPD": 127.77,
                "LWAD": 3368.6,
                "SWAD": 4313.2,
                "PWAD": 7409.1,
                "CWAD": 15090.8,
                "LAID_LAB": 5.826,
                "SDPB": 27.8,
                "BBFRAC": 0.204,
                "BSFRAC": 0.46,
                "BFFRAC": 0.335,
                "CHTD": 1.06,
                "CWID": 1.02,
                "LAID_FLD": 5.26
            },
            "_id": "6849d8308ac54758047f718d",
            "paid": "6849d8308ac54758047f718d"
        },
        {
            "type": "Feature",
            "geometry": {
                "type": "Polygon",
                "coordinates": [
                    [
                        [
                            -111.97749305,
                            33.07914238
                        ],
                        [
                            -111.97751481,
                            33.07914249
                        ],
                        [
                            -111.97751022,
                            33.07980089
                        ],
                        [
                            -111.97748845,
                            33.07980078
                        ],
                        [
                            -111.97749305,
                            33.07914238
                        ]
                    ]
                ]
            },
            "properties": {
                "pa_label": "p10N-S3",
                "PSDATE": "08/17/2014",
                "SQRNUM": 1.2,
                "FLRNUM": 0.0,
                "GBNUM": 11.9,
                "MBNUM": 0.5,
                "LWPD": 20.85,
                "SWPD": 27.93,
                "CWPD": 90.39,
                "LWAD": 2872.5,
                "SWAD": 3848.8,
                "PWAD": 5734.3,
                "CWAD": 12455.6,
                "LAID_LAB": 5.024,
                "SDPB": 26.1,
                "BBFRAC": 0.205,
                "BSFRAC": 0.462,
                "BFFRAC": 0.333,
                "CHTD": 0.94,
                "CWID": 1.02,
                "LAID_FLD": 4.92
            },
            "_id": "6849d8308ac54758047f718e",
            "paid": "6849d8308ac54758047f718e"
        },
        {
            "type": "Feature",
            "geometry": {
                "type": "Polygon",
                "coordinates": [
                    [
                        [
                            -111.97840642,
                            33.07914691
                        ],
                        [
                            -111.97842819,
                            33.07914702
                        ],
                        [
                            -111.97842359,
                            33.07980542
                        ],
                        [
                            -111.97840182,
                            33.07980531
                        ],
                        [
                            -111.97840642,
                            33.07914691
                        ]
                    ]
                ]
            },
            "properties": {
                "pa_label": "p11N-S3",
                "PSDATE": "08/17/2014",
                "SQRNUM": 1.1,
                "FLRNUM": 0.0,
                "GBNUM": 8.4,
                "MBNUM": 0.6,
                "LWPD": 16.0,
                "SWPD": 21.64,
                "CWPD": 62.62,
                "LWAD": 2676.6,
                "SWAD": 3620.6,
                "PWAD": 4180.9,
                "CWAD": 10478.1,
                "LAID_LAB": 4.109,
                "SDPB": 28.2,
                "BBFRAC": 0.195,
                "BSFRAC": 0.48,
                "BFFRAC": 0.325,
                "CHTD": 0.91,
                "CWID": 1.02,
                "LAID_FLD": 4.64
            },
            "_id": "6849d8308ac54758047f718f",
            "paid": "6849d8308ac54758047f718f"
        }
    ]
}