{
    "type": "FeatureCollection",
    "features": [
        {
            "type": "Feature",
            "geometry": {
                "type": "Polygon",
                "coordinates": [
                    [
                        [
                            -111.9747102,
                            33.07991942
                        ],
                        [
                            -111.97472066,
                            33.0784289
                        ],
                        [
                            -111.97491658,
                            33.07842988
                        ],
                        [
                            -111.97490613,
                            33.0799204
                        ],
                        [
                            -111.9747102,
                            33.07991942
                        ]
                    ]
                ]
            },
            "properties": {
                "plt_label": "p01",
                "trt_label": "Stress",
                "PLT_AREA": 3022.303732,
                "CUL_NAME": "Deltapine 1044 B2RF",
                "PDATE": "05/02/2014",
                "IRVAL": {
                    "2014104": 13.4,
                    "2014105": 20.1,
                    "2014106": 20.1,
                    "2014107": 26.6,
                    "2014108": 13.3,
                    "2014109": 13.3,
                    "2014126": 10.1,
                    "2014129": 3.4,
                    "2014134": 13.3,
                    "2014139": 6.7,
                    "2014147": 3.4,
                    "2014148": 6.8,
                    "2014149": 13.3,
                    "2014150": 8.9,
                    "2014155": 9.0,
                    "2014156": 13.4,
                    "2014157": 8.9,
                    "2014162": 8.9,
                    "2014163": 8.9,
                    "2014164": 8.9,
                    "2014165": 4.5,
                    "2014169": 8.9,
                    "2014170": 8.9,
                    "2014171": 8.9,
                    "2014175": 4.5,
                    "2014176": 8.9,
                    "2014177": 8.9,
                    "2014178": 8.9,
                    "2014182": 8.9,
                    "2014183": 8.9,
                    "2014184": 13.4,
                    "2014189": 4.5,
                    "2014190": 4.5,
                    "2014196": 4.5,
                    "2014197": 8.9,
                    "2014198": 13.4,
                    "2014203": 4.5,
                    "2014204": 13.4,
                    "2014205": 13.4,
                    "2014206": 4.5,
                    "2014210": 4.5,
                    "2014211": 13.4,
                    "2014212": 13.4,
                    "2014213": 4.5,
                    "2014217": 4.5,
                    "2014218": 8.9,
                    "2014219": 8.9,
                    "2014220": 8.9,
                    "2014226": 8.9,
                    "2014227": 8.9,
                    "2014231": 8.9,
                    "2014232": 8.9,
                    "2014233": 8.9,
                    "2014234": 4.5,
                    "2014238": 4.5,
                    "2014239": 8.9,
                    "2014240": 8.9,
                    "2014241": 8.9,
                    "2014246": 8.9,
                    "2014247": 8.9
                },
                "HARM": "Machine",
                "HADAT": "11/12/2014",
                "WBWAH": 4159.1,
                "BWCAH": 6.76,
                "DBWAH": 3878.0,
                "GNDAT": "11/14/2014",
                "FFRAC": 0.2977,
                "SFRAC": 0.4806,
                "TFRAC": 0.2217,
                "WFWAH": 1238.0,
                "WSWAH": 1998.8,
                "WSCWAH": 3236.9,
                "DFWAH": 1154.4,
                "DSWAH": 1863.7,
                "DSCWAH": 3018.1,
                "haids": [
                    "6438212c8ac547ee4f6a9f75",
                    "6438212c8ac547ee4f6a9f76",
                    "6438212c8ac547ee4f6a9f77",
                    "6438212c8ac547ee4f6a9f78",
                    "6438212c8ac547ee4f6a9f79",
                    "6438212c8ac547ee4f6a9f7a",
                    "6438212c8ac547ee4f6a9f7b",
                    "6438212c8ac547ee4f6a9f7c",
                    "6438212c8ac547ee4f6a9f7d",
                    "6438212c8ac547ee4f6a9f7e",
                    "6438212c8ac547ee4f6a9f7f"
                ],
                "tids": [
                    "643825e98ac547ef8c8074f3",
                    "643825e98ac547ef8c8074f4",
                    "643825e98ac547ef8c8074f5",
                    "643825e98ac547ef8c8074f6",
                    "643825e98ac547ef8c8074f7",
                    "643825e98ac547ef8c8074f8"
                ],
                "ccids": [
                    "643828918ac547f0dd69c0c5",
                    "643828918ac547f0dd69c0c6",
                    "643828918ac547f0dd69c0c7",
                    "643828918ac547f0dd69c0c8",
                    "643828918ac547f0dd69c0c9",
                    "643828918ac547f0dd69c0ca"
                ]
            },
            "_id": "64381c2f8ac547ec9067a09b",
            "pid": "64381c2f8ac547ec9067a09b"
        },
        {
            "type": "Feature",
            "geometry": {
                "type": "Polygon",
                "coordinates": [
                    [
                        [
                            -111.97494966,
                            33.07992062
                        ],
                        [
                            -111.97496012,
                            33.0784301
                        ],
                        [
                            -111.97522135,
                            33.0784314
                        ],
                        [
                            -111.9752109,
                            33.07992193
                        ],
                        [
                            -111.97494966,
                            33.07992062
                        ]
                    ]
                ]
            },
            "properties": {
                "plt_label": "p02",
                "trt_label": "FAO",
                "PLT_AREA": 4029.738309,
                "CUL_NAME": "Deltapine 1044 B2RF",
                "PDATE": "05/02/2014",
                "IRVAL": {
                    "2014104": 13.4,
                    "2014105": 20.1,
                    "2014106": 20.1,
                    "2014107": 26.6,
                    "2014108": 13.3,
                    "2014109": 13.3,
                    "2014126": 10.1,
                    "2014129": 3.4,
                    "2014134": 13.3,
                    "2014139": 6.7,
                    "2014147": 3.4,
                    "2014148": 6.8,
                    "2014149": 13.3,
                    "2014150": 13.3,
                    "2014155": 13.4,
                    "2014156": 20.0,
                    "2014157": 13.3,
                    "2014162": 13.3,
                    "2014163": 13.3,
                    "2014164": 13.4,
                    "2014165": 6.7,
                    "2014169": 13.3,
                    "2014170": 13.3,
                    "2014171": 13.3,
                    "2014175": 6.7,
                    "2014176": 13.3,
                    "2014177": 13.3,
                    "2014178": 13.3,
                    "2014182": 13.3,
                    "2014183": 13.3,
                    "2014184": 20.0,
                    "2014189": 6.7,
                    "2014190": 6.7,
                    "2014196": 6.7,
                    "2014197": 13.3,
                    "2014198": 20.0,
                    "2014203": 6.7,
                    "2014204": 20.0,
                    "2014205": 20.0,
                    "2014206": 6.7,
                    "2014210": 6.7,
                    "2014211": 20.0,
                    "2014212": 20.0,
                    "2014213": 6.7,
                    "2014217": 6.7,
                    "2014218": 13.3,
                    "2014219": 13.3,
                    "2014220": 13.3,
                    "2014226": 13.3,
                    "2014227": 13.3,
                    "2014231": 13.3,
                    "2014232": 13.3,
                    "2014233": 13.3,
                    "2014234": 6.7,
                    "2014238": 6.7,
                    "2014239": 13.3,
                    "2014240": 13.3,
                    "2014241": 13.3,
                    "2014246": 13.3,
                    "2014247": 13.3
                },
                "HARM": "Machine",
                "HADAT": "11/12/2014",
                "WBWAH": 3918.8,
                "BWCAH": 5.97,
                "DBWAH": 3684.9,
                "GNDAT": "11/14/2014",
                "FFRAC": 0.3658,
                "SFRAC": 0.5394,
                "TFRAC": 0.0948,
                "WFWAH": 1433.5,
                "WSWAH": 2113.6,
                "WSCWAH": 3547.1,
                "DFWAH": 1347.9,
                "DSWAH": 1987.4,
                "DSCWAH": 3335.4,
                "haids": [
                    "6438212c8ac547ee4f6a9f80",
                    "6438212c8ac547ee4f6a9f81",
                    "6438212c8ac547ee4f6a9f82",
                    "6438212c8ac547ee4f6a9f83",
                    "6438212c8ac547ee4f6a9f84",
                    "6438212c8ac547ee4f6a9f85",
                    "6438212c8ac547ee4f6a9f86",
                    "6438212c8ac547ee4f6a9f87",
                    "6438212c8ac547ee4f6a9f88",
                    "6438212c8ac547ee4f6a9f89",
                    "6438212c8ac547ee4f6a9f8a"
                ],
                "tids": [
                    "643825e98ac547ef8c8074f9",
                    "643825e98ac547ef8c8074fa",
                    "643825e98ac547ef8c8074fb",
                    "643825e98ac547ef8c8074fc",
                    "643825e98ac547ef8c8074fd",
                    "643825e98ac547ef8c8074fe"
                ],
                "ccids": [
                    "643828918ac547f0dd69c0cb",
                    "643828918ac547f0dd69c0cc",
                    "643828918ac547f0dd69c0cd",
                    "643828918ac547f0dd69c0ce",
                    "643828918ac547f0dd69c0cf",
                    "643828918ac547f0dd69c0d0"
                ]
            },
            "_id": "64381c2f8ac547ec9067a09c",
            "pid": "64381c2f8ac547ec9067a09c"
        },
        {
            "type": "Feature",
            "geometry": {
                "type": "Polygon",
                "coordinates": [
                    [
                        [
                            -111.97525443,
                            33.07992214
                        ],
                        [
                            -111.97526552,
                            33.07834144
                        ],
                        [
                            -111.97552674,
                            33.07834274
                        ],
                        [
                            -111.97551567,
                            33.07992345
                        ],
                        [
                            -111.97525443,
                            33.07992214
                        ]
                    ]
                ]
            },
            "properties": {
                "plt_label": "p03",
                "trt_label": "CropMod",
                "PLT_AREA": 4273.550062,
                "CUL_NAME": "Deltapine 1044 B2RF",
                "PDATE": "05/02/2014",
                "IRVAL": {
                    "2014104": 13.4,
                    "2014105": 20.1,
                    "2014106": 20.1,
                    "2014107": 26.6,
                    "2014108": 13.3,
                    "2014109": 13.3,
                    "2014126": 10.1,
                    "2014129": 3.4,
                    "2014134": 13.3,
                    "2014139": 6.7,
                    "2014147": 3.4,
                    "2014148": 6.8,
                    "2014149": 13.3,
                    "2014150": 13.3,
                    "2014155": 13.4,
                    "2014156": 13.3,
                    "2014162": 13.3,
                    "2014163": 13.3,
                    "2014164": 6.7,
                    "2014165": 6.7,
                    "2014169": 13.3,
                    "2014170": 13.3,
                    "2014171": 6.7,
                    "2014175": 6.7,
                    "2014176": 13.3,
                    "2014177": 13.3,
                    "2014178": 13.3,
                    "2014179": 13.3,
                    "2014182": 13.3,
                    "2014183": 20.0,
                    "2014184": 20.0,
                    "2014189": 6.7,
                    "2014190": 6.7,
                    "2014196": 6.7,
                    "2014197": 13.3,
                    "2014198": 20.0,
                    "2014199": 6.7,
                    "2014203": 6.7,
                    "2014204": 20.0,
                    "2014205": 20.0,
                    "2014206": 13.3,
                    "2014210": 6.7,
                    "2014211": 20.0,
                    "2014212": 20.0,
                    "2014213": 6.7,
                    "2014217": 6.7,
                    "2014218": 13.3,
                    "2014219": 13.3,
                    "2014220": 13.3,
                    "2014226": 13.3,
                    "2014227": 13.3,
                    "2014231": 13.3,
                    "2014232": 13.3,
                    "2014233": 13.3,
                    "2014234": 6.7,
                    "2014238": 6.7,
                    "2014239": 13.3,
                    "2014241": 13.3,
                    "2014246": 13.3,
                    "2014247": 13.3,
                    "2014248": 13.3
                },
                "HARM": "Machine",
                "HADAT": "11/12/2014",
                "WBWAH": 6107.4,
                "BWCAH": 5.36,
                "DBWAH": 5780.0,
                "GNDAT": "11/14/2014",
                "FFRAC": 0.3569,
                "SFRAC": 0.5474,
                "TFRAC": 0.0957,
                "WFWAH": 2179.8,
                "WSWAH": 3343.2,
                "WSCWAH": 5523.0,
                "DFWAH": 2062.9,
                "DSWAH": 3163.9,
                "DSCWAH": 5226.9,
                "haids": [
                    "6438212c8ac547ee4f6a9f8b",
                    "6438212c8ac547ee4f6a9f8c",
                    "6438212c8ac547ee4f6a9f8d",
                    "6438212c8ac547ee4f6a9f8e",
                    "6438212c8ac547ee4f6a9f8f",
                    "6438212c8ac547ee4f6a9f90",
                    "6438212c8ac547ee4f6a9f91",
                    "6438212c8ac547ee4f6a9f92",
                    "6438212c8ac547ee4f6a9f93",
                    "6438212c8ac547ee4f6a9f94",
                    "6438212c8ac547ee4f6a9f95"
                ],
                "tids": [
                    "643825e98ac547ef8c8074ff",
                    "643825e98ac547ef8c807500",
                    "643825e98ac547ef8c807501",
                    "643825e98ac547ef8c807502",
                    "643825e98ac547ef8c807503",
                    "643825e98ac547ef8c807504"
                ],
                "ccids": [
                    "643828918ac547f0dd69c0d1",
                    "643828918ac547f0dd69c0d2",
                    "643828918ac547f0dd69c0d3",
                    "643828918ac547f0dd69c0d4",
                    "643828918ac547f0dd69c0d5",
                    "643828918ac547f0dd69c0d6"
                ]
            },
            "_id": "64381c2f8ac547ec9067a09d",
            "pid": "64381c2f8ac547ec9067a09d"
        },
        {
            "type": "Feature",
            "geometry": {
                "type": "Polygon",
                "coordinates": [
                    [
                        [
                            -111.9755592,
                            33.07992366
                        ],
                        [
                            -111.97557028,
                            33.07834296
                        ],
                        [
                            -111.97583151,
                            33.07834426
                        ],
                        [
                            -111.97582043,
                            33.07992497
                        ],
                        [
                            -111.9755592,
                            33.07992366
                        ]
                    ]
                ]
            },
            "properties": {
                "plt_label": "p04",
                "trt_label": "SEB",
                "PLT_AREA": 4273.550062,
                "CUL_NAME": "Deltapine 1044 B2RF",
                "PDATE": "05/02/2014",
                "IRVAL": {
                    "2014104": 13.4,
                    "2014105": 20.1,
                    "2014106": 20.1,
                    "2014107": 26.6,
                    "2014108": 13.3,
                    "2014109": 13.3,
                    "2014126": 10.1,
                    "2014129": 3.4,
                    "2014134": 13.3,
                    "2014139": 6.7,
                    "2014147": 3.4,
                    "2014148": 6.8,
                    "2014149": 13.3,
                    "2014150": 13.3,
                    "2014155": 13.4,
                    "2014156": 20.0,
                    "2014157": 13.3,
                    "2014162": 13.3,
                    "2014163": 13.3,
                    "2014164": 13.4,
                    "2014165": 6.7,
                    "2014169": 13.3,
                    "2014170": 13.3,
                    "2014171": 13.3,
                    "2014175": 6.7,
                    "2014176": 13.3,
                    "2014177": 13.3,
                    "2014178": 13.3,
                    "2014182": 13.3,
                    "2014183": 13.3,
                    "2014184": 20.0,
                    "2014189": 6.7,
                    "2014190": 6.7,
                    "2014196": 6.7,
                    "2014197": 13.3,
                    "2014198": 20.0,
                    "2014203": 6.7,
                    "2014204": 20.0,
                    "2014205": 20.0,
                    "2014206": 6.7,
                    "2014210": 6.7,
                    "2014211": 20.0,
                    "2014212": 20.0,
                    "2014213": 6.7,
                    "2014217": 6.7,
                    "2014218": 13.3,
                    "2014219": 13.3,
                    "2014220": 13.3,
                    "2014226": 13.3,
                    "2014227": 13.3,
                    "2014231": 13.3,
                    "2014232": 13.3,
                    "2014233": 13.3,
                    "2014234": 6.7,
                    "2014238": 6.7,
                    "2014239": 13.3,
                    "2014240": 13.3,
                    "2014241": 13.3,
                    "2014246": 13.3,
                    "2014247": 13.3
                },
                "HARM": "Machine",
                "HADAT": "11/12/2014",
                "WBWAH": 4552.1,
                "BWCAH": 5.21,
                "DBWAH": 4314.8,
                "GNDAT": "11/14/2014",
                "FFRAC": 0.36,
                "SFRAC": 0.5449,
                "TFRAC": 0.0952,
                "WFWAH": 1638.6,
                "WSWAH": 2480.3,
                "WSCWAH": 4118.9,
                "DFWAH": 1553.2,
                "DSWAH": 2351.0,
                "DSCWAH": 3904.2,
                "haids": [
                    "6438212c8ac547ee4f6a9f96",
                    "6438212c8ac547ee4f6a9f97",
                    "6438212c8ac547ee4f6a9f98",
                    "6438212c8ac547ee4f6a9f99",
                    "6438212c8ac547ee4f6a9f9a",
                    "6438212c8ac547ee4f6a9f9b",
                    "6438212c8ac547ee4f6a9f9c",
                    "6438212c8ac547ee4f6a9f9d",
                    "6438212c8ac547ee4f6a9f9e",
                    "6438212c8ac547ee4f6a9f9f",
                    "6438212c8ac547ee4f6a9fa0"
                ],
                "tids": [
                    "643825e98ac547ef8c807505",
                    "643825e98ac547ef8c807506",
                    "643825e98ac547ef8c807507",
                    "643825e98ac547ef8c807508",
                    "643825e98ac547ef8c807509",
                    "643825e98ac547ef8c80750a"
                ],
                "ccids": [
                    "643828918ac547f0dd69c0d7",
                    "643828918ac547f0dd69c0d8",
                    "643828918ac547f0dd69c0d9",
                    "643828918ac547f0dd69c0da",
                    "643828918ac547f0dd69c0db",
                    "643828918ac547f0dd69c0dc"
                ]
            },
            "_id": "64381c2f8ac547ec9067a09e",
            "pid": "64381c2f8ac547ec9067a09e"
        },
        {
            "type": "Feature",
            "geometry": {
                "type": "Polygon",
                "coordinates": [
                    [
                        [
                            -111.97585309,
                            33.07992513
                        ],
                        [
                            -111.97586416,
                            33.07834442
                        ],
                        [
                            -111.97612539,
                            33.07834573
                        ],
                        [
                            -111.97611432,
                            33.07992643
                        ],
                        [
                            -111.97585309,
                            33.07992513
                        ]
                    ]
                ]
            },
            "properties": {
                "plt_label": "p05",
                "trt_label": "NDVI",
                "PLT_AREA": 4273.550062,
                "CUL_NAME": "Deltapine 1044 B2RF",
                "PDATE": "05/02/2014",
                "IRVAL": {
                    "2014104": 13.4,
                    "2014105": 20.1,
                    "2014106": 20.1,
                    "2014107": 26.6,
                    "2014108": 13.3,
                    "2014109": 13.3,
                    "2014126": 10.1,
                    "2014129": 3.4,
                    "2014134": 13.3,
                    "2014139": 6.7,
                    "2014147": 3.4,
                    "2014148": 6.8,
                    "2014149": 13.3,
                    "2014150": 13.3,
                    "2014155": 13.4,
                    "2014156": 20.0,
                    "2014157": 13.3,
                    "2014162": 13.3,
                    "2014163": 13.3,
                    "2014164": 13.4,
                    "2014165": 6.7,
                    "2014169": 13.3,
                    "2014170": 13.3,
                    "2014171": 13.3,
                    "2014175": 6.7,
                    "2014176": 13.3,
                    "2014177": 13.3,
                    "2014178": 13.3,
                    "2014179": 13.3,
                    "2014182": 13.3,
                    "2014183": 13.3,
                    "2014184": 20.0,
                    "2014189": 6.7,
                    "2014190": 6.7,
                    "2014196": 6.7,
                    "2014197": 13.3,
                    "2014198": 20.0,
                    "2014203": 6.7,
                    "2014204": 20.0,
                    "2014205": 20.0,
                    "2014206": 6.7,
                    "2014210": 6.7,
                    "2014211": 20.0,
                    "2014212": 20.0,
                    "2014213": 6.7,
                    "2014217": 6.7,
                    "2014218": 13.3,
                    "2014219": 13.3,
                    "2014220": 13.3,
                    "2014226": 13.3,
                    "2014227": 13.3,
                    "2014231": 13.3,
                    "2014232": 13.3,
                    "2014233": 13.3,
                    "2014234": 6.7,
                    "2014238": 6.7,
                    "2014239": 13.3,
                    "2014240": 13.3,
                    "2014241": 13.3,
                    "2014246": 13.3,
                    "2014247": 13.3
                },
                "HARM": "Machine",
                "HADAT": "11/12/2014",
                "WBWAH": 4974.6,
                "BWCAH": 5.47,
                "DBWAH": 4702.3,
                "GNDAT": "11/14/2014",
                "FFRAC": 0.3456,
                "SFRAC": 0.534,
                "TFRAC": 0.1203,
                "WFWAH": 1719.4,
                "WSWAH": 2656.6,
                "WSCWAH": 4376.0,
                "DFWAH": 1625.3,
                "DSWAH": 2511.2,
                "DSCWAH": 4136.5,
                "haids": [
                    "6438212c8ac547ee4f6a9fa1",
                    "6438212c8ac547ee4f6a9fa2",
                    "6438212c8ac547ee4f6a9fa3",
                    "6438212c8ac547ee4f6a9fa4",
                    "6438212c8ac547ee4f6a9fa5",
                    "6438212c8ac547ee4f6a9fa6",
                    "6438212c8ac547ee4f6a9fa7",
                    "6438212c8ac547ee4f6a9fa8",
                    "6438212c8ac547ee4f6a9fa9",
                    "6438212c8ac547ee4f6a9faa",
                    "6438212c8ac547ee4f6a9fab"
                ],
                "tids": [
                    "643825e98ac547ef8c80750b",
                    "643825e98ac547ef8c80750c",
                    "643825e98ac547ef8c80750d",
                    "643825e98ac547ef8c80750e",
                    "643825e98ac547ef8c80750f",
                    "643825e98ac547ef8c807510"
                ],
                "ccids": [
                    "643828918ac547f0dd69c0dd",
                    "643828918ac547f0dd69c0de",
                    "643828918ac547f0dd69c0df",
                    "643828918ac547f0dd69c0e0",
                    "643828918ac547f0dd69c0e1",
                    "643828918ac547f0dd69c0e2"
                ]
            },
            "_id": "64381c2f8ac547ec9067a09f",
            "pid": "64381c2f8ac547ec9067a09f"
        },
        {
            "type": "Feature",
            "geometry": {
                "type": "Polygon",
                "coordinates": [
                    [
                        [
                            -111.97615786,
                            33.07992665
                        ],
                        [
                            -111.97616892,
                            33.07834594
                        ],
                        [
                            -111.97643015,
                            33.07834725
                        ],
                        [
                            -111.97641909,
                            33.07992795
                        ],
                        [
                            -111.97615786,
                            33.07992665
                        ]
                    ]
                ]
            },
            "properties": {
                "plt_label": "p06",
                "trt_label": "Stress",
                "PLT_AREA": 4273.550062,
                "CUL_NAME": "Deltapine 1044 B2RF",
                "PDATE": "05/02/2014",
                "IRVAL": {
                    "2014104": 13.4,
                    "2014105": 20.1,
                    "2014106": 20.1,
                    "2014107": 26.6,
                    "2014108": 13.3,
                    "2014109": 13.3,
                    "2014126": 10.1,
                    "2014129": 3.4,
                    "2014134": 13.3,
                    "2014139": 6.7,
                    "2014147": 3.4,
                    "2014148": 6.8,
                    "2014149": 13.3,
                    "2014150": 8.9,
                    "2014155": 9.0,
                    "2014156": 13.4,
                    "2014157": 8.9,
                    "2014162": 8.9,
                    "2014163": 8.9,
                    "2014164": 8.9,
                    "2014165": 4.5,
                    "2014169": 8.9,
                    "2014170": 8.9,
                    "2014171": 8.9,
                    "2014175": 4.5,
                    "2014176": 8.9,
                    "2014177": 8.9,
                    "2014178": 8.9,
                    "2014182": 8.9,
                    "2014183": 8.9,
                    "2014184": 13.4,
                    "2014189": 4.5,
                    "2014190": 4.5,
                    "2014196": 4.5,
                    "2014197": 8.9,
                    "2014198": 13.4,
                    "2014203": 4.5,
                    "2014204": 13.4,
                    "2014205": 13.4,
                    "2014206": 4.5,
                    "2014210": 4.5,
                    "2014211": 13.4,
                    "2014212": 13.4,
                    "2014213": 4.5,
                    "2014217": 4.5,
                    "2014218": 8.9,
                    "2014219": 8.9,
                    "2014220": 8.9,
                    "2014226": 8.9,
                    "2014227": 8.9,
                    "2014231": 8.9,
                    "2014232": 8.9,
                    "2014233": 8.9,
                    "2014234": 4.5,
                    "2014238": 4.5,
                    "2014239": 8.9,
                    "2014240": 8.9,
                    "2014241": 8.9,
                    "2014246": 8.9,
                    "2014247": 8.9
                },
                "HARM": "Machine",
                "HADAT": "11/12/2014",
                "WBWAH": 2196.1,
                "BWCAH": 5.34,
                "DBWAH": 2078.9,
                "GNDAT": "11/14/2014",
                "FFRAC": 0.3502,
                "SFRAC": 0.541,
                "TFRAC": 0.1088,
                "WFWAH": 769.1,
                "WSWAH": 1188.2,
                "WSCWAH": 1957.2,
                "DFWAH": 728.0,
                "DSWAH": 1124.8,
                "DSCWAH": 1852.8,
                "haids": [
                    "6438212c8ac547ee4f6a9fac",
                    "6438212c8ac547ee4f6a9fad",
                    "6438212c8ac547ee4f6a9fae",
                    "6438212c8ac547ee4f6a9faf",
                    "6438212c8ac547ee4f6a9fb0",
                    "6438212c8ac547ee4f6a9fb1",
                    "6438212c8ac547ee4f6a9fb2",
                    "6438212c8ac547ee4f6a9fb3",
                    "6438212c8ac547ee4f6a9fb4",
                    "6438212c8ac547ee4f6a9fb5",
                    "6438212c8ac547ee4f6a9fb6"
                ],
                "tids": [
                    "643825e98ac547ef8c807511",
                    "643825e98ac547ef8c807512",
                    "643825e98ac547ef8c807513",
                    "643825e98ac547ef8c807514",
                    "643825e98ac547ef8c807515",
                    "643825e98ac547ef8c807516"
                ],
                "ccids": [
                    "643828918ac547f0dd69c0e3",
                    "643828918ac547f0dd69c0e4",
                    "643828918ac547f0dd69c0e5",
                    "643828918ac547f0dd69c0e6",
                    "643828918ac547f0dd69c0e7",
                    "643828918ac547f0dd69c0e8"
                ]
            },
            "_id": "64381c2f8ac547ec9067a0a0",
            "pid": "64381c2f8ac547ec9067a0a0"
        },
        {
            "type": "Feature",
            "geometry": {
                "type": "Polygon",
                "coordinates": [
                    [
                        [
                            -111.97645174,
                            33.07992811
                        ],
                        [
                            -111.9764628,
                            33.07834741
                        ],
                        [
                            -111.97672403,
                            33.07834871
                        ],
                        [
                            -111.97671297,
                            33.07992942
                        ],
                        [
                            -111.97645174,
                            33.07992811
                        ]
                    ]
                ]
            },
            "properties": {
                "plt_label": "p07",
                "trt_label": "CropMod",
                "PLT_AREA": 4273.550062,
                "CUL_NAME": "Deltapine 1044 B2RF",
                "PDATE": "05/02/2014",
                "IRVAL": {
                    "2014104": 13.4,
                    "2014105": 20.1,
                    "2014106": 20.1,
                    "2014107": 26.6,
                    "2014108": 13.3,
                    "2014109": 13.3,
                    "2014126": 10.1,
                    "2014129": 3.4,
                    "2014134": 13.3,
                    "2014139": 6.7,
                    "2014147": 3.4,
                    "2014148": 6.8,
                    "2014149": 13.3,
                    "2014150": 13.3,
                    "2014155": 13.4,
                    "2014156": 13.3,
                    "2014162": 13.3,
                    "2014163": 13.3,
                    "2014164": 6.7,
                    "2014165": 6.7,
                    "2014169": 13.3,
                    "2014170": 13.3,
                    "2014171": 6.7,
                    "2014175": 6.7,
                    "2014176": 13.3,
                    "2014177": 13.3,
                    "2014178": 13.3,
                    "2014179": 13.3,
                    "2014182": 13.3,
                    "2014183": 20.0,
                    "2014184": 20.0,
                    "2014189": 6.7,
                    "2014190": 6.7,
                    "2014196": 6.7,
                    "2014197": 13.3,
                    "2014198": 20.0,
                    "2014199": 6.7,
                    "2014203": 6.7,
                    "2014204": 20.0,
                    "2014205": 20.0,
                    "2014206": 13.3,
                    "2014210": 6.7,
                    "2014211": 20.0,
                    "2014212": 20.0,
                    "2014213": 6.7,
                    "2014217": 6.7,
                    "2014218": 13.3,
                    "2014219": 13.3,
                    "2014220": 13.3,
                    "2014226": 13.3,
                    "2014227": 13.3,
                    "2014231": 13.3,
                    "2014232": 13.3,
                    "2014233": 13.3,
                    "2014234": 6.7,
                    "2014238": 6.7,
                    "2014239": 13.3,
                    "2014241": 13.3,
                    "2014246": 13.3,
                    "2014247": 13.3,
                    "2014248": 13.3
                },
                "HARM": "Machine",
                "HADAT": "11/12/2014",
                "WBWAH": 5533.4,
                "BWCAH": 4.77,
                "DBWAH": 5269.6,
                "GNDAT": "11/14/2014",
                "FFRAC": 0.3489,
                "SFRAC": 0.5467,
                "TFRAC": 0.1044,
                "WFWAH": 1930.4,
                "WSWAH": 3025.1,
                "WSCWAH": 4955.5,
                "DFWAH": 1838.3,
                "DSWAH": 2880.9,
                "DSCWAH": 4719.2,
                "haids": [
                    "6438212c8ac547ee4f6a9fb7",
                    "6438212c8ac547ee4f6a9fb8",
                    "6438212c8ac547ee4f6a9fb9",
                    "6438212c8ac547ee4f6a9fba",
                    "6438212c8ac547ee4f6a9fbb",
                    "6438212c8ac547ee4f6a9fbc",
                    "6438212c8ac547ee4f6a9fbd",
                    "6438212c8ac547ee4f6a9fbe",
                    "6438212c8ac547ee4f6a9fbf",
                    "6438212c8ac547ee4f6a9fc0",
                    "6438212c8ac547ee4f6a9fc1"
                ],
                "tids": [
                    "643825e98ac547ef8c807517",
                    "643825e98ac547ef8c807518",
                    "643825e98ac547ef8c807519",
                    "643825e98ac547ef8c80751a",
                    "643825e98ac547ef8c80751b",
                    "643825e98ac547ef8c80751c"
                ],
                "ccids": [
                    "643828918ac547f0dd69c0e9",
                    "643828918ac547f0dd69c0ea",
                    "643828918ac547f0dd69c0eb",
                    "643828918ac547f0dd69c0ec",
                    "643828918ac547f0dd69c0ed",
                    "643828918ac547f0dd69c0ee"
                ]
            },
            "_id": "64381c2f8ac547ec9067a0a1",
            "pid": "64381c2f8ac547ec9067a0a1"
        },
        {
            "type": "Feature",
            "geometry": {
                "type": "Polygon",
                "coordinates": [
                    [
                        [
                            -111.97675651,
                            33.07992963
                        ],
                        [
                            -111.97676757,
                            33.07834893
                        ],
                        [
                            -111.97702879,
                            33.07835023
                        ],
                        [
                            -111.97701774,
                            33.07993093
                        ],
                        [
                            -111.97675651,
                            33.07992963
                        ]
                    ]
                ]
            },
            "properties": {
                "plt_label": "p08",
                "trt_label": "SEB",
                "PLT_AREA": 4273.550063,
                "CUL_NAME": "Deltapine 1044 B2RF",
                "PDATE": "05/02/2014",
                "IRVAL": {
                    "2014104": 13.4,
                    "2014105": 20.1,
                    "2014106": 20.1,
                    "2014107": 26.6,
                    "2014108": 13.3,
                    "2014109": 13.3,
                    "2014126": 10.1,
                    "2014129": 3.4,
                    "2014134": 13.3,
                    "2014139": 6.7,
                    "2014147": 3.4,
                    "2014148": 6.8,
                    "2014149": 13.3,
                    "2014150": 13.3,
                    "2014155": 13.4,
                    "2014156": 20.0,
                    "2014157": 13.3,
                    "2014162": 13.3,
                    "2014163": 13.3,
                    "2014164": 13.4,
                    "2014165": 6.7,
                    "2014169": 13.3,
                    "2014170": 13.3,
                    "2014171": 13.3,
                    "2014175": 6.7,
                    "2014176": 13.3,
                    "2014177": 13.3,
                    "2014178": 13.3,
                    "2014182": 13.3,
                    "2014183": 13.3,
                    "2014184": 20.0,
                    "2014189": 6.7,
                    "2014190": 6.7,
                    "2014196": 6.7,
                    "2014197": 13.3,
                    "2014198": 20.0,
                    "2014203": 6.7,
                    "2014204": 20.0,
                    "2014205": 20.0,
                    "2014206": 6.7,
                    "2014210": 6.7,
                    "2014211": 20.0,
                    "2014212": 20.0,
                    "2014213": 6.7,
                    "2014217": 6.7,
                    "2014218": 13.3,
                    "2014219": 13.3,
                    "2014220": 13.3,
                    "2014226": 13.3,
                    "2014227": 13.3,
                    "2014231": 13.3,
                    "2014232": 13.3,
                    "2014233": 13.3,
                    "2014234": 6.7,
                    "2014238": 6.7,
                    "2014239": 13.3,
                    "2014240": 13.3,
                    "2014241": 13.3,
                    "2014246": 13.3,
                    "2014247": 13.3
                },
                "HARM": "Machine",
                "HADAT": "11/12/2014",
                "WBWAH": 4753.6,
                "BWCAH": 5.0,
                "DBWAH": 4515.9,
                "GNDAT": "11/14/2014",
                "FFRAC": 0.3495,
                "SFRAC": 0.5432,
                "TFRAC": 0.1074,
                "WFWAH": 1661.2,
                "WSWAH": 2581.9,
                "WSCWAH": 4243.2,
                "DFWAH": 1578.2,
                "DSWAH": 2452.8,
                "DSCWAH": 4031.0,
                "haids": [
                    "6438212c8ac547ee4f6a9fc2",
                    "6438212c8ac547ee4f6a9fc3",
                    "6438212c8ac547ee4f6a9fc4",
                    "6438212c8ac547ee4f6a9fc5",
                    "6438212c8ac547ee4f6a9fc6",
                    "6438212c8ac547ee4f6a9fc7",
                    "6438212c8ac547ee4f6a9fc8",
                    "6438212c8ac547ee4f6a9fc9",
                    "6438212c8ac547ee4f6a9fca",
                    "6438212c8ac547ee4f6a9fcb",
                    "6438212c8ac547ee4f6a9fcc"
                ],
                "tids": [
                    "643825e98ac547ef8c80751d",
                    "643825e98ac547ef8c80751e",
                    "643825e98ac547ef8c80751f",
                    "643825e98ac547ef8c807520",
                    "643825e98ac547ef8c807521",
                    "643825e98ac547ef8c807522"
                ],
                "ccids": [
                    "643828918ac547f0dd69c0ef",
                    "643828918ac547f0dd69c0f0",
                    "643828918ac547f0dd69c0f1",
                    "643828918ac547f0dd69c0f2",
                    "643828918ac547f0dd69c0f3",
                    "643828918ac547f0dd69c0f4"
                ]
            },
            "_id": "64381c2f8ac547ec9067a0a2",
            "pid": "64381c2f8ac547ec9067a0a2"
        },
        {
            "type": "Feature",
            "geometry": {
                "type": "Polygon",
                "coordinates": [
                    [
                        [
                            -111.97706128,
                            33.07993115
                        ],
                        [
                            -111.97707233,
                            33.07835044
                        ],
                        [
                            -111.97733356,
                            33.07835175
                        ],
                        [
                            -111.97732251,
                            33.07993245
                        ],
                        [
                            -111.97706128,
                            33.07993115
                        ]
                    ]
                ]
            },
            "properties": {
                "plt_label": "p09",
                "trt_label": "NDVI",
                "PLT_AREA": 4273.550062,
                "CUL_NAME": "Deltapine 1044 B2RF",
                "PDATE": "05/02/2014",
                "IRVAL": {
                    "2014104": 13.4,
                    "2014105": 20.1,
                    "2014106": 20.1,
                    "2014107": 26.6,
                    "2014108": 13.3,
                    "2014109": 13.3,
                    "2014126": 10.1,
                    "2014129": 3.4,
                    "2014134": 13.3,
                    "2014139": 6.7,
                    "2014147": 3.4,
                    "2014148": 6.8,
                    "2014149": 13.3,
                    "2014150": 13.3,
                    "2014155": 13.4,
                    "2014156": 20.0,
                    "2014157": 13.3,
                    "2014162": 13.3,
                    "2014163": 13.3,
                    "2014164": 13.4,
                    "2014165": 6.7,
                    "2014169": 13.3,
                    "2014170": 13.3,
                    "2014171": 13.3,
                    "2014175": 6.7,
                    "2014176": 13.3,
                    "2014177": 13.3,
                    "2014178": 13.3,
                    "2014179": 13.3,
                    "2014182": 13.3,
                    "2014183": 13.3,
                    "2014184": 20.0,
                    "2014189": 6.7,
                    "2014190": 6.7,
                    "2014196": 6.7,
                    "2014197": 13.3,
                    "2014198": 20.0,
                    "2014203": 6.7,
                    "2014204": 20.0,
                    "2014205": 20.0,
                    "2014206": 6.7,
                    "2014210": 6.7,
                    "2014211": 20.0,
                    "2014212": 20.0,
                    "2014213": 6.7,
                    "2014217": 6.7,
                    "2014218": 13.3,
                    "2014219": 13.3,
                    "2014220": 13.3,
                    "2014226": 13.3,
                    "2014227": 13.3,
                    "2014231": 13.3,
                    "2014232": 13.3,
                    "2014233": 13.3,
                    "2014234": 6.7,
                    "2014238": 6.7,
                    "2014239": 13.3,
                    "2014240": 13.3,
                    "2014241": 13.3,
                    "2014246": 13.3,
                    "2014247": 13.3
                },
                "HARM": "Machine",
                "HADAT": "11/12/2014",
                "WBWAH": 4500.6,
                "BWCAH": 4.94,
                "DBWAH": 4278.1,
                "GNDAT": "11/14/2014",
                "FFRAC": 0.3514,
                "SFRAC": 0.5452,
                "TFRAC": 0.1034,
                "WFWAH": 1581.3,
                "WSWAH": 2453.7,
                "WSCWAH": 4035.1,
                "DFWAH": 1503.2,
                "DSWAH": 2332.4,
                "DSCWAH": 3835.6,
                "haids": [
                    "6438212c8ac547ee4f6a9fcd",
                    "6438212c8ac547ee4f6a9fce",
                    "6438212c8ac547ee4f6a9fcf",
                    "6438212c8ac547ee4f6a9fd0",
                    "6438212c8ac547ee4f6a9fd1",
                    "6438212c8ac547ee4f6a9fd2",
                    "6438212c8ac547ee4f6a9fd3",
                    "6438212c8ac547ee4f6a9fd4",
                    "6438212c8ac547ee4f6a9fd5",
                    "6438212c8ac547ee4f6a9fd6",
                    "6438212c8ac547ee4f6a9fd7"
                ],
                "tids": [
                    "643825e98ac547ef8c807523",
                    "643825e98ac547ef8c807524",
                    "643825e98ac547ef8c807525",
                    "643825e98ac547ef8c807526",
                    "643825e98ac547ef8c807527",
                    "643825e98ac547ef8c807528"
                ],
                "ccids": [
                    "643828918ac547f0dd69c0f5",
                    "643828918ac547f0dd69c0f6",
                    "643828918ac547f0dd69c0f7",
                    "643828918ac547f0dd69c0f8",
                    "643828918ac547f0dd69c0f9",
                    "643828918ac547f0dd69c0fa"
                ]
            },
            "_id": "64381c2f8ac547ec9067a0a3",
            "pid": "64381c2f8ac547ec9067a0a3"
        },
        {
            "type": "Feature",
            "geometry": {
                "type": "Polygon",
                "coordinates": [
                    [
                        [
                            -111.97736605,
                            33.07993267
                        ],
                        [
                            -111.97737709,
                            33.07835196
                        ],
                        [
                            -111.97763832,
                            33.07835326
                        ],
                        [
                            -111.97762728,
                            33.07993397
                        ],
                        [
                            -111.97736605,
                            33.07993267
                        ]
                    ]
                ]
            },
            "properties": {
                "plt_label": "p10",
                "trt_label": "FAO",
                "PLT_AREA": 4273.550062,
                "CUL_NAME": "Deltapine 1044 B2RF",
                "PDATE": "05/02/2014",
                "IRVAL": {
                    "2014104": 13.4,
                    "2014105": 20.1,
                    "2014106": 20.1,
                    "2014107": 26.6,
                    "2014108": 13.3,
                    "2014109": 13.3,
                    "2014126": 10.1,
                    "2014129": 3.4,
                    "2014134": 13.3,
                    "2014139": 6.7,
                    "2014147": 3.4,
                    "2014148": 6.8,
                    "2014149": 13.3,
                    "2014150": 13.3,
                    "2014155": 13.4,
                    "2014156": 20.0,
                    "2014157": 13.3,
                    "2014162": 13.3,
                    "2014163": 13.3,
                    "2014164": 13.4,
                    "2014165": 6.7,
                    "2014169": 13.3,
                    "2014170": 13.3,
                    "2014171": 13.3,
                    "2014175": 6.7,
                    "2014176": 13.3,
                    "2014177": 13.3,
                    "2014178": 13.3,
                    "2014182": 13.3,
                    "2014183": 13.3,
                    "2014184": 20.0,
                    "2014189": 6.7,
                    "2014190": 6.7,
                    "2014196": 6.7,
                    "2014197": 13.3,
                    "2014198": 20.0,
                    "2014203": 6.7,
                    "2014204": 20.0,
                    "2014205": 20.0,
                    "2014206": 6.7,
                    "2014210": 6.7,
                    "2014211": 20.0,
                    "2014212": 20.0,
                    "2014213": 6.7,
                    "2014217": 6.7,
                    "2014218": 13.3,
                    "2014219": 13.3,
                    "2014220": 13.3,
                    "2014226": 13.3,
                    "2014227": 13.3,
                    "2014231": 13.3,
                    "2014232": 13.3,
                    "2014233": 13.3,
                    "2014234": 6.7,
                    "2014238": 6.7,
                    "2014239": 13.3,
                    "2014240": 13.3,
                    "2014241": 13.3,
                    "2014246": 13.3,
                    "2014247": 13.3
                },
                "HARM": "Machine",
                "HADAT": "11/12/2014",
                "WBWAH": 4004.4,
                "BWCAH": 4.45,
                "DBWAH": 3826.2,
                "GNDAT": "11/14/2014",
                "FFRAC": 0.3503,
                "SFRAC": 0.5419,
                "TFRAC": 0.1078,
                "WFWAH": 1402.9,
                "WSWAH": 2170.0,
                "WSCWAH": 3572.9,
                "DFWAH": 1340.5,
                "DSWAH": 2073.4,
                "DSCWAH": 3413.9,
                "haids": [
                    "6438212c8ac547ee4f6a9fd8",
                    "6438212c8ac547ee4f6a9fd9",
                    "6438212c8ac547ee4f6a9fda",
                    "6438212c8ac547ee4f6a9fdb",
                    "6438212c8ac547ee4f6a9fdc",
                    "6438212c8ac547ee4f6a9fdd",
                    "6438212c8ac547ee4f6a9fde",
                    "6438212c8ac547ee4f6a9fdf",
                    "6438212c8ac547ee4f6a9fe0",
                    "6438212c8ac547ee4f6a9fe1",
                    "6438212c8ac547ee4f6a9fe2"
                ],
                "tids": [
                    "643825e98ac547ef8c807529",
                    "643825e98ac547ef8c80752a",
                    "643825e98ac547ef8c80752b",
                    "643825e98ac547ef8c80752c",
                    "643825e98ac547ef8c80752d",
                    "643825e98ac547ef8c80752e"
                ],
                "ccids": [
                    "643828918ac547f0dd69c0fb",
                    "643828918ac547f0dd69c0fc",
                    "643828918ac547f0dd69c0fd",
                    "643828918ac547f0dd69c0fe",
                    "643828918ac547f0dd69c0ff",
                    "643828918ac547f0dd69c100"
                ]
            },
            "_id": "64381c2f8ac547ec9067a0a4",
            "pid": "64381c2f8ac547ec9067a0a4"
        },
        {
            "type": "Feature",
            "geometry": {
                "type": "Polygon",
                "coordinates": [
                    [
                        [
                            -111.97854159,
                            33.07993851
                        ],
                        [
                            -111.97828036,
                            33.07993721
                        ],
                        [
                            -111.97829139,
                            33.07835651
                        ],
                        [
                            -111.97855261,
                            33.07835781
                        ],
                        [
                            -111.97854159,
                            33.07993851
                        ]
                    ]
                ]
            },
            "properties": {
                "plt_label": "p11",
                "trt_label": "CropMod",
                "PLT_AREA": 4273.550062,
                "CUL_NAME": "Deltapine 1044 B2RF",
                "PDATE": "05/02/2014",
                "IRVAL": {
                    "2014104": 13.4,
                    "2014105": 20.1,
                    "2014106": 20.1,
                    "2014107": 26.6,
                    "2014108": 13.3,
                    "2014109": 13.3,
                    "2014126": 10.1,
                    "2014129": 3.4,
                    "2014134": 13.3,
                    "2014139": 6.7,
                    "2014147": 3.4,
                    "2014148": 6.8,
                    "2014149": 13.3,
                    "2014150": 13.3,
                    "2014155": 13.4,
                    "2014156": 13.3,
                    "2014162": 13.3,
                    "2014163": 13.3,
                    "2014164": 6.7,
                    "2014165": 6.7,
                    "2014169": 13.3,
                    "2014170": 13.3,
                    "2014171": 6.7,
                    "2014175": 6.7,
                    "2014176": 13.3,
                    "2014177": 13.3,
                    "2014178": 13.3,
                    "2014179": 13.3,
                    "2014182": 13.3,
                    "2014183": 20.0,
                    "2014184": 20.0,
                    "2014189": 6.7,
                    "2014190": 6.7,
                    "2014196": 6.7,
                    "2014197": 13.3,
                    "2014198": 20.0,
                    "2014199": 6.7,
                    "2014203": 6.7,
                    "2014204": 20.0,
                    "2014205": 20.0,
                    "2014206": 13.3,
                    "2014210": 6.7,
                    "2014211": 20.0,
                    "2014212": 20.0,
                    "2014213": 6.7,
                    "2014217": 6.7,
                    "2014218": 13.3,
                    "2014219": 13.3,
                    "2014220": 13.3,
                    "2014226": 13.3,
                    "2014227": 13.3,
                    "2014231": 13.3,
                    "2014232": 13.3,
                    "2014233": 13.3,
                    "2014234": 6.7,
                    "2014238": 6.7,
                    "2014239": 13.3,
                    "2014241": 13.3,
                    "2014246": 13.3,
                    "2014247": 13.3,
                    "2014248": 13.3
                },
                "HARM": "Machine",
                "HADAT": "11/12/2014",
                "WBWAH": 4086.4,
                "BWCAH": 4.55,
                "DBWAH": 3900.6,
                "GNDAT": "11/14/2014",
                "FFRAC": 0.3448,
                "SFRAC": 0.5541,
                "TFRAC": 0.1011,
                "WFWAH": 1409.0,
                "WSWAH": 2264.4,
                "WSCWAH": 3673.5,
                "DFWAH": 1345.0,
                "DSWAH": 2161.5,
                "DSCWAH": 3506.4,
                "haids": [
                    "6438212c8ac547ee4f6a9fe3",
                    "6438212c8ac547ee4f6a9fe4",
                    "6438212c8ac547ee4f6a9fe5",
                    "6438212c8ac547ee4f6a9fe6",
                    "6438212c8ac547ee4f6a9fe7",
                    "6438212c8ac547ee4f6a9fe8",
                    "6438212c8ac547ee4f6a9fe9",
                    "6438212c8ac547ee4f6a9fea",
                    "6438212c8ac547ee4f6a9feb",
                    "6438212c8ac547ee4f6a9fec",
                    "6438212c8ac547ee4f6a9fed"
                ],
                "tids": [
                    "643825e98ac547ef8c80752f",
                    "643825e98ac547ef8c807530",
                    "643825e98ac547ef8c807531",
                    "643825e98ac547ef8c807532",
                    "643825e98ac547ef8c807533",
                    "643825e98ac547ef8c807534"
                ],
                "ccids": [
                    "643828918ac547f0dd69c101",
                    "643828918ac547f0dd69c102",
                    "643828918ac547f0dd69c103",
                    "643828918ac547f0dd69c104",
                    "643828918ac547f0dd69c105",
                    "643828918ac547f0dd69c106"
                ]
            },
            "_id": "64381c2f8ac547ec9067a0a5",
            "pid": "64381c2f8ac547ec9067a0a5"
        }
    ]
}