{
    "type": "Feature",
    "geometry": {
        "type": "Point",
        "coordinates": [
            33.07372887,
            -111.99007053
        ]
    },
    "properties": {
        "ht_label": "p01-1"
    },
    "_id": "643f2d738ac547c638759dbb",
    "chid": "643f2d738ac547c638759dbb"
}{
    "type": "Feature",
    "geometry": {
        "type": "Point",
        "coordinates": [
            33.07420688,
            -111.99007589
        ]
    },
    "properties": {
        "ht_label": "p01-2"
    },
    "_id": "643f2d738ac547c638759dbc",
    "chid": "643f2d738ac547c638759dbc"
}{
    "type": "Feature",
    "geometry": {
        "type": "Point",
        "coordinates": [
            33.07468488,
            -111.99008124
        ]
    },
    "properties": {
        "ht_label": "p01-3"
    },
    "_id": "643f2d738ac547c638759dbd",
    "chid": "643f2d738ac547c638759dbd"
}{
    "type": "Feature",
    "geometry": {
        "type": "Point",
        "coordinates": [
            33.07372766,
            -111.9902229
        ]
    },
    "properties": {
        "ht_label": "p02-1"
    },
    "_id": "643f2d738ac547c638759dbe",
    "chid": "643f2d738ac547c638759dbe"
}{
    "type": "Feature",
    "geometry": {
        "type": "Point",
        "coordinates": [
            33.07420567,
            -111.99022826
        ]
    },
    "properties": {
        "ht_label": "p02-2"
    },
    "_id": "643f2d738ac547c638759dbf",
    "chid": "643f2d738ac547c638759dbf"
}{
    "type": "Feature",
    "geometry": {
        "type": "Point",
        "coordinates": [
            33.07468367,
            -111.99023361
        ]
    },
    "properties": {
        "ht_label": "p02-3"
    },
    "_id": "643f2d738ac547c638759dc0",
    "chid": "643f2d738ac547c638759dc0"
}{
    "type": "Feature",
    "geometry": {
        "type": "Point",
        "coordinates": [
            33.07372645,
            -111.99037527
        ]
    },
    "properties": {
        "ht_label": "p03-1"
    },
    "_id": "643f2d738ac547c638759dc1",
    "chid": "643f2d738ac547c638759dc1"
}{
    "type": "Feature",
    "geometry": {
        "type": "Point",
        "coordinates": [
            33.07420446,
            -111.99038063
        ]
    },
    "properties": {
        "ht_label": "p03-2"
    },
    "_id": "643f2d738ac547c638759dc2",
    "chid": "643f2d738ac547c638759dc2"
}{
    "type": "Feature",
    "geometry": {
        "type": "Point",
        "coordinates": [
            33.07468246,
            -111.99038598
        ]
    },
    "properties": {
        "ht_label": "p03-3"
    },
    "_id": "643f2d738ac547c638759dc3",
    "chid": "643f2d738ac547c638759dc3"
}{
    "type": "Feature",
    "geometry": {
        "type": "Point",
        "coordinates": [
            33.07372524,
            -111.99052764
        ]
    },
    "properties": {
        "ht_label": "p04-1"
    },
    "_id": "643f2d738ac547c638759dc4",
    "chid": "643f2d738ac547c638759dc4"
}{
    "type": "Feature",
    "geometry": {
        "type": "Point",
        "coordinates": [
            33.07420325,
            -111.990533
        ]
    },
    "properties": {
        "ht_label": "p04-2"
    },
    "_id": "643f2d738ac547c638759dc5",
    "chid": "643f2d738ac547c638759dc5"
}{
    "type": "Feature",
    "geometry": {
        "type": "Point",
        "coordinates": [
            33.07468125,
            -111.99053835
        ]
    },
    "properties": {
        "ht_label": "p04-3"
    },
    "_id": "643f2d738ac547c638759dc6",
    "chid": "643f2d738ac547c638759dc6"
}{
    "type": "Feature",
    "geometry": {
        "type": "Point",
        "coordinates": [
            33.07372403,
            -111.99068001
        ]
    },
    "properties": {
        "ht_label": "p05-1"
    },
    "_id": "643f2d738ac547c638759dc7",
    "chid": "643f2d738ac547c638759dc7"
}{
    "type": "Feature",
    "geometry": {
        "type": "Point",
        "coordinates": [
            33.07420204,
            -111.99068537
        ]
    },
    "properties": {
        "ht_label": "p05-2"
    },
    "_id": "643f2d738ac547c638759dc8",
    "chid": "643f2d738ac547c638759dc8"
}{
    "type": "Feature",
    "geometry": {
        "type": "Point",
        "coordinates": [
            33.07468004,
            -111.99069072
        ]
    },
    "properties": {
        "ht_label": "p05-3"
    },
    "_id": "643f2d738ac547c638759dc9",
    "chid": "643f2d738ac547c638759dc9"
}{
    "type": "Feature",
    "geometry": {
        "type": "Point",
        "coordinates": [
            33.07372282,
            -111.99083238
        ]
    },
    "properties": {
        "ht_label": "p06-1"
    },
    "_id": "643f2d738ac547c638759dca",
    "chid": "643f2d738ac547c638759dca"
}{
    "type": "Feature",
    "geometry": {
        "type": "Point",
        "coordinates": [
            33.07420082,
            -111.99083774
        ]
    },
    "properties": {
        "ht_label": "p06-2"
    },
    "_id": "643f2d738ac547c638759dcb",
    "chid": "643f2d738ac547c638759dcb"
}{
    "type": "Feature",
    "geometry": {
        "type": "Point",
        "coordinates": [
            33.07467883,
            -111.9908431
        ]
    },
    "properties": {
        "ht_label": "p06-3"
    },
    "_id": "643f2d738ac547c638759dcc",
    "chid": "643f2d738ac547c638759dcc"
}{
    "type": "Feature",
    "geometry": {
        "type": "Point",
        "coordinates": [
            33.07372161,
            -111.99098475
        ]
    },
    "properties": {
        "ht_label": "p07-1"
    },
    "_id": "643f2d738ac547c638759dcd",
    "chid": "643f2d738ac547c638759dcd"
}{
    "type": "Feature",
    "geometry": {
        "type": "Point",
        "coordinates": [
            33.07419961,
            -111.99099011
        ]
    },
    "properties": {
        "ht_label": "p07-2"
    },
    "_id": "643f2d738ac547c638759dce",
    "chid": "643f2d738ac547c638759dce"
}{
    "type": "Feature",
    "geometry": {
        "type": "Point",
        "coordinates": [
            33.07467762,
            -111.99099547
        ]
    },
    "properties": {
        "ht_label": "p07-3"
    },
    "_id": "643f2d738ac547c638759dcf",
    "chid": "643f2d738ac547c638759dcf"
}{
    "type": "Feature",
    "geometry": {
        "type": "Point",
        "coordinates": [
            33.0737204,
            -111.99113712
        ]
    },
    "properties": {
        "ht_label": "p08-1"
    },
    "_id": "643f2d738ac547c638759dd0",
    "chid": "643f2d738ac547c638759dd0"
}{
    "type": "Feature",
    "geometry": {
        "type": "Point",
        "coordinates": [
            33.0741984,
            -111.99114248
        ]
    },
    "properties": {
        "ht_label": "p08-2"
    },
    "_id": "643f2d738ac547c638759dd1",
    "chid": "643f2d738ac547c638759dd1"
}{
    "type": "Feature",
    "geometry": {
        "type": "Point",
        "coordinates": [
            33.07467641,
            -111.99114784
        ]
    },
    "properties": {
        "ht_label": "p08-3"
    },
    "_id": "643f2d738ac547c638759dd2",
    "chid": "643f2d738ac547c638759dd2"
}{
    "type": "Feature",
    "geometry": {
        "type": "Point",
        "coordinates": [
            33.07371919,
            -111.99128949
        ]
    },
    "properties": {
        "ht_label": "p09-1"
    },
    "_id": "643f2d738ac547c638759dd3",
    "chid": "643f2d738ac547c638759dd3"
}{
    "type": "Feature",
    "geometry": {
        "type": "Point",
        "coordinates": [
            33.07419719,
            -111.99129485
        ]
    },
    "properties": {
        "ht_label": "p09-2"
    },
    "_id": "643f2d738ac547c638759dd4",
    "chid": "643f2d738ac547c638759dd4"
}{
    "type": "Feature",
    "geometry": {
        "type": "Point",
        "coordinates": [
            33.07467519,
            -111.99130021
        ]
    },
    "properties": {
        "ht_label": "p09-3"
    },
    "_id": "643f2d738ac547c638759dd5",
    "chid": "643f2d738ac547c638759dd5"
}{
    "type": "Feature",
    "geometry": {
        "type": "Point",
        "coordinates": [
            33.07371798,
            -111.99144186
        ]
    },
    "properties": {
        "ht_label": "p10-1"
    },
    "_id": "643f2d738ac547c638759dd6",
    "chid": "643f2d738ac547c638759dd6"
}{
    "type": "Feature",
    "geometry": {
        "type": "Point",
        "coordinates": [
            33.07419598,
            -111.99144722
        ]
    },
    "properties": {
        "ht_label": "p10-2"
    },
    "_id": "643f2d738ac547c638759dd7",
    "chid": "643f2d738ac547c638759dd7"
}{
    "type": "Feature",
    "geometry": {
        "type": "Point",
        "coordinates": [
            33.07467398,
            -111.99145258
        ]
    },
    "properties": {
        "ht_label": "p10-3"
    },
    "_id": "643f2d738ac547c638759dd8",
    "chid": "643f2d738ac547c638759dd8"
}{
    "type": "Feature",
    "geometry": {
        "type": "Point",
        "coordinates": [
            33.07371677,
            -111.99159422
        ]
    },
    "properties": {
        "ht_label": "p11-1"
    },
    "_id": "643f2d738ac547c638759dd9",
    "chid": "643f2d738ac547c638759dd9"
}{
    "type": "Feature",
    "geometry": {
        "type": "Point",
        "coordinates": [
            33.07419477,
            -111.99159959
        ]
    },
    "properties": {
        "ht_label": "p11-2"
    },
    "_id": "643f2d738ac547c638759dda",
    "chid": "643f2d738ac547c638759dda"
}{
    "type": "Feature",
    "geometry": {
        "type": "Point",
        "coordinates": [
            33.07467277,
            -111.99160495
        ]
    },
    "properties": {
        "ht_label": "p11-3"
    },
    "_id": "643f2d738ac547c638759ddb",
    "chid": "643f2d738ac547c638759ddb"
}{
    "type": "Feature",
    "geometry": {
        "type": "Point",
        "coordinates": [
            33.07371555,
            -111.99174659
        ]
    },
    "properties": {
        "ht_label": "p12-1"
    },
    "_id": "643f2d738ac547c638759ddc",
    "chid": "643f2d738ac547c638759ddc"
}{
    "type": "Feature",
    "geometry": {
        "type": "Point",
        "coordinates": [
            33.07419356,
            -111.99175196
        ]
    },
    "properties": {
        "ht_label": "p12-2"
    },
    "_id": "643f2d738ac547c638759ddd",
    "chid": "643f2d738ac547c638759ddd"
}{
    "type": "Feature",
    "geometry": {
        "type": "Point",
        "coordinates": [
            33.07467156,
            -111.99175732
        ]
    },
    "properties": {
        "ht_label": "p12-3"
    },
    "_id": "643f2d738ac547c638759dde",
    "chid": "643f2d738ac547c638759dde"
}{
    "type": "Feature",
    "geometry": {
        "type": "Point",
        "coordinates": [
            33.07371313,
            -111.99205133
        ]
    },
    "properties": {
        "ht_label": "p13-1"
    },
    "_id": "643f2d738ac547c638759ddf",
    "chid": "643f2d738ac547c638759ddf"
}{
    "type": "Feature",
    "geometry": {
        "type": "Point",
        "coordinates": [
            33.07419113,
            -111.9920567
        ]
    },
    "properties": {
        "ht_label": "p13-2"
    },
    "_id": "643f2d738ac547c638759de0",
    "chid": "643f2d738ac547c638759de0"
}{
    "type": "Feature",
    "geometry": {
        "type": "Point",
        "coordinates": [
            33.07466913,
            -111.99206206
        ]
    },
    "properties": {
        "ht_label": "p13-3"
    },
    "_id": "643f2d738ac547c638759de1",
    "chid": "643f2d738ac547c638759de1"
}{
    "type": "Feature",
    "geometry": {
        "type": "Point",
        "coordinates": [
            33.07371192,
            -111.9922037
        ]
    },
    "properties": {
        "ht_label": "p14-1"
    },
    "_id": "643f2d738ac547c638759de2",
    "chid": "643f2d738ac547c638759de2"
}{
    "type": "Feature",
    "geometry": {
        "type": "Point",
        "coordinates": [
            33.07418992,
            -111.99220907
        ]
    },
    "properties": {
        "ht_label": "p14-2"
    },
    "_id": "643f2d738ac547c638759de3",
    "chid": "643f2d738ac547c638759de3"
}{
    "type": "Feature",
    "geometry": {
        "type": "Point",
        "coordinates": [
            33.07466792,
            -111.99221443
        ]
    },
    "properties": {
        "ht_label": "p14-3"
    },
    "_id": "643f2d738ac547c638759de4",
    "chid": "643f2d738ac547c638759de4"
}{
    "type": "Feature",
    "geometry": {
        "type": "Point",
        "coordinates": [
            33.07371071,
            -111.99235607
        ]
    },
    "properties": {
        "ht_label": "p15-1"
    },
    "_id": "643f2d738ac547c638759de5",
    "chid": "643f2d738ac547c638759de5"
}{
    "type": "Feature",
    "geometry": {
        "type": "Point",
        "coordinates": [
            33.07418871,
            -111.99236144
        ]
    },
    "properties": {
        "ht_label": "p15-2"
    },
    "_id": "643f2d738ac547c638759de6",
    "chid": "643f2d738ac547c638759de6"
}{
    "type": "Feature",
    "geometry": {
        "type": "Point",
        "coordinates": [
            33.07466671,
            -111.99236681
        ]
    },
    "properties": {
        "ht_label": "p15-3"
    },
    "_id": "643f2d738ac547c638759de7",
    "chid": "643f2d738ac547c638759de7"
}{
    "type": "Feature",
    "geometry": {
        "type": "Point",
        "coordinates": [
            33.07370949,
            -111.99250844
        ]
    },
    "properties": {
        "ht_label": "p16-1"
    },
    "_id": "643f2d738ac547c638759de8",
    "chid": "643f2d738ac547c638759de8"
}{
    "type": "Feature",
    "geometry": {
        "type": "Point",
        "coordinates": [
            33.07418749,
            -111.99251381
        ]
    },
    "properties": {
        "ht_label": "p16-2"
    },
    "_id": "643f2d738ac547c638759de9",
    "chid": "643f2d738ac547c638759de9"
}{
    "type": "Feature",
    "geometry": {
        "type": "Point",
        "coordinates": [
            33.0746655,
            -111.99251918
        ]
    },
    "properties": {
        "ht_label": "p16-3"
    },
    "_id": "643f2d738ac547c638759dea",
    "chid": "643f2d738ac547c638759dea"
}