{
    "type": "Feature",
    "geometry": {
        "type": "Point",
        "coordinates": [
            33.07372887,
            -111.99007053
        ]
    },
    "properties": {
        "cc_label": "p01-1",
        "CHTD": {
            "2011130": 0.08,
            "2011139": 0.16,
            "2011146": 0.21,
            "2011153": 0.26,
            "2011159": 0.38,
            "2011168": 0.41,
            "2011173": 0.48,
            "2011179": 0.63,
            "2011187": 0.68,
            "2011193": 0.77,
            "2011203": 0.85,
            "2011213": 0.87,
            "2011224": 0.94,
            "2011231": 1.07
        },
        "CWID": {
            "2011130": 0.08,
            "2011139": 0.12,
            "2011146": 0.2,
            "2011153": 0.26,
            "2011159": 0.32,
            "2011168": 0.31,
            "2011173": 0.44,
            "2011179": 0.44,
            "2011187": 0.57,
            "2011193": 0.71,
            "2011203": 0.81,
            "2011213": 0.92,
            "2011224": 0.97,
            "2011231": 0.98
        }
    },
    "_id": "643f2d738ac547c638759dbb",
    "ccid": "643f2d738ac547c638759dbb"
}{
    "type": "Feature",
    "geometry": {
        "type": "Point",
        "coordinates": [
            33.07420688,
            -111.99007589
        ]
    },
    "properties": {
        "cc_label": "p01-2",
        "CHTD": {
            "2011130": 0.08,
            "2011139": 0.16,
            "2011146": 0.21,
            "2011153": 0.24,
            "2011159": 0.35,
            "2011168": 0.52,
            "2011173": 0.55,
            "2011179": 0.65,
            "2011187": 0.76,
            "2011193": 0.89,
            "2011203": 0.99,
            "2011213": 1.0,
            "2011224": 1.0,
            "2011231": 1.09
        },
        "CWID": {
            "2011130": 0.06,
            "2011139": 0.11,
            "2011146": 0.19,
            "2011153": 0.23,
            "2011159": 0.34,
            "2011168": 0.42,
            "2011173": 0.48,
            "2011179": 0.52,
            "2011187": 0.72,
            "2011193": 0.82,
            "2011203": 0.86,
            "2011213": 0.99,
            "2011224": 0.93,
            "2011231": 0.98
        }
    },
    "_id": "643f2d738ac547c638759dbc",
    "ccid": "643f2d738ac547c638759dbc"
}{
    "type": "Feature",
    "geometry": {
        "type": "Point",
        "coordinates": [
            33.07468488,
            -111.99008124
        ]
    },
    "properties": {
        "cc_label": "p01-3",
        "CHTD": {
            "2011130": 0.08,
            "2011139": 0.15,
            "2011146": 0.19,
            "2011153": 0.3,
            "2011159": 0.42,
            "2011168": 0.57,
            "2011173": 0.58,
            "2011179": 0.64,
            "2011187": 0.85,
            "2011193": 0.97,
            "2011203": 1.07,
            "2011213": 1.13,
            "2011224": 1.06,
            "2011231": 1.12
        },
        "CWID": {
            "2011130": 0.07,
            "2011139": 0.16,
            "2011146": 0.2,
            "2011153": 0.27,
            "2011159": 0.34,
            "2011168": 0.38,
            "2011173": 0.47,
            "2011179": 0.74,
            "2011187": 0.86,
            "2011193": 0.91,
            "2011203": 0.94,
            "2011213": 1.02,
            "2011224": 1.02,
            "2011231": 1.02
        }
    },
    "_id": "643f2d738ac547c638759dbd",
    "ccid": "643f2d738ac547c638759dbd"
}{
    "type": "Feature",
    "geometry": {
        "type": "Point",
        "coordinates": [
            33.07372766,
            -111.9902229
        ]
    },
    "properties": {
        "cc_label": "p02-1",
        "CHTD": {
            "2011130": 0.07,
            "2011139": 0.15,
            "2011146": 0.2,
            "2011153": 0.26,
            "2011159": 0.4,
            "2011168": 0.49,
            "2011173": 0.64,
            "2011179": 0.78,
            "2011193": 0.88,
            "2011203": 1.0,
            "2011213": 1.05,
            "2011224": 1.07,
            "2011231": 1.11
        },
        "CWID": {
            "2011130": 0.06,
            "2011139": 0.13,
            "2011146": 0.17,
            "2011153": 0.24,
            "2011159": 0.38,
            "2011168": 0.37,
            "2011173": 0.5,
            "2011179": 0.61,
            "2011193": 0.7,
            "2011203": 0.96,
            "2011213": 1.02,
            "2011224": 0.96,
            "2011231": 1.02
        }
    },
    "_id": "643f2d738ac547c638759dbe",
    "ccid": "643f2d738ac547c638759dbe"
}{
    "type": "Feature",
    "geometry": {
        "type": "Point",
        "coordinates": [
            33.07420567,
            -111.99022826
        ]
    },
    "properties": {
        "cc_label": "p02-2",
        "CHTD": {
            "2011130": 0.08,
            "2011139": 0.16,
            "2011146": 0.26,
            "2011153": 0.3,
            "2011159": 0.43,
            "2011168": 0.49,
            "2011173": 0.64,
            "2011179": 0.69,
            "2011193": 0.91,
            "2011203": 1.03,
            "2011213": 1.1,
            "2011224": 1.11,
            "2011231": 1.14
        },
        "CWID": {
            "2011130": 0.07,
            "2011139": 0.12,
            "2011146": 0.2,
            "2011153": 0.26,
            "2011159": 0.36,
            "2011168": 0.48,
            "2011173": 0.56,
            "2011179": 0.61,
            "2011193": 0.73,
            "2011203": 0.98,
            "2011213": 1.02,
            "2011224": 1.02,
            "2011231": 1.02
        }
    },
    "_id": "643f2d738ac547c638759dbf",
    "ccid": "643f2d738ac547c638759dbf"
}{
    "type": "Feature",
    "geometry": {
        "type": "Point",
        "coordinates": [
            33.07468367,
            -111.99023361
        ]
    },
    "properties": {
        "cc_label": "p02-3",
        "CHTD": {
            "2011130": 0.07,
            "2011139": 0.17,
            "2011146": 0.21,
            "2011153": 0.31,
            "2011159": 0.41,
            "2011168": 0.57,
            "2011173": 0.63,
            "2011179": 0.8,
            "2011193": 0.92,
            "2011203": 1.06,
            "2011213": 1.1,
            "2011224": 1.09,
            "2011231": 1.14
        },
        "CWID": {
            "2011130": 0.06,
            "2011139": 0.12,
            "2011146": 0.18,
            "2011153": 0.31,
            "2011159": 0.35,
            "2011168": 0.41,
            "2011173": 0.51,
            "2011179": 0.58,
            "2011193": 0.77,
            "2011203": 1.01,
            "2011213": 1.02,
            "2011224": 1.02,
            "2011231": 1.02
        }
    },
    "_id": "643f2d738ac547c638759dc0",
    "ccid": "643f2d738ac547c638759dc0"
}{
    "type": "Feature",
    "geometry": {
        "type": "Point",
        "coordinates": [
            33.07372645,
            -111.99037527
        ]
    },
    "properties": {
        "cc_label": "p03-1",
        "CHTD": {
            "2011130": 0.07,
            "2011139": 0.15,
            "2011146": 0.23,
            "2011153": 0.23,
            "2011159": 0.38,
            "2011173": 0.55,
            "2011179": 0.59,
            "2011187": 0.71,
            "2011193": 0.7,
            "2011203": 0.88,
            "2011213": 0.93,
            "2011224": 0.98,
            "2011231": 1.09
        },
        "CWID": {
            "2011130": 0.06,
            "2011139": 0.12,
            "2011146": 0.24,
            "2011153": 0.25,
            "2011159": 0.38,
            "2011173": 0.5,
            "2011179": 0.48,
            "2011187": 0.59,
            "2011193": 0.56,
            "2011203": 0.74,
            "2011213": 0.86,
            "2011224": 0.93,
            "2011231": 1.02
        }
    },
    "_id": "643f2d738ac547c638759dc1",
    "ccid": "643f2d738ac547c638759dc1"
}{
    "type": "Feature",
    "geometry": {
        "type": "Point",
        "coordinates": [
            33.07420446,
            -111.99038063
        ]
    },
    "properties": {
        "cc_label": "p03-2",
        "CHTD": {
            "2011130": 0.07,
            "2011139": 0.14,
            "2011146": 0.2,
            "2011153": 0.27,
            "2011159": 0.35,
            "2011173": 0.6,
            "2011179": 0.62,
            "2011187": 0.69,
            "2011193": 0.76,
            "2011203": 0.82,
            "2011213": 0.97,
            "2011224": 1.06,
            "2011231": 1.14
        },
        "CWID": {
            "2011130": 0.07,
            "2011139": 0.11,
            "2011146": 0.16,
            "2011153": 0.26,
            "2011159": 0.35,
            "2011173": 0.49,
            "2011179": 0.46,
            "2011187": 0.5,
            "2011193": 0.5,
            "2011203": 0.66,
            "2011213": 0.89,
            "2011224": 0.92,
            "2011231": 1.02
        }
    },
    "_id": "643f2d738ac547c638759dc2",
    "ccid": "643f2d738ac547c638759dc2"
}{
    "type": "Feature",
    "geometry": {
        "type": "Point",
        "coordinates": [
            33.07468246,
            -111.99038598
        ]
    },
    "properties": {
        "cc_label": "p03-3",
        "CHTD": {
            "2011130": 0.08,
            "2011139": 0.14,
            "2011146": 0.21,
            "2011153": 0.28,
            "2011159": 0.39,
            "2011173": 0.62,
            "2011179": 0.63,
            "2011187": 0.69,
            "2011193": 0.78,
            "2011203": 0.85,
            "2011213": 0.98,
            "2011224": 1.09,
            "2011231": 1.09
        },
        "CWID": {
            "2011130": 0.07,
            "2011139": 0.13,
            "2011146": 0.17,
            "2011153": 0.23,
            "2011159": 0.38,
            "2011173": 0.53,
            "2011179": 0.49,
            "2011187": 0.6,
            "2011193": 0.64,
            "2011203": 0.77,
            "2011213": 0.96,
            "2011224": 0.98,
            "2011231": 1.02
        }
    },
    "_id": "643f2d738ac547c638759dc3",
    "ccid": "643f2d738ac547c638759dc3"
}{
    "type": "Feature",
    "geometry": {
        "type": "Point",
        "coordinates": [
            33.07372524,
            -111.99052764
        ]
    },
    "properties": {
        "cc_label": "p04-1",
        "CHTD": {
            "2011130": 0.09,
            "2011139": 0.16,
            "2011146": 0.21,
            "2011153": 0.28,
            "2011159": 0.37,
            "2011168": 0.59,
            "2011173": 0.69,
            "2011179": 0.79,
            "2011193": 1.01,
            "2011203": 1.05,
            "2011213": 1.1,
            "2011224": 1.19,
            "2011231": 1.2
        },
        "CWID": {
            "2011130": 0.07,
            "2011139": 0.13,
            "2011146": 0.16,
            "2011153": 0.25,
            "2011159": 0.35,
            "2011168": 0.51,
            "2011173": 0.63,
            "2011179": 0.63,
            "2011193": 0.9,
            "2011203": 1.0,
            "2011213": 1.02,
            "2011224": 1.02,
            "2011231": 1.02
        }
    },
    "_id": "643f2d738ac547c638759dc4",
    "ccid": "643f2d738ac547c638759dc4"
}{
    "type": "Feature",
    "geometry": {
        "type": "Point",
        "coordinates": [
            33.07420325,
            -111.990533
        ]
    },
    "properties": {
        "cc_label": "p04-2",
        "CHTD": {
            "2011130": 0.08,
            "2011139": 0.16,
            "2011146": 0.24,
            "2011153": 0.32,
            "2011159": 0.39,
            "2011168": 0.56,
            "2011173": 0.64,
            "2011179": 0.82,
            "2011193": 0.97,
            "2011203": 1.1,
            "2011213": 1.15,
            "2011224": 1.29,
            "2011231": 1.26
        },
        "CWID": {
            "2011130": 0.07,
            "2011139": 0.12,
            "2011146": 0.2,
            "2011153": 0.3,
            "2011159": 0.37,
            "2011168": 0.49,
            "2011173": 0.6,
            "2011179": 0.67,
            "2011193": 0.83,
            "2011203": 1.02,
            "2011213": 1.02,
            "2011224": 1.02,
            "2011231": 1.02
        }
    },
    "_id": "643f2d738ac547c638759dc5",
    "ccid": "643f2d738ac547c638759dc5"
}{
    "type": "Feature",
    "geometry": {
        "type": "Point",
        "coordinates": [
            33.07468125,
            -111.99053835
        ]
    },
    "properties": {
        "cc_label": "p04-3",
        "CHTD": {
            "2011130": 0.08,
            "2011139": 0.17,
            "2011146": 0.22,
            "2011153": 0.31,
            "2011159": 0.38,
            "2011168": 0.54,
            "2011173": 0.63,
            "2011179": 0.81,
            "2011193": 0.93,
            "2011203": 0.95,
            "2011213": 1.09,
            "2011224": 1.18,
            "2011231": 1.18
        },
        "CWID": {
            "2011130": 0.06,
            "2011139": 0.14,
            "2011146": 0.19,
            "2011153": 0.28,
            "2011159": 0.34,
            "2011168": 0.48,
            "2011173": 0.45,
            "2011179": 0.67,
            "2011193": 0.76,
            "2011203": 0.88,
            "2011213": 1.02,
            "2011224": 1.02,
            "2011231": 1.02
        }
    },
    "_id": "643f2d738ac547c638759dc6",
    "ccid": "643f2d738ac547c638759dc6"
}{
    "type": "Feature",
    "geometry": {
        "type": "Point",
        "coordinates": [
            33.07372403,
            -111.99068001
        ]
    },
    "properties": {
        "cc_label": "p05-1",
        "CHTD": {
            "2011130": 0.07,
            "2011139": 0.14,
            "2011146": 0.21,
            "2011153": 0.29,
            "2011159": 0.36,
            "2011168": 0.55,
            "2011173": 0.58,
            "2011179": 0.74,
            "2011187": 0.86,
            "2011193": 0.94,
            "2011203": 0.98,
            "2011213": 1.09,
            "2011224": 1.1,
            "2011231": 1.14
        },
        "CWID": {
            "2011130": 0.06,
            "2011139": 0.13,
            "2011146": 0.18,
            "2011153": 0.3,
            "2011159": 0.34,
            "2011168": 0.51,
            "2011173": 0.46,
            "2011179": 0.51,
            "2011187": 0.71,
            "2011193": 0.75,
            "2011203": 0.93,
            "2011213": 0.98,
            "2011224": 1.02,
            "2011231": 1.02
        }
    },
    "_id": "643f2d738ac547c638759dc7",
    "ccid": "643f2d738ac547c638759dc7"
}{
    "type": "Feature",
    "geometry": {
        "type": "Point",
        "coordinates": [
            33.07420204,
            -111.99068537
        ]
    },
    "properties": {
        "cc_label": "p05-2",
        "CHTD": {
            "2011130": 0.05,
            "2011139": 0.12,
            "2011146": 0.19,
            "2011153": 0.28,
            "2011159": 0.35,
            "2011168": 0.54,
            "2011173": 0.55,
            "2011179": 0.72,
            "2011187": 0.84,
            "2011193": 0.96,
            "2011203": 1.05,
            "2011213": 1.06,
            "2011224": 1.13,
            "2011231": 1.2
        },
        "CWID": {
            "2011130": 0.04,
            "2011139": 0.11,
            "2011146": 0.15,
            "2011153": 0.26,
            "2011159": 0.32,
            "2011168": 0.41,
            "2011173": 0.43,
            "2011179": 0.53,
            "2011187": 0.79,
            "2011193": 0.83,
            "2011203": 1.0,
            "2011213": 0.98,
            "2011224": 1.02,
            "2011231": 1.02
        }
    },
    "_id": "643f2d738ac547c638759dc8",
    "ccid": "643f2d738ac547c638759dc8"
}{
    "type": "Feature",
    "geometry": {
        "type": "Point",
        "coordinates": [
            33.07468004,
            -111.99069072
        ]
    },
    "properties": {
        "cc_label": "p05-3",
        "CHTD": {
            "2011130": 0.08,
            "2011139": 0.14,
            "2011146": 0.23,
            "2011153": 0.31,
            "2011159": 0.4,
            "2011168": 0.52,
            "2011173": 0.58,
            "2011179": 0.67,
            "2011187": 0.76,
            "2011193": 0.88,
            "2011203": 1.02,
            "2011213": 1.09,
            "2011224": 1.11,
            "2011231": 1.17
        },
        "CWID": {
            "2011130": 0.08,
            "2011139": 0.11,
            "2011146": 0.22,
            "2011153": 0.27,
            "2011159": 0.34,
            "2011168": 0.4,
            "2011173": 0.48,
            "2011179": 0.59,
            "2011187": 0.62,
            "2011193": 0.76,
            "2011203": 0.92,
            "2011213": 0.89,
            "2011224": 1.02,
            "2011231": 1.02
        }
    },
    "_id": "643f2d738ac547c638759dc9",
    "ccid": "643f2d738ac547c638759dc9"
}{
    "type": "Feature",
    "geometry": {
        "type": "Point",
        "coordinates": [
            33.07372282,
            -111.99083238
        ]
    },
    "properties": {
        "cc_label": "p06-1",
        "CHTD": {
            "2011130": 0.09,
            "2011139": 0.15,
            "2011146": 0.2,
            "2011153": 0.29,
            "2011159": 0.38,
            "2011168": 0.54,
            "2011173": 0.65,
            "2011179": 0.73,
            "2011187": 0.78,
            "2011193": 0.86,
            "2011203": 0.93,
            "2011213": 1.04,
            "2011224": 1.08,
            "2011231": 1.09
        },
        "CWID": {
            "2011130": 0.07,
            "2011139": 0.14,
            "2011146": 0.22,
            "2011153": 0.25,
            "2011159": 0.35,
            "2011168": 0.37,
            "2011173": 0.54,
            "2011179": 0.55,
            "2011187": 0.61,
            "2011193": 0.74,
            "2011203": 0.86,
            "2011213": 0.97,
            "2011224": 1.0,
            "2011231": 1.02
        }
    },
    "_id": "643f2d738ac547c638759dca",
    "ccid": "643f2d738ac547c638759dca"
}{
    "type": "Feature",
    "geometry": {
        "type": "Point",
        "coordinates": [
            33.07420082,
            -111.99083774
        ]
    },
    "properties": {
        "cc_label": "p06-2",
        "CHTD": {
            "2011130": 0.05,
            "2011139": 0.16,
            "2011146": 0.22,
            "2011153": 0.26,
            "2011159": 0.28,
            "2011168": 0.51,
            "2011173": 0.62,
            "2011179": 0.72,
            "2011187": 0.81,
            "2011193": 0.9,
            "2011203": 0.99,
            "2011213": 1.0,
            "2011224": 1.15,
            "2011231": 1.24
        },
        "CWID": {
            "2011130": 0.04,
            "2011139": 0.12,
            "2011146": 0.18,
            "2011153": 0.22,
            "2011159": 0.36,
            "2011168": 0.49,
            "2011173": 0.49,
            "2011179": 0.56,
            "2011187": 0.69,
            "2011193": 0.77,
            "2011203": 0.89,
            "2011213": 1.02,
            "2011224": 1.02,
            "2011231": 1.02
        }
    },
    "_id": "643f2d738ac547c638759dcb",
    "ccid": "643f2d738ac547c638759dcb"
}{
    "type": "Feature",
    "geometry": {
        "type": "Point",
        "coordinates": [
            33.07467883,
            -111.9908431
        ]
    },
    "properties": {
        "cc_label": "p06-3",
        "CHTD": {
            "2011130": 0.08,
            "2011139": 0.17,
            "2011146": 0.23,
            "2011153": 0.27,
            "2011159": 0.41,
            "2011168": 0.47,
            "2011173": 0.63,
            "2011179": 0.59,
            "2011187": 0.71,
            "2011193": 0.82,
            "2011203": 0.91,
            "2011213": 1.01,
            "2011224": 1.14,
            "2011231": 1.14
        },
        "CWID": {
            "2011130": 0.08,
            "2011139": 0.09,
            "2011146": 0.2,
            "2011153": 0.28,
            "2011159": 0.4,
            "2011168": 0.39,
            "2011173": 0.5,
            "2011179": 0.53,
            "2011187": 0.63,
            "2011193": 0.66,
            "2011203": 0.85,
            "2011213": 0.99,
            "2011224": 0.98,
            "2011231": 1.02
        }
    },
    "_id": "643f2d738ac547c638759dcc",
    "ccid": "643f2d738ac547c638759dcc"
}{
    "type": "Feature",
    "geometry": {
        "type": "Point",
        "coordinates": [
            33.07372161,
            -111.99098475
        ]
    },
    "properties": {
        "cc_label": "p07-1",
        "CHTD": {
            "2011130": 0.06,
            "2011139": 0.12,
            "2011146": 0.2,
            "2011153": 0.25,
            "2011159": 0.35,
            "2011168": 0.51,
            "2011173": 0.61,
            "2011179": 0.77,
            "2011187": 0.85,
            "2011193": 0.93,
            "2011203": 1.02,
            "2011213": 1.13,
            "2011224": 1.15,
            "2011231": 1.26
        },
        "CWID": {
            "2011130": 0.05,
            "2011139": 0.11,
            "2011146": 0.15,
            "2011153": 0.23,
            "2011159": 0.33,
            "2011168": 0.45,
            "2011173": 0.53,
            "2011179": 0.58,
            "2011187": 0.53,
            "2011193": 0.76,
            "2011203": 0.88,
            "2011213": 1.02,
            "2011224": 1.02,
            "2011231": 1.02
        }
    },
    "_id": "643f2d738ac547c638759dcd",
    "ccid": "643f2d738ac547c638759dcd"
}{
    "type": "Feature",
    "geometry": {
        "type": "Point",
        "coordinates": [
            33.07419961,
            -111.99099011
        ]
    },
    "properties": {
        "cc_label": "p07-2",
        "CHTD": {
            "2011130": 0.07,
            "2011139": 0.13,
            "2011146": 0.2,
            "2011153": 0.28,
            "2011159": 0.37,
            "2011168": 0.57,
            "2011173": 0.68,
            "2011179": 0.79,
            "2011187": 0.85,
            "2011193": 1.01,
            "2011203": 1.07,
            "2011213": 1.14,
            "2011224": 1.24,
            "2011231": 1.28
        },
        "CWID": {
            "2011130": 0.05,
            "2011139": 0.11,
            "2011146": 0.18,
            "2011153": 0.28,
            "2011159": 0.34,
            "2011168": 0.5,
            "2011173": 0.61,
            "2011179": 0.69,
            "2011187": 0.62,
            "2011193": 0.78,
            "2011203": 0.96,
            "2011213": 1.02,
            "2011224": 1.02,
            "2011231": 1.02
        }
    },
    "_id": "643f2d738ac547c638759dce",
    "ccid": "643f2d738ac547c638759dce"
}{
    "type": "Feature",
    "geometry": {
        "type": "Point",
        "coordinates": [
            33.07467762,
            -111.99099547
        ]
    },
    "properties": {
        "cc_label": "p07-3",
        "CHTD": {
            "2011130": 0.06,
            "2011139": 0.14,
            "2011146": 0.19,
            "2011153": 0.28,
            "2011159": 0.38,
            "2011168": 0.61,
            "2011173": 0.67,
            "2011179": 0.85,
            "2011187": 0.87,
            "2011193": 1.01,
            "2011203": 1.11,
            "2011213": 1.15,
            "2011224": 1.21,
            "2011231": 1.2
        },
        "CWID": {
            "2011130": 0.05,
            "2011139": 0.14,
            "2011146": 0.15,
            "2011153": 0.24,
            "2011159": 0.33,
            "2011168": 0.45,
            "2011173": 0.55,
            "2011179": 0.6,
            "2011187": 0.68,
            "2011193": 0.8,
            "2011203": 1.01,
            "2011213": 1.02,
            "2011224": 1.02,
            "2011231": 1.02
        }
    },
    "_id": "643f2d738ac547c638759dcf",
    "ccid": "643f2d738ac547c638759dcf"
}{
    "type": "Feature",
    "geometry": {
        "type": "Point",
        "coordinates": [
            33.0737204,
            -111.99113712
        ]
    },
    "properties": {
        "cc_label": "p08-1",
        "CHTD": {
            "2011130": 0.07,
            "2011139": 0.14,
            "2011146": 0.21,
            "2011153": 0.27,
            "2011159": 0.38,
            "2011168": 0.53,
            "2011173": 0.66,
            "2011179": 0.85,
            "2011193": 1.0,
            "2011203": 1.05,
            "2011213": 1.11,
            "2011224": 1.13,
            "2011231": 1.26
        },
        "CWID": {
            "2011130": 0.07,
            "2011139": 0.12,
            "2011146": 0.17,
            "2011153": 0.25,
            "2011159": 0.37,
            "2011168": 0.5,
            "2011173": 0.63,
            "2011179": 0.72,
            "2011193": 0.87,
            "2011203": 1.02,
            "2011213": 1.02,
            "2011224": 1.02,
            "2011231": 1.02
        }
    },
    "_id": "643f2d738ac547c638759dd0",
    "ccid": "643f2d738ac547c638759dd0"
}{
    "type": "Feature",
    "geometry": {
        "type": "Point",
        "coordinates": [
            33.0741984,
            -111.99114248
        ]
    },
    "properties": {
        "cc_label": "p08-2",
        "CHTD": {
            "2011130": 0.08,
            "2011139": 0.17,
            "2011146": 0.22,
            "2011153": 0.29,
            "2011159": 0.41,
            "2011168": 0.59,
            "2011173": 0.63,
            "2011179": 0.81,
            "2011193": 1.02,
            "2011203": 1.09,
            "2011213": 1.15,
            "2011224": 1.16,
            "2011231": 1.23
        },
        "CWID": {
            "2011130": 0.07,
            "2011139": 0.12,
            "2011146": 0.18,
            "2011153": 0.27,
            "2011159": 0.35,
            "2011168": 0.43,
            "2011173": 0.51,
            "2011179": 0.75,
            "2011193": 0.9,
            "2011203": 1.02,
            "2011213": 1.02,
            "2011224": 1.02,
            "2011231": 1.02
        }
    },
    "_id": "643f2d738ac547c638759dd1",
    "ccid": "643f2d738ac547c638759dd1"
}{
    "type": "Feature",
    "geometry": {
        "type": "Point",
        "coordinates": [
            33.07467641,
            -111.99114784
        ]
    },
    "properties": {
        "cc_label": "p08-3",
        "CHTD": {
            "2011130": 0.06,
            "2011139": 0.14,
            "2011146": 0.21,
            "2011153": 0.27,
            "2011159": 0.38,
            "2011168": 0.55,
            "2011173": 0.69,
            "2011179": 0.82,
            "2011193": 1.01,
            "2011203": 1.09,
            "2011213": 1.11,
            "2011224": 1.13,
            "2011231": 1.11
        },
        "CWID": {
            "2011130": 0.07,
            "2011139": 0.1,
            "2011146": 0.18,
            "2011153": 0.26,
            "2011159": 0.33,
            "2011168": 0.53,
            "2011173": 0.58,
            "2011179": 0.65,
            "2011193": 0.89,
            "2011203": 1.02,
            "2011213": 1.02,
            "2011224": 1.02,
            "2011231": 1.02
        }
    },
    "_id": "643f2d738ac547c638759dd2",
    "ccid": "643f2d738ac547c638759dd2"
}{
    "type": "Feature",
    "geometry": {
        "type": "Point",
        "coordinates": [
            33.07371919,
            -111.99128949
        ]
    },
    "properties": {
        "cc_label": "p09-1",
        "CHTD": {
            "2011130": 0.07,
            "2011139": 0.13,
            "2011146": 0.18,
            "2011153": 0.26,
            "2011159": 0.37,
            "2011168": 0.45,
            "2011173": 0.57,
            "2011179": 0.66,
            "2011187": 0.76,
            "2011193": 0.82,
            "2011203": 0.88,
            "2011213": 0.96,
            "2011224": 0.99,
            "2011231": 1.04
        },
        "CWID": {
            "2011130": 0.06,
            "2011139": 0.11,
            "2011146": 0.17,
            "2011153": 0.25,
            "2011159": 0.34,
            "2011168": 0.38,
            "2011173": 0.47,
            "2011179": 0.43,
            "2011187": 0.52,
            "2011193": 0.66,
            "2011203": 0.84,
            "2011213": 0.87,
            "2011224": 0.84,
            "2011231": 0.92
        }
    },
    "_id": "643f2d738ac547c638759dd3",
    "ccid": "643f2d738ac547c638759dd3"
}{
    "type": "Feature",
    "geometry": {
        "type": "Point",
        "coordinates": [
            33.07419719,
            -111.99129485
        ]
    },
    "properties": {
        "cc_label": "p09-2",
        "CHTD": {
            "2011130": 0.08,
            "2011139": 0.14,
            "2011146": 0.2,
            "2011153": 0.29,
            "2011159": 0.36,
            "2011168": 0.47,
            "2011173": 0.57,
            "2011179": 0.67,
            "2011187": 0.73,
            "2011193": 0.85,
            "2011203": 0.91,
            "2011213": 0.99,
            "2011224": 1.05,
            "2011231": 1.11
        },
        "CWID": {
            "2011130": 0.07,
            "2011139": 0.12,
            "2011146": 0.18,
            "2011153": 0.29,
            "2011159": 0.36,
            "2011168": 0.39,
            "2011173": 0.47,
            "2011179": 0.6,
            "2011187": 0.59,
            "2011193": 0.65,
            "2011203": 0.8,
            "2011213": 0.89,
            "2011224": 0.92,
            "2011231": 1.02
        }
    },
    "_id": "643f2d738ac547c638759dd4",
    "ccid": "643f2d738ac547c638759dd4"
}{
    "type": "Feature",
    "geometry": {
        "type": "Point",
        "coordinates": [
            33.07467519,
            -111.99130021
        ]
    },
    "properties": {
        "cc_label": "p09-3",
        "CHTD": {
            "2011130": 0.08,
            "2011139": 0.15,
            "2011146": 0.21,
            "2011153": 0.26,
            "2011159": 0.34,
            "2011168": 0.49,
            "2011173": 0.57,
            "2011179": 0.68,
            "2011187": 0.75,
            "2011193": 0.87,
            "2011203": 0.95,
            "2011213": 1.0,
            "2011224": 1.11,
            "2011231": 1.07
        },
        "CWID": {
            "2011130": 0.06,
            "2011139": 0.11,
            "2011146": 0.21,
            "2011153": 0.24,
            "2011159": 0.37,
            "2011168": 0.39,
            "2011173": 0.53,
            "2011179": 0.62,
            "2011187": 0.48,
            "2011193": 0.64,
            "2011203": 0.76,
            "2011213": 0.92,
            "2011224": 0.97,
            "2011231": 0.99
        }
    },
    "_id": "643f2d738ac547c638759dd5",
    "ccid": "643f2d738ac547c638759dd5"
}{
    "type": "Feature",
    "geometry": {
        "type": "Point",
        "coordinates": [
            33.07371798,
            -111.99144186
        ]
    },
    "properties": {
        "cc_label": "p10-1",
        "CHTD": {
            "2011130": 0.08,
            "2011139": 0.15,
            "2011146": 0.25,
            "2011153": 0.29,
            "2011159": 0.38,
            "2011168": 0.51,
            "2011173": 0.63,
            "2011179": 0.79,
            "2011193": 0.88,
            "2011203": 1.0,
            "2011213": 1.0,
            "2011224": 1.06,
            "2011231": 1.05
        },
        "CWID": {
            "2011130": 0.08,
            "2011139": 0.11,
            "2011146": 0.23,
            "2011153": 0.28,
            "2011159": 0.34,
            "2011168": 0.46,
            "2011173": 0.51,
            "2011179": 0.63,
            "2011193": 0.91,
            "2011203": 1.02,
            "2011213": 1.02,
            "2011224": 1.02,
            "2011231": 1.02
        }
    },
    "_id": "643f2d738ac547c638759dd6",
    "ccid": "643f2d738ac547c638759dd6"
}{
    "type": "Feature",
    "geometry": {
        "type": "Point",
        "coordinates": [
            33.07419598,
            -111.99144722
        ]
    },
    "properties": {
        "cc_label": "p10-2",
        "CHTD": {
            "2011130": 0.07,
            "2011139": 0.14,
            "2011146": 0.19,
            "2011153": 0.26,
            "2011159": 0.36,
            "2011168": 0.53,
            "2011173": 0.66,
            "2011179": 0.84,
            "2011193": 0.97,
            "2011203": 1.08,
            "2011213": 1.15,
            "2011224": 1.16,
            "2011231": 1.18
        },
        "CWID": {
            "2011130": 0.04,
            "2011139": 0.1,
            "2011146": 0.16,
            "2011153": 0.18,
            "2011159": 0.34,
            "2011168": 0.41,
            "2011173": 0.53,
            "2011179": 0.68,
            "2011193": 0.86,
            "2011203": 1.02,
            "2011213": 1.02,
            "2011224": 1.02,
            "2011231": 1.02
        }
    },
    "_id": "643f2d738ac547c638759dd7",
    "ccid": "643f2d738ac547c638759dd7"
}{
    "type": "Feature",
    "geometry": {
        "type": "Point",
        "coordinates": [
            33.07467398,
            -111.99145258
        ]
    },
    "properties": {
        "cc_label": "p10-3",
        "CHTD": {
            "2011130": 0.06,
            "2011139": 0.13,
            "2011146": 0.22,
            "2011153": 0.28,
            "2011159": 0.39,
            "2011168": 0.57,
            "2011173": 0.71,
            "2011179": 0.76,
            "2011193": 1.05,
            "2011203": 1.15,
            "2011213": 1.24,
            "2011224": 1.31,
            "2011231": 1.28
        },
        "CWID": {
            "2011130": 0.05,
            "2011139": 0.1,
            "2011146": 0.2,
            "2011153": 0.27,
            "2011159": 0.31,
            "2011168": 0.53,
            "2011173": 0.63,
            "2011179": 0.7,
            "2011193": 0.99,
            "2011203": 1.02,
            "2011213": 1.02,
            "2011224": 1.02,
            "2011231": 1.02
        }
    },
    "_id": "643f2d738ac547c638759dd8",
    "ccid": "643f2d738ac547c638759dd8"
}{
    "type": "Feature",
    "geometry": {
        "type": "Point",
        "coordinates": [
            33.07371677,
            -111.99159422
        ]
    },
    "properties": {
        "cc_label": "p11-1",
        "CHTD": {
            "2011130": 0.07,
            "2011139": 0.14,
            "2011146": 0.22,
            "2011153": 0.28,
            "2011159": 0.38,
            "2011168": 0.54,
            "2011173": 0.58,
            "2011179": 0.71,
            "2011187": 0.81,
            "2011193": 0.91,
            "2011203": 1.02,
            "2011213": 1.11,
            "2011224": 1.12,
            "2011231": 1.17
        },
        "CWID": {
            "2011130": 0.06,
            "2011139": 0.13,
            "2011146": 0.19,
            "2011153": 0.28,
            "2011159": 0.38,
            "2011168": 0.46,
            "2011173": 0.49,
            "2011179": 0.53,
            "2011187": 0.68,
            "2011193": 0.76,
            "2011203": 0.81,
            "2011213": 0.98,
            "2011224": 1.02,
            "2011231": 1.02
        }
    },
    "_id": "643f2d738ac547c638759dd9",
    "ccid": "643f2d738ac547c638759dd9"
}{
    "type": "Feature",
    "geometry": {
        "type": "Point",
        "coordinates": [
            33.07419477,
            -111.99159959
        ]
    },
    "properties": {
        "cc_label": "p11-2",
        "CHTD": {
            "2011130": 0.08,
            "2011139": 0.17,
            "2011146": 0.21,
            "2011153": 0.29,
            "2011159": 0.41,
            "2011168": 0.56,
            "2011173": 0.59,
            "2011179": 0.71,
            "2011187": 0.86,
            "2011193": 0.92,
            "2011203": 1.06,
            "2011213": 1.16,
            "2011224": 1.19,
            "2011231": 1.22
        },
        "CWID": {
            "2011130": 0.06,
            "2011139": 0.14,
            "2011146": 0.17,
            "2011153": 0.27,
            "2011159": 0.37,
            "2011168": 0.48,
            "2011173": 0.55,
            "2011179": 0.63,
            "2011187": 0.75,
            "2011193": 0.82,
            "2011203": 0.98,
            "2011213": 1.02,
            "2011224": 1.02,
            "2011231": 1.02
        }
    },
    "_id": "643f2d738ac547c638759dda",
    "ccid": "643f2d738ac547c638759dda"
}{
    "type": "Feature",
    "geometry": {
        "type": "Point",
        "coordinates": [
            33.07467277,
            -111.99160495
        ]
    },
    "properties": {
        "cc_label": "p11-3",
        "CHTD": {
            "2011130": 0.06,
            "2011139": 0.16,
            "2011146": 0.19,
            "2011153": 0.26,
            "2011159": 0.37,
            "2011168": 0.52,
            "2011173": 0.52,
            "2011179": 0.65,
            "2011187": 0.75,
            "2011193": 0.91,
            "2011203": 1.05,
            "2011213": 1.15,
            "2011224": 1.16,
            "2011231": 1.19
        },
        "CWID": {
            "2011130": 0.05,
            "2011139": 0.12,
            "2011146": 0.15,
            "2011153": 0.25,
            "2011159": 0.33,
            "2011168": 0.46,
            "2011173": 0.45,
            "2011179": 0.55,
            "2011187": 0.66,
            "2011193": 0.73,
            "2011203": 0.94,
            "2011213": 0.94,
            "2011224": 1.02,
            "2011231": 1.02
        }
    },
    "_id": "643f2d738ac547c638759ddb",
    "ccid": "643f2d738ac547c638759ddb"
}{
    "type": "Feature",
    "geometry": {
        "type": "Point",
        "coordinates": [
            33.07371555,
            -111.99174659
        ]
    },
    "properties": {
        "cc_label": "p12-1",
        "CHTD": {
            "2011130": 0.06,
            "2011139": 0.15,
            "2011146": 0.21,
            "2011153": 0.29,
            "2011159": 0.41,
            "2011168": 0.62,
            "2011173": 0.73,
            "2011179": 0.92,
            "2011187": 0.98,
            "2011193": 1.03,
            "2011203": 1.18,
            "2011213": 1.32,
            "2011224": 1.34,
            "2011231": 1.39
        },
        "CWID": {
            "2011130": 0.07,
            "2011139": 0.13,
            "2011146": 0.21,
            "2011153": 0.29,
            "2011159": 0.37,
            "2011168": 0.48,
            "2011173": 0.74,
            "2011179": 0.7,
            "2011187": 0.87,
            "2011193": 0.95,
            "2011203": 1.02,
            "2011213": 1.02,
            "2011224": 1.02,
            "2011231": 1.02
        }
    },
    "_id": "643f2d738ac547c638759ddc",
    "ccid": "643f2d738ac547c638759ddc"
}{
    "type": "Feature",
    "geometry": {
        "type": "Point",
        "coordinates": [
            33.07419356,
            -111.99175196
        ]
    },
    "properties": {
        "cc_label": "p12-2",
        "CHTD": {
            "2011130": 0.08,
            "2011139": 0.14,
            "2011146": 0.22,
            "2011153": 0.28,
            "2011159": 0.39,
            "2011168": 0.56,
            "2011173": 0.68,
            "2011179": 0.8,
            "2011187": 0.88,
            "2011193": 0.93,
            "2011203": 1.04,
            "2011213": 1.14,
            "2011224": 1.34,
            "2011231": 1.41
        },
        "CWID": {
            "2011130": 0.07,
            "2011139": 0.11,
            "2011146": 0.19,
            "2011153": 0.24,
            "2011159": 0.32,
            "2011168": 0.5,
            "2011173": 0.6,
            "2011179": 0.71,
            "2011187": 0.71,
            "2011193": 0.81,
            "2011203": 1.02,
            "2011213": 1.02,
            "2011224": 1.02,
            "2011231": 1.02
        }
    },
    "_id": "643f2d738ac547c638759ddd",
    "ccid": "643f2d738ac547c638759ddd"
}{
    "type": "Feature",
    "geometry": {
        "type": "Point",
        "coordinates": [
            33.07467156,
            -111.99175732
        ]
    },
    "properties": {
        "cc_label": "p12-3",
        "CHTD": {
            "2011130": 0.07,
            "2011139": 0.12,
            "2011146": 0.21,
            "2011153": 0.27,
            "2011159": 0.38,
            "2011168": 0.57,
            "2011173": 0.64,
            "2011179": 0.78,
            "2011187": 0.89,
            "2011193": 0.94,
            "2011203": 1.05,
            "2011213": 1.16,
            "2011224": 1.25,
            "2011231": 1.28
        },
        "CWID": {
            "2011130": 0.05,
            "2011139": 0.12,
            "2011146": 0.16,
            "2011153": 0.22,
            "2011159": 0.34,
            "2011168": 0.47,
            "2011173": 0.56,
            "2011179": 0.63,
            "2011187": 0.62,
            "2011193": 0.73,
            "2011203": 1.02,
            "2011213": 1.02,
            "2011224": 1.02,
            "2011231": 1.02
        }
    },
    "_id": "643f2d738ac547c638759dde",
    "ccid": "643f2d738ac547c638759dde"
}{
    "type": "Feature",
    "geometry": {
        "type": "Point",
        "coordinates": [
            33.07371313,
            -111.99205133
        ]
    },
    "properties": {
        "cc_label": "p13-1",
        "CHTD": {
            "2011130": 0.06,
            "2011139": 0.14,
            "2011146": 0.21,
            "2011153": 0.27,
            "2011159": 0.34,
            "2011168": 0.47,
            "2011173": 0.58,
            "2011179": 0.62,
            "2011187": 0.73,
            "2011193": 0.82,
            "2011203": 0.97,
            "2011213": 1.04,
            "2011224": 1.1,
            "2011231": 1.14
        },
        "CWID": {
            "2011130": 0.05,
            "2011139": 0.1,
            "2011146": 0.18,
            "2011153": 0.25,
            "2011159": 0.31,
            "2011168": 0.3,
            "2011173": 0.48,
            "2011179": 0.51,
            "2011187": 0.56,
            "2011193": 0.68,
            "2011203": 0.93,
            "2011213": 0.97,
            "2011224": 1.02,
            "2011231": 1.02
        }
    },
    "_id": "643f2d738ac547c638759ddf",
    "ccid": "643f2d738ac547c638759ddf"
}{
    "type": "Feature",
    "geometry": {
        "type": "Point",
        "coordinates": [
            33.07419113,
            -111.9920567
        ]
    },
    "properties": {
        "cc_label": "p13-2",
        "CHTD": {
            "2011130": 0.07,
            "2011139": 0.16,
            "2011146": 0.2,
            "2011153": 0.27,
            "2011159": 0.38,
            "2011168": 0.51,
            "2011173": 0.6,
            "2011179": 0.72,
            "2011187": 0.73,
            "2011193": 0.83,
            "2011203": 0.96,
            "2011213": 1.08,
            "2011224": 1.11,
            "2011231": 1.15
        },
        "CWID": {
            "2011130": 0.06,
            "2011139": 0.1,
            "2011146": 0.16,
            "2011153": 0.25,
            "2011159": 0.31,
            "2011168": 0.36,
            "2011173": 0.49,
            "2011179": 0.59,
            "2011187": 0.56,
            "2011193": 0.72,
            "2011203": 0.89,
            "2011213": 0.99,
            "2011224": 0.96,
            "2011231": 1.02
        }
    },
    "_id": "643f2d738ac547c638759de0",
    "ccid": "643f2d738ac547c638759de0"
}{
    "type": "Feature",
    "geometry": {
        "type": "Point",
        "coordinates": [
            33.07466913,
            -111.99206206
        ]
    },
    "properties": {
        "cc_label": "p13-3",
        "CHTD": {
            "2011130": 0.07,
            "2011139": 0.13,
            "2011146": 0.21,
            "2011153": 0.24,
            "2011159": 0.36,
            "2011168": 0.47,
            "2011173": 0.53,
            "2011179": 0.6,
            "2011187": 0.71,
            "2011193": 0.73,
            "2011203": 0.84,
            "2011213": 0.95,
            "2011224": 1.09,
            "2011231": 1.1
        },
        "CWID": {
            "2011130": 0.05,
            "2011139": 0.11,
            "2011146": 0.17,
            "2011153": 0.23,
            "2011159": 0.33,
            "2011168": 0.35,
            "2011173": 0.46,
            "2011179": 0.43,
            "2011187": 0.56,
            "2011193": 0.47,
            "2011203": 0.76,
            "2011213": 0.81,
            "2011224": 0.95,
            "2011231": 1.02
        }
    },
    "_id": "643f2d738ac547c638759de1",
    "ccid": "643f2d738ac547c638759de1"
}{
    "type": "Feature",
    "geometry": {
        "type": "Point",
        "coordinates": [
            33.07371192,
            -111.9922037
        ]
    },
    "properties": {
        "cc_label": "p14-1",
        "CHTD": {
            "2011130": 0.06,
            "2011139": 0.15,
            "2011146": 0.22,
            "2011153": 0.28,
            "2011159": 0.41,
            "2011168": 0.54,
            "2011173": 0.64,
            "2011179": 0.78,
            "2011187": 0.83,
            "2011193": 1.0,
            "2011203": 1.11,
            "2011213": 1.26,
            "2011224": 1.34,
            "2011231": 1.42
        },
        "CWID": {
            "2011130": 0.06,
            "2011139": 0.08,
            "2011146": 0.21,
            "2011153": 0.27,
            "2011159": 0.34,
            "2011168": 0.45,
            "2011173": 0.54,
            "2011179": 0.65,
            "2011187": 0.69,
            "2011193": 0.81,
            "2011203": 1.02,
            "2011213": 1.02,
            "2011224": 1.02,
            "2011231": 1.02
        }
    },
    "_id": "643f2d738ac547c638759de2",
    "ccid": "643f2d738ac547c638759de2"
}{
    "type": "Feature",
    "geometry": {
        "type": "Point",
        "coordinates": [
            33.07418992,
            -111.99220907
        ]
    },
    "properties": {
        "cc_label": "p14-2",
        "CHTD": {
            "2011130": 0.08,
            "2011139": 0.12,
            "2011146": 0.21,
            "2011153": 0.28,
            "2011159": 0.4,
            "2011168": 0.56,
            "2011173": 0.66,
            "2011179": 0.77,
            "2011187": 0.88,
            "2011193": 0.98,
            "2011203": 1.12,
            "2011213": 1.27,
            "2011224": 1.38,
            "2011231": 1.39
        },
        "CWID": {
            "2011130": 0.06,
            "2011139": 0.09,
            "2011146": 0.19,
            "2011153": 0.26,
            "2011159": 0.36,
            "2011168": 0.42,
            "2011173": 0.6,
            "2011179": 0.66,
            "2011187": 0.76,
            "2011193": 0.84,
            "2011203": 1.02,
            "2011213": 1.02,
            "2011224": 1.02,
            "2011231": 1.02
        }
    },
    "_id": "643f2d738ac547c638759de3",
    "ccid": "643f2d738ac547c638759de3"
}{
    "type": "Feature",
    "geometry": {
        "type": "Point",
        "coordinates": [
            33.07466792,
            -111.99221443
        ]
    },
    "properties": {
        "cc_label": "p14-3",
        "CHTD": {
            "2011130": 0.06,
            "2011139": 0.14,
            "2011146": 0.22,
            "2011153": 0.28,
            "2011159": 0.4,
            "2011168": 0.54,
            "2011173": 0.67,
            "2011179": 0.74,
            "2011187": 0.82,
            "2011193": 0.95,
            "2011203": 1.07,
            "2011213": 1.21,
            "2011224": 1.31,
            "2011231": 1.34
        },
        "CWID": {
            "2011130": 0.05,
            "2011139": 0.12,
            "2011146": 0.18,
            "2011153": 0.27,
            "2011159": 0.38,
            "2011168": 0.4,
            "2011173": 0.52,
            "2011179": 0.48,
            "2011187": 0.65,
            "2011193": 0.81,
            "2011203": 1.02,
            "2011213": 1.02,
            "2011224": 1.02,
            "2011231": 1.02
        }
    },
    "_id": "643f2d738ac547c638759de4",
    "ccid": "643f2d738ac547c638759de4"
}{
    "type": "Feature",
    "geometry": {
        "type": "Point",
        "coordinates": [
            33.07371071,
            -111.99235607
        ]
    },
    "properties": {
        "cc_label": "p15-1",
        "CHTD": {
            "2011130": 0.08,
            "2011139": 0.14,
            "2011146": 0.22,
            "2011153": 0.29,
            "2011159": 0.39,
            "2011168": 0.53,
            "2011173": 0.54,
            "2011179": 0.69,
            "2011187": 0.75,
            "2011193": 0.85,
            "2011203": 1.02,
            "2011213": 1.05,
            "2011231": 1.21
        },
        "CWID": {
            "2011130": 0.07,
            "2011139": 0.11,
            "2011146": 0.18,
            "2011153": 0.23,
            "2011159": 0.36,
            "2011168": 0.39,
            "2011173": 0.46,
            "2011179": 0.59,
            "2011187": 0.64,
            "2011193": 0.78,
            "2011203": 0.9,
            "2011213": 0.93,
            "2011231": 1.02
        }
    },
    "_id": "643f2d738ac547c638759de5",
    "ccid": "643f2d738ac547c638759de5"
}{
    "type": "Feature",
    "geometry": {
        "type": "Point",
        "coordinates": [
            33.07418871,
            -111.99236144
        ]
    },
    "properties": {
        "cc_label": "p15-2",
        "CHTD": {
            "2011130": 0.06,
            "2011139": 0.1,
            "2011146": 0.21,
            "2011153": 0.28,
            "2011159": 0.37,
            "2011168": 0.51,
            "2011173": 0.57,
            "2011179": 0.68,
            "2011187": 0.77,
            "2011193": 0.91,
            "2011203": 1.03,
            "2011213": 1.08,
            "2011231": 1.16
        },
        "CWID": {
            "2011130": 0.05,
            "2011139": 0.09,
            "2011146": 0.19,
            "2011153": 0.26,
            "2011159": 0.33,
            "2011168": 0.35,
            "2011173": 0.46,
            "2011179": 0.59,
            "2011187": 0.66,
            "2011193": 0.75,
            "2011203": 0.86,
            "2011213": 0.95,
            "2011231": 1.02
        }
    },
    "_id": "643f2d738ac547c638759de6",
    "ccid": "643f2d738ac547c638759de6"
}{
    "type": "Feature",
    "geometry": {
        "type": "Point",
        "coordinates": [
            33.07466671,
            -111.99236681
        ]
    },
    "properties": {
        "cc_label": "p15-3",
        "CHTD": {
            "2011130": 0.08,
            "2011139": 0.16,
            "2011146": 0.22,
            "2011153": 0.31,
            "2011159": 0.44,
            "2011168": 0.59,
            "2011173": 0.61,
            "2011179": 0.72,
            "2011187": 0.84,
            "2011193": 0.98,
            "2011203": 1.03,
            "2011213": 1.17,
            "2011231": 1.28
        },
        "CWID": {
            "2011130": 0.08,
            "2011139": 0.12,
            "2011146": 0.22,
            "2011153": 0.27,
            "2011159": 0.34,
            "2011168": 0.43,
            "2011173": 0.51,
            "2011179": 0.6,
            "2011187": 0.78,
            "2011193": 0.87,
            "2011203": 0.97,
            "2011213": 0.97,
            "2011231": 1.02
        }
    },
    "_id": "643f2d738ac547c638759de7",
    "ccid": "643f2d738ac547c638759de7"
}{
    "type": "Feature",
    "geometry": {
        "type": "Point",
        "coordinates": [
            33.07370949,
            -111.99250844
        ]
    },
    "properties": {
        "cc_label": "p16-1",
        "CHTD": {
            "2011130": 0.08,
            "2011139": 0.14,
            "2011146": 0.24,
            "2011153": 0.3,
            "2011159": 0.4,
            "2011168": 0.53,
            "2011173": 0.64,
            "2011179": 0.78,
            "2011193": 0.91,
            "2011203": 1.03,
            "2011213": 1.05,
            "2011231": 1.1
        },
        "CWID": {
            "2011130": 0.05,
            "2011139": 0.1,
            "2011146": 0.23,
            "2011153": 0.3,
            "2011159": 0.39,
            "2011168": 0.46,
            "2011173": 0.6,
            "2011179": 0.69,
            "2011193": 0.79,
            "2011203": 0.93,
            "2011213": 0.92,
            "2011231": 1.02
        }
    },
    "_id": "643f2d738ac547c638759de8",
    "ccid": "643f2d738ac547c638759de8"
}{
    "type": "Feature",
    "geometry": {
        "type": "Point",
        "coordinates": [
            33.07418749,
            -111.99251381
        ]
    },
    "properties": {
        "cc_label": "p16-2",
        "CHTD": {
            "2011130": 0.08,
            "2011139": 0.14,
            "2011146": 0.22,
            "2011153": 0.28,
            "2011159": 0.4,
            "2011168": 0.52,
            "2011173": 0.63,
            "2011179": 0.74,
            "2011193": 0.92,
            "2011203": 0.99,
            "2011213": 0.98,
            "2011231": 1.11
        },
        "CWID": {
            "2011130": 0.06,
            "2011139": 0.12,
            "2011146": 0.16,
            "2011153": 0.24,
            "2011159": 0.35,
            "2011168": 0.44,
            "2011173": 0.53,
            "2011179": 0.66,
            "2011193": 0.72,
            "2011203": 0.82,
            "2011213": 0.9,
            "2011231": 1.02
        }
    },
    "_id": "643f2d738ac547c638759de9",
    "ccid": "643f2d738ac547c638759de9"
}{
    "type": "Feature",
    "geometry": {
        "type": "Point",
        "coordinates": [
            33.0746655,
            -111.99251918
        ]
    },
    "properties": {
        "cc_label": "p16-3",
        "CHTD": {
            "2011130": 0.09,
            "2011139": 0.17,
            "2011146": 0.26,
            "2011153": 0.29,
            "2011159": 0.42,
            "2011168": 0.52,
            "2011173": 0.64,
            "2011179": 0.82,
            "2011193": 0.95,
            "2011203": 1.03,
            "2011213": 1.09,
            "2011231": 1.19
        },
        "CWID": {
            "2011130": 0.07,
            "2011139": 0.12,
            "2011146": 0.19,
            "2011153": 0.28,
            "2011159": 0.38,
            "2011168": 0.38,
            "2011173": 0.51,
            "2011179": 0.66,
            "2011193": 0.77,
            "2011203": 0.93,
            "2011213": 1.02,
            "2011231": 1.02
        }
    },
    "_id": "643f2d738ac547c638759dea",
    "ccid": "643f2d738ac547c638759dea"
}