{
    "type": "FeatureCollection",
    "features": [
        {
            "type": "Feature",
            "geometry": {
                "type": "Point",
                "coordinates": [
                    33.07373065,
                    -111.99003201
                ]
            },
            "properties": {
                "sca_label": "p01-2",
                "SOIL_DATE": "2011-05-01",
                "SNO3": [
                    {
                        "depth": 15,
                        "mindepth": 0,
                        "maxdepth": 30,
                        "value": 0.54
                    },
                    {
                        "depth": 45,
                        "mindepth": 30,
                        "maxdepth": 60,
                        "value": 1.65
                    },
                    {
                        "depth": 75,
                        "mindepth": 60,
                        "maxdepth": 90,
                        "value": 2.55
                    }
                ],
                "pid": "643f25fe8ac547c328e484fd"
            },
            "_id": "689baadc8ac5472c70ba165f",
            "scaid": "689baadc8ac5472c70ba165f"
        },
        {
            "type": "Feature",
            "geometry": {
                "type": "Point",
                "coordinates": [
                    33.07420866,
                    -111.99003736
                ]
            },
            "properties": {
                "sca_label": "p01-4",
                "SOIL_DATE": "2011-05-01",
                "SNO3": [
                    {
                        "depth": 15,
                        "mindepth": 0,
                        "maxdepth": 30,
                        "value": 1.44
                    },
                    {
                        "depth": 45,
                        "mindepth": 30,
                        "maxdepth": 60,
                        "value": 3.34
                    },
                    {
                        "depth": 75,
                        "mindepth": 60,
                        "maxdepth": 90,
                        "value": 3.18
                    }
                ],
                "pid": "643f25fe8ac547c328e484fd"
            },
            "_id": "689baadc8ac5472c70ba1660",
            "scaid": "689baadc8ac5472c70ba1660"
        },
        {
            "type": "Feature",
            "geometry": {
                "type": "Point",
                "coordinates": [
                    33.07468666,
                    -111.99004272
                ]
            },
            "properties": {
                "sca_label": "p01-6",
                "SOIL_DATE": "2011-05-01",
                "SNO3": [
                    {
                        "depth": 15,
                        "mindepth": 0,
                        "maxdepth": 30,
                        "value": 6.38
                    },
                    {
                        "depth": 45,
                        "mindepth": 30,
                        "maxdepth": 60,
                        "value": 2.38
                    },
                    {
                        "depth": 75,
                        "mindepth": 60,
                        "maxdepth": 90,
                        "value": 9.66
                    }
                ],
                "pid": "643f25fe8ac547c328e484fd"
            },
            "_id": "689baadc8ac5472c70ba1661",
            "scaid": "689baadc8ac5472c70ba1661"
        },
        {
            "type": "Feature",
            "geometry": {
                "type": "Point",
                "coordinates": [
                    33.07372944,
                    -111.99018438
                ]
            },
            "properties": {
                "sca_label": "p02-2",
                "SOIL_DATE": "2011-05-01",
                "SNO3": [
                    {
                        "depth": 15,
                        "mindepth": 0,
                        "maxdepth": 30,
                        "value": 5.28
                    },
                    {
                        "depth": 45,
                        "mindepth": 30,
                        "maxdepth": 60,
                        "value": 9.05
                    },
                    {
                        "depth": 75,
                        "mindepth": 60,
                        "maxdepth": 90,
                        "value": 10.99
                    }
                ],
                "pid": "643f25fe8ac547c328e484fe"
            },
            "_id": "689baadc8ac5472c70ba1662",
            "scaid": "689baadc8ac5472c70ba1662"
        },
        {
            "type": "Feature",
            "geometry": {
                "type": "Point",
                "coordinates": [
                    33.07420745,
                    -111.99018973
                ]
            },
            "properties": {
                "sca_label": "p02-4",
                "SOIL_DATE": "2011-05-01",
                "SNO3": [
                    {
                        "depth": 15,
                        "mindepth": 0,
                        "maxdepth": 30,
                        "value": 9.52
                    },
                    {
                        "depth": 45,
                        "mindepth": 30,
                        "maxdepth": 60,
                        "value": 7.08
                    },
                    {
                        "depth": 75,
                        "mindepth": 60,
                        "maxdepth": 90,
                        "value": 7.96
                    }
                ],
                "pid": "643f25fe8ac547c328e484fe"
            },
            "_id": "689baadc8ac5472c70ba1663",
            "scaid": "689baadc8ac5472c70ba1663"
        },
        {
            "type": "Feature",
            "geometry": {
                "type": "Point",
                "coordinates": [
                    33.07468545,
                    -111.99019509
                ]
            },
            "properties": {
                "sca_label": "p02-6",
                "SOIL_DATE": "2011-05-01",
                "SNO3": [
                    {
                        "depth": 15,
                        "mindepth": 0,
                        "maxdepth": 30,
                        "value": 9.09
                    },
                    {
                        "depth": 45,
                        "mindepth": 30,
                        "maxdepth": 60,
                        "value": 4.5
                    },
                    {
                        "depth": 75,
                        "mindepth": 60,
                        "maxdepth": 90,
                        "value": 4.06
                    }
                ],
                "pid": "643f25fe8ac547c328e484fe"
            },
            "_id": "689baadc8ac5472c70ba1664",
            "scaid": "689baadc8ac5472c70ba1664"
        },
        {
            "type": "Feature",
            "geometry": {
                "type": "Point",
                "coordinates": [
                    33.07372823,
                    -111.99033675
                ]
            },
            "properties": {
                "sca_label": "p03-2",
                "SOIL_DATE": "2011-05-01",
                "SNO3": [
                    {
                        "depth": 15,
                        "mindepth": 0,
                        "maxdepth": 30,
                        "value": 2.06
                    },
                    {
                        "depth": 45,
                        "mindepth": 30,
                        "maxdepth": 60,
                        "value": 4.89
                    },
                    {
                        "depth": 75,
                        "mindepth": 60,
                        "maxdepth": 90,
                        "value": 2.82
                    }
                ],
                "pid": "643f25fe8ac547c328e484ff"
            },
            "_id": "689baadc8ac5472c70ba1665",
            "scaid": "689baadc8ac5472c70ba1665"
        },
        {
            "type": "Feature",
            "geometry": {
                "type": "Point",
                "coordinates": [
                    33.07420624,
                    -111.9903421
                ]
            },
            "properties": {
                "sca_label": "p03-4",
                "SOIL_DATE": "2011-05-01",
                "SNO3": [
                    {
                        "depth": 15,
                        "mindepth": 0,
                        "maxdepth": 30,
                        "value": 0.78
                    },
                    {
                        "depth": 45,
                        "mindepth": 30,
                        "maxdepth": 60,
                        "value": 1.25
                    },
                    {
                        "depth": 75,
                        "mindepth": 60,
                        "maxdepth": 90,
                        "value": 2.21
                    }
                ],
                "pid": "643f25fe8ac547c328e484ff"
            },
            "_id": "689baadc8ac5472c70ba1666",
            "scaid": "689baadc8ac5472c70ba1666"
        },
        {
            "type": "Feature",
            "geometry": {
                "type": "Point",
                "coordinates": [
                    33.07468424,
                    -111.99034746
                ]
            },
            "properties": {
                "sca_label": "p03-6",
                "SOIL_DATE": "2011-05-01",
                "SNO3": [
                    {
                        "depth": 15,
                        "mindepth": 0,
                        "maxdepth": 30,
                        "value": 7.46
                    },
                    {
                        "depth": 45,
                        "mindepth": 30,
                        "maxdepth": 60,
                        "value": 4.2
                    },
                    {
                        "depth": 75,
                        "mindepth": 60,
                        "maxdepth": 90,
                        "value": 7.02
                    }
                ],
                "pid": "643f25fe8ac547c328e484ff"
            },
            "_id": "689baadc8ac5472c70ba1667",
            "scaid": "689baadc8ac5472c70ba1667"
        },
        {
            "type": "Feature",
            "geometry": {
                "type": "Point",
                "coordinates": [
                    33.07372702,
                    -111.99048912
                ]
            },
            "properties": {
                "sca_label": "p04-2",
                "SOIL_DATE": "2011-05-01",
                "SNO3": [
                    {
                        "depth": 15,
                        "mindepth": 0,
                        "maxdepth": 30,
                        "value": 8.91
                    },
                    {
                        "depth": 45,
                        "mindepth": 30,
                        "maxdepth": 60,
                        "value": 9.33
                    },
                    {
                        "depth": 75,
                        "mindepth": 60,
                        "maxdepth": 90,
                        "value": 15.89
                    }
                ],
                "pid": "643f25fe8ac547c328e48500"
            },
            "_id": "689baadc8ac5472c70ba1668",
            "scaid": "689baadc8ac5472c70ba1668"
        },
        {
            "type": "Feature",
            "geometry": {
                "type": "Point",
                "coordinates": [
                    33.07420503,
                    -111.99049447
                ]
            },
            "properties": {
                "sca_label": "p04-4",
                "SOIL_DATE": "2011-05-01",
                "SNO3": [
                    {
                        "depth": 15,
                        "mindepth": 0,
                        "maxdepth": 30,
                        "value": 14.96
                    },
                    {
                        "depth": 45,
                        "mindepth": 30,
                        "maxdepth": 60,
                        "value": 29.68
                    },
                    {
                        "depth": 75,
                        "mindepth": 60,
                        "maxdepth": 90,
                        "value": 10.66
                    }
                ],
                "pid": "643f25fe8ac547c328e48500"
            },
            "_id": "689baadc8ac5472c70ba1669",
            "scaid": "689baadc8ac5472c70ba1669"
        },
        {
            "type": "Feature",
            "geometry": {
                "type": "Point",
                "coordinates": [
                    33.07468303,
                    -111.99049983
                ]
            },
            "properties": {
                "sca_label": "p04-6",
                "SOIL_DATE": "2011-05-01",
                "SNO3": [
                    {
                        "depth": 15,
                        "mindepth": 0,
                        "maxdepth": 30,
                        "value": 4.62
                    },
                    {
                        "depth": 45,
                        "mindepth": 30,
                        "maxdepth": 60,
                        "value": 2.33
                    },
                    {
                        "depth": 75,
                        "mindepth": 60,
                        "maxdepth": 90,
                        "value": 2.82
                    }
                ],
                "pid": "643f25fe8ac547c328e48500"
            },
            "_id": "689baadc8ac5472c70ba166a",
            "scaid": "689baadc8ac5472c70ba166a"
        },
        {
            "type": "Feature",
            "geometry": {
                "type": "Point",
                "coordinates": [
                    33.07372581,
                    -111.99064149
                ]
            },
            "properties": {
                "sca_label": "p05-2",
                "SOIL_DATE": "2011-05-01",
                "SNO3": [
                    {
                        "depth": 15,
                        "mindepth": 0,
                        "maxdepth": 30,
                        "value": 2.84
                    },
                    {
                        "depth": 45,
                        "mindepth": 30,
                        "maxdepth": 60,
                        "value": 3.14
                    },
                    {
                        "depth": 75,
                        "mindepth": 60,
                        "maxdepth": 90,
                        "value": 4.48
                    }
                ],
                "pid": "643f25fe8ac547c328e48501"
            },
            "_id": "689baadc8ac5472c70ba166b",
            "scaid": "689baadc8ac5472c70ba166b"
        },
        {
            "type": "Feature",
            "geometry": {
                "type": "Point",
                "coordinates": [
                    33.07420382,
                    -111.99064685
                ]
            },
            "properties": {
                "sca_label": "p05-4",
                "SOIL_DATE": "2011-05-01",
                "SNO3": [
                    {
                        "depth": 15,
                        "mindepth": 0,
                        "maxdepth": 30,
                        "value": 2.53
                    },
                    {
                        "depth": 45,
                        "mindepth": 30,
                        "maxdepth": 60,
                        "value": 7.8
                    },
                    {
                        "depth": 75,
                        "mindepth": 60,
                        "maxdepth": 90,
                        "value": 3.09
                    }
                ],
                "pid": "643f25fe8ac547c328e48501"
            },
            "_id": "689baadc8ac5472c70ba166c",
            "scaid": "689baadc8ac5472c70ba166c"
        },
        {
            "type": "Feature",
            "geometry": {
                "type": "Point",
                "coordinates": [
                    33.07468182,
                    -111.9906522
                ]
            },
            "properties": {
                "sca_label": "p05-6",
                "SOIL_DATE": "2011-05-01",
                "SNO3": [
                    {
                        "depth": 15,
                        "mindepth": 0,
                        "maxdepth": 30,
                        "value": 10.3
                    },
                    {
                        "depth": 45,
                        "mindepth": 30,
                        "maxdepth": 60,
                        "value": 8.22
                    },
                    {
                        "depth": 75,
                        "mindepth": 60,
                        "maxdepth": 90,
                        "value": 3.38
                    }
                ],
                "pid": "643f25fe8ac547c328e48501"
            },
            "_id": "689baadc8ac5472c70ba166d",
            "scaid": "689baadc8ac5472c70ba166d"
        },
        {
            "type": "Feature",
            "geometry": {
                "type": "Point",
                "coordinates": [
                    33.0737246,
                    -111.99079386
                ]
            },
            "properties": {
                "sca_label": "p06-2",
                "SOIL_DATE": "2011-05-01",
                "SNO3": [
                    {
                        "depth": 15,
                        "mindepth": 0,
                        "maxdepth": 30,
                        "value": 11.44
                    },
                    {
                        "depth": 45,
                        "mindepth": 30,
                        "maxdepth": 60,
                        "value": 12.99
                    },
                    {
                        "depth": 75,
                        "mindepth": 60,
                        "maxdepth": 90,
                        "value": 17.64
                    }
                ],
                "pid": "643f25fe8ac547c328e48502"
            },
            "_id": "689baadc8ac5472c70ba166e",
            "scaid": "689baadc8ac5472c70ba166e"
        },
        {
            "type": "Feature",
            "geometry": {
                "type": "Point",
                "coordinates": [
                    33.07420261,
                    -111.99079922
                ]
            },
            "properties": {
                "sca_label": "p06-4",
                "SOIL_DATE": "2011-05-01",
                "SNO3": [
                    {
                        "depth": 15,
                        "mindepth": 0,
                        "maxdepth": 30,
                        "value": 15.9
                    },
                    {
                        "depth": 45,
                        "mindepth": 30,
                        "maxdepth": 60,
                        "value": 16.56
                    },
                    {
                        "depth": 75,
                        "mindepth": 60,
                        "maxdepth": 90,
                        "value": 11.08
                    }
                ],
                "pid": "643f25fe8ac547c328e48502"
            },
            "_id": "689baadc8ac5472c70ba166f",
            "scaid": "689baadc8ac5472c70ba166f"
        },
        {
            "type": "Feature",
            "geometry": {
                "type": "Point",
                "coordinates": [
                    33.07468061,
                    -111.99080457
                ]
            },
            "properties": {
                "sca_label": "p06-6",
                "SOIL_DATE": "2011-05-01",
                "SNO3": [
                    {
                        "depth": 15,
                        "mindepth": 0,
                        "maxdepth": 30,
                        "value": 14.43
                    },
                    {
                        "depth": 45,
                        "mindepth": 30,
                        "maxdepth": 60,
                        "value": 8.85
                    },
                    {
                        "depth": 75,
                        "mindepth": 60,
                        "maxdepth": 90,
                        "value": 2.47
                    }
                ],
                "pid": "643f25fe8ac547c328e48502"
            },
            "_id": "689baadc8ac5472c70ba1670",
            "scaid": "689baadc8ac5472c70ba1670"
        },
        {
            "type": "Feature",
            "geometry": {
                "type": "Point",
                "coordinates": [
                    33.07372339,
                    -111.99094623
                ]
            },
            "properties": {
                "sca_label": "p07-2",
                "SOIL_DATE": "2011-05-01",
                "SNO3": [
                    {
                        "depth": 15,
                        "mindepth": 0,
                        "maxdepth": 30,
                        "value": 12.08
                    },
                    {
                        "depth": 45,
                        "mindepth": 30,
                        "maxdepth": 60,
                        "value": 9.43
                    },
                    {
                        "depth": 75,
                        "mindepth": 60,
                        "maxdepth": 90,
                        "value": 1.95
                    }
                ],
                "pid": "643f25fe8ac547c328e48503"
            },
            "_id": "689baadc8ac5472c70ba1671",
            "scaid": "689baadc8ac5472c70ba1671"
        },
        {
            "type": "Feature",
            "geometry": {
                "type": "Point",
                "coordinates": [
                    33.07420139,
                    -111.99095159
                ]
            },
            "properties": {
                "sca_label": "p07-4",
                "SOIL_DATE": "2011-05-01",
                "SNO3": [
                    {
                        "depth": 15,
                        "mindepth": 0,
                        "maxdepth": 30,
                        "value": 13.59
                    },
                    {
                        "depth": 45,
                        "mindepth": 30,
                        "maxdepth": 60,
                        "value": 11.23
                    },
                    {
                        "depth": 75,
                        "mindepth": 60,
                        "maxdepth": 90,
                        "value": 10.74
                    }
                ],
                "pid": "643f25fe8ac547c328e48503"
            },
            "_id": "689baadc8ac5472c70ba1672",
            "scaid": "689baadc8ac5472c70ba1672"
        },
        {
            "type": "Feature",
            "geometry": {
                "type": "Point",
                "coordinates": [
                    33.0746794,
                    -111.99095694
                ]
            },
            "properties": {
                "sca_label": "p07-6",
                "SOIL_DATE": "2011-05-01",
                "SNO3": [
                    {
                        "depth": 15,
                        "mindepth": 0,
                        "maxdepth": 30,
                        "value": 12.77
                    },
                    {
                        "depth": 45,
                        "mindepth": 30,
                        "maxdepth": 60,
                        "value": 7.2
                    },
                    {
                        "depth": 75,
                        "mindepth": 60,
                        "maxdepth": 90,
                        "value": 2.4
                    }
                ],
                "pid": "643f25fe8ac547c328e48503"
            },
            "_id": "689baadc8ac5472c70ba1673",
            "scaid": "689baadc8ac5472c70ba1673"
        },
        {
            "type": "Feature",
            "geometry": {
                "type": "Point",
                "coordinates": [
                    33.07372218,
                    -111.9910986
                ]
            },
            "properties": {
                "sca_label": "p08-2",
                "SOIL_DATE": "2011-05-01",
                "SNO3": [
                    {
                        "depth": 15,
                        "mindepth": 0,
                        "maxdepth": 30,
                        "value": 29.19
                    },
                    {
                        "depth": 45,
                        "mindepth": 30,
                        "maxdepth": 60,
                        "value": 24.34
                    },
                    {
                        "depth": 75,
                        "mindepth": 60,
                        "maxdepth": 90,
                        "value": 15.7
                    }
                ],
                "pid": "643f25fe8ac547c328e48504"
            },
            "_id": "689baadc8ac5472c70ba1674",
            "scaid": "689baadc8ac5472c70ba1674"
        },
        {
            "type": "Feature",
            "geometry": {
                "type": "Point",
                "coordinates": [
                    33.07420018,
                    -111.99110396
                ]
            },
            "properties": {
                "sca_label": "p08-4",
                "SOIL_DATE": "2011-05-01",
                "SNO3": [
                    {
                        "depth": 15,
                        "mindepth": 0,
                        "maxdepth": 30,
                        "value": 13.88
                    },
                    {
                        "depth": 45,
                        "mindepth": 30,
                        "maxdepth": 60,
                        "value": 10.35
                    },
                    {
                        "depth": 75,
                        "mindepth": 60,
                        "maxdepth": 90,
                        "value": 6.84
                    }
                ],
                "pid": "643f25fe8ac547c328e48504"
            },
            "_id": "689baadc8ac5472c70ba1675",
            "scaid": "689baadc8ac5472c70ba1675"
        },
        {
            "type": "Feature",
            "geometry": {
                "type": "Point",
                "coordinates": [
                    33.07467819,
                    -111.99110932
                ]
            },
            "properties": {
                "sca_label": "p08-6",
                "SOIL_DATE": "2011-05-01",
                "SNO3": [
                    {
                        "depth": 15,
                        "mindepth": 0,
                        "maxdepth": 30,
                        "value": 18.76
                    },
                    {
                        "depth": 45,
                        "mindepth": 30,
                        "maxdepth": 60,
                        "value": 7.39
                    },
                    {
                        "depth": 75,
                        "mindepth": 60,
                        "maxdepth": 90,
                        "value": 2.36
                    }
                ],
                "pid": "643f25fe8ac547c328e48504"
            },
            "_id": "689baadc8ac5472c70ba1676",
            "scaid": "689baadc8ac5472c70ba1676"
        },
        {
            "type": "Feature",
            "geometry": {
                "type": "Point",
                "coordinates": [
                    33.07372097,
                    -111.99125097
                ]
            },
            "properties": {
                "sca_label": "p09-2",
                "SOIL_DATE": "2011-05-01",
                "SNO3": [
                    {
                        "depth": 15,
                        "mindepth": 0,
                        "maxdepth": 30,
                        "value": 9.47
                    },
                    {
                        "depth": 45,
                        "mindepth": 30,
                        "maxdepth": 60,
                        "value": 7.44
                    },
                    {
                        "depth": 75,
                        "mindepth": 60,
                        "maxdepth": 90,
                        "value": 5.64
                    }
                ],
                "pid": "643f25fe8ac547c328e48505"
            },
            "_id": "689baadc8ac5472c70ba1677",
            "scaid": "689baadc8ac5472c70ba1677"
        },
        {
            "type": "Feature",
            "geometry": {
                "type": "Point",
                "coordinates": [
                    33.07419897,
                    -111.99125633
                ]
            },
            "properties": {
                "sca_label": "p09-4",
                "SOIL_DATE": "2011-05-01",
                "SNO3": [
                    {
                        "depth": 15,
                        "mindepth": 0,
                        "maxdepth": 30,
                        "value": 20.48
                    },
                    {
                        "depth": 45,
                        "mindepth": 30,
                        "maxdepth": 60,
                        "value": 5.17
                    },
                    {
                        "depth": 75,
                        "mindepth": 60,
                        "maxdepth": 90,
                        "value": 3.45
                    }
                ],
                "pid": "643f25fe8ac547c328e48505"
            },
            "_id": "689baadc8ac5472c70ba1678",
            "scaid": "689baadc8ac5472c70ba1678"
        },
        {
            "type": "Feature",
            "geometry": {
                "type": "Point",
                "coordinates": [
                    33.07467698,
                    -111.99126169
                ]
            },
            "properties": {
                "sca_label": "p09-6",
                "SOIL_DATE": "2011-05-01",
                "SNO3": [
                    {
                        "depth": 15,
                        "mindepth": 0,
                        "maxdepth": 30,
                        "value": 9.82
                    },
                    {
                        "depth": 45,
                        "mindepth": 30,
                        "maxdepth": 60,
                        "value": 10.46
                    },
                    {
                        "depth": 75,
                        "mindepth": 60,
                        "maxdepth": 90,
                        "value": 13.55
                    }
                ],
                "pid": "643f25fe8ac547c328e48505"
            },
            "_id": "689baadc8ac5472c70ba1679",
            "scaid": "689baadc8ac5472c70ba1679"
        },
        {
            "type": "Feature",
            "geometry": {
                "type": "Point",
                "coordinates": [
                    33.07371976,
                    -111.99140333
                ]
            },
            "properties": {
                "sca_label": "p10-2",
                "SOIL_DATE": "2011-05-01",
                "SNO3": [
                    {
                        "depth": 15,
                        "mindepth": 0,
                        "maxdepth": 30,
                        "value": 21.27
                    },
                    {
                        "depth": 45,
                        "mindepth": 30,
                        "maxdepth": 60,
                        "value": 18.54
                    },
                    {
                        "depth": 75,
                        "mindepth": 60,
                        "maxdepth": 90,
                        "value": 19.45
                    }
                ],
                "pid": "643f25fe8ac547c328e48506"
            },
            "_id": "689baadc8ac5472c70ba167a",
            "scaid": "689baadc8ac5472c70ba167a"
        },
        {
            "type": "Feature",
            "geometry": {
                "type": "Point",
                "coordinates": [
                    33.07419776,
                    -111.9914087
                ]
            },
            "properties": {
                "sca_label": "p10-4",
                "SOIL_DATE": "2011-05-01",
                "SNO3": [
                    {
                        "depth": 15,
                        "mindepth": 0,
                        "maxdepth": 30,
                        "value": 19.84
                    },
                    {
                        "depth": 45,
                        "mindepth": 30,
                        "maxdepth": 60,
                        "value": 18.95
                    },
                    {
                        "depth": 75,
                        "mindepth": 60,
                        "maxdepth": 90,
                        "value": 15.55
                    }
                ],
                "pid": "643f25fe8ac547c328e48506"
            },
            "_id": "689baadc8ac5472c70ba167b",
            "scaid": "689baadc8ac5472c70ba167b"
        },
        {
            "type": "Feature",
            "geometry": {
                "type": "Point",
                "coordinates": [
                    33.07467576,
                    -111.99141406
                ]
            },
            "properties": {
                "sca_label": "p10-6",
                "SOIL_DATE": "2011-05-01",
                "SNO3": [
                    {
                        "depth": 15,
                        "mindepth": 0,
                        "maxdepth": 30,
                        "value": 15.62
                    },
                    {
                        "depth": 45,
                        "mindepth": 30,
                        "maxdepth": 60,
                        "value": 10.49
                    },
                    {
                        "depth": 75,
                        "mindepth": 60,
                        "maxdepth": 90,
                        "value": 10.5
                    }
                ],
                "pid": "643f25fe8ac547c328e48506"
            },
            "_id": "689baadc8ac5472c70ba167c",
            "scaid": "689baadc8ac5472c70ba167c"
        },
        {
            "type": "Feature",
            "geometry": {
                "type": "Point",
                "coordinates": [
                    33.07371855,
                    -111.9915557
                ]
            },
            "properties": {
                "sca_label": "p11-2",
                "SOIL_DATE": "2011-05-01",
                "SNO3": [
                    {
                        "depth": 15,
                        "mindepth": 0,
                        "maxdepth": 30,
                        "value": 11.44
                    },
                    {
                        "depth": 45,
                        "mindepth": 30,
                        "maxdepth": 60,
                        "value": 15.62
                    },
                    {
                        "depth": 75,
                        "mindepth": 60,
                        "maxdepth": 90,
                        "value": 14.12
                    }
                ],
                "pid": "643f25fe8ac547c328e48507"
            },
            "_id": "689baadc8ac5472c70ba167d",
            "scaid": "689baadc8ac5472c70ba167d"
        },
        {
            "type": "Feature",
            "geometry": {
                "type": "Point",
                "coordinates": [
                    33.07419655,
                    -111.99156107
                ]
            },
            "properties": {
                "sca_label": "p11-4",
                "SOIL_DATE": "2011-05-01",
                "SNO3": [
                    {
                        "depth": 15,
                        "mindepth": 0,
                        "maxdepth": 30,
                        "value": 17.92
                    },
                    {
                        "depth": 45,
                        "mindepth": 30,
                        "maxdepth": 60,
                        "value": 7.47
                    },
                    {
                        "depth": 75,
                        "mindepth": 60,
                        "maxdepth": 90,
                        "value": 2.61
                    }
                ],
                "pid": "643f25fe8ac547c328e48507"
            },
            "_id": "689baadc8ac5472c70ba167e",
            "scaid": "689baadc8ac5472c70ba167e"
        },
        {
            "type": "Feature",
            "geometry": {
                "type": "Point",
                "coordinates": [
                    33.07467455,
                    -111.99156643
                ]
            },
            "properties": {
                "sca_label": "p11-6",
                "SOIL_DATE": "2011-05-01",
                "SNO3": [
                    {
                        "depth": 15,
                        "mindepth": 0,
                        "maxdepth": 30,
                        "value": 21.94
                    },
                    {
                        "depth": 45,
                        "mindepth": 30,
                        "maxdepth": 60,
                        "value": 9.71
                    },
                    {
                        "depth": 75,
                        "mindepth": 60,
                        "maxdepth": 90,
                        "value": 3.65
                    }
                ],
                "pid": "643f25fe8ac547c328e48507"
            },
            "_id": "689baadc8ac5472c70ba167f",
            "scaid": "689baadc8ac5472c70ba167f"
        },
        {
            "type": "Feature",
            "geometry": {
                "type": "Point",
                "coordinates": [
                    33.07371734,
                    -111.99170807
                ]
            },
            "properties": {
                "sca_label": "p12-2",
                "SOIL_DATE": "2011-05-01",
                "SNO3": [
                    {
                        "depth": 15,
                        "mindepth": 0,
                        "maxdepth": 30,
                        "value": 15.19
                    },
                    {
                        "depth": 45,
                        "mindepth": 30,
                        "maxdepth": 60,
                        "value": 10.27
                    },
                    {
                        "depth": 75,
                        "mindepth": 60,
                        "maxdepth": 90,
                        "value": 11.17
                    }
                ],
                "pid": "643f25fe8ac547c328e48508"
            },
            "_id": "689baadc8ac5472c70ba1680",
            "scaid": "689baadc8ac5472c70ba1680"
        },
        {
            "type": "Feature",
            "geometry": {
                "type": "Point",
                "coordinates": [
                    33.07419534,
                    -111.99171344
                ]
            },
            "properties": {
                "sca_label": "p12-4",
                "SOIL_DATE": "2011-05-01",
                "SNO3": [
                    {
                        "depth": 15,
                        "mindepth": 0,
                        "maxdepth": 30,
                        "value": 33.73
                    },
                    {
                        "depth": 45,
                        "mindepth": 30,
                        "maxdepth": 60,
                        "value": 18.06
                    },
                    {
                        "depth": 75,
                        "mindepth": 60,
                        "maxdepth": 90,
                        "value": 10.52
                    }
                ],
                "pid": "643f25fe8ac547c328e48508"
            },
            "_id": "689baadc8ac5472c70ba1681",
            "scaid": "689baadc8ac5472c70ba1681"
        },
        {
            "type": "Feature",
            "geometry": {
                "type": "Point",
                "coordinates": [
                    33.07467334,
                    -111.9917188
                ]
            },
            "properties": {
                "sca_label": "p12-6",
                "SOIL_DATE": "2011-05-01",
                "SNO3": [
                    {
                        "depth": 15,
                        "mindepth": 0,
                        "maxdepth": 30,
                        "value": 30.43
                    },
                    {
                        "depth": 45,
                        "mindepth": 30,
                        "maxdepth": 60,
                        "value": 8.61
                    },
                    {
                        "depth": 75,
                        "mindepth": 60,
                        "maxdepth": 90,
                        "value": 6.95
                    }
                ],
                "pid": "643f25fe8ac547c328e48508"
            },
            "_id": "689baadc8ac5472c70ba1682",
            "scaid": "689baadc8ac5472c70ba1682"
        },
        {
            "type": "Feature",
            "geometry": {
                "type": "Point",
                "coordinates": [
                    33.07371491,
                    -111.99201281
                ]
            },
            "properties": {
                "sca_label": "p13-2",
                "SOIL_DATE": "2011-05-01",
                "SNO3": [
                    {
                        "depth": 15,
                        "mindepth": 0,
                        "maxdepth": 30,
                        "value": 39.85
                    },
                    {
                        "depth": 45,
                        "mindepth": 30,
                        "maxdepth": 60,
                        "value": 14.24
                    },
                    {
                        "depth": 75,
                        "mindepth": 60,
                        "maxdepth": 90,
                        "value": 5.4
                    }
                ],
                "pid": "643f25fe8ac547c328e48509"
            },
            "_id": "689baadc8ac5472c70ba1683",
            "scaid": "689baadc8ac5472c70ba1683"
        },
        {
            "type": "Feature",
            "geometry": {
                "type": "Point",
                "coordinates": [
                    33.07419291,
                    -111.99201818
                ]
            },
            "properties": {
                "sca_label": "p13-4",
                "SOIL_DATE": "2011-05-01",
                "SNO3": [
                    {
                        "depth": 15,
                        "mindepth": 0,
                        "maxdepth": 30,
                        "value": 15.47
                    },
                    {
                        "depth": 45,
                        "mindepth": 30,
                        "maxdepth": 60,
                        "value": 8.36
                    },
                    {
                        "depth": 75,
                        "mindepth": 60,
                        "maxdepth": 90,
                        "value": 9.14
                    }
                ],
                "pid": "643f25fe8ac547c328e48509"
            },
            "_id": "689baadc8ac5472c70ba1684",
            "scaid": "689baadc8ac5472c70ba1684"
        },
        {
            "type": "Feature",
            "geometry": {
                "type": "Point",
                "coordinates": [
                    33.07467092,
                    -111.99202354
                ]
            },
            "properties": {
                "sca_label": "p13-6",
                "SOIL_DATE": "2011-05-01",
                "SNO3": [
                    {
                        "depth": 15,
                        "mindepth": 0,
                        "maxdepth": 30,
                        "value": 11.18
                    },
                    {
                        "depth": 45,
                        "mindepth": 30,
                        "maxdepth": 60,
                        "value": 7.21
                    },
                    {
                        "depth": 75,
                        "mindepth": 60,
                        "maxdepth": 90,
                        "value": 2.41
                    }
                ],
                "pid": "643f25fe8ac547c328e48509"
            },
            "_id": "689baadc8ac5472c70ba1685",
            "scaid": "689baadc8ac5472c70ba1685"
        },
        {
            "type": "Feature",
            "geometry": {
                "type": "Point",
                "coordinates": [
                    33.0737137,
                    -111.99216518
                ]
            },
            "properties": {
                "sca_label": "p14-2",
                "SOIL_DATE": "2011-05-01",
                "SNO3": [
                    {
                        "depth": 15,
                        "mindepth": 0,
                        "maxdepth": 30,
                        "value": 30.78
                    },
                    {
                        "depth": 45,
                        "mindepth": 30,
                        "maxdepth": 60,
                        "value": 6.57
                    },
                    {
                        "depth": 75,
                        "mindepth": 60,
                        "maxdepth": 90,
                        "value": 4.58
                    }
                ],
                "pid": "643f25fe8ac547c328e4850a"
            },
            "_id": "689baadc8ac5472c70ba1686",
            "scaid": "689baadc8ac5472c70ba1686"
        },
        {
            "type": "Feature",
            "geometry": {
                "type": "Point",
                "coordinates": [
                    33.0741917,
                    -111.99217055
                ]
            },
            "properties": {
                "sca_label": "p14-4",
                "SOIL_DATE": "2011-05-01",
                "SNO3": [
                    {
                        "depth": 15,
                        "mindepth": 0,
                        "maxdepth": 30,
                        "value": 14.06
                    },
                    {
                        "depth": 45,
                        "mindepth": 30,
                        "maxdepth": 60,
                        "value": 5.81
                    },
                    {
                        "depth": 75,
                        "mindepth": 60,
                        "maxdepth": 90,
                        "value": 2.61
                    }
                ],
                "pid": "643f25fe8ac547c328e4850a"
            },
            "_id": "689baadc8ac5472c70ba1687",
            "scaid": "689baadc8ac5472c70ba1687"
        },
        {
            "type": "Feature",
            "geometry": {
                "type": "Point",
                "coordinates": [
                    33.0746697,
                    -111.99217591
                ]
            },
            "properties": {
                "sca_label": "p14-6",
                "SOIL_DATE": "2011-05-01",
                "SNO3": [
                    {
                        "depth": 15,
                        "mindepth": 0,
                        "maxdepth": 30,
                        "value": 14.7
                    },
                    {
                        "depth": 45,
                        "mindepth": 30,
                        "maxdepth": 60,
                        "value": 5.11
                    },
                    {
                        "depth": 75,
                        "mindepth": 60,
                        "maxdepth": 90,
                        "value": 4.94
                    }
                ],
                "pid": "643f25fe8ac547c328e4850a"
            },
            "_id": "689baadc8ac5472c70ba1688",
            "scaid": "689baadc8ac5472c70ba1688"
        },
        {
            "type": "Feature",
            "geometry": {
                "type": "Point",
                "coordinates": [
                    33.07371249,
                    -111.99231755
                ]
            },
            "properties": {
                "sca_label": "p15-2",
                "SOIL_DATE": "2011-05-01",
                "SNO3": [
                    {
                        "depth": 15,
                        "mindepth": 0,
                        "maxdepth": 30,
                        "value": 9.68
                    },
                    {
                        "depth": 45,
                        "mindepth": 30,
                        "maxdepth": 60,
                        "value": 5.9
                    },
                    {
                        "depth": 75,
                        "mindepth": 60,
                        "maxdepth": 90,
                        "value": 2.11
                    }
                ],
                "pid": "643f25fe8ac547c328e4850b"
            },
            "_id": "689baadc8ac5472c70ba1689",
            "scaid": "689baadc8ac5472c70ba1689"
        },
        {
            "type": "Feature",
            "geometry": {
                "type": "Point",
                "coordinates": [
                    33.07419049,
                    -111.99232292
                ]
            },
            "properties": {
                "sca_label": "p15-4",
                "SOIL_DATE": "2011-05-01",
                "SNO3": [
                    {
                        "depth": 15,
                        "mindepth": 0,
                        "maxdepth": 30,
                        "value": 11.51
                    },
                    {
                        "depth": 45,
                        "mindepth": 30,
                        "maxdepth": 60,
                        "value": 9.25
                    },
                    {
                        "depth": 75,
                        "mindepth": 60,
                        "maxdepth": 90,
                        "value": 6.78
                    }
                ],
                "pid": "643f25fe8ac547c328e4850b"
            },
            "_id": "689baadc8ac5472c70ba168a",
            "scaid": "689baadc8ac5472c70ba168a"
        },
        {
            "type": "Feature",
            "geometry": {
                "type": "Point",
                "coordinates": [
                    33.07466849,
                    -111.99232828
                ]
            },
            "properties": {
                "sca_label": "p15-6",
                "SOIL_DATE": "2011-05-01",
                "SNO3": [
                    {
                        "depth": 15,
                        "mindepth": 0,
                        "maxdepth": 30,
                        "value": 10.37
                    },
                    {
                        "depth": 45,
                        "mindepth": 30,
                        "maxdepth": 60,
                        "value": 5.36
                    },
                    {
                        "depth": 75,
                        "mindepth": 60,
                        "maxdepth": 90,
                        "value": 8.99
                    }
                ],
                "pid": "643f25fe8ac547c328e4850b"
            },
            "_id": "689baadc8ac5472c70ba168b",
            "scaid": "689baadc8ac5472c70ba168b"
        },
        {
            "type": "Feature",
            "geometry": {
                "type": "Point",
                "coordinates": [
                    33.07371127,
                    -111.99246992
                ]
            },
            "properties": {
                "sca_label": "p16-2",
                "SOIL_DATE": "2011-05-01",
                "SNO3": [
                    {
                        "depth": 15,
                        "mindepth": 0,
                        "maxdepth": 30,
                        "value": 12.17
                    },
                    {
                        "depth": 45,
                        "mindepth": 30,
                        "maxdepth": 60,
                        "value": 9.28
                    },
                    {
                        "depth": 75,
                        "mindepth": 60,
                        "maxdepth": 90,
                        "value": 3.23
                    }
                ],
                "pid": "643f25fe8ac547c328e4850c"
            },
            "_id": "689baadc8ac5472c70ba168c",
            "scaid": "689baadc8ac5472c70ba168c"
        },
        {
            "type": "Feature",
            "geometry": {
                "type": "Point",
                "coordinates": [
                    33.07418928,
                    -111.99247529
                ]
            },
            "properties": {
                "sca_label": "p16-4",
                "SOIL_DATE": "2011-05-01",
                "SNO3": [
                    {
                        "depth": 15,
                        "mindepth": 0,
                        "maxdepth": 30,
                        "value": 11.11
                    },
                    {
                        "depth": 45,
                        "mindepth": 30,
                        "maxdepth": 60,
                        "value": 19.2
                    },
                    {
                        "depth": 75,
                        "mindepth": 60,
                        "maxdepth": 90,
                        "value": 2.34
                    }
                ],
                "pid": "643f25fe8ac547c328e4850c"
            },
            "_id": "689baadc8ac5472c70ba168d",
            "scaid": "689baadc8ac5472c70ba168d"
        },
        {
            "type": "Feature",
            "geometry": {
                "type": "Point",
                "coordinates": [
                    33.07466728,
                    -111.99248066
                ]
            },
            "properties": {
                "sca_label": "p16-6",
                "SOIL_DATE": "2011-05-01",
                "SNO3": [
                    {
                        "depth": 15,
                        "mindepth": 0,
                        "maxdepth": 30,
                        "value": 11.47
                    },
                    {
                        "depth": 45,
                        "mindepth": 30,
                        "maxdepth": 60,
                        "value": 8.58
                    },
                    {
                        "depth": 75,
                        "mindepth": 60,
                        "maxdepth": 90,
                        "value": 1.71
                    }
                ],
                "pid": "643f25fe8ac547c328e4850c"
            },
            "_id": "689baadc8ac5472c70ba168e",
            "scaid": "689baadc8ac5472c70ba168e"
        }
    ]
}