{
    "type": "FeatureCollection",
    "features": [
        {
            "type": "Feature",
            "geometry": {
                "type": "Polygon",
                "coordinates": [
                    [
                        [
                            -111.99253805,
                            33.07346269
                        ],
                        [
                            -111.99255425,
                            33.07490572
                        ],
                        [
                            -111.99002924,
                            33.07492579
                        ],
                        [
                            -111.99001308,
                            33.07348276
                        ],
                        [
                            -111.99253805,
                            33.07346269
                        ]
                    ]
                ]
            },
            "properties": {
                "exp_label": "2011_F033_CO_RSIS",
                "trt_info": [
                    {
                        "trt_label": "MAC",
                        "description": "Irrigation schedule used by the local farm manager",
                        "pids": [
                            "643f25fe8ac547c328e484fd",
                            "643f25fe8ac547c328e48501",
                            "643f25fe8ac547c328e48507",
                            "643f25fe8ac547c328e4850b"
                        ]
                    },
                    {
                        "trt_label": "FAO",
                        "description": "Irrigation scheduling via a spatial ET-based FAO56 soil water balance model with mean 45%% management allowed depletion among zones",
                        "pids": [
                            "643f25fe8ac547c328e484ff",
                            "643f25fe8ac547c328e48502",
                            "643f25fe8ac547c328e48505",
                            "643f25fe8ac547c328e48509"
                        ]
                    },
                    {
                        "trt_label": "VI_A",
                        "description": "Irrigation scheduling via a spatial ET-based FAO56 soil water balance model with Kcb from NDVI and mean 45%% management allowed depletion among zones",
                        "pids": [
                            "643f25fe8ac547c328e48500",
                            "643f25fe8ac547c328e48503",
                            "643f25fe8ac547c328e48508",
                            "643f25fe8ac547c328e4850a"
                        ]
                    },
                    {
                        "trt_label": "VI_B",
                        "description": "Irrigation scheduling via a spatial ET-based FAO56 soil water balance model with Kcb from NDVI and 5%% of zones at 65%% management allowed depletion",
                        "pids": [
                            "643f25fe8ac547c328e484fe",
                            "643f25fe8ac547c328e48504",
                            "643f25fe8ac547c328e48506",
                            "643f25fe8ac547c328e4850c"
                        ]
                    }
                ],
                "EXP_AREA": 37713.92,
                "EXNAME": "Field-scale remote sensing-based irrigation scheduling, Season 2 of 2",
                "OBJECTIVES": "See Hunsaker, D. J., French, A. N., Waller, P. M., Bautista, E., Thorp, K. R., Bronson, K. F., Andrade-Sanchez, P., 2015. Comparison of traditional and ET-based irrigation scheduling of surface-irrigated cotton in the arid southwestern USA. Agricultural Water Management 159, 209-224. doi:10.1016/j.agwat.2015.06.016",
                "EXP_NARR": "See Hunsaker, D. J., French, A. N., Waller, P. M., Bautista, E., Thorp, K. R., Bronson, K. F., Andrade-Sanchez, P., 2015. Comparison of traditional and ET-based irrigation scheduling of surface-irrigated cotton in the arid southwestern USA. Agricultural Water Management 159, 209-224. doi:10.1016/j.agwat.2015.06.016",
                "MAIN_FACTOR": "Irrigation scheduling method: ET-based soil water balance and remote sensing-based methods",
                "FACTORS": "Four irrigation scheduling methods",
                "TRT_NO": 4,
                "REP_NO": 4,
                "METHODS": "See Hunsaker, D. J., French, A. N., Waller, P. M., Bautista, E., Thorp, K. R., Bronson, K. F., Andrade-Sanchez, P., 2015. Comparison of traditional and ET-based irrigation scheduling of surface-irrigated cotton in the arid southwestern USA. Agricultural Water Management 159, 209-224. doi:10.1016/j.agwat.2015.06.016",
                "EXPER_TYPE": "ET001",
                "SITE_NAME": "Maricopa Agricultural Center, Field 33",
                "SITE_TYPE": "ST001",
                "MGMT_TYPE": "MT001",
                "EXP_YEAR": "2011",
                "EXP_DUR": 1,
                "CR_SYSTEM": "Cotton after fallow",
                "LAST_NAME": "Hunsaker",
                "FIRST_NAME": "Douglas",
                "MID_INITIAL": "J",
                "PERSON_NOTES": "Field technicians: Tom Clarke, Dick Simer, Suzette Maneely, and Bill Luckett",
                "EX_ADDRESS": "21881 N. Cardon Ln., Maricopa, Arizona 85138",
                "EX_EMAIL": "doug.hunsaker@usda.gov",
                "INSTITUTION": "USDA Agricultural Research Service, Maricopa, Arizona",
                "IN_TYPE": "IT004",
                "IN_ROLE": "IL001",
                "CMPLC": "",
                "SUITE_NAME": "Field-scale remote sensing-based irrigation scheduling",
                "SUITE_OBJ": "See Hunsaker, D. J., French, A. N., Waller, P. M., Bautista, E., Thorp, K. R., Bronson, K. F., Andrade-Sanchez, P., 2015. Comparison of traditional and ET-based irrigation scheduling of surface-irrigated cotton in the arid southwestern USA. Agricultural Water Management 159, 209-224. doi:10.1016/j.agwat.2015.06.016",
                "FL_NAME": "Field 33",
                "FL_LAT": 33.074142,
                "FL_LONG": -111.991038,
                "FLELE": 361
            },
            "_id": "643f249e8ac547c24e181421",
            "eid": "643f249e8ac547c24e181421"
        }
    ]
}