{
    "type": "FeatureCollection",
    "features": [
        {
            "type": "Feature",
            "geometry": {
                "type": "Polygon",
                "coordinates": [
                    [
                        [
                            -111.99001576,
                            33.07470942
                        ],
                        [
                            -111.99000445,
                            33.0736993
                        ],
                        [
                            -111.99001533,
                            33.07369922
                        ],
                        [
                            -111.99002665,
                            33.07470934
                        ],
                        [
                            -111.99001576,
                            33.07470942
                        ]
                    ]
                ]
            },
            "properties": {
                "pa_label": "p01-S1",
                "PSDATE": "06/01/2011",
                "SQRNUM": 1.4,
                "FLRNUM": 0.0,
                "GBNUM": 0.0,
                "MBNUM": 0.0,
                "LWPD": 1.64,
                "SWPD": 1.1,
                "CWPD": 2.66,
                "LWAD": 280.3,
                "SWAD": 189.2,
                "PWAD": 1.7,
                "CWAD": 471.2,
                "LAID_LAB": 0.363
            },
            "_id": "689ce7358ac54766eae03235",
            "paid": "689ce7358ac54766eae03235"
        },
        {
            "type": "Feature",
            "geometry": {
                "type": "Polygon",
                "coordinates": [
                    [
                        [
                            -111.9903205,
                            33.074707
                        ],
                        [
                            -111.99030919,
                            33.07369688
                        ],
                        [
                            -111.99032007,
                            33.0736968
                        ],
                        [
                            -111.99033139,
                            33.07470692
                        ],
                        [
                            -111.9903205,
                            33.074707
                        ]
                    ]
                ]
            },
            "properties": {
                "pa_label": "p03-S1",
                "PSDATE": "06/01/2011",
                "SQRNUM": 1.6,
                "FLRNUM": 0.0,
                "GBNUM": 0.0,
                "MBNUM": 0.0,
                "LWPD": 1.74,
                "SWPD": 1.2,
                "CWPD": 2.93,
                "LWAD": 254.9,
                "SWAD": 175.4,
                "PWAD": 1.6,
                "CWAD": 431.9,
                "LAID_LAB": 0.336
            },
            "_id": "689ce7358ac54766eae0323d",
            "paid": "689ce7358ac54766eae0323d"
        },
        {
            "type": "Feature",
            "geometry": {
                "type": "Polygon",
                "coordinates": [
                    [
                        [
                            -111.99062525,
                            33.07470458
                        ],
                        [
                            -111.99061393,
                            33.07369446
                        ],
                        [
                            -111.99062481,
                            33.07369438
                        ],
                        [
                            -111.99063613,
                            33.0747045
                        ],
                        [
                            -111.99062525,
                            33.07470458
                        ]
                    ]
                ]
            },
            "properties": {
                "pa_label": "p05-S1",
                "PSDATE": "06/01/2011",
                "SQRNUM": 0.9,
                "FLRNUM": 0.0,
                "GBNUM": 0.0,
                "MBNUM": 0.0,
                "LWPD": 1.4,
                "SWPD": 0.95,
                "CWPD": 2.29,
                "LWAD": 307.5,
                "SWAD": 209.9,
                "PWAD": 0.6,
                "CWAD": 517.9,
                "LAID_LAB": 0.413
            },
            "_id": "689ce7358ac54766eae03245",
            "paid": "689ce7358ac54766eae03245"
        },
        {
            "type": "Feature",
            "geometry": {
                "type": "Polygon",
                "coordinates": [
                    [
                        [
                            -111.99092999,
                            33.07470216
                        ],
                        [
                            -111.99091866,
                            33.07369204
                        ],
                        [
                            -111.99092955,
                            33.07369196
                        ],
                        [
                            -111.99094087,
                            33.07470207
                        ],
                        [
                            -111.99092999,
                            33.07470216
                        ]
                    ]
                ]
            },
            "properties": {
                "pa_label": "p07-S1",
                "PSDATE": "06/01/2011",
                "SQRNUM": 1.4,
                "FLRNUM": 0.0,
                "GBNUM": 0.0,
                "MBNUM": 0.0,
                "LWPD": 1.45,
                "SWPD": 0.93,
                "CWPD": 2.18,
                "LWAD": 248.0,
                "SWAD": 158.5,
                "PWAD": 1.7,
                "CWAD": 408.3,
                "LAID_LAB": 0.344
            },
            "_id": "689ce7358ac54766eae0324d",
            "paid": "689ce7358ac54766eae0324d"
        },
        {
            "type": "Feature",
            "geometry": {
                "type": "Polygon",
                "coordinates": [
                    [
                        [
                            -111.9913871,
                            33.07469853
                        ],
                        [
                            -111.99137577,
                            33.07368841
                        ],
                        [
                            -111.99138666,
                            33.07368832
                        ],
                        [
                            -111.99139799,
                            33.07469844
                        ],
                        [
                            -111.9913871,
                            33.07469853
                        ]
                    ]
                ]
            },
            "properties": {
                "pa_label": "p10-S1",
                "PSDATE": "06/01/2011",
                "SQRNUM": 1.1,
                "FLRNUM": 0.0,
                "GBNUM": 0.0,
                "MBNUM": 0.0,
                "LWPD": 1.66,
                "SWPD": 1.04,
                "CWPD": 2.54,
                "LWAD": 276.7,
                "SWAD": 173.0,
                "PWAD": 1.0,
                "CWAD": 450.7,
                "LAID_LAB": 0.349
            },
            "_id": "689ce7358ac54766eae03259",
            "paid": "689ce7358ac54766eae03259"
        },
        {
            "type": "Feature",
            "geometry": {
                "type": "Polygon",
                "coordinates": [
                    [
                        [
                            -111.99169184,
                            33.0746961
                        ],
                        [
                            -111.99168051,
                            33.07368599
                        ],
                        [
                            -111.99169139,
                            33.0736859
                        ],
                        [
                            -111.99170273,
                            33.07469602
                        ],
                        [
                            -111.99169184,
                            33.0746961
                        ]
                    ]
                ]
            },
            "properties": {
                "pa_label": "p12-S1",
                "PSDATE": "06/01/2011",
                "SQRNUM": 1.4,
                "FLRNUM": 0.0,
                "GBNUM": 0.0,
                "MBNUM": 0.0,
                "LWPD": 1.35,
                "SWPD": 1.0,
                "CWPD": 2.25,
                "LWAD": 266.7,
                "SWAD": 196.7,
                "PWAD": 2.0,
                "CWAD": 465.4,
                "LAID_LAB": 0.362
            },
            "_id": "689ce7358ac54766eae03261",
            "paid": "689ce7358ac54766eae03261"
        },
        {
            "type": "Feature",
            "geometry": {
                "type": "Polygon",
                "coordinates": [
                    [
                        [
                            -111.99199659,
                            33.07469368
                        ],
                        [
                            -111.99198525,
                            33.07368356
                        ],
                        [
                            -111.99199613,
                            33.07368348
                        ],
                        [
                            -111.99200747,
                            33.07469359
                        ],
                        [
                            -111.99199659,
                            33.07469368
                        ]
                    ]
                ]
            },
            "properties": {
                "pa_label": "p13-S1",
                "PSDATE": "06/01/2011",
                "SQRNUM": 1.0,
                "FLRNUM": 0.0,
                "GBNUM": 0.0,
                "MBNUM": 0.0,
                "LWPD": 1.51,
                "SWPD": 0.95,
                "CWPD": 2.58,
                "LWAD": 310.8,
                "SWAD": 196.4,
                "PWAD": 1.0,
                "CWAD": 508.3,
                "LAID_LAB": 0.419
            },
            "_id": "689ce7358ac54766eae03265",
            "paid": "689ce7358ac54766eae03265"
        },
        {
            "type": "Feature",
            "geometry": {
                "type": "Polygon",
                "coordinates": [
                    [
                        [
                            -111.9924537,
                            33.07469004
                        ],
                        [
                            -111.99244236,
                            33.07367992
                        ],
                        [
                            -111.99245324,
                            33.07367984
                        ],
                        [
                            -111.99246458,
                            33.07468996
                        ],
                        [
                            -111.9924537,
                            33.07469004
                        ]
                    ]
                ]
            },
            "properties": {
                "pa_label": "p16-S1",
                "PSDATE": "06/01/2011",
                "SQRNUM": 0.6,
                "FLRNUM": 0.0,
                "GBNUM": 0.0,
                "MBNUM": 0.0,
                "LWPD": 1.68,
                "SWPD": 1.21,
                "CWPD": 2.88,
                "LWAD": 279.6,
                "SWAD": 201.8,
                "PWAD": 0.8,
                "CWAD": 482.3,
                "LAID_LAB": 0.377
            },
            "_id": "689ce7358ac54766eae03271",
            "paid": "689ce7358ac54766eae03271"
        },
        {
            "type": "Feature",
            "geometry": {
                "type": "Polygon",
                "coordinates": [
                    [
                        [
                            -111.99016813,
                            33.07470821
                        ],
                        [
                            -111.99015682,
                            33.07369809
                        ],
                        [
                            -111.9901677,
                            33.07369801
                        ],
                        [
                            -111.99017902,
                            33.07470813
                        ],
                        [
                            -111.99016813,
                            33.07470821
                        ]
                    ]
                ]
            },
            "properties": {
                "pa_label": "p02-S2",
                "PSDATE": "06/30/2011",
                "SQRNUM": 20.0,
                "FLRNUM": 0.6,
                "GBNUM": 1.1,
                "MBNUM": 0.0,
                "LWPD": 12.83,
                "SWPD": 15.85,
                "CWPD": 31.58,
                "LWAD": 1819.1,
                "SWAD": 2247.7,
                "PWAD": 284.7,
                "CWAD": 4351.5,
                "LAID_LAB": 2.978
            },
            "_id": "689ce7358ac54766eae0323a",
            "paid": "689ce7358ac54766eae0323a"
        },
        {
            "type": "Feature",
            "geometry": {
                "type": "Polygon",
                "coordinates": [
                    [
                        [
                            -111.99047288,
                            33.07470579
                        ],
                        [
                            -111.99046156,
                            33.07369567
                        ],
                        [
                            -111.99047244,
                            33.07369559
                        ],
                        [
                            -111.99048376,
                            33.07470571
                        ],
                        [
                            -111.99047288,
                            33.07470579
                        ]
                    ]
                ]
            },
            "properties": {
                "pa_label": "p04-S2",
                "PSDATE": "06/30/2011",
                "SQRNUM": 15.9,
                "FLRNUM": 0.4,
                "GBNUM": 2.6,
                "MBNUM": 0.0,
                "LWPD": 11.76,
                "SWPD": 14.16,
                "CWPD": 27.86,
                "LWAD": 1957.5,
                "SWAD": 2355.4,
                "PWAD": 348.2,
                "CWAD": 4661.0,
                "LAID_LAB": 3.197
            },
            "_id": "689ce7358ac54766eae03242",
            "paid": "689ce7358ac54766eae03242"
        },
        {
            "type": "Feature",
            "geometry": {
                "type": "Polygon",
                "coordinates": [
                    [
                        [
                            -111.99077762,
                            33.07470337
                        ],
                        [
                            -111.99076629,
                            33.07369325
                        ],
                        [
                            -111.99077718,
                            33.07369317
                        ],
                        [
                            -111.9907885,
                            33.07470329
                        ],
                        [
                            -111.99077762,
                            33.07470337
                        ]
                    ]
                ]
            },
            "properties": {
                "pa_label": "p06-S2",
                "PSDATE": "06/30/2011",
                "SQRNUM": 11.1,
                "FLRNUM": 0.4,
                "GBNUM": 1.9,
                "MBNUM": 0.0,
                "LWPD": 7.91,
                "SWPD": 9.41,
                "CWPD": 18.33,
                "LWAD": 1664.1,
                "SWAD": 1980.3,
                "PWAD": 324.7,
                "CWAD": 3969.1,
                "LAID_LAB": 2.378
            },
            "_id": "689ce7358ac54766eae0324a",
            "paid": "689ce7358ac54766eae0324a"
        },
        {
            "type": "Feature",
            "geometry": {
                "type": "Polygon",
                "coordinates": [
                    [
                        [
                            -111.99108236,
                            33.07470095
                        ],
                        [
                            -111.99107103,
                            33.07369083
                        ],
                        [
                            -111.99108192,
                            33.07369074
                        ],
                        [
                            -111.99109324,
                            33.07470086
                        ],
                        [
                            -111.99108236,
                            33.07470095
                        ]
                    ]
                ]
            },
            "properties": {
                "pa_label": "p08-S2",
                "PSDATE": "06/30/2011",
                "SQRNUM": 17.4,
                "FLRNUM": 0.4,
                "GBNUM": 3.4,
                "MBNUM": 0.0,
                "LWPD": 10.9,
                "SWPD": 13.57,
                "CWPD": 24.45,
                "LWAD": 1848.3,
                "SWAD": 2300.9,
                "PWAD": 423.2,
                "CWAD": 4572.4,
                "LAID_LAB": 3.196
            },
            "_id": "689ce7358ac54766eae03252",
            "paid": "689ce7358ac54766eae03252"
        },
        {
            "type": "Feature",
            "geometry": {
                "type": "Polygon",
                "coordinates": [
                    [
                        [
                            -111.99123473,
                            33.07469974
                        ],
                        [
                            -111.9912234,
                            33.07368962
                        ],
                        [
                            -111.99123429,
                            33.07368953
                        ],
                        [
                            -111.99124561,
                            33.07469965
                        ],
                        [
                            -111.99123473,
                            33.07469974
                        ]
                    ]
                ]
            },
            "properties": {
                "pa_label": "p09-S2",
                "PSDATE": "06/30/2011",
                "SQRNUM": 11.9,
                "FLRNUM": 0.5,
                "GBNUM": 2.2,
                "MBNUM": 0.0,
                "LWPD": 7.9,
                "SWPD": 8.97,
                "CWPD": 17.68,
                "LWAD": 1543.0,
                "SWAD": 1751.8,
                "PWAD": 359.5,
                "CWAD": 3654.3,
                "LAID_LAB": 2.282
            },
            "_id": "689ce7358ac54766eae03256",
            "paid": "689ce7358ac54766eae03256"
        },
        {
            "type": "Feature",
            "geometry": {
                "type": "Polygon",
                "coordinates": [
                    [
                        [
                            -111.99153947,
                            33.07469732
                        ],
                        [
                            -111.99152814,
                            33.0736872
                        ],
                        [
                            -111.99153902,
                            33.07368711
                        ],
                        [
                            -111.99155036,
                            33.07469723
                        ],
                        [
                            -111.99153947,
                            33.07469732
                        ]
                    ]
                ]
            },
            "properties": {
                "pa_label": "p11-S2",
                "PSDATE": "06/30/2011",
                "SQRNUM": 16.2,
                "FLRNUM": 0.9,
                "GBNUM": 3.1,
                "MBNUM": 0.0,
                "LWPD": 10.26,
                "SWPD": 12.17,
                "CWPD": 22.23,
                "LWAD": 1480.8,
                "SWAD": 1757.3,
                "PWAD": 481.7,
                "CWAD": 3719.9,
                "LAID_LAB": 2.103
            },
            "_id": "689ce7358ac54766eae0325e",
            "paid": "689ce7358ac54766eae0325e"
        },
        {
            "type": "Feature",
            "geometry": {
                "type": "Polygon",
                "coordinates": [
                    [
                        [
                            -111.99214896,
                            33.07469247
                        ],
                        [
                            -111.99213762,
                            33.07368235
                        ],
                        [
                            -111.9921485,
                            33.07368226
                        ],
                        [
                            -111.99215984,
                            33.07469238
                        ],
                        [
                            -111.99214896,
                            33.07469247
                        ]
                    ]
                ]
            },
            "properties": {
                "pa_label": "p14-S2",
                "PSDATE": "06/30/2011",
                "SQRNUM": 12.8,
                "FLRNUM": 0.4,
                "GBNUM": 3.5,
                "MBNUM": 0.0,
                "LWPD": 11.21,
                "SWPD": 13.44,
                "CWPD": 25.9,
                "LWAD": 1780.1,
                "SWAD": 2134.9,
                "PWAD": 418.5,
                "CWAD": 4333.5,
                "LAID_LAB": 2.96
            },
            "_id": "689ce7358ac54766eae0326a",
            "paid": "689ce7358ac54766eae0326a"
        },
        {
            "type": "Feature",
            "geometry": {
                "type": "Polygon",
                "coordinates": [
                    [
                        [
                            -111.99230133,
                            33.07469126
                        ],
                        [
                            -111.99228999,
                            33.07368114
                        ],
                        [
                            -111.99230087,
                            33.07368105
                        ],
                        [
                            -111.99231221,
                            33.07469117
                        ],
                        [
                            -111.99230133,
                            33.07469126
                        ]
                    ]
                ]
            },
            "properties": {
                "pa_label": "p15-S2",
                "PSDATE": "06/30/2011",
                "SQRNUM": 13.1,
                "FLRNUM": 0.6,
                "GBNUM": 2.4,
                "MBNUM": 0.0,
                "LWPD": 10.48,
                "SWPD": 12.3,
                "CWPD": 24.8,
                "LWAD": 1742.3,
                "SWAD": 2045.3,
                "PWAD": 361.9,
                "CWAD": 4149.5,
                "LAID_LAB": 2.792
            },
            "_id": "689ce7358ac54766eae0326e",
            "paid": "689ce7358ac54766eae0326e"
        },
        {
            "type": "Feature",
            "geometry": {
                "type": "Polygon",
                "coordinates": [
                    [
                        [
                            -111.99001576,
                            33.07470942
                        ],
                        [
                            -111.99000445,
                            33.0736993
                        ],
                        [
                            -111.99001533,
                            33.07369922
                        ],
                        [
                            -111.99002665,
                            33.07470934
                        ],
                        [
                            -111.99001576,
                            33.07470942
                        ]
                    ]
                ]
            },
            "properties": {
                "pa_label": "p01-S3",
                "PSDATE": "07/27/2011",
                "SQRNUM": 3.2,
                "FLRNUM": 0.4,
                "GBNUM": 6.5,
                "MBNUM": 0.0,
                "LWPD": 12.83,
                "SWPD": 15.87,
                "CWPD": 50.94,
                "LWAD": 2308.1,
                "SWAD": 2853.8,
                "PWAD": 2859.7,
                "CWAD": 8021.6,
                "LAID_LAB": 3.797
            },
            "_id": "689ce7358ac54766eae03237",
            "paid": "689ce7358ac54766eae03237"
        },
        {
            "type": "Feature",
            "geometry": {
                "type": "Polygon",
                "coordinates": [
                    [
                        [
                            -111.9903205,
                            33.074707
                        ],
                        [
                            -111.99030919,
                            33.07369688
                        ],
                        [
                            -111.99032007,
                            33.0736968
                        ],
                        [
                            -111.99033139,
                            33.07470692
                        ],
                        [
                            -111.9903205,
                            33.074707
                        ]
                    ]
                ]
            },
            "properties": {
                "pa_label": "p03-S3",
                "PSDATE": "07/27/2011",
                "SQRNUM": 1.6,
                "FLRNUM": 0.1,
                "GBNUM": 6.8,
                "MBNUM": 0.0,
                "LWPD": 12.85,
                "SWPD": 13.81,
                "CWPD": 43.09,
                "LWAD": 2418.6,
                "SWAD": 2599.1,
                "PWAD": 3041.2,
                "CWAD": 8059.0,
                "LAID_LAB": 4.027
            },
            "_id": "689ce7358ac54766eae0323f",
            "paid": "689ce7358ac54766eae0323f"
        },
        {
            "type": "Feature",
            "geometry": {
                "type": "Polygon",
                "coordinates": [
                    [
                        [
                            -111.99062525,
                            33.07470458
                        ],
                        [
                            -111.99061393,
                            33.07369446
                        ],
                        [
                            -111.99062481,
                            33.07369438
                        ],
                        [
                            -111.99063613,
                            33.0747045
                        ],
                        [
                            -111.99062525,
                            33.07470458
                        ]
                    ]
                ]
            },
            "properties": {
                "pa_label": "p05-S3",
                "PSDATE": "07/27/2011",
                "SQRNUM": 2.5,
                "FLRNUM": 0.1,
                "GBNUM": 8.9,
                "MBNUM": 0.0,
                "LWPD": 12.77,
                "SWPD": 16.63,
                "CWPD": 46.06,
                "LWAD": 2245.2,
                "SWAD": 2923.6,
                "PWAD": 2992.0,
                "CWAD": 8160.7,
                "LAID_LAB": 4.088
            },
            "_id": "689ce7358ac54766eae03247",
            "paid": "689ce7358ac54766eae03247"
        },
        {
            "type": "Feature",
            "geometry": {
                "type": "Polygon",
                "coordinates": [
                    [
                        [
                            -111.99092999,
                            33.07470216
                        ],
                        [
                            -111.99091866,
                            33.07369204
                        ],
                        [
                            -111.99092955,
                            33.07369196
                        ],
                        [
                            -111.99094087,
                            33.07470207
                        ],
                        [
                            -111.99092999,
                            33.07470216
                        ]
                    ]
                ]
            },
            "properties": {
                "pa_label": "p07-S3",
                "PSDATE": "07/27/2011",
                "SQRNUM": 3.9,
                "FLRNUM": 0.2,
                "GBNUM": 8.4,
                "MBNUM": 0.0,
                "LWPD": 14.84,
                "SWPD": 18.48,
                "CWPD": 57.74,
                "LWAD": 2968.0,
                "SWAD": 3696.8,
                "PWAD": 4133.8,
                "CWAD": 10798.6,
                "LAID_LAB": 5.497
            },
            "_id": "689ce7358ac54766eae0324f",
            "paid": "689ce7358ac54766eae0324f"
        },
        {
            "type": "Feature",
            "geometry": {
                "type": "Polygon",
                "coordinates": [
                    [
                        [
                            -111.9913871,
                            33.07469853
                        ],
                        [
                            -111.99137577,
                            33.07368841
                        ],
                        [
                            -111.99138666,
                            33.07368832
                        ],
                        [
                            -111.99139799,
                            33.07469844
                        ],
                        [
                            -111.9913871,
                            33.07469853
                        ]
                    ]
                ]
            },
            "properties": {
                "pa_label": "p10-S3",
                "PSDATE": "07/27/2011",
                "SQRNUM": 11.0,
                "FLRNUM": 0.2,
                "GBNUM": 9.1,
                "MBNUM": 0.0,
                "LWPD": 18.9,
                "SWPD": 24.78,
                "CWPD": 67.03,
                "LWAD": 2883.0,
                "SWAD": 3779.4,
                "PWAD": 3233.6,
                "CWAD": 9896.0,
                "LAID_LAB": 5.65
            },
            "_id": "689ce7358ac54766eae0325b",
            "paid": "689ce7358ac54766eae0325b"
        },
        {
            "type": "Feature",
            "geometry": {
                "type": "Polygon",
                "coordinates": [
                    [
                        [
                            -111.99169184,
                            33.0746961
                        ],
                        [
                            -111.99168051,
                            33.07368599
                        ],
                        [
                            -111.99169139,
                            33.0736859
                        ],
                        [
                            -111.99170273,
                            33.07469602
                        ],
                        [
                            -111.99169184,
                            33.0746961
                        ]
                    ]
                ]
            },
            "properties": {
                "pa_label": "p12-S3",
                "PSDATE": "07/27/2011",
                "SQRNUM": 5.9,
                "FLRNUM": 0.4,
                "GBNUM": 8.0,
                "MBNUM": 0.0,
                "LWPD": 18.27,
                "SWPD": 22.35,
                "CWPD": 58.93,
                "LWAD": 2571.0,
                "SWAD": 3145.7,
                "PWAD": 2403.9,
                "CWAD": 8120.7,
                "LAID_LAB": 4.732
            },
            "_id": "689ce7358ac54766eae03263",
            "paid": "689ce7358ac54766eae03263"
        },
        {
            "type": "Feature",
            "geometry": {
                "type": "Polygon",
                "coordinates": [
                    [
                        [
                            -111.99199659,
                            33.07469368
                        ],
                        [
                            -111.99198525,
                            33.07368356
                        ],
                        [
                            -111.99199613,
                            33.07368348
                        ],
                        [
                            -111.99200747,
                            33.07469359
                        ],
                        [
                            -111.99199659,
                            33.07469368
                        ]
                    ]
                ]
            },
            "properties": {
                "pa_label": "p13-S3",
                "PSDATE": "07/27/2011",
                "SQRNUM": 1.4,
                "FLRNUM": 0.2,
                "GBNUM": 8.4,
                "MBNUM": 0.0,
                "LWPD": 13.59,
                "SWPD": 14.72,
                "CWPD": 47.16,
                "LWAD": 2419.7,
                "SWAD": 2620.6,
                "PWAD": 3315.6,
                "CWAD": 8355.9,
                "LAID_LAB": 4.257
            },
            "_id": "689ce7358ac54766eae03267",
            "paid": "689ce7358ac54766eae03267"
        },
        {
            "type": "Feature",
            "geometry": {
                "type": "Polygon",
                "coordinates": [
                    [
                        [
                            -111.9924537,
                            33.07469004
                        ],
                        [
                            -111.99244236,
                            33.07367992
                        ],
                        [
                            -111.99245324,
                            33.07367984
                        ],
                        [
                            -111.99246458,
                            33.07468996
                        ],
                        [
                            -111.9924537,
                            33.07469004
                        ]
                    ]
                ]
            },
            "properties": {
                "pa_label": "p16-S3",
                "PSDATE": "07/27/2011",
                "SQRNUM": 2.5,
                "FLRNUM": 0.4,
                "GBNUM": 7.2,
                "MBNUM": 0.0,
                "LWPD": 13.09,
                "SWPD": 17.42,
                "CWPD": 46.41,
                "LWAD": 2057.7,
                "SWAD": 2738.5,
                "PWAD": 2512.4,
                "CWAD": 7308.6,
                "LAID_LAB": 3.12
            },
            "_id": "689ce7358ac54766eae03273",
            "paid": "689ce7358ac54766eae03273"
        },
        {
            "type": "Feature",
            "geometry": {
                "type": "Polygon",
                "coordinates": [
                    [
                        [
                            -111.99016813,
                            33.07470821
                        ],
                        [
                            -111.99015682,
                            33.07369809
                        ],
                        [
                            -111.9901677,
                            33.07369801
                        ],
                        [
                            -111.99017902,
                            33.07470813
                        ],
                        [
                            -111.99016813,
                            33.07470821
                        ]
                    ]
                ]
            },
            "properties": {
                "pa_label": "p02-S4",
                "PSDATE": "08/24/2011",
                "SQRNUM": 4.5,
                "FLRNUM": 0.1,
                "GBNUM": 11.1,
                "MBNUM": 3.2,
                "LWPD": 22.88,
                "SWPD": 32.25,
                "CWPD": 103.16,
                "LWAD": 3247.0,
                "SWAD": 4576.4,
                "PWAD": 6391.5,
                "CWAD": 14215.0,
                "LAID_LAB": 5.808
            },
            "_id": "689ce7358ac54766eae0323c",
            "paid": "689ce7358ac54766eae0323c"
        },
        {
            "type": "Feature",
            "geometry": {
                "type": "Polygon",
                "coordinates": [
                    [
                        [
                            -111.99047288,
                            33.07470579
                        ],
                        [
                            -111.99046156,
                            33.07369567
                        ],
                        [
                            -111.99047244,
                            33.07369559
                        ],
                        [
                            -111.99048376,
                            33.07470571
                        ],
                        [
                            -111.99047288,
                            33.07470579
                        ]
                    ]
                ]
            },
            "properties": {
                "pa_label": "p04-S4",
                "PSDATE": "08/24/2011",
                "SQRNUM": 13.0,
                "FLRNUM": 0.4,
                "GBNUM": 11.9,
                "MBNUM": 4.2,
                "LWPD": 25.03,
                "SWPD": 32.63,
                "CWPD": 110.42,
                "LWAD": 3178.7,
                "SWAD": 4142.8,
                "PWAD": 6807.1,
                "CWAD": 14128.5,
                "LAID_LAB": 5.597
            },
            "_id": "689ce7358ac54766eae03244",
            "paid": "689ce7358ac54766eae03244"
        },
        {
            "type": "Feature",
            "geometry": {
                "type": "Polygon",
                "coordinates": [
                    [
                        [
                            -111.99077762,
                            33.07470337
                        ],
                        [
                            -111.99076629,
                            33.07369325
                        ],
                        [
                            -111.99077718,
                            33.07369317
                        ],
                        [
                            -111.9907885,
                            33.07470329
                        ],
                        [
                            -111.99077762,
                            33.07470337
                        ]
                    ]
                ]
            },
            "properties": {
                "pa_label": "p06-S4",
                "PSDATE": "08/24/2011",
                "SQRNUM": 14.0,
                "FLRNUM": 0.9,
                "GBNUM": 7.5,
                "MBNUM": 4.1,
                "LWPD": 21.85,
                "SWPD": 26.39,
                "CWPD": 96.42,
                "LWAD": 3484.4,
                "SWAD": 4208.2,
                "PWAD": 6542.7,
                "CWAD": 14235.3,
                "LAID_LAB": 6.192
            },
            "_id": "689ce7358ac54766eae0324c",
            "paid": "689ce7358ac54766eae0324c"
        },
        {
            "type": "Feature",
            "geometry": {
                "type": "Polygon",
                "coordinates": [
                    [
                        [
                            -111.99108236,
                            33.07470095
                        ],
                        [
                            -111.99107103,
                            33.07369083
                        ],
                        [
                            -111.99108192,
                            33.07369074
                        ],
                        [
                            -111.99109324,
                            33.07470086
                        ],
                        [
                            -111.99108236,
                            33.07470095
                        ]
                    ]
                ]
            },
            "properties": {
                "pa_label": "p08-S4",
                "PSDATE": "08/24/2011",
                "SQRNUM": 6.1,
                "FLRNUM": 0.0,
                "GBNUM": 4.6,
                "MBNUM": 0.4,
                "LWPD": 14.79,
                "SWPD": 19.17,
                "CWPD": 75.36,
                "LWAD": 3265.5,
                "SWAD": 4233.5,
                "PWAD": 7335.3,
                "CWAD": 14834.3,
                "LAID_LAB": 5.543
            },
            "_id": "689ce7358ac54766eae03254",
            "paid": "689ce7358ac54766eae03254"
        },
        {
            "type": "Feature",
            "geometry": {
                "type": "Polygon",
                "coordinates": [
                    [
                        [
                            -111.99123473,
                            33.07469974
                        ],
                        [
                            -111.9912234,
                            33.07368962
                        ],
                        [
                            -111.99123429,
                            33.07368953
                        ],
                        [
                            -111.99124561,
                            33.07469965
                        ],
                        [
                            -111.99123473,
                            33.07469974
                        ]
                    ]
                ]
            },
            "properties": {
                "pa_label": "p09-S4",
                "PSDATE": "08/24/2011",
                "SQRNUM": 15.9,
                "FLRNUM": 0.4,
                "GBNUM": 6.8,
                "MBNUM": 3.6,
                "LWPD": 21.12,
                "SWPD": 26.03,
                "CWPD": 79.59,
                "LWAD": 3550.3,
                "SWAD": 4377.1,
                "PWAD": 5389.7,
                "CWAD": 13317.2,
                "LAID_LAB": 8.061
            },
            "_id": "689ce7358ac54766eae03258",
            "paid": "689ce7358ac54766eae03258"
        },
        {
            "type": "Feature",
            "geometry": {
                "type": "Polygon",
                "coordinates": [
                    [
                        [
                            -111.99153947,
                            33.07469732
                        ],
                        [
                            -111.99152814,
                            33.0736872
                        ],
                        [
                            -111.99153902,
                            33.07368711
                        ],
                        [
                            -111.99155036,
                            33.07469723
                        ],
                        [
                            -111.99153947,
                            33.07469732
                        ]
                    ]
                ]
            },
            "properties": {
                "pa_label": "p11-S4",
                "PSDATE": "08/24/2011",
                "SQRNUM": 8.2,
                "FLRNUM": 0.8,
                "GBNUM": 7.5,
                "MBNUM": 1.9,
                "LWPD": 18.59,
                "SWPD": 24.17,
                "CWPD": 86.73,
                "LWAD": 3264.4,
                "SWAD": 4243.0,
                "PWAD": 7004.4,
                "CWAD": 14511.8,
                "LAID_LAB": 5.827
            },
            "_id": "689ce7358ac54766eae03260",
            "paid": "689ce7358ac54766eae03260"
        },
        {
            "type": "Feature",
            "geometry": {
                "type": "Polygon",
                "coordinates": [
                    [
                        [
                            -111.99214896,
                            33.07469247
                        ],
                        [
                            -111.99213762,
                            33.07368235
                        ],
                        [
                            -111.9921485,
                            33.07368226
                        ],
                        [
                            -111.99215984,
                            33.07469238
                        ],
                        [
                            -111.99214896,
                            33.07469247
                        ]
                    ]
                ]
            },
            "properties": {
                "pa_label": "p14-S4",
                "PSDATE": "08/24/2011",
                "SQRNUM": 12.1,
                "FLRNUM": 0.2,
                "GBNUM": 7.9,
                "MBNUM": 1.9,
                "LWPD": 15.61,
                "SWPD": 23.6,
                "CWPD": 68.32,
                "LWAD": 2873.2,
                "SWAD": 4344.7,
                "PWAD": 4214.0,
                "CWAD": 11431.9,
                "LAID_LAB": 5.44
            },
            "_id": "689ce7358ac54766eae0326c",
            "paid": "689ce7358ac54766eae0326c"
        },
        {
            "type": "Feature",
            "geometry": {
                "type": "Polygon",
                "coordinates": [
                    [
                        [
                            -111.99230133,
                            33.07469126
                        ],
                        [
                            -111.99228999,
                            33.07368114
                        ],
                        [
                            -111.99230087,
                            33.07368105
                        ],
                        [
                            -111.99231221,
                            33.07469117
                        ],
                        [
                            -111.99230133,
                            33.07469126
                        ]
                    ]
                ]
            },
            "properties": {
                "pa_label": "p15-S4",
                "PSDATE": "08/24/2011",
                "SQRNUM": 14.2,
                "FLRNUM": 0.2,
                "GBNUM": 10.8,
                "MBNUM": 1.8,
                "LWPD": 22.47,
                "SWPD": 31.02,
                "CWPD": 68.22,
                "LWAD": 3493.7,
                "SWAD": 4822.3,
                "PWAD": 5112.3,
                "CWAD": 13428.3,
                "LAID_LAB": 5.671
            },
            "_id": "689ce7358ac54766eae03270",
            "paid": "689ce7358ac54766eae03270"
        }
    ]
}