{
    "type": "FeatureCollection",
    "features": [
        {
            "type": "Feature",
            "geometry": {
                "type": "Point",
                "coordinates": [
                    33.07937824,
                    -111.97818166
                ]
            },
            "properties": {
                "sc_label": "p01-2",
                "SOIL_DATE": "04/21/2021",
                "SLPHW": {
                    "20": 8.3,
                    "60": 8.5,
                    "100": 8.3,
                    "140": 8.3,
                    "180": 8.3
                },
                "SLPHB": {
                    "20": 7.2,
                    "60": 7.2,
                    "100": 7.2,
                    "140": 7.2,
                    "180": 7.2
                },
                "SLEC": {
                    "20": 0.82,
                    "60": 0.65,
                    "100": 0.99,
                    "140": 0.9,
                    "180": 0.76
                },
                "SLOM": {
                    "20": 1.2,
                    "60": 1.1,
                    "100": 1.0,
                    "140": 1.0,
                    "180": 0.7
                },
                "SNO3": {
                    "20": 1.7,
                    "60": 5.2,
                    "100": 11.0,
                    "140": 4.8,
                    "180": 5.2
                },
                "SLPX": {
                    "20": 3.7,
                    "60": 6.0,
                    "100": 10.7,
                    "140": 6.2,
                    "180": 6.0
                },
                "SLKE": {
                    "20": 338,
                    "60": 262,
                    "100": 269,
                    "140": 249,
                    "180": 138
                },
                "SLSU": {
                    "20": 79.0,
                    "60": 85.3,
                    "100": 130.8,
                    "140": 91.0,
                    "180": 82.9
                },
                "SLZN": {
                    "20": 2.16,
                    "60": 2.64,
                    "100": 3.08,
                    "140": 2.54,
                    "180": 2.37
                },
                "SLFE": {
                    "20": 7.1,
                    "60": 6.8,
                    "100": 6.8,
                    "140": 6.0,
                    "180": 4.7
                },
                "SLMN": {
                    "20": 10.7,
                    "60": 9.1,
                    "100": 9.1,
                    "140": 7.8,
                    "180": 2.9
                },
                "SLCU": {
                    "20": 2.92,
                    "60": 2.32,
                    "100": 2.09,
                    "140": 1.81,
                    "180": 0.71
                },
                "SLCA": {
                    "20": 3188,
                    "60": 4164,
                    "100": 4435,
                    "140": 4205,
                    "180": 4000
                },
                "SLMG": {
                    "20": 269,
                    "60": 271,
                    "100": 287,
                    "140": 296,
                    "180": 269
                },
                "SLNA": {
                    "20": 646,
                    "60": 625,
                    "100": 734,
                    "140": 580,
                    "180": 418
                },
                "SLCEC": {
                    "20": 21.9,
                    "60": 26.5,
                    "100": 28.4,
                    "140": 26.7,
                    "180": 24.4
                }
            },
            "_id": "67f413788ac5471a9830fb97",
            "scid": "67f413788ac5471a9830fb97"
        },
        {
            "type": "Feature",
            "geometry": {
                "type": "Point",
                "coordinates": [
                    33.07901597,
                    -111.97787941
                ]
            },
            "properties": {
                "sc_label": "p03-3",
                "SOIL_DATE": "04/21/2021",
                "SLPHW": {
                    "20": 8.3,
                    "60": 8.6,
                    "100": 8.4,
                    "140": 8.4,
                    "180": 8.5
                },
                "SLPHB": {
                    "20": 7.2,
                    "60": 7.2,
                    "100": 7.2,
                    "140": 7.2,
                    "180": 7.2
                },
                "SLEC": {
                    "20": 0.65,
                    "60": 0.76,
                    "100": 1.3,
                    "140": 1.01,
                    "180": 0.57
                },
                "SLOM": {
                    "20": 1.2,
                    "60": 0.7,
                    "100": 0.7,
                    "140": 0.6,
                    "180": 0.5
                },
                "SNO3": {
                    "20": 1.1,
                    "60": 2.2,
                    "100": 3.5,
                    "140": 1.7,
                    "180": 0.9
                },
                "SLPX": {
                    "20": 4.0,
                    "60": 4.1,
                    "100": 3.8,
                    "140": 4.9,
                    "180": 4.1
                },
                "SLKE": {
                    "20": 348,
                    "60": 193,
                    "100": 150,
                    "140": 106,
                    "180": 96
                },
                "SLSU": {
                    "20": 117.2,
                    "60": 81.3,
                    "100": 207.2,
                    "140": 92.9,
                    "180": 48.9
                },
                "SLZN": {
                    "20": 1.58,
                    "60": 0.9,
                    "100": 0.58,
                    "140": 0.43,
                    "180": 0.83
                },
                "SLFE": {
                    "20": 7.5,
                    "60": 6.7,
                    "100": 4.5,
                    "140": 3.5,
                    "180": 4.1
                },
                "SLMN": {
                    "20": 9.0,
                    "60": 5.5,
                    "100": 2.7,
                    "140": 2.2,
                    "180": 2.1
                },
                "SLCU": {
                    "20": 3.15,
                    "60": 1.99,
                    "100": 0.89,
                    "140": 0.52,
                    "180": 0.5
                },
                "SLCA": {
                    "20": 3427,
                    "60": 3852,
                    "100": 4532,
                    "140": 4221,
                    "180": 3705
                },
                "SLMG": {
                    "20": 309,
                    "60": 310,
                    "100": 351,
                    "140": 263,
                    "180": 225
                },
                "SLNA": {
                    "20": 648,
                    "60": 779,
                    "100": 947,
                    "140": 540,
                    "180": 326
                },
                "SLCEC": {
                    "20": 23.4,
                    "60": 25.7,
                    "100": 30.1,
                    "140": 25.9,
                    "180": 22.1
                }
            },
            "_id": "67f413788ac5471a9830fb98",
            "scid": "67f413788ac5471a9830fb98"
        },
        {
            "type": "Feature",
            "geometry": {
                "type": "Point",
                "coordinates": [
                    33.07973524,
                    -111.97741815
                ]
            },
            "properties": {
                "sc_label": "p06-1",
                "SOIL_DATE": "04/21/2021",
                "SLPHW": {
                    "20": 8.4,
                    "60": 8.9,
                    "100": 8.7,
                    "140": 8.4,
                    "180": 8.4
                },
                "SLPHB": {
                    "20": 7.2,
                    "60": 7.2,
                    "100": 7.2,
                    "140": 7.2,
                    "180": 7.2
                },
                "SLEC": {
                    "20": 0.49,
                    "60": 0.54,
                    "100": 0.63,
                    "140": 0.81,
                    "180": 0.9
                },
                "SLOM": {
                    "20": 1.3,
                    "60": 0.8,
                    "100": 0.6,
                    "140": 0.7,
                    "180": 0.7
                },
                "SNO3": {
                    "20": 0.7,
                    "60": 1.0,
                    "100": 1.8,
                    "140": 5.2,
                    "180": 2.1
                },
                "SLPX": {
                    "20": 4.2,
                    "60": 4.9,
                    "100": 4.5,
                    "140": 4.1,
                    "180": 3.4
                },
                "SLKE": {
                    "20": 349,
                    "60": 219,
                    "100": 169,
                    "140": 143,
                    "180": 133
                },
                "SLSU": {
                    "20": 55.7,
                    "60": 55.4,
                    "100": 84.8,
                    "140": 154.9,
                    "180": 107.7
                },
                "SLZN": {
                    "20": 1.81,
                    "60": 0.71,
                    "100": 0.34,
                    "140": 0.25,
                    "180": 0.37
                },
                "SLFE": {
                    "20": 7.3,
                    "60": 6.2,
                    "100": 4.5,
                    "140": 4.0,
                    "180": 4.8
                },
                "SLMN": {
                    "20": 9.6,
                    "60": 7.3,
                    "100": 3.5,
                    "140": 1.9,
                    "180": 3.3
                },
                "SLCU": {
                    "20": 2.78,
                    "60": 1.87,
                    "100": 1.14,
                    "140": 0.55,
                    "180": 0.59
                },
                "SLCA": {
                    "20": 2804,
                    "60": 3701,
                    "100": 3928,
                    "140": 4302,
                    "180": 4127
                },
                "SLMG": {
                    "20": 272,
                    "60": 251,
                    "100": 243,
                    "140": 288,
                    "180": 259
                },
                "SLNA": {
                    "20": 470,
                    "60": 701,
                    "100": 596,
                    "140": 514,
                    "180": 338
                },
                "SLCEC": {
                    "20": 19.2,
                    "60": 24.2,
                    "100": 24.7,
                    "140": 26.5,
                    "180": 24.6
                }
            },
            "_id": "67f413788ac5471a9830fb99",
            "scid": "67f413788ac5471a9830fb99"
        },
        {
            "type": "Feature",
            "geometry": {
                "type": "Point",
                "coordinates": [
                    33.07901219,
                    -111.97711843
                ]
            },
            "properties": {
                "sc_label": "p08-3",
                "SOIL_DATE": "04/21/2021",
                "SLPHW": {
                    "20": 8.5,
                    "60": 8.6,
                    "100": 8.4,
                    "140": 8.3,
                    "180": 8.3
                },
                "SLPHB": {
                    "20": 7.2,
                    "60": 7.2,
                    "100": 7.2,
                    "140": 7.2,
                    "180": 7.2
                },
                "SLEC": {
                    "20": 0.53,
                    "60": 0.9,
                    "100": 1.16,
                    "140": 1.25,
                    "180": 0.82
                },
                "SLOM": {
                    "20": 1.1,
                    "60": 0.7,
                    "100": 0.7,
                    "140": 0.7,
                    "180": 0.6
                },
                "SNO3": {
                    "20": 0.9,
                    "60": 0.6,
                    "100": 4.4,
                    "140": 9.6,
                    "180": 4.0
                },
                "SLPX": {
                    "20": 3.8,
                    "60": 5.3,
                    "100": 4.2,
                    "140": 4.0,
                    "180": 3.4
                },
                "SLKE": {
                    "20": 295,
                    "60": 238,
                    "100": 161,
                    "140": 127,
                    "180": 111
                },
                "SLSU": {
                    "20": 33.7,
                    "60": 112.9,
                    "100": 177.1,
                    "140": 108.1,
                    "180": 70.3
                },
                "SLZN": {
                    "20": 1.42,
                    "60": 1.17,
                    "100": 0.52,
                    "140": 0.4,
                    "180": 0.49
                },
                "SLFE": {
                    "20": 7.5,
                    "60": 9.2,
                    "100": 6.6,
                    "140": 6.5,
                    "180": 7.6
                },
                "SLMN": {
                    "20": 11.1,
                    "60": 9.3,
                    "100": 6.0,
                    "140": 4.2,
                    "180": 5.5
                },
                "SLCU": {
                    "20": 3.16,
                    "60": 2.06,
                    "100": 1.16,
                    "140": 0.77,
                    "180": 0.81
                },
                "SLCA": {
                    "20": 2958,
                    "60": 4317,
                    "100": 4303,
                    "140": 4267,
                    "180": 3832
                },
                "SLMG": {
                    "20": 262,
                    "60": 325,
                    "100": 310,
                    "140": 287,
                    "180": 226
                },
                "SLNA": {
                    "20": 408,
                    "60": 835,
                    "100": 631,
                    "140": 446,
                    "180": 274
                },
                "SLCEC": {
                    "20": 19.5,
                    "60": 28.5,
                    "100": 27.3,
                    "140": 26.0,
                    "180": 22.5
                }
            },
            "_id": "67f413788ac5471a9830fb9a",
            "scid": "67f413788ac5471a9830fb9a"
        },
        {
            "type": "Feature",
            "geometry": {
                "type": "Point",
                "coordinates": [
                    33.07937145,
                    -111.97681198
                ]
            },
            "properties": {
                "sc_label": "p10-2",
                "SOIL_DATE": "04/21/2021",
                "SLPHW": {
                    "20": 8.3,
                    "60": 8.5,
                    "100": 8.4,
                    "140": 8.3,
                    "180": 8.4
                },
                "SLPHB": {
                    "20": 7.2,
                    "60": 7.2,
                    "100": 7.2,
                    "140": 7.2,
                    "180": 7.2
                },
                "SLEC": {
                    "20": 1.0,
                    "60": 1.33,
                    "100": 1.25,
                    "140": 1.08,
                    "180": 0.94
                },
                "SLOM": {
                    "20": 1.4,
                    "60": 0.8,
                    "100": 0.9,
                    "140": 0.8,
                    "180": 0.7
                },
                "SNO3": {
                    "20": 0.7,
                    "60": 0.6,
                    "100": 3.1,
                    "140": 2.7,
                    "180": 1.4
                },
                "SLPX": {
                    "20": 3.9,
                    "60": 4.8,
                    "100": 3.5,
                    "140": 3.7,
                    "180": 4.1
                },
                "SLKE": {
                    "20": 322,
                    "60": 206,
                    "100": 164,
                    "140": 178,
                    "180": 129
                },
                "SLSU": {
                    "20": 76.4,
                    "60": 162.3,
                    "100": 173.5,
                    "140": 141.3,
                    "180": 99.4
                },
                "SLZN": {
                    "20": 1.8,
                    "60": 0.7,
                    "100": 0.57,
                    "140": 0.63,
                    "180": 0.8
                },
                "SLFE": {
                    "20": 7.2,
                    "60": 11.9,
                    "100": 9.3,
                    "140": 7.9,
                    "180": 6.4
                },
                "SLMN": {
                    "20": 11.0,
                    "60": 8.9,
                    "100": 6.3,
                    "140": 5.1,
                    "180": 4.5
                },
                "SLCU": {
                    "20": 2.71,
                    "60": 1.6,
                    "100": 1.04,
                    "140": 0.8,
                    "180": 0.62
                },
                "SLCA": {
                    "20": 2860,
                    "60": 3559,
                    "100": 4356,
                    "140": 4406,
                    "180": 3911
                },
                "SLMG": {
                    "20": 275,
                    "60": 299,
                    "100": 305,
                    "140": 379,
                    "180": 321
                },
                "SLNA": {
                    "20": 513,
                    "60": 946,
                    "100": 695,
                    "140": 574,
                    "180": 341
                },
                "SLCEC": {
                    "20": 19.6,
                    "60": 24.9,
                    "100": 27.8,
                    "140": 28.1,
                    "180": 24.0
                }
            },
            "_id": "67f413788ac5471a9830fb9b",
            "scid": "67f413788ac5471a9830fb9b"
        },
        {
            "type": "Feature",
            "geometry": {
                "type": "Point",
                "coordinates": [
                    33.07864916,
                    -111.97666464
                ]
            },
            "properties": {
                "sc_label": "p11-4",
                "SOIL_DATE": "04/21/2021",
                "SLPHW": {
                    "20": 8.4,
                    "60": 8.4,
                    "100": 8.4,
                    "140": 8.3,
                    "180": 8.3
                },
                "SLPHB": {
                    "20": 7.2,
                    "60": 7.2,
                    "100": 7.2,
                    "140": 7.2,
                    "180": 7.2
                },
                "SLEC": {
                    "20": 1.14,
                    "60": 1.39,
                    "100": 1.17,
                    "140": 1.04,
                    "180": 1.06
                },
                "SLOM": {
                    "20": 1.0,
                    "60": 0.7,
                    "100": 0.7,
                    "140": 0.6,
                    "180": 0.8
                },
                "SNO3": {
                    "20": 0.9,
                    "60": 4.3,
                    "100": 2.9,
                    "140": 1.9,
                    "180": 2.3
                },
                "SLPX": {
                    "20": 4.0,
                    "60": 5.4,
                    "100": 3.4,
                    "140": 3.2,
                    "180": 3.4
                },
                "SLKE": {
                    "20": 244,
                    "60": 154,
                    "100": 83,
                    "140": 92,
                    "180": 92
                },
                "SLSU": {
                    "20": 122.3,
                    "60": 142.3,
                    "100": 115.9,
                    "140": 101.3,
                    "180": 104.6
                },
                "SLZN": {
                    "20": 1.15,
                    "60": 0.45,
                    "100": 0.39,
                    "140": 0.33,
                    "180": 0.36
                },
                "SLFE": {
                    "20": 5.8,
                    "60": 4.8,
                    "100": 6.1,
                    "140": 4.6,
                    "180": 4.8
                },
                "SLMN": {
                    "20": 8.5,
                    "60": 3.9,
                    "100": 3.4,
                    "140": 2.5,
                    "180": 2.1
                },
                "SLCU": {
                    "20": 2.55,
                    "60": 1.11,
                    "100": 0.56,
                    "140": 0.45,
                    "180": 0.33
                },
                "SLCA": {
                    "20": 3122,
                    "60": 4467,
                    "100": 3857,
                    "140": 3896,
                    "180": 5319
                },
                "SLMG": {
                    "20": 264,
                    "60": 329,
                    "100": 231,
                    "140": 252,
                    "180": 269
                },
                "SLNA": {
                    "20": 658,
                    "60": 1053,
                    "100": 584,
                    "140": 390,
                    "180": 276
                },
                "SLCEC": {
                    "20": 21.3,
                    "60": 30.1,
                    "100": 24.0,
                    "140": 23.5,
                    "180": 30.3
                }
            },
            "_id": "67f413788ac5471a9830fb9c",
            "scid": "67f413788ac5471a9830fb9c"
        }
    ]
}