{
    "type": "Feature",
    "geometry": {
        "type": "Polygon",
        "coordinates": [
            [
                [
                    -111.97812005,
                    33.0796035
                ],
                [
                    -111.97825101,
                    33.07960415
                ],
                [
                    -111.97824912,
                    33.07987479
                ],
                [
                    -111.97811816,
                    33.07987414
                ],
                [
                    -111.97812005,
                    33.0796035
                ]
            ]
        ]
    },
    "properties": {
        "plt_label": "p01-1",
        "trt_label": "FAO_NG4936",
        "PLT_AREA": 366.810188,
        "HARM": "Machine",
        "HADAT": "12/07/2021",
        "WBWAH": 3326.7,
        "BWCAH": 4.26,
        "DBWAH": 3185.0,
        "GNDAT": "12/09/2021",
        "FFRAC": 0.3231,
        "SFRAC": 0.4881,
        "TFRAC": 0.1888,
        "WFWAH": 1074.7,
        "WSWAH": 1623.7,
        "WSCWAH": 2698.5,
        "DFWAH": 1029.0,
        "DSWAH": 1554.6,
        "DSCWAH": 2583.5,
        "QLDAT": "02/18/2022",
        "FBMIC": 46.2,
        "FBLTH": 1.134,
        "FBUNI": 82.4,
        "FBSTR": 30.2,
        "FBELO": 6.2,
        "FBCRD": 81.7,
        "FBCLB": 7.4,
        "FBTCT": 12.0,
        "FBTAR": 0.09,
        "FBSFI": 8.3,
        "haids": [
            "636443338ac54794fc16e558",
            "636443338ac54794fc16e559",
            "636443338ac54794fc16e55a",
            "636443338ac54794fc16e55b",
            "636443338ac54794fc16e55c",
            "636443338ac54794fc16e55d"
        ],
        "tids": [
            "636593448ac547abc317e6e1"
        ],
        "ccids": [
            "642464c28ac547060991e39a",
            "642464c28ac547060991e39b",
            "642464c28ac547060991e39c"
        ]
    },
    "_id": "63643f288ac54794e7f9177e",
    "pid": "63643f288ac54794e7f9177e"
}{
    "type": "Feature",
    "geometry": {
        "type": "Polygon",
        "coordinates": [
            [
                [
                    -111.97812257,
                    33.07924267
                ],
                [
                    -111.97825353,
                    33.07924332
                ],
                [
                    -111.97825164,
                    33.07951396
                ],
                [
                    -111.97812068,
                    33.07951331
                ],
                [
                    -111.97812257,
                    33.07924267
                ]
            ]
        ]
    },
    "properties": {
        "plt_label": "p01-2",
        "trt_label": "CSMSWC_NG4936",
        "PLT_AREA": 366.810125,
        "HARM": "Machine",
        "HADAT": "12/07/2021",
        "WBWAH": 2664.5,
        "BWCAH": 3.91,
        "DBWAH": 2560.2,
        "GNDAT": "12/09/2021",
        "FFRAC": 0.3218,
        "SFRAC": 0.5259,
        "TFRAC": 0.1523,
        "WFWAH": 857.4,
        "WSWAH": 1401.2,
        "WSCWAH": 2258.6,
        "DFWAH": 823.9,
        "DSWAH": 1346.3,
        "DSCWAH": 2170.2,
        "QLDAT": "02/18/2022",
        "FBMIC": 44.8,
        "FBLTH": 1.136,
        "FBUNI": 81.4,
        "FBSTR": 31.3,
        "FBELO": 6.1,
        "FBCRD": 83.0,
        "FBCLB": 7.0,
        "FBTCT": 16.0,
        "FBTAR": 0.22,
        "FBSFI": 8.2,
        "haids": [
            "636443338ac54794fc16e55e",
            "636443338ac54794fc16e55f",
            "636443338ac54794fc16e560",
            "636443338ac54794fc16e561",
            "636443338ac54794fc16e562",
            "636443338ac54794fc16e563"
        ],
        "tids": [
            "636593448ac547abc317e6e2"
        ],
        "ccids": [
            "642464c28ac547060991e39d",
            "642464c28ac547060991e39e",
            "642464c28ac547060991e39f"
        ]
    },
    "_id": "63643f288ac54794e7f9177f",
    "pid": "63643f288ac54794e7f9177f"
}{
    "type": "Feature",
    "geometry": {
        "type": "Polygon",
        "coordinates": [
            [
                [
                    -111.97812509,
                    33.07888184
                ],
                [
                    -111.97825604,
                    33.07888248
                ],
                [
                    -111.97825416,
                    33.07915313
                ],
                [
                    -111.9781232,
                    33.07915248
                ],
                [
                    -111.97812509,
                    33.07888184
                ]
            ]
        ]
    },
    "properties": {
        "plt_label": "p01-3",
        "trt_label": "AQCSWC_NG4936",
        "PLT_AREA": 366.81014,
        "HARM": "Machine",
        "HADAT": "12/07/2021",
        "WBWAH": 2906.3,
        "BWCAH": 4.11,
        "DBWAH": 2786.7,
        "GNDAT": "12/09/2021",
        "FFRAC": 0.3278,
        "SFRAC": 0.5284,
        "TFRAC": 0.1439,
        "WFWAH": 952.5,
        "WSWAH": 1535.5,
        "WSCWAH": 2488.1,
        "DFWAH": 913.4,
        "DSWAH": 1472.4,
        "DSCWAH": 2385.7,
        "QLDAT": "02/18/2022",
        "FBMIC": 46.8,
        "FBLTH": 1.13,
        "FBUNI": 81.0,
        "FBSTR": 28.6,
        "FBELO": 6.2,
        "FBCRD": 82.4,
        "FBCLB": 7.4,
        "FBTCT": 15.0,
        "FBTAR": 0.11,
        "FBSFI": 8.1,
        "haids": [
            "636443338ac54794fc16e564",
            "636443338ac54794fc16e565",
            "636443338ac54794fc16e566",
            "636443338ac54794fc16e567",
            "636443338ac54794fc16e568",
            "636443338ac54794fc16e569"
        ],
        "tids": [
            "636593448ac547abc317e6e3"
        ],
        "ccids": [
            "642464c28ac547060991e3a0",
            "642464c28ac547060991e3a1",
            "642464c28ac547060991e3a2"
        ]
    },
    "_id": "63643f288ac54794e7f91780",
    "pid": "63643f288ac54794e7f91780"
}{
    "type": "Feature",
    "geometry": {
        "type": "Polygon",
        "coordinates": [
            [
                [
                    -111.97812761,
                    33.078521
                ],
                [
                    -111.97825856,
                    33.07852165
                ],
                [
                    -111.97825667,
                    33.07879229
                ],
                [
                    -111.97812572,
                    33.07879164
                ],
                [
                    -111.97812761,
                    33.078521
                ]
            ]
        ]
    },
    "properties": {
        "plt_label": "p01-4",
        "trt_label": "AQC_NG4936",
        "PLT_AREA": 366.810114,
        "HARM": "Machine",
        "HADAT": "12/07/2021",
        "WBWAH": 3672.7,
        "BWCAH": 3.92,
        "DBWAH": 3528.6,
        "GNDAT": "12/09/2021",
        "FFRAC": 0.3333,
        "SFRAC": 0.5159,
        "TFRAC": 0.1508,
        "WFWAH": 1224.0,
        "WSWAH": 1894.8,
        "WSCWAH": 3118.8,
        "DFWAH": 1175.9,
        "DSWAH": 1820.5,
        "DSCWAH": 2996.4,
        "QLDAT": "02/18/2022",
        "FBMIC": 44.55,
        "FBLTH": 1.178,
        "FBUNI": 82.3,
        "FBSTR": 30.6,
        "FBELO": 6.4,
        "FBCRD": 83.1,
        "FBCLB": 7.2,
        "FBTCT": 11.0,
        "FBTAR": 0.15,
        "FBSFI": 7.9,
        "haids": [
            "636443338ac54794fc16e56a",
            "636443338ac54794fc16e56b",
            "636443338ac54794fc16e56c",
            "636443338ac54794fc16e56d",
            "636443338ac54794fc16e56e",
            "636443338ac54794fc16e56f"
        ],
        "tids": [
            "636593448ac547abc317e6e4"
        ],
        "ccids": [
            "642464c28ac547060991e3a3",
            "642464c28ac547060991e3a4",
            "642464c28ac547060991e3a5"
        ]
    },
    "_id": "63643f288ac54794e7f91781",
    "pid": "63643f288ac54794e7f91781"
}{
    "type": "Feature",
    "geometry": {
        "type": "Polygon",
        "coordinates": [
            [
                [
                    -111.97796767,
                    33.07960275
                ],
                [
                    -111.97809863,
                    33.0796034
                ],
                [
                    -111.97809674,
                    33.07987404
                ],
                [
                    -111.97796578,
                    33.07987339
                ],
                [
                    -111.97796767,
                    33.07960275
                ]
            ]
        ]
    },
    "properties": {
        "plt_label": "p02-1",
        "trt_label": "FAO_NG3195",
        "PLT_AREA": 366.81014,
        "HARM": "Machine",
        "HADAT": "12/07/2021",
        "WBWAH": 3719.2,
        "BWCAH": 4.25,
        "DBWAH": 3561.3,
        "GNDAT": "12/09/2021",
        "FFRAC": 0.3536,
        "SFRAC": 0.4573,
        "TFRAC": 0.1891,
        "WFWAH": 1315.2,
        "WSWAH": 1700.8,
        "WSCWAH": 3016.0,
        "DFWAH": 1259.4,
        "DSWAH": 1628.6,
        "DSCWAH": 2887.9,
        "QLDAT": "02/18/2022",
        "FBMIC": 46.35,
        "FBLTH": 1.092,
        "FBUNI": 81.8,
        "FBSTR": 31.2,
        "FBELO": 5.8,
        "FBCRD": 79.4,
        "FBCLB": 7.5,
        "FBTCT": 31.0,
        "FBTAR": 0.3,
        "FBSFI": 8.2,
        "haids": [
            "636443338ac54794fc16e570",
            "636443338ac54794fc16e571",
            "636443338ac54794fc16e572",
            "636443338ac54794fc16e573",
            "636443338ac54794fc16e574",
            "636443338ac54794fc16e575"
        ],
        "tids": [
            "636593448ac547abc317e6e5"
        ],
        "ccids": [
            "642464c28ac547060991e3a6",
            "642464c28ac547060991e3a7",
            "642464c28ac547060991e3a8"
        ]
    },
    "_id": "63643f288ac54794e7f91782",
    "pid": "63643f288ac54794e7f91782"
}{
    "type": "Feature",
    "geometry": {
        "type": "Polygon",
        "coordinates": [
            [
                [
                    -111.97797019,
                    33.07924191
                ],
                [
                    -111.97810114,
                    33.07924256
                ],
                [
                    -111.97809925,
                    33.0795132
                ],
                [
                    -111.9779683,
                    33.07951256
                ],
                [
                    -111.97797019,
                    33.07924191
                ]
            ]
        ]
    },
    "properties": {
        "plt_label": "p02-2",
        "trt_label": "CSMSWC_NG3195",
        "PLT_AREA": 366.810125,
        "HARM": "Machine",
        "HADAT": "12/07/2021",
        "WBWAH": 3652.2,
        "BWCAH": 4.1,
        "DBWAH": 3502.5,
        "GNDAT": "12/09/2021",
        "FFRAC": 0.3454,
        "SFRAC": 0.4727,
        "TFRAC": 0.1818,
        "WFWAH": 1261.6,
        "WSWAH": 1726.5,
        "WSCWAH": 2988.1,
        "DFWAH": 1209.8,
        "DSWAH": 1655.7,
        "DSCWAH": 2865.6,
        "QLDAT": "02/18/2022",
        "FBMIC": 46.7,
        "FBLTH": 1.102,
        "FBUNI": 80.8,
        "FBSTR": 31.6,
        "FBELO": 5.7,
        "FBCRD": 79.6,
        "FBCLB": 7.6,
        "FBTCT": 24.0,
        "FBTAR": 0.38,
        "FBSFI": 8.3,
        "haids": [
            "636443338ac54794fc16e576",
            "636443338ac54794fc16e577",
            "636443338ac54794fc16e578",
            "636443338ac54794fc16e579",
            "636443338ac54794fc16e57a",
            "636443338ac54794fc16e57b"
        ],
        "tids": [
            "636593448ac547abc317e6e6"
        ],
        "ccids": [
            "642464c28ac547060991e3a9",
            "642464c28ac547060991e3aa",
            "642464c28ac547060991e3ab"
        ]
    },
    "_id": "63643f288ac54794e7f91783",
    "pid": "63643f288ac54794e7f91783"
}{
    "type": "Feature",
    "geometry": {
        "type": "Polygon",
        "coordinates": [
            [
                [
                    -111.9779727,
                    33.07888108
                ],
                [
                    -111.97810366,
                    33.07888173
                ],
                [
                    -111.97810177,
                    33.07915237
                ],
                [
                    -111.97797082,
                    33.07915172
                ],
                [
                    -111.9779727,
                    33.07888108
                ]
            ]
        ]
    },
    "properties": {
        "plt_label": "p02-3",
        "trt_label": "AQCSWC_NG3195",
        "PLT_AREA": 366.810125,
        "HARM": "Machine",
        "HADAT": "12/07/2021",
        "WBWAH": 3358.3,
        "BWCAH": 4.28,
        "DBWAH": 3214.7,
        "GNDAT": "12/09/2021",
        "FFRAC": 0.3499,
        "SFRAC": 0.4964,
        "TFRAC": 0.1536,
        "WFWAH": 1175.1,
        "WSWAH": 1667.2,
        "WSCWAH": 2842.3,
        "DFWAH": 1124.9,
        "DSWAH": 1595.9,
        "DSCWAH": 2720.8,
        "QLDAT": "02/18/2022",
        "FBMIC": 47.6,
        "FBLTH": 1.122,
        "FBUNI": 81.9,
        "FBSTR": 30.4,
        "FBELO": 5.6,
        "FBCRD": 80.7,
        "FBCLB": 7.6,
        "FBTCT": 20.0,
        "FBTAR": 0.22,
        "FBSFI": 8.3,
        "haids": [
            "636443338ac54794fc16e57c",
            "636443338ac54794fc16e57d",
            "636443338ac54794fc16e57e",
            "636443338ac54794fc16e57f",
            "636443338ac54794fc16e580",
            "636443338ac54794fc16e581"
        ],
        "tids": [
            "636593448ac547abc317e6e7"
        ],
        "ccids": [
            "642464c28ac547060991e3ac",
            "642464c28ac547060991e3ad",
            "642464c28ac547060991e3ae"
        ]
    },
    "_id": "63643f288ac54794e7f91784",
    "pid": "63643f288ac54794e7f91784"
}{
    "type": "Feature",
    "geometry": {
        "type": "Polygon",
        "coordinates": [
            [
                [
                    -111.97797522,
                    33.07852025
                ],
                [
                    -111.97810618,
                    33.0785209
                ],
                [
                    -111.97810429,
                    33.07879154
                ],
                [
                    -111.97797333,
                    33.07879089
                ],
                [
                    -111.97797522,
                    33.07852025
                ]
            ]
        ]
    },
    "properties": {
        "plt_label": "p02-4",
        "trt_label": "AQC_NG3195",
        "PLT_AREA": 366.81014,
        "HARM": "Machine",
        "HADAT": "12/07/2021",
        "WBWAH": 4214.0,
        "BWCAH": 3.83,
        "DBWAH": 4052.6,
        "GNDAT": "12/09/2021",
        "FFRAC": 0.3617,
        "SFRAC": 0.4658,
        "TFRAC": 0.1725,
        "WFWAH": 1524.1,
        "WSWAH": 1963.1,
        "WSCWAH": 3487.1,
        "DFWAH": 1465.7,
        "DSWAH": 1887.9,
        "DSCWAH": 3353.6,
        "QLDAT": "02/18/2022",
        "FBMIC": 49.15,
        "FBLTH": 1.116,
        "FBUNI": 81.3,
        "FBSTR": 30.6,
        "FBELO": 5.8,
        "FBCRD": 80.1,
        "FBCLB": 7.5,
        "FBTCT": 18.0,
        "FBTAR": 0.2,
        "FBSFI": 8.0,
        "haids": [
            "636443338ac54794fc16e582",
            "636443338ac54794fc16e583",
            "636443338ac54794fc16e584",
            "636443338ac54794fc16e585",
            "636443338ac54794fc16e586",
            "636443338ac54794fc16e587"
        ],
        "tids": [
            "636593448ac547abc317e6e8"
        ],
        "ccids": [
            "642464c28ac547060991e3af",
            "642464c28ac547060991e3b0",
            "642464c28ac547060991e3b1"
        ]
    },
    "_id": "63643f288ac54794e7f91785",
    "pid": "63643f288ac54794e7f91785"
}{
    "type": "Feature",
    "geometry": {
        "type": "Polygon",
        "coordinates": [
            [
                [
                    -111.97781528,
                    33.07960199
                ],
                [
                    -111.97794624,
                    33.07960264
                ],
                [
                    -111.97794435,
                    33.07987328
                ],
                [
                    -111.97781339,
                    33.07987263
                ],
                [
                    -111.97781528,
                    33.07960199
                ]
            ]
        ]
    },
    "properties": {
        "plt_label": "p03-1",
        "trt_label": "AQCSWC_NG3195",
        "PLT_AREA": 366.810129,
        "HARM": "Machine",
        "HADAT": "12/07/2021",
        "WBWAH": 3783.8,
        "BWCAH": 3.91,
        "DBWAH": 3635.7,
        "GNDAT": "12/09/2021",
        "FFRAC": 0.344,
        "SFRAC": 0.4623,
        "TFRAC": 0.1937,
        "WFWAH": 1301.7,
        "WSWAH": 1749.1,
        "WSCWAH": 3050.7,
        "DFWAH": 1250.7,
        "DSWAH": 1680.6,
        "DSCWAH": 2931.3,
        "QLDAT": "02/18/2022",
        "FBMIC": 46.55,
        "FBLTH": 1.11,
        "FBUNI": 81.5,
        "FBSTR": 29.4,
        "FBELO": 5.8,
        "FBCRD": 79.6,
        "FBCLB": 7.6,
        "FBTCT": 20.0,
        "FBTAR": 0.16,
        "FBSFI": 8.2,
        "haids": [
            "636443338ac54794fc16e588",
            "636443338ac54794fc16e589",
            "636443338ac54794fc16e58a",
            "636443338ac54794fc16e58b",
            "636443338ac54794fc16e58c",
            "636443338ac54794fc16e58d"
        ],
        "tids": [
            "636593448ac547abc317e6e9"
        ],
        "ccids": [
            "642464c28ac547060991e3b2",
            "642464c28ac547060991e3b3",
            "642464c28ac547060991e3b4"
        ]
    },
    "_id": "63643f288ac54794e7f91786",
    "pid": "63643f288ac54794e7f91786"
}{
    "type": "Feature",
    "geometry": {
        "type": "Polygon",
        "coordinates": [
            [
                [
                    -111.9778178,
                    33.07924116
                ],
                [
                    -111.97794876,
                    33.07924181
                ],
                [
                    -111.97794687,
                    33.07951245
                ],
                [
                    -111.97781591,
                    33.0795118
                ],
                [
                    -111.9778178,
                    33.07924116
                ]
            ]
        ]
    },
    "properties": {
        "plt_label": "p03-2",
        "trt_label": "FAOSWC_NG3195",
        "PLT_AREA": 366.81014,
        "HARM": "Machine",
        "HADAT": "12/07/2021",
        "WBWAH": 3824.8,
        "BWCAH": 4.27,
        "DBWAH": 3661.5,
        "GNDAT": "12/09/2021",
        "FFRAC": 0.3437,
        "SFRAC": 0.4383,
        "TFRAC": 0.218,
        "WFWAH": 1314.6,
        "WSWAH": 1676.5,
        "WSCWAH": 2991.1,
        "DFWAH": 1258.5,
        "DSWAH": 1604.9,
        "DSCWAH": 2863.4,
        "QLDAT": "02/18/2022",
        "FBMIC": 46.6,
        "FBLTH": 1.11,
        "FBUNI": 81.2,
        "FBSTR": 31.0,
        "FBELO": 5.9,
        "FBCRD": 79.9,
        "FBCLB": 7.4,
        "FBTCT": 20.0,
        "FBTAR": 0.22,
        "FBSFI": 8.3,
        "haids": [
            "636443338ac54794fc16e58e",
            "636443338ac54794fc16e58f",
            "636443338ac54794fc16e590",
            "636443338ac54794fc16e591",
            "636443338ac54794fc16e592",
            "636443338ac54794fc16e593"
        ],
        "tids": [
            "636593448ac547abc317e6ea"
        ],
        "ccids": [
            "642464c28ac547060991e3b5",
            "642464c28ac547060991e3b6",
            "642464c28ac547060991e3b7"
        ]
    },
    "_id": "63643f288ac54794e7f91787",
    "pid": "63643f288ac54794e7f91787"
}{
    "type": "Feature",
    "geometry": {
        "type": "Polygon",
        "coordinates": [
            [
                [
                    -111.97782032,
                    33.07888032
                ],
                [
                    -111.97795128,
                    33.07888097
                ],
                [
                    -111.97794939,
                    33.07915162
                ],
                [
                    -111.97781843,
                    33.07915097
                ],
                [
                    -111.97782032,
                    33.07888032
                ]
            ]
        ]
    },
    "properties": {
        "plt_label": "p03-3",
        "trt_label": "CSM_NG3195",
        "PLT_AREA": 366.810125,
        "HARM": "Machine",
        "HADAT": "12/07/2021",
        "WBWAH": 3955.0,
        "BWCAH": 4.0,
        "DBWAH": 3796.9,
        "GNDAT": "12/09/2021",
        "FFRAC": 0.344,
        "SFRAC": 0.4523,
        "TFRAC": 0.2037,
        "WFWAH": 1360.5,
        "WSWAH": 1788.9,
        "WSCWAH": 3149.5,
        "DFWAH": 1306.1,
        "DSWAH": 1717.4,
        "DSCWAH": 3023.6,
        "QLDAT": "02/18/2022",
        "FBMIC": 46.45,
        "FBLTH": 1.108,
        "FBUNI": 82.2,
        "FBSTR": 30.9,
        "FBELO": 5.8,
        "FBCRD": 79.6,
        "FBCLB": 7.3,
        "FBTCT": 20.0,
        "FBTAR": 0.41,
        "FBSFI": 7.8,
        "haids": [
            "636443338ac54794fc16e594",
            "636443338ac54794fc16e595",
            "636443338ac54794fc16e596",
            "636443338ac54794fc16e597",
            "636443338ac54794fc16e598",
            "636443338ac54794fc16e599"
        ],
        "tids": [
            "636593448ac547abc317e6eb"
        ],
        "ccids": [
            "642464c28ac547060991e3b8",
            "642464c28ac547060991e3b9",
            "642464c28ac547060991e3ba"
        ]
    },
    "_id": "63643f288ac54794e7f91788",
    "pid": "63643f288ac54794e7f91788"
}{
    "type": "Feature",
    "geometry": {
        "type": "Polygon",
        "coordinates": [
            [
                [
                    -111.97782284,
                    33.07851949
                ],
                [
                    -111.9779538,
                    33.07852014
                ],
                [
                    -111.97795191,
                    33.07879078
                ],
                [
                    -111.97782095,
                    33.07879013
                ],
                [
                    -111.97782284,
                    33.07851949
                ]
            ]
        ]
    },
    "properties": {
        "plt_label": "p03-4",
        "trt_label": "FAO_NG3195",
        "PLT_AREA": 366.810129,
        "HARM": "Machine",
        "HADAT": "12/07/2021",
        "WBWAH": 4040.5,
        "BWCAH": 3.62,
        "DBWAH": 3894.1,
        "GNDAT": "12/09/2021",
        "FFRAC": 0.3527,
        "SFRAC": 0.4708,
        "TFRAC": 0.1766,
        "WFWAH": 1425.1,
        "WSWAH": 1902.1,
        "WSCWAH": 3327.2,
        "DFWAH": 1373.4,
        "DSWAH": 1833.2,
        "DSCWAH": 3206.6,
        "QLDAT": "02/18/2022",
        "FBMIC": 47.95,
        "FBLTH": 1.099,
        "FBUNI": 81.4,
        "FBSTR": 31.2,
        "FBELO": 5.8,
        "FBCRD": 80.3,
        "FBCLB": 7.8,
        "FBTCT": 16.0,
        "FBTAR": 0.17,
        "FBSFI": 8.0,
        "haids": [
            "636443338ac54794fc16e59a",
            "636443338ac54794fc16e59b",
            "636443338ac54794fc16e59c",
            "636443338ac54794fc16e59d",
            "636443338ac54794fc16e59e",
            "636443338ac54794fc16e59f"
        ],
        "tids": [
            "636593448ac547abc317e6ec"
        ],
        "ccids": [
            "642464c28ac547060991e3bb",
            "642464c28ac547060991e3bc",
            "642464c28ac547060991e3bd"
        ]
    },
    "_id": "63643f288ac54794e7f91789",
    "pid": "63643f288ac54794e7f91789"
}{
    "type": "Feature",
    "geometry": {
        "type": "Polygon",
        "coordinates": [
            [
                [
                    -111.97766292,
                    33.07960124
                ],
                [
                    -111.97779386,
                    33.07960189
                ],
                [
                    -111.97779197,
                    33.07987253
                ],
                [
                    -111.97766103,
                    33.07987188
                ],
                [
                    -111.97766292,
                    33.07960124
                ]
            ]
        ]
    },
    "properties": {
        "plt_label": "p04-1",
        "trt_label": "AQCSWC_NG4936",
        "PLT_AREA": 366.761265,
        "HARM": "Machine",
        "HADAT": "12/07/2021",
        "WBWAH": 3858.7,
        "BWCAH": 3.93,
        "DBWAH": 3707.2,
        "GNDAT": "12/09/2021",
        "FFRAC": 0.3186,
        "SFRAC": 0.4974,
        "TFRAC": 0.184,
        "WFWAH": 1229.4,
        "WSWAH": 1919.2,
        "WSCWAH": 3148.7,
        "DFWAH": 1181.1,
        "DSWAH": 1843.9,
        "DSCWAH": 3025.0,
        "QLDAT": "02/18/2022",
        "FBMIC": 41.35,
        "FBLTH": 1.187,
        "FBUNI": 83.4,
        "FBSTR": 31.2,
        "FBELO": 6.4,
        "FBCRD": 81.6,
        "FBCLB": 7.0,
        "FBTCT": 30.0,
        "FBTAR": 0.34,
        "FBSFI": 7.8,
        "haids": [
            "636443338ac54794fc16e5a0",
            "636443338ac54794fc16e5a1",
            "636443338ac54794fc16e5a2",
            "636443338ac54794fc16e5a3",
            "636443338ac54794fc16e5a4",
            "636443338ac54794fc16e5a5"
        ],
        "tids": [
            "636593448ac547abc317e6ed"
        ],
        "ccids": [
            "642464c28ac547060991e3be",
            "642464c28ac547060991e3bf",
            "642464c28ac547060991e3c0"
        ]
    },
    "_id": "63643f288ac54794e7f9178a",
    "pid": "63643f288ac54794e7f9178a"
}{
    "type": "Feature",
    "geometry": {
        "type": "Polygon",
        "coordinates": [
            [
                [
                    -111.97766543,
                    33.0792404
                ],
                [
                    -111.97779638,
                    33.07924105
                ],
                [
                    -111.97779449,
                    33.07951169
                ],
                [
                    -111.97766354,
                    33.07951104
                ],
                [
                    -111.97766543,
                    33.0792404
                ]
            ]
        ]
    },
    "properties": {
        "plt_label": "p04-2",
        "trt_label": "FAOSWC_NG4936",
        "PLT_AREA": 366.769275,
        "HARM": "Machine",
        "HADAT": "12/07/2021",
        "WBWAH": 3903.4,
        "BWCAH": 3.97,
        "DBWAH": 3748.6,
        "GNDAT": "12/09/2021",
        "FFRAC": 0.3203,
        "SFRAC": 0.479,
        "TFRAC": 0.2007,
        "WFWAH": 1250.2,
        "WSWAH": 1869.6,
        "WSCWAH": 3119.8,
        "DFWAH": 1200.6,
        "DSWAH": 1795.5,
        "DSCWAH": 2996.1,
        "QLDAT": "02/18/2022",
        "FBMIC": 43.25,
        "FBLTH": 1.16,
        "FBUNI": 82.6,
        "FBSTR": 30.8,
        "FBELO": 6.4,
        "FBCRD": 82.5,
        "FBCLB": 7.1,
        "FBTCT": 22.0,
        "FBTAR": 0.28,
        "FBSFI": 7.8,
        "haids": [
            "636443338ac54794fc16e5a6",
            "636443338ac54794fc16e5a7",
            "636443338ac54794fc16e5a8",
            "636443338ac54794fc16e5a9",
            "636443338ac54794fc16e5aa",
            "636443338ac54794fc16e5ab"
        ],
        "tids": [
            "636593448ac547abc317e6ee"
        ],
        "ccids": [
            "642464c28ac547060991e3c1",
            "642464c28ac547060991e3c2",
            "642464c28ac547060991e3c3"
        ]
    },
    "_id": "63643f288ac54794e7f9178b",
    "pid": "63643f288ac54794e7f9178b"
}{
    "type": "Feature",
    "geometry": {
        "type": "Polygon",
        "coordinates": [
            [
                [
                    -111.97766795,
                    33.07887957
                ],
                [
                    -111.9777989,
                    33.07888022
                ],
                [
                    -111.97779701,
                    33.07915086
                ],
                [
                    -111.97766606,
                    33.07915021
                ],
                [
                    -111.97766795,
                    33.07887957
                ]
            ]
        ]
    },
    "properties": {
        "plt_label": "p04-3",
        "trt_label": "CSM_NG4936",
        "PLT_AREA": 366.777232,
        "HARM": "Machine",
        "HADAT": "12/07/2021",
        "WBWAH": 3828.9,
        "BWCAH": 3.69,
        "DBWAH": 3687.7,
        "GNDAT": "12/09/2021",
        "FFRAC": 0.3157,
        "SFRAC": 0.4911,
        "TFRAC": 0.1931,
        "WFWAH": 1208.9,
        "WSWAH": 1880.5,
        "WSCWAH": 3089.4,
        "DFWAH": 1164.3,
        "DSWAH": 1811.1,
        "DSCWAH": 2975.4,
        "QLDAT": "02/18/2022",
        "FBMIC": 43.6,
        "FBLTH": 1.158,
        "FBUNI": 82.3,
        "FBSTR": 30.6,
        "FBELO": 6.4,
        "FBCRD": 82.2,
        "FBCLB": 7.2,
        "FBTCT": 16.0,
        "FBTAR": 0.2,
        "FBSFI": 7.8,
        "haids": [
            "636443338ac54794fc16e5ac",
            "636443338ac54794fc16e5ad",
            "636443338ac54794fc16e5ae",
            "636443338ac54794fc16e5af",
            "636443338ac54794fc16e5b0",
            "636443338ac54794fc16e5b1"
        ],
        "tids": [
            "636593448ac547abc317e6ef"
        ],
        "ccids": [
            "642464c28ac547060991e3c4",
            "642464c28ac547060991e3c5",
            "642464c28ac547060991e3c6"
        ]
    },
    "_id": "63643f288ac54794e7f9178c",
    "pid": "63643f288ac54794e7f9178c"
}{
    "type": "Feature",
    "geometry": {
        "type": "Polygon",
        "coordinates": [
            [
                [
                    -111.97767047,
                    33.07851873
                ],
                [
                    -111.97780141,
                    33.07851938
                ],
                [
                    -111.97779953,
                    33.07879003
                ],
                [
                    -111.97766858,
                    33.07878938
                ],
                [
                    -111.97767047,
                    33.07851873
                ]
            ]
        ]
    },
    "properties": {
        "plt_label": "p04-4",
        "trt_label": "FAO_NG4936",
        "PLT_AREA": 366.785228,
        "HARM": "Machine",
        "HADAT": "12/07/2021",
        "WBWAH": 4517.2,
        "BWCAH": 3.8,
        "DBWAH": 4345.7,
        "GNDAT": "12/09/2021",
        "FFRAC": 0.3221,
        "SFRAC": 0.5045,
        "TFRAC": 0.1734,
        "WFWAH": 1454.8,
        "WSWAH": 2279.0,
        "WSCWAH": 3733.8,
        "DFWAH": 1399.5,
        "DSWAH": 2192.4,
        "DSCWAH": 3592.0,
        "QLDAT": "02/18/2022",
        "FBMIC": 44.75,
        "FBLTH": 1.174,
        "FBUNI": 81.8,
        "FBSTR": 31.6,
        "FBELO": 6.5,
        "FBCRD": 83.1,
        "FBCLB": 7.0,
        "FBTCT": 14.0,
        "FBTAR": 0.11,
        "FBSFI": 7.9,
        "haids": [
            "636443338ac54794fc16e5b2",
            "636443338ac54794fc16e5b3",
            "636443338ac54794fc16e5b4",
            "636443338ac54794fc16e5b5",
            "636443338ac54794fc16e5b6",
            "636443338ac54794fc16e5b7"
        ],
        "tids": [
            "636593448ac547abc317e6f0"
        ],
        "ccids": [
            "642464c28ac547060991e3c7",
            "642464c28ac547060991e3c8",
            "642464c28ac547060991e3c9"
        ]
    },
    "_id": "63643f288ac54794e7f9178d",
    "pid": "63643f288ac54794e7f9178d"
}{
    "type": "Feature",
    "geometry": {
        "type": "Polygon",
        "coordinates": [
            [
                [
                    -111.97751144,
                    33.07960048
                ],
                [
                    -111.9776424,
                    33.07960113
                ],
                [
                    -111.97764051,
                    33.07987178
                ],
                [
                    -111.97750955,
                    33.07987113
                ],
                [
                    -111.97751144,
                    33.07960048
                ]
            ]
        ]
    },
    "properties": {
        "plt_label": "p05-1",
        "trt_label": "AQC_NG3195",
        "PLT_AREA": 366.810129,
        "HARM": "Machine",
        "HADAT": "12/07/2021",
        "WBWAH": 4226.6,
        "BWCAH": 3.61,
        "DBWAH": 4074.0,
        "GNDAT": "12/09/2021",
        "FFRAC": 0.3328,
        "SFRAC": 0.4356,
        "TFRAC": 0.2316,
        "WFWAH": 1406.8,
        "WSWAH": 1840.9,
        "WSCWAH": 3247.7,
        "DFWAH": 1356.0,
        "DSWAH": 1774.4,
        "DSCWAH": 3130.4,
        "QLDAT": "02/18/2022",
        "FBMIC": 44.75,
        "FBLTH": 1.146,
        "FBUNI": 82.8,
        "FBSTR": 29.6,
        "FBELO": 5.8,
        "FBCRD": 79.6,
        "FBCLB": 7.5,
        "FBTCT": 34.0,
        "FBTAR": 0.33,
        "FBSFI": 7.9,
        "haids": [
            "636443338ac54794fc16e5b8",
            "636443338ac54794fc16e5b9",
            "636443338ac54794fc16e5ba",
            "636443338ac54794fc16e5bb",
            "636443338ac54794fc16e5bc",
            "636443338ac54794fc16e5bd"
        ],
        "tids": [
            "636593448ac547abc317e6f1"
        ],
        "ccids": [
            "642464c28ac547060991e3ca",
            "642464c28ac547060991e3cb",
            "642464c28ac547060991e3cc"
        ]
    },
    "_id": "63643f288ac54794e7f9178e",
    "pid": "63643f288ac54794e7f9178e"
}{
    "type": "Feature",
    "geometry": {
        "type": "Polygon",
        "coordinates": [
            [
                [
                    -111.97751396,
                    33.07923965
                ],
                [
                    -111.97764492,
                    33.0792403
                ],
                [
                    -111.97764303,
                    33.07951094
                ],
                [
                    -111.97751207,
                    33.07951029
                ],
                [
                    -111.97751396,
                    33.07923965
                ]
            ]
        ]
    },
    "properties": {
        "plt_label": "p05-2",
        "trt_label": "CSM_NG3195",
        "PLT_AREA": 366.810125,
        "HARM": "Machine",
        "HADAT": "12/07/2021",
        "WBWAH": 4033.1,
        "BWCAH": 3.82,
        "DBWAH": 3878.9,
        "GNDAT": "12/09/2021",
        "FFRAC": 0.3372,
        "SFRAC": 0.4272,
        "TFRAC": 0.2356,
        "WFWAH": 1360.1,
        "WSWAH": 1722.8,
        "WSCWAH": 3083.0,
        "DFWAH": 1308.1,
        "DSWAH": 1656.9,
        "DSCWAH": 2965.1,
        "QLDAT": "02/18/2022",
        "FBMIC": 43.4,
        "FBLTH": 1.142,
        "FBUNI": 82.0,
        "FBSTR": 31.1,
        "FBELO": 5.8,
        "FBCRD": 79.2,
        "FBCLB": 7.2,
        "FBTCT": 26.0,
        "FBTAR": 0.34,
        "FBSFI": 8.4,
        "haids": [
            "636443338ac54794fc16e5be",
            "636443338ac54794fc16e5bf",
            "636443338ac54794fc16e5c0",
            "636443338ac54794fc16e5c1",
            "636443338ac54794fc16e5c2",
            "636443338ac54794fc16e5c3"
        ],
        "tids": [
            "636593448ac547abc317e6f2"
        ],
        "ccids": [
            "642464c28ac547060991e3cd",
            "642464c28ac547060991e3ce",
            "642464c28ac547060991e3cf"
        ]
    },
    "_id": "63643f288ac54794e7f9178f",
    "pid": "63643f288ac54794e7f9178f"
}{
    "type": "Feature",
    "geometry": {
        "type": "Polygon",
        "coordinates": [
            [
                [
                    -111.97751649,
                    33.07887882
                ],
                [
                    -111.97764744,
                    33.07887947
                ],
                [
                    -111.97764555,
                    33.07915011
                ],
                [
                    -111.97751459,
                    33.07914946
                ],
                [
                    -111.97751649,
                    33.07887882
                ]
            ]
        ]
    },
    "properties": {
        "plt_label": "p05-3",
        "trt_label": "FAOSWC_NG3195",
        "PLT_AREA": 366.81014,
        "HARM": "Machine",
        "HADAT": "12/07/2021",
        "WBWAH": 3955.0,
        "BWCAH": 3.67,
        "DBWAH": 3810.0,
        "GNDAT": "12/09/2021",
        "FFRAC": 0.3399,
        "SFRAC": 0.4633,
        "TFRAC": 0.1968,
        "WFWAH": 1344.2,
        "WSWAH": 1832.4,
        "WSCWAH": 3176.6,
        "DFWAH": 1294.9,
        "DSWAH": 1765.2,
        "DSCWAH": 3060.1,
        "QLDAT": "02/18/2022",
        "FBMIC": 45.4,
        "FBLTH": 1.102,
        "FBUNI": 81.7,
        "FBSTR": 31.0,
        "FBELO": 5.8,
        "FBCRD": 80.1,
        "FBCLB": 7.4,
        "FBTCT": 22.0,
        "FBTAR": 0.16,
        "FBSFI": 8.2,
        "haids": [
            "636443338ac54794fc16e5c4",
            "636443338ac54794fc16e5c5",
            "636443338ac54794fc16e5c6",
            "636443338ac54794fc16e5c7",
            "636443338ac54794fc16e5c8",
            "636443338ac54794fc16e5c9"
        ],
        "tids": [
            "636593448ac547abc317e6f3"
        ],
        "ccids": [
            "642464c28ac547060991e3d0",
            "642464c28ac547060991e3d1",
            "642464c28ac547060991e3d2"
        ]
    },
    "_id": "63643f288ac54794e7f91790",
    "pid": "63643f288ac54794e7f91790"
}{
    "type": "Feature",
    "geometry": {
        "type": "Polygon",
        "coordinates": [
            [
                [
                    -111.97751901,
                    33.07851798
                ],
                [
                    -111.97764996,
                    33.07851863
                ],
                [
                    -111.97764807,
                    33.07878927
                ],
                [
                    -111.97751712,
                    33.07878862
                ],
                [
                    -111.97751901,
                    33.07851798
                ]
            ]
        ]
    },
    "properties": {
        "plt_label": "p05-4",
        "trt_label": "CSMSWC_NG3195",
        "PLT_AREA": 366.810129,
        "HARM": "Machine",
        "HADAT": "12/07/2021",
        "WBWAH": 4260.1,
        "BWCAH": 3.33,
        "DBWAH": 4118.0,
        "GNDAT": "12/09/2021",
        "FFRAC": 0.3493,
        "SFRAC": 0.4871,
        "TFRAC": 0.1636,
        "WFWAH": 1488.2,
        "WSWAH": 2075.0,
        "WSCWAH": 3563.2,
        "DFWAH": 1438.6,
        "DSWAH": 2005.8,
        "DSCWAH": 3444.4,
        "QLDAT": "02/18/2022",
        "FBMIC": 48.95,
        "FBLTH": 1.108,
        "FBUNI": 81.6,
        "FBSTR": 29.4,
        "FBELO": 5.6,
        "FBCRD": 80.7,
        "FBCLB": 7.8,
        "FBTCT": 14.0,
        "FBTAR": 0.18,
        "FBSFI": 8.5,
        "haids": [
            "636443338ac54794fc16e5ca",
            "636443338ac54794fc16e5cb",
            "636443338ac54794fc16e5cc",
            "636443338ac54794fc16e5cd",
            "636443338ac54794fc16e5ce",
            "636443338ac54794fc16e5cf"
        ],
        "tids": [
            "636593448ac547abc317e6f4"
        ],
        "ccids": [
            "642464c28ac547060991e3d3",
            "642464c28ac547060991e3d4",
            "642464c28ac547060991e3d5"
        ]
    },
    "_id": "63643f288ac54794e7f91791",
    "pid": "63643f288ac54794e7f91791"
}{
    "type": "Feature",
    "geometry": {
        "type": "Polygon",
        "coordinates": [
            [
                [
                    -111.97735906,
                    33.07959973
                ],
                [
                    -111.97749002,
                    33.07960038
                ],
                [
                    -111.97748813,
                    33.07987102
                ],
                [
                    -111.97735717,
                    33.07987037
                ],
                [
                    -111.97735906,
                    33.07959973
                ]
            ]
        ]
    },
    "properties": {
        "plt_label": "p06-1",
        "trt_label": "AQC_NG4936",
        "PLT_AREA": 366.81014,
        "HARM": "Machine",
        "HADAT": "12/07/2021",
        "WBWAH": 3587.4,
        "BWCAH": 3.66,
        "DBWAH": 3456.2,
        "GNDAT": "12/09/2021",
        "FFRAC": 0.3277,
        "SFRAC": 0.4583,
        "TFRAC": 0.2141,
        "WFWAH": 1175.4,
        "WSWAH": 1644.0,
        "WSCWAH": 2819.4,
        "DFWAH": 1132.5,
        "DSWAH": 1583.9,
        "DSCWAH": 2716.3,
        "QLDAT": "02/18/2022",
        "FBMIC": 42.2,
        "FBLTH": 1.211,
        "FBUNI": 83.8,
        "FBSTR": 30.2,
        "FBELO": 6.3,
        "FBCRD": 80.8,
        "FBCLB": 6.8,
        "FBTCT": 24.0,
        "FBTAR": 0.2,
        "FBSFI": 7.6,
        "haids": [
            "636443338ac54794fc16e5d0",
            "636443338ac54794fc16e5d1",
            "636443338ac54794fc16e5d2",
            "636443338ac54794fc16e5d3",
            "636443338ac54794fc16e5d4",
            "636443338ac54794fc16e5d5"
        ],
        "tids": [
            "636593448ac547abc317e6f5"
        ],
        "ccids": [
            "642464c28ac547060991e3d6",
            "642464c28ac547060991e3d7",
            "642464c28ac547060991e3d8"
        ]
    },
    "_id": "63643f288ac54794e7f91792",
    "pid": "63643f288ac54794e7f91792"
}{
    "type": "Feature",
    "geometry": {
        "type": "Polygon",
        "coordinates": [
            [
                [
                    -111.97736158,
                    33.07923889
                ],
                [
                    -111.97749254,
                    33.07923954
                ],
                [
                    -111.97749065,
                    33.07951019
                ],
                [
                    -111.97735969,
                    33.07950954
                ],
                [
                    -111.97736158,
                    33.07923889
                ]
            ]
        ]
    },
    "properties": {
        "plt_label": "p06-2",
        "trt_label": "CSM_NG4936",
        "PLT_AREA": 366.810188,
        "HARM": "Machine",
        "HADAT": "12/07/2021",
        "WBWAH": 3565.0,
        "BWCAH": 3.83,
        "DBWAH": 3428.5,
        "GNDAT": "12/09/2021",
        "FFRAC": 0.2932,
        "SFRAC": 0.4699,
        "TFRAC": 0.2369,
        "WFWAH": 1045.4,
        "WSWAH": 1675.1,
        "WSCWAH": 2720.5,
        "DFWAH": 1005.4,
        "DSWAH": 1610.9,
        "DSCWAH": 2616.3,
        "QLDAT": "02/18/2022",
        "FBMIC": 39.05,
        "FBLTH": 1.195,
        "FBUNI": 83.0,
        "FBSTR": 29.3,
        "FBELO": 6.4,
        "FBCRD": 82.6,
        "FBCLB": 6.9,
        "FBTCT": 25.0,
        "FBTAR": 0.2,
        "FBSFI": 7.6,
        "haids": [
            "636443338ac54794fc16e5d6",
            "636443338ac54794fc16e5d7",
            "636443338ac54794fc16e5d8",
            "636443338ac54794fc16e5d9",
            "636443338ac54794fc16e5da",
            "636443338ac54794fc16e5db"
        ],
        "tids": [
            "636593448ac547abc317e6f6"
        ],
        "ccids": [
            "642464c28ac547060991e3d9",
            "642464c28ac547060991e3da",
            "642464c28ac547060991e3db"
        ]
    },
    "_id": "63643f288ac54794e7f91793",
    "pid": "63643f288ac54794e7f91793"
}{
    "type": "Feature",
    "geometry": {
        "type": "Polygon",
        "coordinates": [
            [
                [
                    -111.9773641,
                    33.07887806
                ],
                [
                    -111.97749506,
                    33.07887871
                ],
                [
                    -111.97749317,
                    33.07914935
                ],
                [
                    -111.97736221,
                    33.0791487
                ],
                [
                    -111.9773641,
                    33.07887806
                ]
            ]
        ]
    },
    "properties": {
        "plt_label": "p06-3",
        "trt_label": "FAOSWC_NG4936",
        "PLT_AREA": 366.810125,
        "HARM": "Machine",
        "HADAT": "12/07/2021",
        "WBWAH": 4026.4,
        "BWCAH": 3.47,
        "DBWAH": 3886.8,
        "GNDAT": "12/09/2021",
        "FFRAC": 0.3065,
        "SFRAC": 0.4856,
        "TFRAC": 0.2078,
        "WFWAH": 1234.1,
        "WSWAH": 1955.4,
        "WSCWAH": 3189.5,
        "DFWAH": 1191.4,
        "DSWAH": 1887.6,
        "DSCWAH": 3079.0,
        "QLDAT": "02/18/2022",
        "FBMIC": 42.1,
        "FBLTH": 1.182,
        "FBUNI": 82.2,
        "FBSTR": 29.9,
        "FBELO": 6.4,
        "FBCRD": 81.6,
        "FBCLB": 6.8,
        "FBTCT": 26.0,
        "FBTAR": 0.26,
        "FBSFI": 8.0,
        "haids": [
            "636443338ac54794fc16e5dc",
            "636443338ac54794fc16e5dd",
            "636443338ac54794fc16e5de",
            "636443338ac54794fc16e5df",
            "636443338ac54794fc16e5e0",
            "636443338ac54794fc16e5e1"
        ],
        "tids": [
            "636593448ac547abc317e6f7"
        ],
        "ccids": [
            "642464c28ac547060991e3dc",
            "642464c28ac547060991e3dd",
            "642464c28ac547060991e3de"
        ]
    },
    "_id": "63643f288ac54794e7f91794",
    "pid": "63643f288ac54794e7f91794"
}{
    "type": "Feature",
    "geometry": {
        "type": "Polygon",
        "coordinates": [
            [
                [
                    -111.97736662,
                    33.07851723
                ],
                [
                    -111.97749758,
                    33.07851788
                ],
                [
                    -111.97749569,
                    33.07878852
                ],
                [
                    -111.97736473,
                    33.07878787
                ],
                [
                    -111.97736662,
                    33.07851723
                ]
            ]
        ]
    },
    "properties": {
        "plt_label": "p06-4",
        "trt_label": "CSMSWC_NG4936",
        "PLT_AREA": 366.81014,
        "HARM": "Machine",
        "HADAT": "12/07/2021",
        "WBWAH": 3881.3,
        "BWCAH": 3.16,
        "DBWAH": 3758.5,
        "GNDAT": "12/09/2021",
        "FFRAC": 0.3167,
        "SFRAC": 0.5143,
        "TFRAC": 0.169,
        "WFWAH": 1229.2,
        "WSWAH": 1996.0,
        "WSCWAH": 3225.2,
        "DFWAH": 1190.3,
        "DSWAH": 1932.9,
        "DSCWAH": 3123.1,
        "QLDAT": "02/18/2022",
        "FBMIC": 45.9,
        "FBLTH": 1.15,
        "FBUNI": 81.8,
        "FBSTR": 29.5,
        "FBELO": 6.3,
        "FBCRD": 82.2,
        "FBCLB": 7.0,
        "FBTCT": 14.0,
        "FBTAR": 0.2,
        "FBSFI": 8.4,
        "haids": [
            "636443338ac54794fc16e5e2",
            "636443338ac54794fc16e5e3",
            "636443338ac54794fc16e5e4",
            "636443338ac54794fc16e5e5",
            "636443338ac54794fc16e5e6",
            "636443338ac54794fc16e5e7"
        ],
        "tids": [
            "636593448ac547abc317e6f8"
        ],
        "ccids": [
            "642464c28ac547060991e3df",
            "642464c28ac547060991e3e0",
            "642464c28ac547060991e3e1"
        ]
    },
    "_id": "63643f288ac54794e7f91795",
    "pid": "63643f288ac54794e7f91795"
}{
    "type": "Feature",
    "geometry": {
        "type": "Polygon",
        "coordinates": [
            [
                [
                    -111.97720668,
                    33.07959897
                ],
                [
                    -111.97733763,
                    33.07959962
                ],
                [
                    -111.97733574,
                    33.07987026
                ],
                [
                    -111.97720478,
                    33.07986961
                ],
                [
                    -111.97720668,
                    33.07959897
                ]
            ]
        ]
    },
    "properties": {
        "plt_label": "p07-1",
        "trt_label": "CSMSWC_NG4936",
        "PLT_AREA": 366.810114,
        "HARM": "Machine",
        "HADAT": "12/07/2021",
        "WBWAH": 3318.3,
        "BWCAH": 3.62,
        "DBWAH": 3198.1,
        "GNDAT": "12/09/2021",
        "FFRAC": 0.3083,
        "SFRAC": 0.5037,
        "TFRAC": 0.1881,
        "WFWAH": 1022.9,
        "WSWAH": 1671.4,
        "WSCWAH": 2694.3,
        "DFWAH": 985.9,
        "DSWAH": 1610.8,
        "DSCWAH": 2596.7,
        "QLDAT": "02/18/2022",
        "FBMIC": 41.35,
        "FBLTH": 1.154,
        "FBUNI": 81.6,
        "FBSTR": 31.3,
        "FBELO": 6.2,
        "FBCRD": 81.6,
        "FBCLB": 7.4,
        "FBTCT": 25.0,
        "FBTAR": 0.22,
        "FBSFI": 8.3,
        "haids": [
            "636443338ac54794fc16e5e8",
            "636443338ac54794fc16e5e9",
            "636443338ac54794fc16e5ea",
            "636443338ac54794fc16e5eb",
            "636443338ac54794fc16e5ec",
            "636443338ac54794fc16e5ed"
        ],
        "tids": [
            "636593448ac547abc317e6f9"
        ],
        "ccids": [
            "642464c28ac547060991e3e2",
            "642464c28ac547060991e3e3",
            "642464c28ac547060991e3e4"
        ]
    },
    "_id": "63643f288ac54794e7f91796",
    "pid": "63643f288ac54794e7f91796"
}{
    "type": "Feature",
    "geometry": {
        "type": "Polygon",
        "coordinates": [
            [
                [
                    -111.9772092,
                    33.07923814
                ],
                [
                    -111.97734016,
                    33.07923879
                ],
                [
                    -111.97733826,
                    33.07950943
                ],
                [
                    -111.97720731,
                    33.07950878
                ],
                [
                    -111.9772092,
                    33.07923814
                ]
            ]
        ]
    },
    "properties": {
        "plt_label": "p07-2",
        "trt_label": "AQCSWC_NG4936",
        "PLT_AREA": 366.81014,
        "HARM": "Machine",
        "HADAT": "12/07/2021",
        "WBWAH": 3336.9,
        "BWCAH": 3.74,
        "DBWAH": 3212.2,
        "GNDAT": "12/09/2021",
        "FFRAC": 0.3086,
        "SFRAC": 0.4838,
        "TFRAC": 0.2076,
        "WFWAH": 1029.8,
        "WSWAH": 1614.5,
        "WSCWAH": 2644.3,
        "DFWAH": 991.3,
        "DSWAH": 1554.1,
        "DSCWAH": 2545.4,
        "QLDAT": "02/18/2022",
        "FBMIC": 40.75,
        "FBLTH": 1.182,
        "FBUNI": 81.9,
        "FBSTR": 30.3,
        "FBELO": 6.4,
        "FBCRD": 82.8,
        "FBCLB": 7.1,
        "FBTCT": 20.0,
        "FBTAR": 0.14,
        "FBSFI": 8.1,
        "haids": [
            "636443338ac54794fc16e5ee",
            "636443338ac54794fc16e5ef",
            "636443338ac54794fc16e5f0",
            "636443338ac54794fc16e5f1",
            "636443338ac54794fc16e5f2",
            "636443338ac54794fc16e5f3"
        ],
        "tids": [
            "636593448ac547abc317e6fa"
        ],
        "ccids": [
            "642464c28ac547060991e3e5",
            "642464c28ac547060991e3e6",
            "642464c28ac547060991e3e7"
        ]
    },
    "_id": "63643f288ac54794e7f91797",
    "pid": "63643f288ac54794e7f91797"
}{
    "type": "Feature",
    "geometry": {
        "type": "Polygon",
        "coordinates": [
            [
                [
                    -111.97721172,
                    33.0788773
                ],
                [
                    -111.97734268,
                    33.07887795
                ],
                [
                    -111.97734079,
                    33.0791486
                ],
                [
                    -111.97720983,
                    33.07914795
                ],
                [
                    -111.97721172,
                    33.0788773
                ]
            ]
        ]
    },
    "properties": {
        "plt_label": "p07-3",
        "trt_label": "FAOSWC_NG4936",
        "PLT_AREA": 366.810125,
        "HARM": "Machine",
        "HADAT": "12/07/2021",
        "WBWAH": 2972.3,
        "BWCAH": 3.29,
        "DBWAH": 2874.5,
        "GNDAT": "12/09/2021",
        "FFRAC": 0.3096,
        "SFRAC": 0.5095,
        "TFRAC": 0.1809,
        "WFWAH": 920.2,
        "WSWAH": 1514.5,
        "WSCWAH": 2434.7,
        "DFWAH": 889.9,
        "DSWAH": 1464.6,
        "DSCWAH": 2354.6,
        "QLDAT": "02/18/2022",
        "FBMIC": 43.9,
        "FBLTH": 1.138,
        "FBUNI": 81.4,
        "FBSTR": 29.2,
        "FBELO": 6.2,
        "FBCRD": 82.2,
        "FBCLB": 7.4,
        "FBTCT": 22.0,
        "FBTAR": 0.21,
        "FBSFI": 8.4,
        "haids": [
            "636443338ac54794fc16e5f4",
            "636443338ac54794fc16e5f5",
            "636443338ac54794fc16e5f6",
            "636443338ac54794fc16e5f7",
            "636443338ac54794fc16e5f8",
            "636443338ac54794fc16e5f9"
        ],
        "tids": [
            "636593448ac547abc317e6fb"
        ],
        "ccids": [
            "642464c28ac547060991e3e8",
            "642464c28ac547060991e3e9",
            "642464c28ac547060991e3ea"
        ]
    },
    "_id": "63643f288ac54794e7f91798",
    "pid": "63643f288ac54794e7f91798"
}{
    "type": "Feature",
    "geometry": {
        "type": "Polygon",
        "coordinates": [
            [
                [
                    -111.97721424,
                    33.07851647
                ],
                [
                    -111.9773452,
                    33.07851712
                ],
                [
                    -111.97734331,
                    33.07878776
                ],
                [
                    -111.97721235,
                    33.07878711
                ],
                [
                    -111.97721424,
                    33.07851647
                ]
            ]
        ]
    },
    "properties": {
        "plt_label": "p07-4",
        "trt_label": "FAO_NG4936",
        "PLT_AREA": 366.810125,
        "HARM": "Machine",
        "HADAT": "12/07/2021",
        "WBWAH": 3485.7,
        "BWCAH": 3.49,
        "DBWAH": 3364.2,
        "GNDAT": "12/09/2021",
        "FFRAC": 0.3264,
        "SFRAC": 0.5031,
        "TFRAC": 0.1706,
        "WFWAH": 1137.6,
        "WSWAH": 1753.6,
        "WSCWAH": 2891.2,
        "DFWAH": 1098.0,
        "DSWAH": 1692.5,
        "DSCWAH": 2790.4,
        "QLDAT": "02/18/2022",
        "FBMIC": 45.1,
        "FBLTH": 1.179,
        "FBUNI": 82.5,
        "FBSTR": 29.5,
        "FBELO": 6.4,
        "FBCRD": 82.6,
        "FBCLB": 7.0,
        "FBTCT": 12.0,
        "FBTAR": 0.18,
        "FBSFI": 8.0,
        "haids": [
            "636443338ac54794fc16e5fa",
            "636443338ac54794fc16e5fb",
            "636443338ac54794fc16e5fc",
            "636443338ac54794fc16e5fd",
            "636443338ac54794fc16e5fe",
            "636443338ac54794fc16e5ff"
        ],
        "tids": [
            "636593448ac547abc317e6fc"
        ],
        "ccids": [
            "642464c28ac547060991e3eb",
            "642464c28ac547060991e3ec",
            "642464c28ac547060991e3ed"
        ]
    },
    "_id": "63643f288ac54794e7f91799",
    "pid": "63643f288ac54794e7f91799"
}{
    "type": "Feature",
    "geometry": {
        "type": "Polygon",
        "coordinates": [
            [
                [
                    -111.97705429,
                    33.07959821
                ],
                [
                    -111.97718525,
                    33.07959887
                ],
                [
                    -111.97718336,
                    33.07986951
                ],
                [
                    -111.9770524,
                    33.07986886
                ],
                [
                    -111.97705429,
                    33.07959821
                ]
            ]
        ]
    },
    "properties": {
        "plt_label": "p08-1",
        "trt_label": "CSMSWC_NG3195",
        "PLT_AREA": 366.81014,
        "HARM": "Machine",
        "HADAT": "12/07/2021",
        "WBWAH": 3766.6,
        "BWCAH": 3.29,
        "DBWAH": 3642.6,
        "GNDAT": "12/09/2021",
        "FFRAC": 0.3453,
        "SFRAC": 0.4732,
        "TFRAC": 0.1815,
        "WFWAH": 1300.5,
        "WSWAH": 1782.6,
        "WSCWAH": 3083.1,
        "DFWAH": 1257.7,
        "DSWAH": 1723.8,
        "DSCWAH": 2981.5,
        "QLDAT": "02/18/2022",
        "FBMIC": 46.9,
        "FBLTH": 1.102,
        "FBUNI": 81.2,
        "FBSTR": 29.1,
        "FBELO": 5.8,
        "FBCRD": 79.8,
        "FBCLB": 7.8,
        "FBTCT": 32.0,
        "FBTAR": 0.23,
        "FBSFI": 8.7,
        "haids": [
            "636443338ac54794fc16e600",
            "636443338ac54794fc16e601",
            "636443338ac54794fc16e602",
            "636443338ac54794fc16e603",
            "636443338ac54794fc16e604",
            "636443338ac54794fc16e605"
        ],
        "tids": [
            "636593448ac547abc317e6fd"
        ],
        "ccids": [
            "642464c28ac547060991e3ee",
            "642464c28ac547060991e3ef",
            "642464c28ac547060991e3f0"
        ]
    },
    "_id": "63643f288ac54794e7f9179a",
    "pid": "63643f288ac54794e7f9179a"
}{
    "type": "Feature",
    "geometry": {
        "type": "Polygon",
        "coordinates": [
            [
                [
                    -111.97705681,
                    33.07923738
                ],
                [
                    -111.97718777,
                    33.07923803
                ],
                [
                    -111.97718588,
                    33.07950867
                ],
                [
                    -111.97705492,
                    33.07950802
                ],
                [
                    -111.97705681,
                    33.07923738
                ]
            ]
        ]
    },
    "properties": {
        "plt_label": "p08-2",
        "trt_label": "AQCSWC_NG3195",
        "PLT_AREA": 366.810114,
        "HARM": "Machine",
        "HADAT": "12/07/2021",
        "WBWAH": 4257.7,
        "BWCAH": 3.44,
        "DBWAH": 4111.2,
        "GNDAT": "12/09/2021",
        "FFRAC": 0.3317,
        "SFRAC": 0.4462,
        "TFRAC": 0.2221,
        "WFWAH": 1412.4,
        "WSWAH": 1899.8,
        "WSCWAH": 3312.1,
        "DFWAH": 1363.8,
        "DSWAH": 1834.4,
        "DSCWAH": 3198.2,
        "QLDAT": "02/18/2022",
        "FBMIC": 44.6,
        "FBLTH": 1.138,
        "FBUNI": 82.8,
        "FBSTR": 29.5,
        "FBELO": 5.8,
        "FBCRD": 80.2,
        "FBCLB": 7.4,
        "FBTCT": 23.0,
        "FBTAR": 0.24,
        "FBSFI": 8.3,
        "haids": [
            "636443338ac54794fc16e606",
            "636443338ac54794fc16e607",
            "636443338ac54794fc16e608",
            "636443338ac54794fc16e609",
            "636443338ac54794fc16e60a",
            "636443338ac54794fc16e60b"
        ],
        "tids": [
            "636593448ac547abc317e6fe"
        ],
        "ccids": [
            "642464c28ac547060991e3f1",
            "642464c28ac547060991e3f2",
            "642464c28ac547060991e3f3"
        ]
    },
    "_id": "63643f288ac54794e7f9179b",
    "pid": "63643f288ac54794e7f9179b"
}{
    "type": "Feature",
    "geometry": {
        "type": "Polygon",
        "coordinates": [
            [
                [
                    -111.97705934,
                    33.07887655
                ],
                [
                    -111.97719029,
                    33.0788772
                ],
                [
                    -111.9771884,
                    33.07914784
                ],
                [
                    -111.97705744,
                    33.07914719
                ],
                [
                    -111.97705934,
                    33.07887655
                ]
            ]
        ]
    },
    "properties": {
        "plt_label": "p08-3",
        "trt_label": "FAOSWC_NG3195",
        "PLT_AREA": 366.81014,
        "HARM": "Machine",
        "HADAT": "12/07/2021",
        "WBWAH": 4149.8,
        "BWCAH": 3.04,
        "DBWAH": 4023.9,
        "GNDAT": "12/09/2021",
        "FFRAC": 0.3264,
        "SFRAC": 0.4883,
        "TFRAC": 0.1853,
        "WFWAH": 1354.4,
        "WSWAH": 2026.6,
        "WSCWAH": 3381.0,
        "DFWAH": 1313.3,
        "DSWAH": 1965.0,
        "DSCWAH": 3278.3,
        "QLDAT": "02/18/2022",
        "FBMIC": 46.8,
        "FBLTH": 1.088,
        "FBUNI": 81.1,
        "FBSTR": 29.2,
        "FBELO": 5.8,
        "FBCRD": 80.6,
        "FBCLB": 7.8,
        "FBTCT": 20.0,
        "FBTAR": 0.18,
        "FBSFI": 8.7,
        "haids": [
            "636443338ac54794fc16e60c",
            "636443338ac54794fc16e60d",
            "636443338ac54794fc16e60e",
            "636443338ac54794fc16e60f",
            "636443338ac54794fc16e610",
            "636443338ac54794fc16e611"
        ],
        "tids": [
            "636593448ac547abc317e6ff"
        ],
        "ccids": [
            "642464c28ac547060991e3f4",
            "642464c28ac547060991e3f5",
            "642464c28ac547060991e3f6"
        ]
    },
    "_id": "63643f288ac54794e7f9179c",
    "pid": "63643f288ac54794e7f9179c"
}{
    "type": "Feature",
    "geometry": {
        "type": "Polygon",
        "coordinates": [
            [
                [
                    -111.97706186,
                    33.07851571
                ],
                [
                    -111.97719282,
                    33.07851636
                ],
                [
                    -111.97719092,
                    33.07878701
                ],
                [
                    -111.97705997,
                    33.07878636
                ],
                [
                    -111.97706186,
                    33.07851571
                ]
            ]
        ]
    },
    "properties": {
        "plt_label": "p08-4",
        "trt_label": "FAO_NG3195",
        "PLT_AREA": 366.810125,
        "HARM": "Machine",
        "HADAT": "12/07/2021",
        "WBWAH": 4864.2,
        "BWCAH": 3.43,
        "DBWAH": 4697.1,
        "GNDAT": "12/09/2021",
        "FFRAC": 0.3589,
        "SFRAC": 0.475,
        "TFRAC": 0.166,
        "WFWAH": 1746.0,
        "WSWAH": 2310.7,
        "WSCWAH": 4056.7,
        "DFWAH": 1686.0,
        "DSWAH": 2231.3,
        "DSCWAH": 3917.4,
        "QLDAT": "02/18/2022",
        "FBMIC": 48.35,
        "FBLTH": 1.095,
        "FBUNI": 81.6,
        "FBSTR": 30.3,
        "FBELO": 5.8,
        "FBCRD": 80.6,
        "FBCLB": 7.8,
        "FBTCT": 21.0,
        "FBTAR": 0.24,
        "FBSFI": 8.4,
        "haids": [
            "636443338ac54794fc16e612",
            "636443338ac54794fc16e613",
            "636443338ac54794fc16e614",
            "636443338ac54794fc16e615",
            "636443338ac54794fc16e616",
            "636443338ac54794fc16e617"
        ],
        "tids": [
            "636593448ac547abc317e700"
        ],
        "ccids": [
            "642464c28ac547060991e3f7",
            "642464c28ac547060991e3f8",
            "642464c28ac547060991e3f9"
        ]
    },
    "_id": "63643f288ac54794e7f9179d",
    "pid": "63643f288ac54794e7f9179d"
}{
    "type": "Feature",
    "geometry": {
        "type": "Polygon",
        "coordinates": [
            [
                [
                    -111.97690275,
                    33.07959746
                ],
                [
                    -111.9770337,
                    33.07959811
                ],
                [
                    -111.97703181,
                    33.07986875
                ],
                [
                    -111.97690085,
                    33.0798681
                ],
                [
                    -111.97690275,
                    33.07959746
                ]
            ]
        ]
    },
    "properties": {
        "plt_label": "p09-1",
        "trt_label": "FAO_NG4936",
        "PLT_AREA": 366.81014,
        "HARM": "Machine",
        "HADAT": "12/07/2021",
        "WBWAH": 3231.8,
        "BWCAH": 3.16,
        "DBWAH": 3129.8,
        "GNDAT": "12/09/2021",
        "FFRAC": 0.3136,
        "SFRAC": 0.4837,
        "TFRAC": 0.2027,
        "WFWAH": 1013.4,
        "WSWAH": 1563.4,
        "WSCWAH": 2576.8,
        "DFWAH": 981.4,
        "DSWAH": 1514.0,
        "DSCWAH": 2495.5,
        "QLDAT": "02/18/2022",
        "FBMIC": 42.65,
        "FBLTH": 1.16,
        "FBUNI": 82.4,
        "FBSTR": 31.2,
        "FBELO": 6.4,
        "FBCRD": 81.2,
        "FBCLB": 7.2,
        "FBTCT": 24.0,
        "FBTAR": 0.34,
        "FBSFI": 8.3,
        "haids": [
            "636443338ac54794fc16e618",
            "636443338ac54794fc16e619",
            "636443338ac54794fc16e61a",
            "636443338ac54794fc16e61b",
            "636443338ac54794fc16e61c",
            "636443338ac54794fc16e61d"
        ],
        "tids": [
            "636593448ac547abc317e701"
        ],
        "ccids": [
            "642464c28ac547060991e3fa",
            "642464c28ac547060991e3fb",
            "642464c28ac547060991e3fc"
        ]
    },
    "_id": "63643f288ac54794e7f9179e",
    "pid": "63643f288ac54794e7f9179e"
}{
    "type": "Feature",
    "geometry": {
        "type": "Polygon",
        "coordinates": [
            [
                [
                    -111.97690527,
                    33.07923663
                ],
                [
                    -111.97703623,
                    33.07923728
                ],
                [
                    -111.97703433,
                    33.07950792
                ],
                [
                    -111.97690338,
                    33.07950727
                ],
                [
                    -111.97690527,
                    33.07923663
                ]
            ]
        ]
    },
    "properties": {
        "plt_label": "p09-2",
        "trt_label": "FAOSWC_NG4936",
        "PLT_AREA": 366.81011,
        "HARM": "Machine",
        "HADAT": "12/07/2021",
        "WBWAH": 3328.6,
        "BWCAH": 3.56,
        "DBWAH": 3210.1,
        "GNDAT": "12/09/2021",
        "FFRAC": 0.3077,
        "SFRAC": 0.4866,
        "TFRAC": 0.2057,
        "WFWAH": 1024.4,
        "WSWAH": 1619.7,
        "WSCWAH": 2644.0,
        "DFWAH": 987.9,
        "DSWAH": 1562.0,
        "DSCWAH": 2549.9,
        "QLDAT": "02/18/2022",
        "FBMIC": 40.25,
        "FBLTH": 1.174,
        "FBUNI": 81.8,
        "FBSTR": 30.2,
        "FBELO": 6.2,
        "FBCRD": 81.6,
        "FBCLB": 7.0,
        "FBTCT": 34.0,
        "FBTAR": 0.42,
        "FBSFI": 8.3,
        "haids": [
            "636443338ac54794fc16e61e",
            "636443338ac54794fc16e61f",
            "636443338ac54794fc16e620",
            "636443338ac54794fc16e621",
            "636443338ac54794fc16e622",
            "636443338ac54794fc16e623"
        ],
        "tids": [
            "636593448ac547abc317e702"
        ],
        "ccids": [
            "642464c28ac547060991e3fd",
            "642464c28ac547060991e3fe",
            "642464c28ac547060991e3ff"
        ]
    },
    "_id": "63643f288ac54794e7f9179f",
    "pid": "63643f288ac54794e7f9179f"
}{
    "type": "Feature",
    "geometry": {
        "type": "Polygon",
        "coordinates": [
            [
                [
                    -111.97690779,
                    33.07887579
                ],
                [
                    -111.97703875,
                    33.07887644
                ],
                [
                    -111.97703686,
                    33.07914709
                ],
                [
                    -111.9769059,
                    33.07914644
                ],
                [
                    -111.97690779,
                    33.07887579
                ]
            ]
        ]
    },
    "properties": {
        "plt_label": "p09-3",
        "trt_label": "AQC_NG4936",
        "PLT_AREA": 366.81014,
        "HARM": "Machine",
        "HADAT": "12/07/2021",
        "WBWAH": 3562.9,
        "BWCAH": 3.24,
        "DBWAH": 3447.3,
        "GNDAT": "12/09/2021",
        "FFRAC": 0.3112,
        "SFRAC": 0.493,
        "TFRAC": 0.1959,
        "WFWAH": 1108.7,
        "WSWAH": 1756.4,
        "WSCWAH": 2865.1,
        "DFWAH": 1072.8,
        "DSWAH": 1699.4,
        "DSCWAH": 2772.2,
        "QLDAT": "02/18/2022",
        "FBMIC": 41.95,
        "FBLTH": 1.171,
        "FBUNI": 82.6,
        "FBSTR": 31.2,
        "FBELO": 6.4,
        "FBCRD": 81.4,
        "FBCLB": 6.8,
        "FBTCT": 20.0,
        "FBTAR": 0.18,
        "FBSFI": 7.8,
        "haids": [
            "636443338ac54794fc16e624",
            "636443338ac54794fc16e625",
            "636443338ac54794fc16e626",
            "636443338ac54794fc16e627",
            "636443338ac54794fc16e628",
            "636443338ac54794fc16e629"
        ],
        "tids": [
            "636593448ac547abc317e703"
        ],
        "ccids": [
            "642464c28ac547060991e400",
            "642464c28ac547060991e401",
            "642464c28ac547060991e402"
        ]
    },
    "_id": "63643f288ac54794e7f917a0",
    "pid": "63643f288ac54794e7f917a0"
}{
    "type": "Feature",
    "geometry": {
        "type": "Polygon",
        "coordinates": [
            [
                [
                    -111.97691032,
                    33.07851496
                ],
                [
                    -111.97704127,
                    33.07851561
                ],
                [
                    -111.97703938,
                    33.07878625
                ],
                [
                    -111.97690842,
                    33.0787856
                ],
                [
                    -111.97691032,
                    33.07851496
                ]
            ]
        ]
    },
    "properties": {
        "plt_label": "p09-4",
        "trt_label": "CSMSWC_NG4936",
        "PLT_AREA": 366.810125,
        "HARM": "Machine",
        "HADAT": "12/07/2021",
        "WBWAH": 3700.6,
        "BWCAH": 2.75,
        "DBWAH": 3598.9,
        "GNDAT": "12/09/2021",
        "FFRAC": 0.3291,
        "SFRAC": 0.5272,
        "TFRAC": 0.1438,
        "WFWAH": 1217.7,
        "WSWAH": 1950.8,
        "WSCWAH": 3168.6,
        "DFWAH": 1184.3,
        "DSWAH": 1897.2,
        "DSCWAH": 3081.5,
        "QLDAT": "02/18/2022",
        "FBMIC": 47.2,
        "FBLTH": 1.115,
        "FBUNI": 81.2,
        "FBSTR": 28.6,
        "FBELO": 6.4,
        "FBCRD": 82.4,
        "FBCLB": 7.2,
        "FBTCT": 16.0,
        "FBTAR": 0.12,
        "FBSFI": 8.4,
        "haids": [
            "636443338ac54794fc16e62a",
            "636443338ac54794fc16e62b",
            "636443338ac54794fc16e62c",
            "636443338ac54794fc16e62d",
            "636443338ac54794fc16e62e",
            "636443338ac54794fc16e62f"
        ],
        "tids": [
            "636593448ac547abc317e704"
        ],
        "ccids": [
            "642464c28ac547060991e403",
            "642464c28ac547060991e404",
            "642464c28ac547060991e405"
        ]
    },
    "_id": "63643f288ac54794e7f917a1",
    "pid": "63643f288ac54794e7f917a1"
}{
    "type": "Feature",
    "geometry": {
        "type": "Polygon",
        "coordinates": [
            [
                [
                    -111.97675036,
                    33.07959671
                ],
                [
                    -111.97688132,
                    33.07959736
                ],
                [
                    -111.97687943,
                    33.079868
                ],
                [
                    -111.97674847,
                    33.07986735
                ],
                [
                    -111.97675036,
                    33.07959671
                ]
            ]
        ]
    },
    "properties": {
        "plt_label": "p10-1",
        "trt_label": "FAO_NG3195",
        "PLT_AREA": 366.81014,
        "HARM": "Machine",
        "HADAT": "12/07/2021",
        "WBWAH": 3995.9,
        "BWCAH": 3.25,
        "DBWAH": 3865.9,
        "GNDAT": "12/09/2021",
        "FFRAC": 0.3212,
        "SFRAC": 0.4381,
        "TFRAC": 0.2407,
        "WFWAH": 1283.4,
        "WSWAH": 1750.6,
        "WSCWAH": 3034.0,
        "DFWAH": 1241.7,
        "DSWAH": 1693.6,
        "DSCWAH": 2935.3,
        "QLDAT": "02/18/2022",
        "FBMIC": 43.9,
        "FBLTH": 1.102,
        "FBUNI": 80.8,
        "FBSTR": 31.4,
        "FBELO": 5.9,
        "FBCRD": 80.6,
        "FBCLB": 7.6,
        "FBTCT": 26.0,
        "FBTAR": 0.26,
        "FBSFI": 8.3,
        "haids": [
            "636443338ac54794fc16e630",
            "636443338ac54794fc16e631",
            "636443338ac54794fc16e632",
            "636443338ac54794fc16e633",
            "636443338ac54794fc16e634",
            "636443338ac54794fc16e635"
        ],
        "tids": [
            "636593448ac547abc317e705"
        ],
        "ccids": [
            "642464c28ac547060991e406",
            "642464c28ac547060991e407",
            "642464c28ac547060991e408"
        ]
    },
    "_id": "63643f288ac54794e7f917a2",
    "pid": "63643f288ac54794e7f917a2"
}{
    "type": "Feature",
    "geometry": {
        "type": "Polygon",
        "coordinates": [
            [
                [
                    -111.97675289,
                    33.07923587
                ],
                [
                    -111.97688384,
                    33.07923652
                ],
                [
                    -111.97688195,
                    33.07950716
                ],
                [
                    -111.97675099,
                    33.07950651
                ],
                [
                    -111.97675289,
                    33.07923587
                ]
            ]
        ]
    },
    "properties": {
        "plt_label": "p10-2",
        "trt_label": "FAOSWC_NG3195",
        "PLT_AREA": 366.810144,
        "HARM": "Machine",
        "HADAT": "12/07/2021",
        "WBWAH": 4092.6,
        "BWCAH": 3.38,
        "DBWAH": 3954.3,
        "GNDAT": "12/09/2021",
        "FFRAC": 0.3431,
        "SFRAC": 0.4524,
        "TFRAC": 0.2045,
        "WFWAH": 1404.0,
        "WSWAH": 1851.6,
        "WSCWAH": 3255.6,
        "DFWAH": 1356.6,
        "DSWAH": 1789.0,
        "DSCWAH": 3145.6,
        "QLDAT": "02/18/2022",
        "FBMIC": 44.8,
        "FBLTH": 1.107,
        "FBUNI": 81.6,
        "FBSTR": 29.6,
        "FBELO": 5.8,
        "FBCRD": 80.7,
        "FBCLB": 7.6,
        "FBTCT": 22.0,
        "FBTAR": 0.18,
        "FBSFI": 8.5,
        "haids": [
            "636443338ac54794fc16e636",
            "636443338ac54794fc16e637",
            "636443338ac54794fc16e638",
            "636443338ac54794fc16e639",
            "636443338ac54794fc16e63a",
            "636443338ac54794fc16e63b"
        ],
        "tids": [
            "636593448ac547abc317e706"
        ],
        "ccids": [
            "642464c28ac547060991e409",
            "642464c28ac547060991e40a",
            "642464c28ac547060991e40b"
        ]
    },
    "_id": "63643f288ac54794e7f917a3",
    "pid": "63643f288ac54794e7f917a3"
}{
    "type": "Feature",
    "geometry": {
        "type": "Polygon",
        "coordinates": [
            [
                [
                    -111.97675541,
                    33.07887504
                ],
                [
                    -111.97688637,
                    33.07887569
                ],
                [
                    -111.97688447,
                    33.07914633
                ],
                [
                    -111.97675352,
                    33.07914568
                ],
                [
                    -111.97675541,
                    33.07887504
                ]
            ]
        ]
    },
    "properties": {
        "plt_label": "p10-3",
        "trt_label": "AQC_NG3195",
        "PLT_AREA": 366.81011,
        "HARM": "Machine",
        "HADAT": "12/07/2021",
        "WBWAH": 4081.5,
        "BWCAH": 3.8,
        "DBWAH": 3926.5,
        "GNDAT": "12/09/2021",
        "FFRAC": 0.334,
        "SFRAC": 0.4407,
        "TFRAC": 0.2254,
        "WFWAH": 1363.1,
        "WSWAH": 1798.6,
        "WSCWAH": 3161.6,
        "DFWAH": 1311.3,
        "DSWAH": 1730.3,
        "DSCWAH": 3041.6,
        "QLDAT": "02/18/2022",
        "FBMIC": 45.2,
        "FBLTH": 1.144,
        "FBUNI": 81.8,
        "FBSTR": 29.7,
        "FBELO": 5.8,
        "FBCRD": 80.3,
        "FBCLB": 7.4,
        "FBTCT": 40.0,
        "FBTAR": 0.56,
        "FBSFI": 8.1,
        "haids": [
            "636443338ac54794fc16e63c",
            "636443338ac54794fc16e63d",
            "636443338ac54794fc16e63e",
            "636443338ac54794fc16e63f",
            "636443338ac54794fc16e640",
            "636443338ac54794fc16e641"
        ],
        "tids": [
            "636593448ac547abc317e707"
        ],
        "ccids": [
            "642464c28ac547060991e40c",
            "642464c28ac547060991e40d",
            "642464c28ac547060991e40e"
        ]
    },
    "_id": "63643f288ac54794e7f917a4",
    "pid": "63643f288ac54794e7f917a4"
}{
    "type": "Feature",
    "geometry": {
        "type": "Polygon",
        "coordinates": [
            [
                [
                    -111.97675793,
                    33.0785142
                ],
                [
                    -111.97688889,
                    33.07851485
                ],
                [
                    -111.976887,
                    33.0787855
                ],
                [
                    -111.97675604,
                    33.07878485
                ],
                [
                    -111.97675793,
                    33.0785142
                ]
            ]
        ]
    },
    "properties": {
        "plt_label": "p10-4",
        "trt_label": "CSMSWC_NG3195",
        "PLT_AREA": 366.81014,
        "HARM": "Machine",
        "HADAT": "12/07/2021",
        "WBWAH": 4021.9,
        "BWCAH": 3.29,
        "DBWAH": 3889.5,
        "GNDAT": "12/09/2021",
        "FFRAC": 0.3603,
        "SFRAC": 0.5022,
        "TFRAC": 0.1375,
        "WFWAH": 1449.1,
        "WSWAH": 2020.0,
        "WSCWAH": 3469.1,
        "DFWAH": 1401.4,
        "DSWAH": 1953.5,
        "DSCWAH": 3354.8,
        "QLDAT": "02/18/2022",
        "FBMIC": 49.15,
        "FBLTH": 1.073,
        "FBUNI": 81.2,
        "FBSTR": 29.9,
        "FBELO": 5.8,
        "FBCRD": 80.8,
        "FBCLB": 8.0,
        "FBTCT": 19.0,
        "FBTAR": 0.18,
        "FBSFI": 8.2,
        "haids": [
            "636443338ac54794fc16e642",
            "636443338ac54794fc16e643",
            "636443338ac54794fc16e644",
            "636443338ac54794fc16e645",
            "636443338ac54794fc16e646",
            "636443338ac54794fc16e647"
        ],
        "tids": [
            "636593448ac547abc317e708"
        ],
        "ccids": [
            "642464c28ac547060991e40f",
            "642464c28ac547060991e410",
            "642464c28ac547060991e411"
        ]
    },
    "_id": "63643f288ac54794e7f917a5",
    "pid": "63643f288ac54794e7f917a5"
}{
    "type": "Feature",
    "geometry": {
        "type": "Polygon",
        "coordinates": [
            [
                [
                    -111.97659798,
                    33.07959595
                ],
                [
                    -111.97672894,
                    33.0795966
                ],
                [
                    -111.97672704,
                    33.07986724
                ],
                [
                    -111.97659608,
                    33.07986659
                ],
                [
                    -111.97659798,
                    33.07959595
                ]
            ]
        ]
    },
    "properties": {
        "plt_label": "p11-1",
        "trt_label": "CSM_NG3195",
        "PLT_AREA": 366.810125,
        "HARM": "Machine",
        "HADAT": "12/07/2021",
        "WBWAH": 3356.0,
        "BWCAH": 3.22,
        "DBWAH": 3247.8,
        "GNDAT": "12/09/2021",
        "FFRAC": 0.3436,
        "SFRAC": 0.4614,
        "TFRAC": 0.1949,
        "WFWAH": 1153.2,
        "WSWAH": 1548.6,
        "WSCWAH": 2701.8,
        "DFWAH": 1116.0,
        "DSWAH": 1498.7,
        "DSCWAH": 2614.7,
        "QLDAT": "02/18/2022",
        "FBMIC": 46.5,
        "FBLTH": 1.098,
        "FBUNI": 81.7,
        "FBSTR": 30.0,
        "FBELO": 5.8,
        "FBCRD": 79.8,
        "FBCLB": 7.8,
        "FBTCT": 25.0,
        "FBTAR": 0.26,
        "FBSFI": 8.6,
        "haids": [
            "636443338ac54794fc16e648",
            "636443338ac54794fc16e649",
            "636443338ac54794fc16e64a",
            "636443338ac54794fc16e64b",
            "636443338ac54794fc16e64c",
            "636443338ac54794fc16e64d"
        ],
        "tids": [
            "636593448ac547abc317e709"
        ],
        "ccids": [
            "642464c28ac547060991e412",
            "642464c28ac547060991e413",
            "642464c28ac547060991e414"
        ]
    },
    "_id": "63643f288ac54794e7f917a6",
    "pid": "63643f288ac54794e7f917a6"
}{
    "type": "Feature",
    "geometry": {
        "type": "Polygon",
        "coordinates": [
            [
                [
                    -111.9766005,
                    33.07923511
                ],
                [
                    -111.97673146,
                    33.07923576
                ],
                [
                    -111.97672957,
                    33.07950641
                ],
                [
                    -111.97659861,
                    33.07950576
                ],
                [
                    -111.9766005,
                    33.07923511
                ]
            ]
        ]
    },
    "properties": {
        "plt_label": "p11-2",
        "trt_label": "AQC_NG3195",
        "PLT_AREA": 366.810125,
        "HARM": "Machine",
        "HADAT": "12/07/2021",
        "WBWAH": 3895.5,
        "BWCAH": 3.45,
        "DBWAH": 3761.1,
        "GNDAT": "12/09/2021",
        "FFRAC": 0.3342,
        "SFRAC": 0.4622,
        "TFRAC": 0.2036,
        "WFWAH": 1301.9,
        "WSWAH": 1800.5,
        "WSCWAH": 3102.5,
        "DFWAH": 1257.0,
        "DSWAH": 1738.5,
        "DSCWAH": 2995.5,
        "QLDAT": "02/18/2022",
        "FBMIC": 44.65,
        "FBLTH": 1.1,
        "FBUNI": 81.4,
        "FBSTR": 30.7,
        "FBELO": 5.9,
        "FBCRD": 80.4,
        "FBCLB": 7.3,
        "FBTCT": 17.0,
        "FBTAR": 0.14,
        "FBSFI": 8.3,
        "haids": [
            "636443338ac54794fc16e64e",
            "636443338ac54794fc16e64f",
            "636443338ac54794fc16e650",
            "636443338ac54794fc16e651",
            "636443338ac54794fc16e652",
            "636443338ac54794fc16e653"
        ],
        "tids": [
            "636593448ac547abc317e70a"
        ],
        "ccids": [
            "642464c28ac547060991e415",
            "642464c28ac547060991e416",
            "642464c28ac547060991e417"
        ]
    },
    "_id": "63643f288ac54794e7f917a7",
    "pid": "63643f288ac54794e7f917a7"
}{
    "type": "Feature",
    "geometry": {
        "type": "Polygon",
        "coordinates": [
            [
                [
                    -111.97660303,
                    33.07887428
                ],
                [
                    -111.97673398,
                    33.07887493
                ],
                [
                    -111.97673209,
                    33.07914557
                ],
                [
                    -111.97660113,
                    33.07914492
                ],
                [
                    -111.97660303,
                    33.07887428
                ]
            ]
        ]
    },
    "properties": {
        "plt_label": "p11-3",
        "trt_label": "CSM_NG3195",
        "PLT_AREA": 366.810144,
        "HARM": "Machine",
        "HADAT": "12/07/2021",
        "WBWAH": 3311.3,
        "BWCAH": 3.09,
        "DBWAH": 3208.9,
        "GNDAT": "12/09/2021",
        "FFRAC": 0.3555,
        "SFRAC": 0.4746,
        "TFRAC": 0.1699,
        "WFWAH": 1177.2,
        "WSWAH": 1571.6,
        "WSCWAH": 2748.8,
        "DFWAH": 1140.8,
        "DSWAH": 1523.0,
        "DSCWAH": 2663.8,
        "QLDAT": "02/18/2022",
        "FBMIC": 47.25,
        "FBLTH": 1.055,
        "FBUNI": 80.6,
        "FBSTR": 30.0,
        "FBELO": 5.8,
        "FBCRD": 80.8,
        "FBCLB": 8.0,
        "FBTCT": 20.0,
        "FBTAR": 0.34,
        "FBSFI": 8.6,
        "haids": [
            "636443338ac54794fc16e654",
            "636443338ac54794fc16e655",
            "636443338ac54794fc16e656",
            "636443338ac54794fc16e657",
            "636443338ac54794fc16e658",
            "636443338ac54794fc16e659"
        ],
        "tids": [
            "636593448ac547abc317e70b"
        ],
        "ccids": [
            "642464c28ac547060991e418",
            "642464c28ac547060991e419",
            "642464c28ac547060991e41a"
        ]
    },
    "_id": "63643f288ac54794e7f917a8",
    "pid": "63643f288ac54794e7f917a8"
}{
    "type": "Feature",
    "geometry": {
        "type": "Polygon",
        "coordinates": [
            [
                [
                    -111.97660555,
                    33.07851345
                ],
                [
                    -111.97673651,
                    33.0785141
                ],
                [
                    -111.97673461,
                    33.07878474
                ],
                [
                    -111.97660366,
                    33.07878409
                ],
                [
                    -111.97660555,
                    33.07851345
                ]
            ]
        ]
    },
    "properties": {
        "plt_label": "p11-4",
        "trt_label": "AQCSWC_NG3195",
        "PLT_AREA": 366.81011,
        "HARM": "Machine",
        "HADAT": "12/07/2021",
        "WBWAH": 3441.6,
        "BWCAH": 2.56,
        "DBWAH": 3353.6,
        "GNDAT": "12/09/2021",
        "FFRAC": 0.3536,
        "SFRAC": 0.4941,
        "TFRAC": 0.1523,
        "WFWAH": 1217.1,
        "WSWAH": 1700.5,
        "WSCWAH": 2917.6,
        "DFWAH": 1186.0,
        "DSWAH": 1657.0,
        "DSCWAH": 2843.0,
        "QLDAT": "02/18/2022",
        "FBMIC": 49.15,
        "FBLTH": 1.072,
        "FBUNI": 80.8,
        "FBSTR": 29.6,
        "FBELO": 5.8,
        "FBCRD": 81.6,
        "FBCLB": 7.7,
        "FBTCT": 6.0,
        "FBTAR": 0.08,
        "FBSFI": 8.2,
        "haids": [
            "636443338ac54794fc16e65a",
            "636443338ac54794fc16e65b",
            "636443338ac54794fc16e65c",
            "636443338ac54794fc16e65d",
            "636443338ac54794fc16e65e",
            "636443338ac54794fc16e65f"
        ],
        "tids": [
            "636593448ac547abc317e70c"
        ],
        "ccids": [
            "642464c28ac547060991e41b",
            "642464c28ac547060991e41c",
            "642464c28ac547060991e41d"
        ]
    },
    "_id": "63643f288ac54794e7f917a9",
    "pid": "63643f288ac54794e7f917a9"
}{
    "type": "Feature",
    "geometry": {
        "type": "Polygon",
        "coordinates": [
            [
                [
                    -111.97644559,
                    33.07959519
                ],
                [
                    -111.97657655,
                    33.07959584
                ],
                [
                    -111.97657466,
                    33.07986648
                ],
                [
                    -111.9764437,
                    33.07986583
                ],
                [
                    -111.97644559,
                    33.07959519
                ]
            ]
        ]
    },
    "properties": {
        "plt_label": "p12-1",
        "trt_label": "CSM_NG4936",
        "PLT_AREA": 366.81014,
        "HARM": "Machine",
        "HADAT": "12/07/2021",
        "WBWAH": 2400.8,
        "BWCAH": 2.92,
        "DBWAH": 2330.7,
        "GNDAT": "12/09/2021",
        "FFRAC": 0.3214,
        "SFRAC": 0.5165,
        "TFRAC": 0.1621,
        "WFWAH": 771.5,
        "WSWAH": 1240.0,
        "WSCWAH": 2011.5,
        "DFWAH": 749.0,
        "DSWAH": 1203.8,
        "DSCWAH": 1952.8,
        "QLDAT": "02/18/2022",
        "FBMIC": 43.6,
        "FBLTH": 1.104,
        "FBUNI": 80.4,
        "FBSTR": 29.3,
        "FBELO": 6.2,
        "FBCRD": 81.9,
        "FBCLB": 7.3,
        "FBTCT": 17.0,
        "FBTAR": 0.22,
        "FBSFI": 8.6,
        "haids": [
            "636443338ac54794fc16e660",
            "636443338ac54794fc16e661",
            "636443338ac54794fc16e662",
            "636443338ac54794fc16e663",
            "636443338ac54794fc16e664",
            "636443338ac54794fc16e665"
        ],
        "tids": [
            "636593448ac547abc317e70d"
        ],
        "ccids": [
            "642464c28ac547060991e41e",
            "642464c28ac547060991e41f",
            "642464c28ac547060991e420"
        ]
    },
    "_id": "63643f288ac54794e7f917aa",
    "pid": "63643f288ac54794e7f917aa"
}{
    "type": "Feature",
    "geometry": {
        "type": "Polygon",
        "coordinates": [
            [
                [
                    -111.97644812,
                    33.07923436
                ],
                [
                    -111.97657908,
                    33.07923501
                ],
                [
                    -111.97657718,
                    33.07950565
                ],
                [
                    -111.97644622,
                    33.079505
                ],
                [
                    -111.97644812,
                    33.07923436
                ]
            ]
        ]
    },
    "properties": {
        "plt_label": "p12-2",
        "trt_label": "AQC_NG4936",
        "PLT_AREA": 366.810125,
        "HARM": "Machine",
        "HADAT": "12/07/2021",
        "WBWAH": 3472.3,
        "BWCAH": 3.35,
        "DBWAH": 3355.9,
        "GNDAT": "12/09/2021",
        "FFRAC": 0.3135,
        "SFRAC": 0.4951,
        "TFRAC": 0.1914,
        "WFWAH": 1088.5,
        "WSWAH": 1719.3,
        "WSCWAH": 2807.8,
        "DFWAH": 1052.0,
        "DSWAH": 1661.6,
        "DSCWAH": 2713.7,
        "QLDAT": "02/18/2022",
        "FBMIC": 42.6,
        "FBLTH": 1.174,
        "FBUNI": 80.9,
        "FBSTR": 31.6,
        "FBELO": 6.6,
        "FBCRD": 81.7,
        "FBCLB": 7.0,
        "FBTCT": 26.0,
        "FBTAR": 0.24,
        "FBSFI": 7.8,
        "haids": [
            "636443338ac54794fc16e666",
            "636443338ac54794fc16e667",
            "636443338ac54794fc16e668",
            "636443338ac54794fc16e669",
            "636443338ac54794fc16e66a",
            "636443338ac54794fc16e66b"
        ],
        "tids": [
            "636593448ac547abc317e70e"
        ],
        "ccids": [
            "642464c28ac547060991e421",
            "642464c28ac547060991e422",
            "642464c28ac547060991e423"
        ]
    },
    "_id": "63643f288ac54794e7f917ab",
    "pid": "63643f288ac54794e7f917ab"
}{
    "type": "Feature",
    "geometry": {
        "type": "Polygon",
        "coordinates": [
            [
                [
                    -111.97645064,
                    33.07887352
                ],
                [
                    -111.9765816,
                    33.07887417
                ],
                [
                    -111.97657971,
                    33.07914482
                ],
                [
                    -111.97644875,
                    33.07914416
                ],
                [
                    -111.97645064,
                    33.07887352
                ]
            ]
        ]
    },
    "properties": {
        "plt_label": "p12-3",
        "trt_label": "CSM_NG4936",
        "PLT_AREA": 366.810125,
        "HARM": "Machine",
        "HADAT": "12/07/2021",
        "WBWAH": 2709.6,
        "BWCAH": 3.08,
        "DBWAH": 2626.2,
        "GNDAT": "12/09/2021",
        "FFRAC": 0.3336,
        "SFRAC": 0.5216,
        "TFRAC": 0.1448,
        "WFWAH": 903.9,
        "WSWAH": 1413.3,
        "WSCWAH": 2317.2,
        "DFWAH": 876.1,
        "DSWAH": 1369.8,
        "DSCWAH": 2245.9,
        "QLDAT": "02/18/2022",
        "FBMIC": 45.4,
        "FBLTH": 1.116,
        "FBUNI": 81.1,
        "FBSTR": 29.1,
        "FBELO": 6.2,
        "FBCRD": 82.4,
        "FBCLB": 7.2,
        "FBTCT": 23.0,
        "FBTAR": 0.2,
        "FBSFI": 8.4,
        "haids": [
            "636443338ac54794fc16e66c",
            "636443338ac54794fc16e66d",
            "636443338ac54794fc16e66e",
            "636443338ac54794fc16e66f",
            "636443338ac54794fc16e670",
            "636443338ac54794fc16e671"
        ],
        "tids": [
            "636593448ac547abc317e70f"
        ],
        "ccids": [
            "642464c28ac547060991e424",
            "642464c28ac547060991e425",
            "642464c28ac547060991e426"
        ]
    },
    "_id": "63643f288ac54794e7f917ac",
    "pid": "63643f288ac54794e7f917ac"
}{
    "type": "Feature",
    "geometry": {
        "type": "Polygon",
        "coordinates": [
            [
                [
                    -111.97645317,
                    33.07851269
                ],
                [
                    -111.97658412,
                    33.07851334
                ],
                [
                    -111.97658223,
                    33.07878398
                ],
                [
                    -111.97645127,
                    33.07878333
                ],
                [
                    -111.97645317,
                    33.07851269
                ]
            ]
        ]
    },
    "properties": {
        "plt_label": "p12-4",
        "trt_label": "AQCSWC_NG4936",
        "PLT_AREA": 366.81014,
        "HARM": "Machine",
        "HADAT": "12/07/2021",
        "WBWAH": 3319.7,
        "BWCAH": 2.73,
        "DBWAH": 3229.1,
        "GNDAT": "12/09/2021",
        "FFRAC": 0.3383,
        "SFRAC": 0.5412,
        "TFRAC": 0.1205,
        "WFWAH": 1122.9,
        "WSWAH": 1796.7,
        "WSCWAH": 2919.6,
        "DFWAH": 1092.3,
        "DSWAH": 1747.7,
        "DSCWAH": 2840.0,
        "QLDAT": "02/18/2022",
        "FBMIC": 47.4,
        "FBLTH": 1.092,
        "FBUNI": 80.9,
        "FBSTR": 29.9,
        "FBELO": 6.4,
        "FBCRD": 83.2,
        "FBCLB": 7.2,
        "FBTCT": 14.0,
        "FBTAR": 0.1,
        "FBSFI": 8.2,
        "haids": [
            "636443338ac54794fc16e672",
            "636443338ac54794fc16e673",
            "636443338ac54794fc16e674",
            "636443338ac54794fc16e675",
            "636443338ac54794fc16e676",
            "636443338ac54794fc16e677"
        ],
        "tids": [
            "636593448ac547abc317e710"
        ],
        "ccids": [
            "642464c28ac547060991e427",
            "642464c28ac547060991e428",
            "642464c28ac547060991e429"
        ]
    },
    "_id": "63643f288ac54794e7f917ad",
    "pid": "63643f288ac54794e7f917ad"
}