{
    "type": "Feature",
    "geometry": {
        "type": "Polygon",
        "coordinates": [
            [
                [
                    -111.9718979,
                    33.06765313
                ],
                [
                    -111.97189762,
                    33.06783423
                ],
                [
                    -111.97178861,
                    33.06783358
                ],
                [
                    -111.97178909,
                    33.06765245
                ],
                [
                    -111.9718979,
                    33.06765313
                ]
            ]
        ]
    },
    "properties": {
        "plt_label": "p101",
        "trt_label": "FSH",
        "PLT_AREA": 204.159661,
        "CUL_NAME": "Deltapine 458 B/RR",
        "PDATE": "04/16/2002",
        "IRVAL": {
            "2002112": 90.0,
            "2002119": 78.0,
            "2002128": 83.0,
            "2002130": 58.0,
            "2002136": 60.0,
            "2002155": 51.0,
            "2002168": 79.0,
            "2002178": 87.0,
            "2002189": 106.0,
            "2002201": 112.0,
            "2002212": 112.0,
            "2002224": 113.0,
            "2002235": 65.0
        },
        "HARM": "Hand",
        "HADAT": "10/08/2002",
        "WBWAH": 3939.1,
        "GNDAT": "10/31/2002",
        "FFRAC": 0.3456,
        "SFRAC": 0.6272,
        "TFRAC": 0.0272,
        "WFWAH": 1361.5,
        "WSWAH": 2470.4,
        "WSCWAH": 3831.9,
        "QLDAT": "11/08/2002",
        "FBMIC": 50.0,
        "FBLTH": 1.09,
        "FBUNI": 80.0,
        "FBSTR": 30.3,
        "FBCRD": 82.0,
        "FBCGR": "11-1",
        "FBTAR": 0.1,
        "CHTD": {
            "2002163": 0.33,
            "2002170": 0.43,
            "2002176": 0.53,
            "2002183": 0.57,
            "2002190": 0.74,
            "2002199": 0.84,
            "2002204": 0.9,
            "2002212": 0.92,
            "2002218": 1.05,
            "2002225": 1.05,
            "2002232": 0.99,
            "2002239": 1.07,
            "2002246": 1.12,
            "2002260": 1.09
        },
        "CWID": {
            "2002163": 0.33,
            "2002170": 0.43,
            "2002176": 0.53,
            "2002183": 0.55,
            "2002190": 0.73,
            "2002199": 0.8,
            "2002204": 0.87,
            "2002212": 0.86,
            "2002218": 0.95,
            "2002225": 1.03,
            "2002232": 0.93,
            "2002239": 1.03,
            "2002246": 1.0,
            "2002260": 1.0
        },
        "tids": [
            "6442f71a8ac547330e1eb2e6"
        ]
    },
    "_id": "6442e19c8ac5472ea32ed41e",
    "pid": "6442e19c8ac5472ea32ed41e"
}{
    "type": "Feature",
    "geometry": {
        "type": "Polygon",
        "coordinates": [
            [
                [
                    -111.97176753,
                    33.06765235
                ],
                [
                    -111.97176729,
                    33.06783341
                ],
                [
                    -111.97165866,
                    33.06783275
                ],
                [
                    -111.97165887,
                    33.06765167
                ],
                [
                    -111.97176753,
                    33.06765235
                ]
            ]
        ]
    },
    "properties": {
        "plt_label": "p102",
        "trt_label": "FTL",
        "PLT_AREA": 203.62279,
        "CUL_NAME": "Deltapine 458 B/RR",
        "PDATE": "04/16/2002",
        "IRVAL": {
            "2002112": 96.0,
            "2002119": 85.0,
            "2002128": 83.0,
            "2002130": 61.0,
            "2002136": 60.0,
            "2002155": 51.0,
            "2002168": 76.0,
            "2002178": 86.0,
            "2002189": 106.0,
            "2002201": 112.0,
            "2002212": 115.0,
            "2002224": 113.0,
            "2002235": 65.0
        },
        "HARM": "Hand",
        "HADAT": "10/08/2002",
        "WBWAH": 4330.8,
        "GNDAT": "10/31/2002",
        "FFRAC": 0.3692,
        "SFRAC": 0.6017,
        "TFRAC": 0.0291,
        "WFWAH": 1598.7,
        "WSWAH": 2605.8,
        "WSCWAH": 4204.6,
        "QLDAT": "11/08/2002",
        "FBMIC": 53.0,
        "FBLTH": 1.11,
        "FBUNI": 82.0,
        "FBSTR": 31.2,
        "FBCRD": 83.0,
        "FBCGR": "11-1",
        "FBTAR": 0.1,
        "CHTD": {
            "2002163": 0.3,
            "2002170": 0.39,
            "2002176": 0.5,
            "2002183": 0.57,
            "2002190": 0.71,
            "2002199": 0.84,
            "2002204": 0.91,
            "2002212": 0.96,
            "2002218": 1.01,
            "2002225": 1.02,
            "2002232": 1.07,
            "2002239": 1.09,
            "2002246": 1.1,
            "2002260": 1.09
        },
        "CWID": {
            "2002163": 0.31,
            "2002170": 0.39,
            "2002176": 0.5,
            "2002183": 0.45,
            "2002190": 0.7,
            "2002199": 0.77,
            "2002204": 0.82,
            "2002212": 0.82,
            "2002218": 0.87,
            "2002225": 0.97,
            "2002232": 0.9,
            "2002239": 0.93,
            "2002246": 1.0,
            "2002260": 0.93
        },
        "tids": [
            "6442f71a8ac547330e1eb2e7"
        ]
    },
    "_id": "6442e19c8ac5472ea32ed41f",
    "pid": "6442e19c8ac5472ea32ed41f"
}{
    "type": "Feature",
    "geometry": {
        "type": "Polygon",
        "coordinates": [
            [
                [
                    -111.97163717,
                    33.06765151
                ],
                [
                    -111.971637,
                    33.06783265
                ],
                [
                    -111.97152831,
                    33.06783197
                ],
                [
                    -111.9715285,
                    33.06765084
                ],
                [
                    -111.97163717,
                    33.06765151
                ]
            ]
        ]
    },
    "properties": {
        "plt_label": "p103",
        "trt_label": "FDH",
        "PLT_AREA": 203.750824,
        "CUL_NAME": "Deltapine 458 B/RR",
        "PDATE": "04/16/2002",
        "IRVAL": {
            "2002112": 93.0,
            "2002119": 77.0,
            "2002128": 83.0,
            "2002130": 51.0,
            "2002136": 61.0,
            "2002155": 51.0,
            "2002168": 76.0,
            "2002178": 87.0,
            "2002189": 106.0,
            "2002201": 112.0,
            "2002212": 115.0,
            "2002224": 113.0,
            "2002235": 65.0
        },
        "HARM": "Hand",
        "HADAT": "10/08/2002",
        "WBWAH": 3719.7,
        "GNDAT": "10/31/2002",
        "FFRAC": 0.3535,
        "SFRAC": 0.6152,
        "TFRAC": 0.0314,
        "WFWAH": 1314.8,
        "WSWAH": 2288.2,
        "WSCWAH": 3603.0,
        "QLDAT": "11/08/2002",
        "FBMIC": 49.0,
        "FBLTH": 1.09,
        "FBUNI": 80.0,
        "FBSTR": 30.5,
        "FBCRD": 82.0,
        "FBCGR": "11-1",
        "FBTAR": 0.2,
        "CHTD": {
            "2002163": 0.32,
            "2002170": 0.4,
            "2002176": 0.49,
            "2002183": 0.56,
            "2002190": 0.7,
            "2002199": 0.84,
            "2002204": 0.92,
            "2002212": 0.98,
            "2002218": 1.03,
            "2002225": 1.16,
            "2002232": 1.16,
            "2002239": 1.18,
            "2002246": 1.2,
            "2002260": 1.17
        },
        "CWID": {
            "2002163": 0.53,
            "2002170": 0.56,
            "2002176": 0.66,
            "2002183": 0.66,
            "2002190": 0.78,
            "2002199": 0.9,
            "2002204": 0.91,
            "2002212": 0.92,
            "2002218": 0.99,
            "2002225": 1.07,
            "2002232": 1.05,
            "2002239": 1.01,
            "2002246": 1.0,
            "2002260": 1.0
        },
        "tids": [
            "6442f71a8ac547330e1eb2e8"
        ]
    },
    "_id": "6442e19c8ac5472ea32ed420",
    "pid": "6442e19c8ac5472ea32ed420"
}{
    "type": "Feature",
    "geometry": {
        "type": "Polygon",
        "coordinates": [
            [
                [
                    -111.97150744,
                    33.06765073
                ],
                [
                    -111.97150703,
                    33.06783214
                ],
                [
                    -111.97139746,
                    33.0678314
                ],
                [
                    -111.97139835,
                    33.06764994
                ],
                [
                    -111.97150744,
                    33.06765073
                ]
            ]
        ]
    },
    "properties": {
        "plt_label": "p104",
        "trt_label": "NTL",
        "PLT_AREA": 205.305556,
        "CUL_NAME": "Deltapine 458 B/RR",
        "PDATE": "04/16/2002",
        "IRVAL": {
            "2002112": 99.0,
            "2002119": 81.0,
            "2002128": 83.0,
            "2002130": 53.0,
            "2002136": 60.0,
            "2002155": 51.0,
            "2002170": 66.0,
            "2002181": 94.0,
            "2002193": 107.0,
            "2002204": 112.0,
            "2002216": 116.0,
            "2002228": 93.0
        },
        "HARM": "Hand",
        "HADAT": "10/08/2002",
        "WBWAH": 3549.3,
        "GNDAT": "10/31/2002",
        "FFRAC": 0.3745,
        "SFRAC": 0.6019,
        "TFRAC": 0.0235,
        "WFWAH": 1329.3,
        "WSWAH": 2136.5,
        "WSCWAH": 3465.8,
        "QLDAT": "11/08/2002",
        "FBMIC": 51.0,
        "FBLTH": 1.11,
        "FBUNI": 82.0,
        "FBSTR": 31.0,
        "FBCRD": 82.0,
        "FBCGR": "21-1",
        "FBTAR": 0.1,
        "CHTD": {
            "2002163": 0.32,
            "2002170": 0.41,
            "2002176": 0.51,
            "2002183": 0.53,
            "2002190": 0.65,
            "2002199": 0.72,
            "2002204": 0.79,
            "2002212": 0.85,
            "2002218": 0.84,
            "2002225": 0.9,
            "2002232": 0.91,
            "2002239": 0.9,
            "2002246": 0.93,
            "2002260": 0.92
        },
        "CWID": {
            "2002163": 0.39,
            "2002170": 0.39,
            "2002176": 0.48,
            "2002183": 0.41,
            "2002190": 0.6,
            "2002199": 0.73,
            "2002204": 0.75,
            "2002212": 0.82,
            "2002218": 0.86,
            "2002225": 0.91,
            "2002232": 0.92,
            "2002239": 0.93,
            "2002246": 0.98,
            "2002260": 0.92
        },
        "tids": [
            "6442f71a8ac547330e1eb2e9"
        ]
    },
    "_id": "6442e19c8ac5472ea32ed421",
    "pid": "6442e19c8ac5472ea32ed421"
}{
    "type": "Feature",
    "geometry": {
        "type": "Polygon",
        "coordinates": [
            [
                [
                    -111.97137696,
                    33.06764985
                ],
                [
                    -111.97137658,
                    33.06783076
                ],
                [
                    -111.97126749,
                    33.06783041
                ],
                [
                    -111.97126784,
                    33.06764918
                ],
                [
                    -111.97137696,
                    33.06764985
                ]
            ]
        ]
    },
    "properties": {
        "plt_label": "p105",
        "trt_label": "NDL",
        "PLT_AREA": 204.490688,
        "CUL_NAME": "Deltapine 458 B/RR",
        "PDATE": "04/16/2002",
        "IRVAL": {
            "2002112": 99.0,
            "2002119": 78.0,
            "2002127": 83.0,
            "2002130": 60.0,
            "2002136": 58.0,
            "2002155": 51.0,
            "2002168": 71.0,
            "2002178": 116.0,
            "2002188": 113.0,
            "2002201": 111.0,
            "2002213": 116.0,
            "2002227": 87.0
        },
        "HARM": "Hand",
        "HADAT": "10/08/2002",
        "WBWAH": 3512.1,
        "GNDAT": "10/31/2002",
        "FFRAC": 0.3608,
        "SFRAC": 0.6045,
        "TFRAC": 0.0347,
        "WFWAH": 1267.1,
        "WSWAH": 2123.0,
        "WSCWAH": 3390.1,
        "QLDAT": "11/08/2002",
        "FBMIC": 45.0,
        "FBLTH": 1.11,
        "FBUNI": 81.0,
        "FBSTR": 29.0,
        "FBCRD": 81.0,
        "FBCGR": "21-1",
        "FBTAR": 0.1,
        "CHTD": {
            "2002163": 0.31,
            "2002170": 0.4,
            "2002176": 0.47,
            "2002183": 0.54,
            "2002190": 0.74,
            "2002199": 0.87,
            "2002204": 0.91,
            "2002212": 0.96,
            "2002218": 0.94,
            "2002225": 0.95,
            "2002232": 0.95,
            "2002239": 0.96,
            "2002246": 0.97,
            "2002260": 0.98
        },
        "CWID": {
            "2002163": 0.55,
            "2002170": 0.56,
            "2002176": 0.64,
            "2002183": 1.7,
            "2002190": 0.82,
            "2002199": 0.9,
            "2002204": 0.89,
            "2002212": 0.94,
            "2002218": 0.95,
            "2002225": 0.99,
            "2002232": 1.01,
            "2002239": 1.02,
            "2002246": 0.98,
            "2002260": 0.95
        },
        "tids": [
            "6442f71a8ac547330e1eb2ea"
        ]
    },
    "_id": "6442e19c8ac5472ea32ed422",
    "pid": "6442e19c8ac5472ea32ed422"
}{
    "type": "Feature",
    "geometry": {
        "type": "Polygon",
        "coordinates": [
            [
                [
                    -111.97124694,
                    33.06764907
                ],
                [
                    -111.97124661,
                    33.06782978
                ],
                [
                    -111.97113752,
                    33.06782983
                ],
                [
                    -111.97113795,
                    33.06764842
                ],
                [
                    -111.97124694,
                    33.06764907
                ]
            ]
        ]
    },
    "properties": {
        "plt_label": "p106",
        "trt_label": "NTH",
        "PLT_AREA": 204.345028,
        "CUL_NAME": "Deltapine 458 B/RR",
        "PDATE": "04/16/2002",
        "IRVAL": {
            "2002112": 109.0,
            "2002119": 86.0,
            "2002127": 83.0,
            "2002130": 64.0,
            "2002136": 64.0,
            "2002155": 51.0,
            "2002170": 64.0,
            "2002181": 97.0,
            "2002193": 116.0,
            "2002204": 112.0,
            "2002216": 116.0,
            "2002228": 93.0
        },
        "HARM": "Hand",
        "HADAT": "10/08/2002",
        "WBWAH": 3392.8,
        "GNDAT": "10/31/2002",
        "FFRAC": 0.3349,
        "SFRAC": 0.6121,
        "TFRAC": 0.053,
        "WFWAH": 1136.4,
        "WSWAH": 2076.8,
        "WSCWAH": 3213.2,
        "QLDAT": "11/08/2002",
        "FBMIC": 50.0,
        "FBLTH": 1.12,
        "FBUNI": 82.0,
        "FBSTR": 31.1,
        "FBCRD": 81.0,
        "FBCGR": "21-1",
        "FBTAR": 0.1,
        "CHTD": {
            "2002163": 0.29,
            "2002170": 0.37,
            "2002176": 0.5,
            "2002183": 0.58,
            "2002190": 0.72,
            "2002199": 0.82,
            "2002204": 0.87,
            "2002212": 0.96,
            "2002218": 1.0,
            "2002225": 1.05,
            "2002232": 1.09,
            "2002239": 1.22,
            "2002246": 1.1,
            "2002260": 1.17
        },
        "CWID": {
            "2002163": 0.38,
            "2002170": 0.37,
            "2002176": 0.5,
            "2002183": 0.47,
            "2002190": 0.7,
            "2002199": 0.8,
            "2002204": 0.82,
            "2002212": 0.9,
            "2002218": 0.92,
            "2002225": 0.98,
            "2002232": 0.94,
            "2002239": 1.05,
            "2002246": 1.0,
            "2002260": 1.01
        },
        "tids": [
            "6442f71a8ac547330e1eb2eb"
        ]
    },
    "_id": "6442e19c8ac5472ea32ed423",
    "pid": "6442e19c8ac5472ea32ed423"
}{
    "type": "Feature",
    "geometry": {
        "type": "Polygon",
        "coordinates": [
            [
                [
                    -111.97111735,
                    33.06764814
                ],
                [
                    -111.9711176,
                    33.06782958
                ],
                [
                    -111.97100755,
                    33.06782884
                ],
                [
                    -111.97100843,
                    33.06764754
                ],
                [
                    -111.97111735,
                    33.06764814
                ]
            ]
        ]
    },
    "properties": {
        "plt_label": "p107",
        "trt_label": "NTL",
        "PLT_AREA": 205.528812,
        "CUL_NAME": "Deltapine 458 B/RR",
        "PDATE": "04/16/2002",
        "IRVAL": {
            "2002112": 99.0,
            "2002119": 93.0,
            "2002127": 83.0,
            "2002130": 66.0,
            "2002136": 61.0,
            "2002155": 51.0,
            "2002170": 64.0,
            "2002181": 98.0,
            "2002193": 104.0,
            "2002204": 112.0,
            "2002216": 112.0,
            "2002228": 84.0
        },
        "HARM": "Hand",
        "HADAT": "10/08/2002",
        "WBWAH": 3920.8,
        "GNDAT": "10/31/2002",
        "FFRAC": 0.3661,
        "SFRAC": 0.5973,
        "TFRAC": 0.0365,
        "WFWAH": 1435.5,
        "WSWAH": 2342.1,
        "WSCWAH": 3777.5,
        "QLDAT": "11/08/2002",
        "FBMIC": 53.0,
        "FBLTH": 1.1,
        "FBUNI": 80.0,
        "FBSTR": 29.8,
        "FBCRD": 82.0,
        "FBCGR": "21-1",
        "FBTAR": 0.1,
        "CHTD": {
            "2002163": 0.29,
            "2002170": 0.38,
            "2002176": 0.51,
            "2002183": 0.53,
            "2002190": 0.76,
            "2002199": 0.82,
            "2002204": 0.9,
            "2002212": 0.96,
            "2002218": 0.97,
            "2002225": 1.04,
            "2002232": 1.03,
            "2002239": 1.09,
            "2002246": 1.1,
            "2002260": 1.05
        },
        "CWID": {
            "2002163": 0.33,
            "2002170": 0.35,
            "2002176": 0.51,
            "2002183": 0.47,
            "2002190": 0.73,
            "2002199": 0.78,
            "2002204": 0.85,
            "2002212": 0.9,
            "2002218": 0.92,
            "2002225": 0.97,
            "2002232": 0.95,
            "2002239": 1.01,
            "2002246": 1.0,
            "2002260": 0.94
        },
        "tids": [
            "6442f71a8ac547330e1eb2ec"
        ]
    },
    "_id": "6442e19c8ac5472ea32ed424",
    "pid": "6442e19c8ac5472ea32ed424"
}{
    "type": "Feature",
    "geometry": {
        "type": "Polygon",
        "coordinates": [
            [
                [
                    -111.97098696,
                    33.06764742
                ],
                [
                    -111.97098715,
                    33.0678282
                ],
                [
                    -111.97087805,
                    33.06782745
                ],
                [
                    -111.97087939,
                    33.06764693
                ],
                [
                    -111.97098696,
                    33.06764742
                ]
            ]
        ]
    },
    "properties": {
        "plt_label": "p108",
        "trt_label": "FTH",
        "PLT_AREA": 202.562029,
        "CUL_NAME": "Deltapine 458 B/RR",
        "PDATE": "04/16/2002",
        "IRVAL": {
            "2002112": 106.0,
            "2002119": 79.0,
            "2002127": 83.0,
            "2002130": 66.0,
            "2002136": 58.0,
            "2002155": 51.0,
            "2002168": 76.0,
            "2002178": 87.0,
            "2002189": 106.0,
            "2002201": 112.0,
            "2002212": 115.0,
            "2002224": 113.0,
            "2002235": 65.0
        },
        "HARM": "Hand",
        "HADAT": "10/08/2002",
        "WBWAH": 4241.3,
        "GNDAT": "10/31/2002",
        "FFRAC": 0.3514,
        "SFRAC": 0.6053,
        "TFRAC": 0.0433,
        "WFWAH": 1490.3,
        "WSWAH": 2567.4,
        "WSCWAH": 4057.7,
        "QLDAT": "11/08/2002",
        "FBMIC": 48.0,
        "FBLTH": 1.13,
        "FBUNI": 82.0,
        "FBSTR": 30.0,
        "FBCRD": 82.0,
        "FBCGR": "21-1",
        "FBTAR": 0.1,
        "CHTD": {
            "2002163": 0.29,
            "2002170": 0.37,
            "2002176": 0.49,
            "2002183": 0.59,
            "2002190": 0.71,
            "2002199": 0.84,
            "2002204": 0.92,
            "2002212": 0.99,
            "2002218": 1.02,
            "2002225": 1.12,
            "2002232": 1.09,
            "2002239": 1.21,
            "2002246": 1.18,
            "2002260": 1.16
        },
        "CWID": {
            "2002163": 0.36,
            "2002170": 0.39,
            "2002176": 0.54,
            "2002183": 0.55,
            "2002190": 0.71,
            "2002199": 0.79,
            "2002204": 0.82,
            "2002212": 0.88,
            "2002218": 0.93,
            "2002225": 1.02,
            "2002232": 1.01,
            "2002239": 1.03,
            "2002246": 1.0,
            "2002260": 1.0
        },
        "tids": [
            "6442f71a8ac547330e1eb2ed"
        ]
    },
    "_id": "6442e19c8ac5472ea32ed425",
    "pid": "6442e19c8ac5472ea32ed425"
}{
    "type": "Feature",
    "geometry": {
        "type": "Polygon",
        "coordinates": [
            [
                [
                    -111.97189834,
                    33.06745419
                ],
                [
                    -111.97189802,
                    33.06763527
                ],
                [
                    -111.97178913,
                    33.06763446
                ],
                [
                    -111.97178947,
                    33.06745341
                ],
                [
                    -111.97189834,
                    33.06745419
                ]
            ]
        ]
    },
    "properties": {
        "plt_label": "p201",
        "trt_label": "NDL",
        "PLT_AREA": 204.053948,
        "CUL_NAME": "Deltapine 458 B/RR",
        "PDATE": "04/16/2002",
        "IRVAL": {
            "2002112": 86.0,
            "2002119": 79.0,
            "2002128": 83.0,
            "2002130": 56.0,
            "2002136": 66.0,
            "2002155": 51.0,
            "2002168": 74.0,
            "2002178": 104.0,
            "2002188": 112.0,
            "2002201": 112.0,
            "2002213": 116.0,
            "2002227": 90.0
        },
        "HARM": "Hand",
        "HADAT": "10/08/2002",
        "WBWAH": 4159.7,
        "GNDAT": "10/31/2002",
        "FFRAC": 0.3691,
        "SFRAC": 0.5985,
        "TFRAC": 0.0324,
        "WFWAH": 1535.2,
        "WSWAH": 2489.7,
        "WSCWAH": 4024.8,
        "QLDAT": "11/08/2002",
        "FBMIC": 51.0,
        "FBLTH": 1.06,
        "FBUNI": 80.0,
        "FBSTR": 29.0,
        "FBCRD": 83.0,
        "FBCGR": "11-1",
        "FBTAR": 0.1,
        "CHTD": {
            "2002163": 0.31,
            "2002170": 0.43,
            "2002176": 0.51,
            "2002183": 0.59,
            "2002190": 0.68,
            "2002199": 0.8,
            "2002204": 0.87,
            "2002212": 0.89,
            "2002218": 0.9,
            "2002225": 0.88,
            "2002232": 0.94,
            "2002239": 0.94,
            "2002246": 0.96,
            "2002260": 1.02
        },
        "CWID": {
            "2002163": 0.51,
            "2002170": 0.6,
            "2002176": 0.65,
            "2002183": 0.64,
            "2002190": 0.81,
            "2002199": 0.86,
            "2002204": 0.87,
            "2002212": 0.91,
            "2002218": 0.92,
            "2002225": 0.95,
            "2002232": 0.98,
            "2002239": 0.99,
            "2002246": 1.0,
            "2002260": 0.82
        },
        "tids": [
            "6442f71a8ac547330e1eb2ee"
        ]
    },
    "_id": "6442e19c8ac5472ea32ed426",
    "pid": "6442e19c8ac5472ea32ed426"
}{
    "type": "Feature",
    "geometry": {
        "type": "Polygon",
        "coordinates": [
            [
                [
                    -111.97176809,
                    33.06745314
                ],
                [
                    -111.97176757,
                    33.06763429
                ],
                [
                    -111.9716586,
                    33.06763304
                ],
                [
                    -111.9716603,
                    33.06745309
                ],
                [
                    -111.97176809,
                    33.06745314
                ]
            ]
        ]
    },
    "properties": {
        "plt_label": "p202",
        "trt_label": "NTH",
        "PLT_AREA": 202.531893,
        "CUL_NAME": "Deltapine 458 B/RR",
        "PDATE": "04/16/2002",
        "IRVAL": {
            "2002112": 99.0,
            "2002119": 78.0,
            "2002128": 99.0,
            "2002130": 61.0,
            "2002136": 59.0,
            "2002155": 51.0,
            "2002170": 60.0,
            "2002181": 86.0,
            "2002193": 102.0,
            "2002204": 116.0,
            "2002216": 117.0,
            "2002228": 106.0
        },
        "HARM": "Hand",
        "HADAT": "10/08/2002",
        "WBWAH": 3364.1,
        "GNDAT": "10/31/2002",
        "FFRAC": 0.3545,
        "SFRAC": 0.6229,
        "TFRAC": 0.0226,
        "WFWAH": 1192.5,
        "WSWAH": 2095.4,
        "WSCWAH": 3287.9,
        "QLDAT": "11/08/2002",
        "FBMIC": 53.0,
        "FBLTH": 1.1,
        "FBUNI": 80.0,
        "FBSTR": 30.5,
        "FBCRD": 82.0,
        "FBCGR": "11-2",
        "FBTAR": 0.1,
        "CHTD": {
            "2002163": 0.32,
            "2002170": 0.36,
            "2002176": 0.47,
            "2002183": 0.49,
            "2002190": 0.59,
            "2002199": 0.71,
            "2002204": 0.75,
            "2002212": 0.9,
            "2002218": 0.92,
            "2002225": 1.04,
            "2002232": 1.13,
            "2002239": 1.15,
            "2002246": 1.15,
            "2002260": 1.21
        },
        "CWID": {
            "2002163": 0.36,
            "2002170": 0.39,
            "2002176": 0.45,
            "2002183": 0.44,
            "2002190": 0.58,
            "2002199": 0.69,
            "2002204": 0.77,
            "2002212": 0.82,
            "2002218": 0.89,
            "2002225": 0.91,
            "2002232": 0.92,
            "2002239": 0.94,
            "2002246": 0.99,
            "2002260": 1.0
        },
        "tids": [
            "6442f71a8ac547330e1eb2ef"
        ]
    },
    "_id": "6442e19c8ac5472ea32ed427",
    "pid": "6442e19c8ac5472ea32ed427"
}{
    "type": "Feature",
    "geometry": {
        "type": "Polygon",
        "coordinates": [
            [
                [
                    -111.97163768,
                    33.0674512
                ],
                [
                    -111.97163658,
                    33.06763303
                ],
                [
                    -111.97152854,
                    33.06763228
                ],
                [
                    -111.97152784,
                    33.06745049
                ],
                [
                    -111.97163768,
                    33.0674512
                ]
            ]
        ]
    },
    "properties": {
        "plt_label": "p203",
        "trt_label": "FTH",
        "PLT_AREA": 204.99958,
        "CUL_NAME": "Deltapine 458 B/RR",
        "PDATE": "04/16/2002",
        "IRVAL": {
            "2002112": 99.0,
            "2002119": 78.0,
            "2002128": 99.0,
            "2002130": 61.0,
            "2002136": 59.0,
            "2002155": 51.0,
            "2002168": 76.0,
            "2002178": 87.0,
            "2002189": 106.0,
            "2002201": 112.0,
            "2002212": 115.0,
            "2002224": 113.0,
            "2002235": 65.0
        },
        "HARM": "Hand",
        "HADAT": "10/08/2002",
        "WBWAH": 4520.2,
        "GNDAT": "10/31/2002",
        "FFRAC": 0.3558,
        "SFRAC": 0.6117,
        "TFRAC": 0.0325,
        "WFWAH": 1608.1,
        "WSWAH": 2765.2,
        "WSCWAH": 4373.3,
        "QLDAT": "11/08/2002",
        "FBMIC": 55.0,
        "FBLTH": 1.09,
        "FBUNI": 81.0,
        "FBSTR": 30.3,
        "FBCRD": 82.0,
        "FBCGR": "11-1",
        "FBTAR": 0.1,
        "CHTD": {
            "2002163": 0.31,
            "2002170": 0.44,
            "2002176": 0.55,
            "2002183": 0.62,
            "2002190": 0.76,
            "2002199": 0.88,
            "2002204": 0.93,
            "2002212": 1.04,
            "2002218": 1.1,
            "2002225": 1.11,
            "2002232": 1.12,
            "2002239": 1.17,
            "2002246": 1.17,
            "2002260": 1.21
        },
        "CWID": {
            "2002163": 0.37,
            "2002170": 0.46,
            "2002176": 0.56,
            "2002183": 0.55,
            "2002190": 0.76,
            "2002199": 0.81,
            "2002204": 0.86,
            "2002212": 0.87,
            "2002218": 0.95,
            "2002225": 1.01,
            "2002232": 1.0,
            "2002239": 1.0,
            "2002246": 1.0,
            "2002260": 1.0
        },
        "tids": [
            "6442f71a8ac547330e1eb2f0"
        ]
    },
    "_id": "6442e19c8ac5472ea32ed428",
    "pid": "6442e19c8ac5472ea32ed428"
}{
    "type": "Feature",
    "geometry": {
        "type": "Polygon",
        "coordinates": [
            [
                [
                    -111.97150799,
                    33.06745065
                ],
                [
                    -111.97150748,
                    33.06763217
                ],
                [
                    -111.97139828,
                    33.06763123
                ],
                [
                    -111.97139877,
                    33.06744993
                ],
                [
                    -111.97150799,
                    33.06745065
                ]
            ]
        ]
    },
    "properties": {
        "plt_label": "p204",
        "trt_label": "NDH",
        "PLT_AREA": 205.066486,
        "CUL_NAME": "Deltapine 458 B/RR",
        "PDATE": "04/16/2002",
        "IRVAL": {
            "2002112": 91.0,
            "2002119": 78.0,
            "2002128": 99.0,
            "2002130": 61.0,
            "2002136": 59.0,
            "2002155": 51.0,
            "2002168": 78.0,
            "2002178": 104.0,
            "2002188": 127.0,
            "2002201": 112.0,
            "2002213": 118.0,
            "2002227": 99.0
        },
        "HARM": "Hand",
        "HADAT": "10/08/2002",
        "WBWAH": 3129.6,
        "GNDAT": "10/31/2002",
        "FFRAC": 0.3437,
        "SFRAC": 0.6182,
        "TFRAC": 0.038,
        "WFWAH": 1075.8,
        "WSWAH": 1934.9,
        "WSCWAH": 3010.6,
        "QLDAT": "11/08/2002",
        "FBMIC": 44.0,
        "FBLTH": 1.12,
        "FBUNI": 82.0,
        "FBSTR": 30.3,
        "FBCRD": 81.0,
        "FBCGR": "11-2",
        "FBTAR": 0.1,
        "CHTD": {
            "2002163": 0.3,
            "2002170": 0.4,
            "2002176": 0.52,
            "2002183": 0.54,
            "2002190": 0.7,
            "2002199": 0.84,
            "2002204": 0.95,
            "2002212": 1.03,
            "2002218": 1.05,
            "2002225": 1.12,
            "2002232": 1.1,
            "2002239": 1.17,
            "2002246": 1.23,
            "2002260": 1.15
        },
        "CWID": {
            "2002163": 0.56,
            "2002170": 0.57,
            "2002176": 0.62,
            "2002183": 0.63,
            "2002190": 0.79,
            "2002199": 0.83,
            "2002204": 0.92,
            "2002212": 0.93,
            "2002218": 1.0,
            "2002225": 1.02,
            "2002232": 1.0,
            "2002239": 1.05,
            "2002246": 1.0,
            "2002260": 1.0
        },
        "tids": [
            "6442f71a8ac547330e1eb2f1"
        ]
    },
    "_id": "6442e19c8ac5472ea32ed429",
    "pid": "6442e19c8ac5472ea32ed429"
}{
    "type": "Feature",
    "geometry": {
        "type": "Polygon",
        "coordinates": [
            [
                [
                    -111.97137704,
                    33.06744958
                ],
                [
                    -111.97137708,
                    33.06763107
                ],
                [
                    -111.9712679,
                    33.06763027
                ],
                [
                    -111.97126845,
                    33.06744885
                ],
                [
                    -111.97137704,
                    33.06744958
                ]
            ]
        ]
    },
    "properties": {
        "plt_label": "p205",
        "trt_label": "FSH",
        "PLT_AREA": 204.509806,
        "CUL_NAME": "Deltapine 458 B/RR",
        "PDATE": "04/16/2002",
        "IRVAL": {
            "2002112": 90.0,
            "2002119": 78.0,
            "2002128": 99.0,
            "2002130": 61.0,
            "2002136": 59.0,
            "2002155": 51.0,
            "2002168": 76.0,
            "2002178": 87.0,
            "2002189": 106.0,
            "2002201": 112.0,
            "2002212": 112.0,
            "2002224": 113.0,
            "2002235": 65.0
        },
        "HARM": "Hand",
        "HADAT": "10/11/2002",
        "WBWAH": 4873.4,
        "GNDAT": "10/31/2002",
        "FFRAC": 0.3465,
        "SFRAC": 0.613,
        "TFRAC": 0.0405,
        "WFWAH": 1688.8,
        "WSWAH": 2987.5,
        "WSCWAH": 4676.3,
        "QLDAT": "11/08/2002",
        "FBMIC": 51.0,
        "FBLTH": 1.12,
        "FBUNI": 81.0,
        "FBSTR": 30.3,
        "FBCRD": 83.0,
        "FBCGR": "11-1",
        "FBTAR": 0.1,
        "CHTD": {
            "2002163": 0.27,
            "2002170": 0.39,
            "2002176": 0.51,
            "2002183": 0.65,
            "2002190": 0.79,
            "2002199": 0.93,
            "2002204": 1.01,
            "2002212": 1.13,
            "2002218": 1.14,
            "2002225": 1.22,
            "2002232": 1.3,
            "2002239": 1.34,
            "2002246": 1.25,
            "2002260": 1.32
        },
        "CWID": {
            "2002163": 0.33,
            "2002170": 0.38,
            "2002176": 0.51,
            "2002183": 0.59,
            "2002190": 0.72,
            "2002199": 0.86,
            "2002204": 0.9,
            "2002212": 0.95,
            "2002218": 0.97,
            "2002225": 1.02,
            "2002232": 1.08,
            "2002239": 0.95,
            "2002246": 1.0,
            "2002260": 1.0
        },
        "tids": [
            "6442f71a8ac547330e1eb2f2"
        ]
    },
    "_id": "6442e19c8ac5472ea32ed42a",
    "pid": "6442e19c8ac5472ea32ed42a"
}{
    "type": "Feature",
    "geometry": {
        "type": "Polygon",
        "coordinates": [
            [
                [
                    -111.97124735,
                    33.06744902
                ],
                [
                    -111.97124701,
                    33.06763012
                ],
                [
                    -111.97113787,
                    33.06762909
                ],
                [
                    -111.97113813,
                    33.0674483
                ],
                [
                    -111.97124735,
                    33.06744902
                ]
            ]
        ]
    },
    "properties": {
        "plt_label": "p206",
        "trt_label": "NSL",
        "PLT_AREA": 204.476954,
        "CUL_NAME": "Deltapine 458 B/RR",
        "PDATE": "04/16/2002",
        "IRVAL": {
            "2002112": 99.0,
            "2002119": 78.0,
            "2002128": 99.0,
            "2002130": 61.0,
            "2002136": 59.0,
            "2002155": 51.0,
            "2002172": 52.0,
            "2002183": 68.0,
            "2002195": 94.0,
            "2002205": 100.0,
            "2002217": 125.0,
            "2002229": 94.0
        },
        "HARM": "Hand",
        "HADAT": "10/11/2002",
        "WBWAH": 3594.1,
        "GNDAT": "10/31/2002",
        "FFRAC": 0.3558,
        "SFRAC": 0.6079,
        "TFRAC": 0.0363,
        "WFWAH": 1278.6,
        "WSWAH": 2184.9,
        "WSCWAH": 3463.5,
        "QLDAT": "11/08/2002",
        "FBMIC": 52.0,
        "FBLTH": 1.09,
        "FBUNI": 80.0,
        "FBSTR": 30.8,
        "FBCRD": 83.0,
        "FBCGR": "11-1",
        "FBTAR": 0.1,
        "CHTD": {
            "2002163": 0.25,
            "2002170": 0.37,
            "2002176": 0.43,
            "2002183": 0.47,
            "2002190": 0.6,
            "2002199": 0.69,
            "2002204": 0.78,
            "2002212": 0.86,
            "2002218": 0.89,
            "2002225": 0.96,
            "2002232": 0.93,
            "2002239": 0.94,
            "2002246": 0.94,
            "2002260": 0.94
        },
        "CWID": {
            "2002163": 0.32,
            "2002170": 0.36,
            "2002176": 0.45,
            "2002183": 0.37,
            "2002190": 0.56,
            "2002199": 0.67,
            "2002204": 0.74,
            "2002212": 0.81,
            "2002218": 0.87,
            "2002225": 0.89,
            "2002232": 0.87,
            "2002239": 1.05,
            "2002246": 0.92,
            "2002260": 0.93
        },
        "tids": [
            "6442f71a8ac547330e1eb2f3"
        ]
    },
    "_id": "6442e19c8ac5472ea32ed42b",
    "pid": "6442e19c8ac5472ea32ed42b"
}{
    "type": "Feature",
    "geometry": {
        "type": "Polygon",
        "coordinates": [
            [
                [
                    -111.97111702,
                    33.06744742
                ],
                [
                    -111.97111714,
                    33.06762914
                ],
                [
                    -111.97100845,
                    33.06762829
                ],
                [
                    -111.97100842,
                    33.0674467
                ],
                [
                    -111.97111702,
                    33.06744742
                ]
            ]
        ]
    },
    "properties": {
        "plt_label": "p207",
        "trt_label": "FTL",
        "PLT_AREA": 204.27731,
        "CUL_NAME": "Deltapine 458 B/RR",
        "PDATE": "04/16/2002",
        "IRVAL": {
            "2002112": 107.0,
            "2002119": 78.0,
            "2002128": 99.0,
            "2002130": 61.0,
            "2002136": 59.0,
            "2002155": 51.0,
            "2002168": 76.0,
            "2002178": 87.0,
            "2002189": 106.0,
            "2002201": 112.0,
            "2002212": 115.0,
            "2002224": 113.0,
            "2002235": 65.0
        },
        "HARM": "Hand",
        "HADAT": "10/11/2002",
        "WBWAH": 4173.3,
        "GNDAT": "10/31/2002",
        "FFRAC": 0.3589,
        "SFRAC": 0.5986,
        "TFRAC": 0.0425,
        "WFWAH": 1497.6,
        "WSWAH": 2498.3,
        "WSCWAH": 3995.9,
        "QLDAT": "11/08/2002",
        "FBMIC": 53.0,
        "FBLTH": 1.12,
        "FBUNI": 81.0,
        "FBSTR": 29.0,
        "FBCRD": 83.0,
        "FBCGR": "11-2",
        "FBTAR": 0.1,
        "CHTD": {
            "2002163": 0.3,
            "2002170": 0.4,
            "2002176": 0.52,
            "2002183": 0.62,
            "2002190": 0.74,
            "2002199": 0.91,
            "2002204": 0.96,
            "2002212": 1.02,
            "2002218": 1.09,
            "2002225": 1.16,
            "2002232": 1.18,
            "2002239": 1.2,
            "2002246": 1.14,
            "2002260": 1.12
        },
        "CWID": {
            "2002163": 0.4,
            "2002170": 0.39,
            "2002176": 0.55,
            "2002183": 0.53,
            "2002190": 0.7,
            "2002199": 0.8,
            "2002204": 0.84,
            "2002212": 0.89,
            "2002218": 0.99,
            "2002225": 1.02,
            "2002232": 1.05,
            "2002239": 1.05,
            "2002246": 1.02,
            "2002260": 1.0
        },
        "tids": [
            "6442f71a8ac547330e1eb2f4"
        ]
    },
    "_id": "6442e19c8ac5472ea32ed42c",
    "pid": "6442e19c8ac5472ea32ed42c"
}{
    "type": "Feature",
    "geometry": {
        "type": "Polygon",
        "coordinates": [
            [
                [
                    -111.97098733,
                    33.06744739
                ],
                [
                    -111.97098686,
                    33.06762807
                ],
                [
                    -111.97087823,
                    33.06762692
                ],
                [
                    -111.97087884,
                    33.06744599
                ],
                [
                    -111.97098733,
                    33.06744739
                ]
            ]
        ]
    },
    "properties": {
        "plt_label": "p208",
        "trt_label": "FSL",
        "PLT_AREA": 203.169654,
        "CUL_NAME": "Deltapine 458 B/RR",
        "PDATE": "04/16/2002",
        "IRVAL": {
            "2002112": 91.0,
            "2002119": 78.0,
            "2002128": 99.0,
            "2002130": 61.0,
            "2002136": 59.0,
            "2002155": 51.0,
            "2002168": 76.0,
            "2002178": 83.0,
            "2002189": 106.0,
            "2002201": 112.0,
            "2002212": 112.0,
            "2002224": 113.0,
            "2002235": 65.0
        },
        "HARM": "Hand",
        "HADAT": "10/11/2002",
        "WBWAH": 4262.0,
        "GNDAT": "10/31/2002",
        "FFRAC": 0.3541,
        "SFRAC": 0.6171,
        "TFRAC": 0.0288,
        "WFWAH": 1509.2,
        "WSWAH": 2629.9,
        "WSCWAH": 4139.2,
        "QLDAT": "11/08/2002",
        "FBMIC": 54.0,
        "FBLTH": 1.12,
        "FBUNI": 82.0,
        "FBSTR": 30.1,
        "FBCRD": 83.0,
        "FBCGR": "11-1",
        "FBTAR": 0.1,
        "CHTD": {
            "2002163": 0.26,
            "2002170": 0.35,
            "2002176": 0.45,
            "2002183": 0.54,
            "2002190": 0.72,
            "2002199": 0.84,
            "2002204": 0.9,
            "2002212": 0.95,
            "2002218": 0.98,
            "2002225": 1.04,
            "2002232": 1.04,
            "2002239": 1.08,
            "2002246": 1.1,
            "2002260": 1.02
        },
        "CWID": {
            "2002163": 0.33,
            "2002170": 0.34,
            "2002176": 0.43,
            "2002183": 0.45,
            "2002190": 0.68,
            "2002199": 0.78,
            "2002204": 0.82,
            "2002212": 0.85,
            "2002218": 0.92,
            "2002225": 0.99,
            "2002232": 1.02,
            "2002239": 1.05,
            "2002246": 1.0,
            "2002260": 1.0
        },
        "tids": [
            "6442f71a8ac547330e1eb2f5"
        ]
    },
    "_id": "6442e19c8ac5472ea32ed42d",
    "pid": "6442e19c8ac5472ea32ed42d"
}{
    "type": "Feature",
    "geometry": {
        "type": "Polygon",
        "coordinates": [
            [
                [
                    -111.97189871,
                    33.06718536
                ],
                [
                    -111.97189851,
                    33.06736598
                ],
                [
                    -111.97178995,
                    33.06736528
                ],
                [
                    -111.97179025,
                    33.06718443
                ],
                [
                    -111.97189871,
                    33.06718536
                ]
            ]
        ]
    },
    "properties": {
        "plt_label": "p301",
        "trt_label": "NTL",
        "PLT_AREA": 202.995797,
        "CUL_NAME": "Deltapine 458 B/RR",
        "PDATE": "04/16/2002",
        "IRVAL": {
            "2002112": 93.0,
            "2002119": 78.0,
            "2002128": 99.0,
            "2002130": 61.0,
            "2002136": 59.0,
            "2002155": 51.0,
            "2002170": 60.0,
            "2002181": 90.0,
            "2002193": 98.0,
            "2002204": 116.0,
            "2002216": 119.0,
            "2002228": 98.0
        },
        "HARM": "Hand",
        "HADAT": "10/11/2002",
        "WBWAH": 3781.5,
        "GNDAT": "10/31/2002",
        "FFRAC": 0.3693,
        "SFRAC": 0.6027,
        "TFRAC": 0.028,
        "WFWAH": 1396.6,
        "WSWAH": 2279.0,
        "WSCWAH": 3675.6,
        "QLDAT": "11/08/2002",
        "FBMIC": 54.0,
        "FBLTH": 1.12,
        "FBUNI": 82.0,
        "FBSTR": 31.1,
        "FBCRD": 83.0,
        "FBCGR": "11-1",
        "FBTAR": 0.1,
        "CHTD": {
            "2002163": 0.3,
            "2002170": 0.36,
            "2002176": 0.54,
            "2002183": 0.51,
            "2002190": 0.67,
            "2002199": 0.69,
            "2002204": 0.77,
            "2002212": 0.83,
            "2002218": 0.85,
            "2002225": 0.88,
            "2002232": 0.91,
            "2002239": 0.87,
            "2002246": 0.93,
            "2002260": 0.91
        },
        "CWID": {
            "2002163": 0.33,
            "2002170": 0.33,
            "2002176": 0.53,
            "2002183": 0.42,
            "2002190": 0.64,
            "2002199": 0.7,
            "2002204": 0.72,
            "2002212": 0.81,
            "2002218": 0.88,
            "2002225": 0.88,
            "2002232": 0.9,
            "2002239": 0.96,
            "2002246": 0.91,
            "2002260": 1.0
        },
        "tids": [
            "6442f71a8ac547330e1eb2f6"
        ]
    },
    "_id": "6442e19c8ac5472ea32ed42e",
    "pid": "6442e19c8ac5472ea32ed42e"
}{
    "type": "Feature",
    "geometry": {
        "type": "Polygon",
        "coordinates": [
            [
                [
                    -111.97176825,
                    33.06718449
                ],
                [
                    -111.97176792,
                    33.06736533
                ],
                [
                    -111.97165864,
                    33.06736433
                ],
                [
                    -111.97165929,
                    33.06718372
                ],
                [
                    -111.97176825,
                    33.06718449
                ]
            ]
        ]
    },
    "properties": {
        "plt_label": "p302",
        "trt_label": "FTL",
        "PLT_AREA": 204.11444,
        "CUL_NAME": "Deltapine 458 B/RR",
        "PDATE": "04/16/2002",
        "IRVAL": {
            "2002112": 93.0,
            "2002119": 78.0,
            "2002128": 99.0,
            "2002130": 61.0,
            "2002136": 59.0,
            "2002155": 51.0,
            "2002168": 76.0,
            "2002178": 87.0,
            "2002189": 114.0,
            "2002201": 112.0,
            "2002212": 115.0,
            "2002224": 113.0,
            "2002235": 65.0
        },
        "HARM": "Hand",
        "HADAT": "10/08/2002",
        "WBWAH": 4605.7,
        "GNDAT": "10/31/2002",
        "FFRAC": 0.3761,
        "SFRAC": 0.5947,
        "TFRAC": 0.0291,
        "WFWAH": 1732.4,
        "WSWAH": 2739.1,
        "WSCWAH": 4471.5,
        "QLDAT": "11/08/2002",
        "FBMIC": 54.0,
        "FBLTH": 1.12,
        "FBUNI": 83.0,
        "FBSTR": 32.1,
        "FBCRD": 83.0,
        "FBCGR": "21-1",
        "FBTAR": 0.2,
        "CHTD": {
            "2002163": 0.35,
            "2002170": 0.42,
            "2002176": 0.58,
            "2002183": 0.64,
            "2002190": 0.77,
            "2002199": 0.84,
            "2002204": 0.95,
            "2002212": 0.98,
            "2002218": 0.98,
            "2002225": 1.04,
            "2002232": 1.03,
            "2002239": 1.06,
            "2002246": 1.09,
            "2002260": 1.07
        },
        "CWID": {
            "2002163": 0.44,
            "2002170": 0.39,
            "2002176": 0.53,
            "2002183": 0.55,
            "2002190": 0.68,
            "2002199": 0.77,
            "2002204": 0.85,
            "2002212": 2.23,
            "2002218": 0.84,
            "2002225": 0.98,
            "2002232": 0.95,
            "2002239": 0.97,
            "2002246": 0.98,
            "2002260": 0.76
        },
        "tids": [
            "6442f71a8ac547330e1eb2f7"
        ]
    },
    "_id": "6442e19c8ac5472ea32ed42f",
    "pid": "6442e19c8ac5472ea32ed42f"
}{
    "type": "Feature",
    "geometry": {
        "type": "Polygon",
        "coordinates": [
            [
                [
                    -111.97163782,
                    33.06718357
                ],
                [
                    -111.97163833,
                    33.06736355
                ],
                [
                    -111.97152876,
                    33.06736374
                ],
                [
                    -111.97152902,
                    33.06718309
                ],
                [
                    -111.97163782,
                    33.06718357
                ]
            ]
        ]
    },
    "properties": {
        "plt_label": "p303",
        "trt_label": "NSL",
        "PLT_AREA": 203.778845,
        "CUL_NAME": "Deltapine 458 B/RR",
        "PDATE": "04/16/2002",
        "IRVAL": {
            "2002112": 99.0,
            "2002119": 78.0,
            "2002128": 99.0,
            "2002130": 61.0,
            "2002136": 59.0,
            "2002155": 51.0,
            "2002172": 61.0,
            "2002183": 73.0,
            "2002195": 112.0,
            "2002205": 103.0,
            "2002217": 118.0,
            "2002229": 89.0
        },
        "HARM": "Hand",
        "HADAT": "10/10/2002",
        "WBWAH": 3884.1,
        "GNDAT": "10/31/2002",
        "FFRAC": 0.364,
        "SFRAC": 0.6232,
        "TFRAC": 0.0128,
        "WFWAH": 1413.7,
        "WSWAH": 2420.5,
        "WSCWAH": 3834.2,
        "QLDAT": "11/08/2002",
        "FBMIC": 52.0,
        "FBLTH": 1.13,
        "FBUNI": 83.0,
        "FBSTR": 30.7,
        "FBCRD": 83.0,
        "FBCGR": "11-1",
        "FBTAR": 0.1,
        "CHTD": {
            "2002163": 0.29,
            "2002170": 0.39,
            "2002176": 0.52,
            "2002183": 0.6,
            "2002190": 0.71,
            "2002199": 0.78,
            "2002204": 0.86,
            "2002212": 0.96,
            "2002218": 0.97,
            "2002225": 1.04,
            "2002232": 1.08,
            "2002239": 1.16,
            "2002246": 1.09,
            "2002260": 1.07
        },
        "CWID": {
            "2002163": 0.34,
            "2002170": 0.4,
            "2002176": 0.5,
            "2002183": 0.48,
            "2002190": 0.68,
            "2002199": 0.79,
            "2002204": 0.88,
            "2002212": 0.92,
            "2002218": 0.91,
            "2002225": 0.96,
            "2002232": 1.02,
            "2002239": 0.97,
            "2002246": 1.0,
            "2002260": 0.93
        },
        "tids": [
            "6442f71a8ac547330e1eb2f8"
        ]
    },
    "_id": "6442e19c8ac5472ea32ed430",
    "pid": "6442e19c8ac5472ea32ed430"
}{
    "type": "Feature",
    "geometry": {
        "type": "Polygon",
        "coordinates": [
            [
                [
                    -111.97150846,
                    33.06718295
                ],
                [
                    -111.97150811,
                    33.06736367
                ],
                [
                    -111.97139918,
                    33.06736298
                ],
                [
                    -111.97139915,
                    33.06718212
                ],
                [
                    -111.97150846,
                    33.06718295
                ]
            ]
        ]
    },
    "properties": {
        "plt_label": "p304",
        "trt_label": "FSL",
        "PLT_AREA": 204.202609,
        "CUL_NAME": "Deltapine 458 B/RR",
        "PDATE": "04/16/2002",
        "IRVAL": {
            "2002112": 91.0,
            "2002119": 78.0,
            "2002128": 99.0,
            "2002130": 61.0,
            "2002136": 59.0,
            "2002155": 51.0,
            "2002168": 76.0,
            "2002178": 87.0,
            "2002189": 111.0,
            "2002201": 112.0,
            "2002212": 112.0,
            "2002224": 113.0,
            "2002235": 65.0
        },
        "HARM": "Hand",
        "HADAT": "10/10/2002",
        "WBWAH": 4625.7,
        "GNDAT": "10/31/2002",
        "FFRAC": 0.371,
        "SFRAC": 0.5988,
        "TFRAC": 0.0302,
        "WFWAH": 1716.2,
        "WSWAH": 2769.7,
        "WSCWAH": 4486.0,
        "QLDAT": "11/08/2002",
        "FBMIC": 54.0,
        "FBLTH": 1.12,
        "FBUNI": 80.0,
        "FBSTR": 30.5,
        "FBCRD": 83.0,
        "FBCGR": "11-2",
        "FBTAR": 0.1,
        "CHTD": {
            "2002163": 0.28,
            "2002170": 0.39,
            "2002176": 0.54,
            "2002183": 0.61,
            "2002190": 0.75,
            "2002199": 0.92,
            "2002204": 0.97,
            "2002212": 1.04,
            "2002218": 1.04,
            "2002225": 1.06,
            "2002232": 1.08,
            "2002239": 1.11,
            "2002246": 1.11,
            "2002260": 1.07
        },
        "CWID": {
            "2002163": 0.35,
            "2002170": 0.38,
            "2002176": 0.54,
            "2002183": 0.53,
            "2002190": 0.72,
            "2002199": 0.84,
            "2002204": 0.84,
            "2002212": 0.88,
            "2002218": 0.93,
            "2002225": 1.0,
            "2002232": 1.0,
            "2002239": 1.05,
            "2002246": 1.01,
            "2002260": 1.0
        },
        "tids": [
            "6442f71a8ac547330e1eb2f9"
        ]
    },
    "_id": "6442e19c8ac5472ea32ed431",
    "pid": "6442e19c8ac5472ea32ed431"
}{
    "type": "Feature",
    "geometry": {
        "type": "Polygon",
        "coordinates": [
            [
                [
                    -111.97137766,
                    33.06718225
                ],
                [
                    -111.97137756,
                    33.06736292
                ],
                [
                    -111.97126839,
                    33.06736223
                ],
                [
                    -111.97126862,
                    33.06718142
                ],
                [
                    -111.97137766,
                    33.06718225
                ]
            ]
        ]
    },
    "properties": {
        "plt_label": "p305",
        "trt_label": "NDH",
        "PLT_AREA": 204.117879,
        "CUL_NAME": "Deltapine 458 B/RR",
        "PDATE": "04/16/2002",
        "IRVAL": {
            "2002112": 88.0,
            "2002119": 78.0,
            "2002128": 99.0,
            "2002130": 61.0,
            "2002136": 59.0,
            "2002155": 51.0,
            "2002168": 78.0,
            "2002178": 102.0,
            "2002188": 113.0,
            "2002201": 112.0,
            "2002213": 118.0,
            "2002227": 98.0
        },
        "HARM": "Hand",
        "HADAT": "10/11/2002",
        "WBWAH": 3769.4,
        "GNDAT": "10/31/2002",
        "FFRAC": 0.3512,
        "SFRAC": 0.6153,
        "TFRAC": 0.0335,
        "WFWAH": 1323.8,
        "WSWAH": 2319.3,
        "WSCWAH": 3643.1,
        "QLDAT": "11/08/2002",
        "FBMIC": 44.0,
        "FBLTH": 1.11,
        "FBUNI": 81.0,
        "FBSTR": 29.8,
        "FBCRD": 82.0,
        "FBCGR": "11-2",
        "FBTAR": 0.2,
        "CHTD": {
            "2002163": 0.31,
            "2002170": 0.42,
            "2002176": 0.53,
            "2002183": 0.55,
            "2002190": 0.73,
            "2002199": 0.91,
            "2002204": 0.97,
            "2002212": 1.07,
            "2002218": 1.05,
            "2002225": 1.2,
            "2002232": 1.18,
            "2002239": 1.25,
            "2002246": 1.23,
            "2002260": 1.21
        },
        "CWID": {
            "2002163": 0.55,
            "2002170": 0.56,
            "2002176": 0.64,
            "2002183": 0.61,
            "2002190": 0.79,
            "2002199": 0.92,
            "2002204": 0.97,
            "2002212": 1.0,
            "2002218": 1.01,
            "2002225": 1.0,
            "2002232": 1.04,
            "2002239": 1.05,
            "2002246": 1.0,
            "2002260": 1.0
        },
        "tids": [
            "6442f71a8ac547330e1eb2fa"
        ]
    },
    "_id": "6442e19c8ac5472ea32ed432",
    "pid": "6442e19c8ac5472ea32ed432"
}{
    "type": "Feature",
    "geometry": {
        "type": "Polygon",
        "coordinates": [
            [
                [
                    -111.97124791,
                    33.06718115
                ],
                [
                    -111.97124768,
                    33.06736196
                ],
                [
                    -111.9711386,
                    33.06736142
                ],
                [
                    -111.97113878,
                    33.0671807
                ],
                [
                    -111.97124791,
                    33.06718115
                ]
            ]
        ]
    },
    "properties": {
        "plt_label": "p306",
        "trt_label": "FTL",
        "PLT_AREA": 204.140854,
        "CUL_NAME": "Deltapine 458 B/RR",
        "PDATE": "04/16/2002",
        "IRVAL": {
            "2002112": 94.0,
            "2002119": 78.0,
            "2002128": 99.0,
            "2002130": 61.0,
            "2002136": 59.0,
            "2002155": 51.0,
            "2002168": 76.0,
            "2002178": 87.0,
            "2002189": 106.0,
            "2002201": 112.0,
            "2002212": 115.0,
            "2002224": 113.0,
            "2002235": 65.0
        },
        "HARM": "Hand",
        "HADAT": "10/11/2002",
        "WBWAH": 4495.4,
        "GNDAT": "10/31/2002",
        "FFRAC": 0.3768,
        "SFRAC": 0.5906,
        "TFRAC": 0.0326,
        "WFWAH": 1693.9,
        "WSWAH": 2655.0,
        "WSCWAH": 4348.9,
        "QLDAT": "11/08/2002",
        "FBMIC": 54.0,
        "FBLTH": 1.12,
        "FBUNI": 80.0,
        "FBSTR": 28.5,
        "FBCRD": 82.0,
        "FBCGR": "21-1",
        "FBTAR": 0.1,
        "CHTD": {
            "2002163": 0.33,
            "2002170": 0.43,
            "2002176": 0.54,
            "2002183": 0.66,
            "2002190": 0.75,
            "2002199": 0.85,
            "2002204": 0.91,
            "2002212": 0.97,
            "2002218": 0.97,
            "2002225": 1.0,
            "2002232": 1.01,
            "2002239": 1.12,
            "2002246": 1.07,
            "2002260": 1.1
        },
        "CWID": {
            "2002163": 0.36,
            "2002170": 0.45,
            "2002176": 0.52,
            "2002183": 0.55,
            "2002190": 0.69,
            "2002199": 0.78,
            "2002204": 0.84,
            "2002212": 0.85,
            "2002218": 0.89,
            "2002225": 0.94,
            "2002232": 0.91,
            "2002239": 1.05,
            "2002246": 0.92,
            "2002260": 0.99
        },
        "tids": [
            "6442f71a8ac547330e1eb2fb"
        ]
    },
    "_id": "6442e19c8ac5472ea32ed433",
    "pid": "6442e19c8ac5472ea32ed433"
}{
    "type": "Feature",
    "geometry": {
        "type": "Polygon",
        "coordinates": [
            [
                [
                    -111.97111742,
                    33.06718047
                ],
                [
                    -111.97111747,
                    33.06736115
                ],
                [
                    -111.9710085,
                    33.06736058
                ],
                [
                    -111.97100872,
                    33.06717976
                ],
                [
                    -111.97111742,
                    33.06718047
                ]
            ]
        ]
    },
    "properties": {
        "plt_label": "p307",
        "trt_label": "NTH",
        "PLT_AREA": 203.606132,
        "CUL_NAME": "Deltapine 458 B/RR",
        "PDATE": "04/16/2002",
        "IRVAL": {
            "2002112": 105.0,
            "2002119": 78.0,
            "2002128": 99.0,
            "2002130": 61.0,
            "2002136": 59.0,
            "2002155": 51.0,
            "2002170": 59.0,
            "2002181": 81.0,
            "2002193": 99.0,
            "2002204": 116.0,
            "2002216": 119.0,
            "2002228": 102.0
        },
        "HARM": "Hand",
        "HADAT": "10/11/2002",
        "WBWAH": 3780.3,
        "GNDAT": "10/31/2002",
        "FFRAC": 0.3553,
        "SFRAC": 0.6111,
        "TFRAC": 0.0336,
        "WFWAH": 1343.3,
        "WSWAH": 2310.2,
        "WSCWAH": 3653.5,
        "QLDAT": "11/08/2002",
        "FBMIC": 54.0,
        "FBLTH": 1.06,
        "FBUNI": 80.0,
        "FBSTR": 28.9,
        "FBCRD": 82.0,
        "FBCGR": "11-1",
        "FBTAR": 0.1,
        "CHTD": {
            "2002163": 0.29,
            "2002170": 0.36,
            "2002176": 0.5,
            "2002183": 0.56,
            "2002190": 0.65,
            "2002199": 0.75,
            "2002204": 0.82,
            "2002212": 0.91,
            "2002218": 0.89,
            "2002225": 1.01,
            "2002232": 1.06,
            "2002239": 1.06,
            "2002246": 1.09,
            "2002260": 1.1
        },
        "CWID": {
            "2002163": 0.34,
            "2002170": 0.34,
            "2002176": 0.46,
            "2002183": 0.45,
            "2002190": 0.61,
            "2002199": 0.68,
            "2002204": 0.78,
            "2002212": 0.84,
            "2002218": 0.88,
            "2002225": 0.94,
            "2002232": 0.97,
            "2002239": 0.95,
            "2002246": 0.95,
            "2002260": 0.98
        },
        "tids": [
            "6442f71a8ac547330e1eb2fc"
        ]
    },
    "_id": "6442e19c8ac5472ea32ed434",
    "pid": "6442e19c8ac5472ea32ed434"
}{
    "type": "Feature",
    "geometry": {
        "type": "Polygon",
        "coordinates": [
            [
                [
                    -111.97098779,
                    33.06717959
                ],
                [
                    -111.97098742,
                    33.06736033
                ],
                [
                    -111.97087878,
                    33.06735984
                ],
                [
                    -111.97087912,
                    33.067179
                ],
                [
                    -111.97098779,
                    33.06717959
                ]
            ]
        ]
    },
    "properties": {
        "plt_label": "p308",
        "trt_label": "FDH",
        "PLT_AREA": 203.327836,
        "CUL_NAME": "Deltapine 458 B/RR",
        "PDATE": "04/16/2002",
        "IRVAL": {
            "2002112": 98.0,
            "2002119": 78.0,
            "2002128": 99.0,
            "2002130": 61.0,
            "2002136": 59.0,
            "2002155": 51.0,
            "2002168": 76.0,
            "2002178": 87.0,
            "2002189": 106.0,
            "2002201": 112.0,
            "2002212": 115.0,
            "2002224": 113.0,
            "2002235": 65.0
        },
        "HARM": "Hand",
        "HADAT": "10/11/2002",
        "WBWAH": 3718.8,
        "GNDAT": "10/31/2002",
        "FFRAC": 0.3515,
        "SFRAC": 0.6031,
        "TFRAC": 0.0453,
        "WFWAH": 1307.3,
        "WSWAH": 2242.9,
        "WSCWAH": 3550.2,
        "QLDAT": "11/08/2002",
        "FBMIC": 52.0,
        "FBLTH": 1.1,
        "FBUNI": 80.0,
        "FBSTR": 30.9,
        "FBCRD": 83.0,
        "FBCGR": "11-1",
        "FBTAR": 0.1,
        "CHTD": {
            "2002163": 0.29,
            "2002170": 0.36,
            "2002176": 0.44,
            "2002183": 0.48,
            "2002190": 0.57,
            "2002199": 0.71,
            "2002204": 0.75,
            "2002212": 0.83,
            "2002218": 0.88,
            "2002225": 0.95,
            "2002232": 1.04,
            "2002239": 1.02,
            "2002246": 1.06,
            "2002260": 0.99
        },
        "CWID": {
            "2002163": 0.49,
            "2002170": 0.54,
            "2002176": 0.61,
            "2002183": 0.59,
            "2002190": 0.74,
            "2002199": 0.82,
            "2002204": 0.85,
            "2002212": 0.89,
            "2002218": 0.93,
            "2002225": 0.91,
            "2002232": 0.96,
            "2002239": 0.98,
            "2002246": 0.99,
            "2002260": 1.0
        },
        "tids": [
            "6442f71a8ac547330e1eb2fd"
        ]
    },
    "_id": "6442e19c8ac5472ea32ed435",
    "pid": "6442e19c8ac5472ea32ed435"
}{
    "type": "Feature",
    "geometry": {
        "type": "Polygon",
        "coordinates": [
            [
                [
                    -111.97189927,
                    33.06698278
                ],
                [
                    -111.97189884,
                    33.06716405
                ],
                [
                    -111.97178999,
                    33.06716353
                ],
                [
                    -111.97179071,
                    33.06698206
                ],
                [
                    -111.97189927,
                    33.06698278
                ]
            ]
        ]
    },
    "properties": {
        "plt_label": "p401",
        "trt_label": "NSH",
        "PLT_AREA": 204.072623,
        "CUL_NAME": "Deltapine 458 B/RR",
        "PDATE": "04/16/2002",
        "IRVAL": {
            "2002112": 99.0,
            "2002119": 78.0,
            "2002128": 99.0,
            "2002130": 61.0,
            "2002136": 59.0,
            "2002155": 51.0,
            "2002171": 54.0,
            "2002182": 64.0,
            "2002195": 112.0,
            "2002205": 96.0,
            "2002217": 129.0,
            "2002229": 99.0
        },
        "HARM": "Hand",
        "HADAT": "10/10/2002",
        "WBWAH": 3248.9,
        "GNDAT": "10/31/2002",
        "FFRAC": 0.3368,
        "SFRAC": 0.6236,
        "TFRAC": 0.0396,
        "WFWAH": 1094.1,
        "WSWAH": 2026.2,
        "WSCWAH": 3120.2,
        "QLDAT": "11/08/2002",
        "FBMIC": 51.0,
        "FBLTH": 1.05,
        "FBUNI": 79.0,
        "FBSTR": 29.4,
        "FBCRD": 82.0,
        "FBCGR": "11-1",
        "FBTAR": 0.2,
        "CHTD": {
            "2002163": 0.28,
            "2002170": 0.35,
            "2002176": 0.47,
            "2002183": 0.47,
            "2002190": 0.61,
            "2002199": 0.64,
            "2002204": 0.73,
            "2002212": 0.83,
            "2002218": 0.85,
            "2002225": 0.9,
            "2002232": 0.95,
            "2002239": 1.01,
            "2002246": 0.98,
            "2002260": 1.01
        },
        "CWID": {
            "2002163": 0.31,
            "2002170": 0.32,
            "2002176": 0.48,
            "2002183": 0.37,
            "2002190": 0.57,
            "2002199": 0.64,
            "2002204": 0.71,
            "2002212": 0.82,
            "2002218": 0.83,
            "2002225": 0.86,
            "2002232": 0.92,
            "2002239": 0.97,
            "2002246": 0.99,
            "2002260": 0.96
        },
        "tids": [
            "6442f71a8ac547330e1eb2fe"
        ]
    },
    "_id": "6442e19c8ac5472ea32ed436",
    "pid": "6442e19c8ac5472ea32ed436"
}{
    "type": "Feature",
    "geometry": {
        "type": "Polygon",
        "coordinates": [
            [
                [
                    -111.97176857,
                    33.06698192
                ],
                [
                    -111.97176828,
                    33.06716327
                ],
                [
                    -111.97165962,
                    33.06716249
                ],
                [
                    -111.97165961,
                    33.0669813
                ],
                [
                    -111.97176857,
                    33.06698192
                ]
            ]
        ]
    },
    "properties": {
        "plt_label": "p402",
        "trt_label": "NTH",
        "PLT_AREA": 204.155775,
        "CUL_NAME": "Deltapine 458 B/RR",
        "PDATE": "04/16/2002",
        "IRVAL": {
            "2002112": 95.0,
            "2002119": 78.0,
            "2002128": 99.0,
            "2002130": 61.0,
            "2002136": 59.0,
            "2002155": 51.0,
            "2002170": 62.0,
            "2002181": 78.0,
            "2002193": 111.0,
            "2002204": 119.0,
            "2002216": 119.0,
            "2002228": 101.0
        },
        "HARM": "Hand",
        "HADAT": "10/10/2002",
        "WBWAH": 4072.2,
        "GNDAT": "10/31/2002",
        "FFRAC": 0.3528,
        "SFRAC": 0.6141,
        "TFRAC": 0.0331,
        "WFWAH": 1436.7,
        "WSWAH": 2500.8,
        "WSCWAH": 3937.5,
        "QLDAT": "11/08/2002",
        "FBMIC": 51.0,
        "FBLTH": 1.1,
        "FBUNI": 81.0,
        "FBSTR": 30.0,
        "FBCRD": 83.0,
        "FBCGR": "11-1",
        "FBTAR": 0.1,
        "CHTD": {
            "2002163": 0.32,
            "2002170": 0.41,
            "2002176": 0.52,
            "2002183": 0.55,
            "2002190": 0.66,
            "2002199": 0.81,
            "2002204": 0.91,
            "2002212": 1.0,
            "2002218": 1.01,
            "2002225": 1.09,
            "2002232": 1.08,
            "2002239": 1.18,
            "2002246": 1.19,
            "2002260": 1.16
        },
        "CWID": {
            "2002163": 0.38,
            "2002170": 0.41,
            "2002176": 0.53,
            "2002183": 0.45,
            "2002190": 0.62,
            "2002199": 0.79,
            "2002204": 0.83,
            "2002212": 0.89,
            "2002218": 0.88,
            "2002225": 0.95,
            "2002232": 0.97,
            "2002239": 1.02,
            "2002246": 1.02,
            "2002260": 1.0
        },
        "tids": [
            "6442f71a8ac547330e1eb2ff"
        ]
    },
    "_id": "6442e19c8ac5472ea32ed437",
    "pid": "6442e19c8ac5472ea32ed437"
}{
    "type": "Feature",
    "geometry": {
        "type": "Polygon",
        "coordinates": [
            [
                [
                    -111.97163785,
                    33.06698119
                ],
                [
                    -111.97163778,
                    33.06716266
                ],
                [
                    -111.97152915,
                    33.06716184
                ],
                [
                    -111.97152938,
                    33.06698051
                ],
                [
                    -111.97163785,
                    33.06698119
                ]
            ]
        ]
    },
    "properties": {
        "plt_label": "p403",
        "trt_label": "FDL",
        "PLT_AREA": 203.819024,
        "CUL_NAME": "Deltapine 458 B/RR",
        "PDATE": "04/16/2002",
        "IRVAL": {
            "2002112": 93.0,
            "2002119": 78.0,
            "2002128": 99.0,
            "2002130": 61.0,
            "2002136": 59.0,
            "2002155": 51.0,
            "2002168": 76.0,
            "2002178": 87.0,
            "2002189": 106.0,
            "2002201": 112.0,
            "2002212": 115.0,
            "2002224": 113.0,
            "2002235": 65.0
        },
        "HARM": "Hand",
        "HADAT": "10/10/2002",
        "WBWAH": 4151.2,
        "GNDAT": "10/31/2002",
        "FFRAC": 0.3767,
        "SFRAC": 0.5909,
        "TFRAC": 0.0325,
        "WFWAH": 1563.6,
        "WSWAH": 2452.8,
        "WSCWAH": 4016.4,
        "QLDAT": "11/08/2002",
        "FBMIC": 55.0,
        "FBLTH": 1.1,
        "FBUNI": 81.0,
        "FBSTR": 30.1,
        "FBCRD": 83.0,
        "FBCGR": "11-1",
        "FBTAR": 0.1,
        "CHTD": {
            "2002163": 0.29,
            "2002170": 0.38,
            "2002176": 0.48,
            "2002183": 0.55,
            "2002190": 0.64,
            "2002199": 0.73,
            "2002204": 0.78,
            "2002212": 0.84,
            "2002218": 0.84,
            "2002225": 0.86,
            "2002232": 0.84,
            "2002239": 0.91,
            "2002246": 0.92,
            "2002260": 0.96
        },
        "CWID": {
            "2002163": 0.48,
            "2002170": 0.54,
            "2002176": 0.66,
            "2002183": 0.65,
            "2002190": 0.75,
            "2002199": 0.82,
            "2002204": 0.84,
            "2002212": 0.9,
            "2002218": 0.92,
            "2002225": 0.98,
            "2002232": 0.97,
            "2002239": 0.99,
            "2002246": 0.98,
            "2002260": 0.92
        },
        "tids": [
            "6442f71a8ac547330e1eb300"
        ]
    },
    "_id": "6442e19c8ac5472ea32ed438",
    "pid": "6442e19c8ac5472ea32ed438"
}{
    "type": "Feature",
    "geometry": {
        "type": "Polygon",
        "coordinates": [
            [
                [
                    -111.97150884,
                    33.06698042
                ],
                [
                    -111.97150841,
                    33.06716169
                ],
                [
                    -111.97139938,
                    33.06716109
                ],
                [
                    -111.97139979,
                    33.06697976
                ],
                [
                    -111.97150884,
                    33.06698042
                ]
            ]
        ]
    },
    "properties": {
        "plt_label": "p404",
        "trt_label": "FTH",
        "PLT_AREA": 204.619541,
        "CUL_NAME": "Deltapine 458 B/RR",
        "PDATE": "04/16/2002",
        "IRVAL": {
            "2002112": 106.0,
            "2002119": 78.0,
            "2002128": 99.0,
            "2002130": 61.0,
            "2002136": 59.0,
            "2002155": 51.0,
            "2002168": 76.0,
            "2002178": 87.0,
            "2002189": 106.0,
            "2002201": 112.0,
            "2002212": 115.0,
            "2002224": 113.0,
            "2002235": 65.0
        },
        "HARM": "Hand",
        "HADAT": "10/10/2002",
        "WBWAH": 4160.5,
        "GNDAT": "10/31/2002",
        "FFRAC": 0.3544,
        "SFRAC": 0.6193,
        "TFRAC": 0.0263,
        "WFWAH": 1474.6,
        "WSWAH": 2576.6,
        "WSCWAH": 4051.2,
        "QLDAT": "11/08/2002",
        "FBMIC": 50.0,
        "FBLTH": 1.12,
        "FBUNI": 81.0,
        "FBSTR": 30.9,
        "FBCRD": 82.0,
        "FBCGR": "21-1",
        "FBTAR": 0.2,
        "CHTD": {
            "2002163": 0.31,
            "2002170": 0.42,
            "2002176": 0.54,
            "2002183": 0.61,
            "2002190": 0.7,
            "2002199": 0.89,
            "2002204": 0.93,
            "2002212": 1.01,
            "2002218": 1.07,
            "2002225": 1.1,
            "2002232": 1.11,
            "2002239": 1.14,
            "2002246": 1.24,
            "2002260": 1.16
        },
        "CWID": {
            "2002163": 0.37,
            "2002170": 0.41,
            "2002176": 0.51,
            "2002183": 0.52,
            "2002190": 0.7,
            "2002199": 0.78,
            "2002204": 0.86,
            "2002212": 0.89,
            "2002218": 0.9,
            "2002225": 0.97,
            "2002232": 0.93,
            "2002239": 1.04,
            "2002246": 1.0,
            "2002260": 1.05
        },
        "tids": [
            "6442f71a8ac547330e1eb301"
        ]
    },
    "_id": "6442e19c8ac5472ea32ed439",
    "pid": "6442e19c8ac5472ea32ed439"
}{
    "type": "Feature",
    "geometry": {
        "type": "Polygon",
        "coordinates": [
            [
                [
                    -111.97137787,
                    33.06697965
                ],
                [
                    -111.97137793,
                    33.06716106
                ],
                [
                    -111.97126889,
                    33.06716041
                ],
                [
                    -111.97126917,
                    33.06697904
                ],
                [
                    -111.97137787,
                    33.06697965
                ]
            ]
        ]
    },
    "properties": {
        "plt_label": "p405",
        "trt_label": "FDL",
        "PLT_AREA": 204.392287,
        "CUL_NAME": "Deltapine 458 B/RR",
        "PDATE": "04/16/2002",
        "IRVAL": {
            "2002112": 91.0,
            "2002119": 78.0,
            "2002128": 99.0,
            "2002130": 61.0,
            "2002136": 59.0,
            "2002155": 51.0,
            "2002168": 76.0,
            "2002178": 87.0,
            "2002189": 106.0,
            "2002201": 112.0,
            "2002212": 115.0,
            "2002224": 113.0,
            "2002235": 65.0
        },
        "HARM": "Hand",
        "HADAT": "10/10/2002",
        "WBWAH": 3884.3,
        "GNDAT": "10/31/2002",
        "FFRAC": 0.3776,
        "SFRAC": 0.5908,
        "TFRAC": 0.0316,
        "WFWAH": 1466.6,
        "WSWAH": 2294.8,
        "WSCWAH": 3761.5,
        "QLDAT": "11/08/2002",
        "FBMIC": 57.0,
        "FBLTH": 1.11,
        "FBUNI": 82.0,
        "FBSTR": 28.8,
        "FBCRD": 83.0,
        "FBCGR": "11-1",
        "FBTAR": 0.1,
        "CHTD": {
            "2002163": 0.32,
            "2002170": 0.4,
            "2002176": 0.47,
            "2002183": 0.51,
            "2002190": 0.64,
            "2002199": 0.69,
            "2002204": 0.75,
            "2002212": 0.78,
            "2002218": 0.76,
            "2002225": 0.78,
            "2002232": 0.8,
            "2002239": 0.79,
            "2002246": 0.8,
            "2002260": 0.87
        },
        "CWID": {
            "2002163": 0.52,
            "2002170": 0.55,
            "2002176": 0.66,
            "2002183": 0.62,
            "2002190": 0.73,
            "2002199": 0.81,
            "2002204": 0.87,
            "2002212": 0.91,
            "2002218": 0.89,
            "2002225": 0.94,
            "2002232": 0.93,
            "2002239": 0.97,
            "2002246": 0.88,
            "2002260": 0.91
        },
        "tids": [
            "6442f71a8ac547330e1eb302"
        ]
    },
    "_id": "6442e19c8ac5472ea32ed43a",
    "pid": "6442e19c8ac5472ea32ed43a"
}{
    "type": "Feature",
    "geometry": {
        "type": "Polygon",
        "coordinates": [
            [
                [
                    -111.97124854,
                    33.06697889
                ],
                [
                    -111.97124802,
                    33.06716014
                ],
                [
                    -111.97113878,
                    33.06715958
                ],
                [
                    -111.97113917,
                    33.06697827
                ],
                [
                    -111.97124854,
                    33.06697889
                ]
            ]
        ]
    },
    "properties": {
        "plt_label": "p406",
        "trt_label": "FTH",
        "PLT_AREA": 205.092754,
        "CUL_NAME": "Deltapine 458 B/RR",
        "PDATE": "04/16/2002",
        "IRVAL": {
            "2002112": 106.0,
            "2002119": 78.0,
            "2002128": 99.0,
            "2002130": 61.0,
            "2002136": 59.0,
            "2002155": 51.0,
            "2002168": 76.0,
            "2002178": 87.0,
            "2002189": 106.0,
            "2002201": 112.0,
            "2002212": 115.0,
            "2002224": 113.0,
            "2002235": 65.0
        },
        "HARM": "Hand",
        "HADAT": "10/10/2002",
        "WBWAH": 4141.7,
        "GNDAT": "10/31/2002",
        "FFRAC": 0.3537,
        "SFRAC": 0.6061,
        "TFRAC": 0.0402,
        "WFWAH": 1465.0,
        "WSWAH": 2510.3,
        "WSCWAH": 3975.3,
        "QLDAT": "11/08/2002",
        "FBMIC": 52.0,
        "FBLTH": 1.11,
        "FBUNI": 81.0,
        "FBSTR": 31.5,
        "FBCRD": 83.0,
        "FBCGR": "11-1",
        "FBTAR": 0.1,
        "CHTD": {
            "2002163": 0.33,
            "2002170": 0.45,
            "2002176": 0.56,
            "2002183": 0.61,
            "2002190": 0.71,
            "2002199": 0.88,
            "2002204": 0.91,
            "2002212": 1.0,
            "2002218": 1.03,
            "2002225": 1.11,
            "2002232": 1.18,
            "2002239": 1.24,
            "2002246": 1.23,
            "2002260": 1.21
        },
        "CWID": {
            "2002163": 0.39,
            "2002170": 0.44,
            "2002176": 0.59,
            "2002183": 0.55,
            "2002190": 0.72,
            "2002199": 0.78,
            "2002204": 0.86,
            "2002212": 0.88,
            "2002218": 0.92,
            "2002225": 1.0,
            "2002232": 1.02,
            "2002239": 1.02,
            "2002246": 1.02,
            "2002260": 1.0
        },
        "tids": [
            "6442f71a8ac547330e1eb303"
        ]
    },
    "_id": "6442e19c8ac5472ea32ed43b",
    "pid": "6442e19c8ac5472ea32ed43b"
}{
    "type": "Feature",
    "geometry": {
        "type": "Polygon",
        "coordinates": [
            [
                [
                    -111.97111743,
                    33.06697809
                ],
                [
                    -111.97111743,
                    33.06715955
                ],
                [
                    -111.97100884,
                    33.06715885
                ],
                [
                    -111.97100897,
                    33.06697756
                ],
                [
                    -111.97111743,
                    33.06697809
                ]
            ]
        ]
    },
    "properties": {
        "plt_label": "p407",
        "trt_label": "NSH",
        "PLT_AREA": 203.733882,
        "CUL_NAME": "Deltapine 458 B/RR",
        "PDATE": "04/16/2002",
        "IRVAL": {
            "2002112": 99.0,
            "2002119": 78.0,
            "2002128": 99.0,
            "2002130": 61.0,
            "2002136": 59.0,
            "2002155": 51.0,
            "2002171": 59.0,
            "2002182": 78.0,
            "2002195": 107.0,
            "2002204": 119.0,
            "2002217": 126.0,
            "2002229": 89.0
        },
        "HARM": "Hand",
        "HADAT": "10/10/2002",
        "WBWAH": 3997.3,
        "GNDAT": "10/31/2002",
        "FFRAC": 0.3388,
        "SFRAC": 0.6143,
        "TFRAC": 0.0469,
        "WFWAH": 1354.3,
        "WSWAH": 2455.6,
        "WSCWAH": 3809.9,
        "QLDAT": "11/08/2002",
        "FBMIC": 50.0,
        "FBLTH": 1.1,
        "FBUNI": 81.0,
        "FBSTR": 31.4,
        "FBCRD": 83.0,
        "FBCGR": "11-1",
        "FBTAR": 0.1,
        "CHTD": {
            "2002163": 0.31,
            "2002170": 0.37,
            "2002176": 0.49,
            "2002183": 0.51,
            "2002190": 0.68,
            "2002199": 0.76,
            "2002204": 0.81,
            "2002212": 0.87,
            "2002218": 0.88,
            "2002225": 0.93,
            "2002232": 0.96,
            "2002239": 1.04,
            "2002246": 1.02,
            "2002260": 0.97
        },
        "CWID": {
            "2002163": 0.35,
            "2002170": 0.36,
            "2002176": 0.49,
            "2002183": 0.46,
            "2002190": 0.67,
            "2002199": 0.81,
            "2002204": 0.88,
            "2002212": 0.89,
            "2002218": 0.93,
            "2002225": 0.98,
            "2002232": 1.02,
            "2002239": 0.99,
            "2002246": 0.96,
            "2002260": 0.82
        },
        "tids": [
            "6442f71a8ac547330e1eb304"
        ]
    },
    "_id": "6442e19c8ac5472ea32ed43c",
    "pid": "6442e19c8ac5472ea32ed43c"
}{
    "type": "Feature",
    "geometry": {
        "type": "Polygon",
        "coordinates": [
            [
                [
                    -111.97098793,
                    33.06697743
                ],
                [
                    -111.97098756,
                    33.06715849
                ],
                [
                    -111.97087917,
                    33.06715795
                ],
                [
                    -111.97087944,
                    33.06697674
                ],
                [
                    -111.97098793,
                    33.06697743
                ]
            ]
        ]
    },
    "properties": {
        "plt_label": "p408",
        "trt_label": "NTL",
        "PLT_AREA": 203.306611,
        "CUL_NAME": "Deltapine 458 B/RR",
        "PDATE": "04/16/2002",
        "IRVAL": {
            "2002112": 99.0,
            "2002119": 78.0,
            "2002128": 99.0,
            "2002130": 61.0,
            "2002136": 59.0,
            "2002155": 51.0,
            "2002170": 54.0,
            "2002181": 78.0,
            "2002193": 103.0,
            "2002204": 107.0,
            "2002216": 119.0,
            "2002228": 96.0
        },
        "HARM": "Hand",
        "HADAT": "10/10/2002",
        "WBWAH": 3365.4,
        "GNDAT": "10/31/2002",
        "FFRAC": 0.3577,
        "SFRAC": 0.6008,
        "TFRAC": 0.0416,
        "WFWAH": 1203.6,
        "WSWAH": 2021.8,
        "WSCWAH": 3225.4,
        "QLDAT": "11/08/2002",
        "FBMIC": 54.0,
        "FBLTH": 1.08,
        "FBUNI": 81.0,
        "FBSTR": 29.7,
        "FBCRD": 83.0,
        "FBCGR": "11-1",
        "FBTAR": 0.2,
        "CHTD": {
            "2002163": 0.28,
            "2002170": 0.36,
            "2002176": 0.49,
            "2002183": 0.51,
            "2002190": 0.49,
            "2002199": 0.67,
            "2002204": 0.71,
            "2002212": 0.77,
            "2002218": 0.77,
            "2002225": 0.79,
            "2002232": 0.83,
            "2002239": 0.85,
            "2002246": 0.86,
            "2002260": 0.89
        },
        "CWID": {
            "2002163": 0.31,
            "2002170": 0.34,
            "2002176": 0.46,
            "2002183": 0.45,
            "2002190": 0.59,
            "2002199": 0.66,
            "2002204": 0.72,
            "2002212": 0.75,
            "2002218": 0.76,
            "2002225": 0.81,
            "2002232": 0.86,
            "2002239": 0.85,
            "2002246": 0.85,
            "2002260": 0.86
        },
        "tids": [
            "6442f71a8ac547330e1eb305"
        ]
    },
    "_id": "6442e19c8ac5472ea32ed43d",
    "pid": "6442e19c8ac5472ea32ed43d"
}{
    "type": "Feature",
    "geometry": {
        "type": "Polygon",
        "coordinates": [
            [
                [
                    -111.97189843,
                    33.06743598
                ],
                [
                    -111.97178954,
                    33.06743558
                ],
                [
                    -111.97178982,
                    33.06739004
                ],
                [
                    -111.97189869,
                    33.06739037
                ],
                [
                    -111.97189843,
                    33.06743598
                ]
            ]
        ]
    },
    "properties": {
        "plt_label": "p901",
        "trt_label": "WS",
        "PLT_AREA": 51.362413,
        "CUL_NAME": "Deltapine 458 B/RR",
        "PDATE": "04/16/2002"
    },
    "_id": "6442e19c8ac5472ea32ed43e",
    "pid": "6442e19c8ac5472ea32ed43e"
}{
    "type": "Feature",
    "geometry": {
        "type": "Polygon",
        "coordinates": [
            [
                [
                    -111.97163729,
                    33.06743458
                ],
                [
                    -111.97152836,
                    33.06743423
                ],
                [
                    -111.97152874,
                    33.06738875
                ],
                [
                    -111.97163727,
                    33.06738953
                ],
                [
                    -111.97163729,
                    33.06743458
                ]
            ]
        ]
    },
    "properties": {
        "plt_label": "p903",
        "trt_label": "DS",
        "PLT_AREA": 50.937858,
        "CUL_NAME": "Deltapine 458 B/RR",
        "PDATE": "04/16/2002"
    },
    "_id": "6442e19c8ac5472ea32ed43f",
    "pid": "6442e19c8ac5472ea32ed43f"
}{
    "type": "Feature",
    "geometry": {
        "type": "Polygon",
        "coordinates": [
            [
                [
                    -111.97137729,
                    33.06743316
                ],
                [
                    -111.97126826,
                    33.06743254
                ],
                [
                    -111.97126833,
                    33.06738738
                ],
                [
                    -111.97137741,
                    33.06738802
                ],
                [
                    -111.97137729,
                    33.06743316
                ]
            ]
        ]
    },
    "properties": {
        "plt_label": "p905",
        "trt_label": "WS",
        "PLT_AREA": 50.969395,
        "CUL_NAME": "Deltapine 458 B/RR",
        "PDATE": "04/16/2002"
    },
    "_id": "6442e19c8ac5472ea32ed440",
    "pid": "6442e19c8ac5472ea32ed440"
}{
    "type": "Feature",
    "geometry": {
        "type": "Polygon",
        "coordinates": [
            [
                [
                    -111.97111718,
                    33.06743167
                ],
                [
                    -111.97100853,
                    33.0674309
                ],
                [
                    -111.97100854,
                    33.06738617
                ],
                [
                    -111.97111736,
                    33.06738677
                ],
                [
                    -111.97111718,
                    33.06743167
                ]
            ]
        ]
    },
    "properties": {
        "plt_label": "p907",
        "trt_label": "DS",
        "PLT_AREA": 50.441139,
        "CUL_NAME": "Deltapine 458 B/RR",
        "PDATE": "04/16/2002"
    },
    "_id": "6442e19c8ac5472ea32ed441",
    "pid": "6442e19c8ac5472ea32ed441"
}{
    "type": "Feature",
    "geometry": {
        "type": "Polygon",
        "coordinates": [
            [
                [
                    -111.97176788,
                    33.06743541
                ],
                [
                    -111.97165908,
                    33.06743482
                ],
                [
                    -111.97165903,
                    33.06738931
                ],
                [
                    -111.97176795,
                    33.06738967
                ],
                [
                    -111.97176788,
                    33.06743541
                ]
            ]
        ]
    },
    "properties": {
        "plt_label": "p902",
        "trt_label": "15-Jul",
        "PLT_AREA": 51.406468,
        "CUL_NAME": "Deltapine 458 B/RR",
        "PDATE": "04/16/2002",
        "HARM": "Hand",
        "HADAT": "10/15/2002",
        "WBWAH": 2008.9,
        "GNDAT": "10/31/2002",
        "FFRAC": 0.3336,
        "SFRAC": 0.6288,
        "TFRAC": 0.0375,
        "WFWAH": 670.3,
        "WSWAH": 1263.3,
        "WSCWAH": 1933.6,
        "QLDAT": "11/08/2002",
        "FBMIC": 43.0,
        "FBLTH": 1.07,
        "FBUNI": 80.0,
        "FBSTR": 31.5,
        "FBCRD": 81.0,
        "FBCGR": "11-1",
        "FBTAR": 0.1,
        "CHTD": {
            "2002163": 0.31,
            "2002170": 0.43,
            "2002176": 0.5,
            "2002183": 0.56,
            "2002190": 0.71,
            "2002199": 0.71,
            "2002204": 0.87,
            "2002212": 0.92,
            "2002218": 0.95,
            "2002225": 0.96,
            "2002232": 0.95,
            "2002239": 0.96,
            "2002246": 0.95,
            "2002260": 0.97
        },
        "CWID": {
            "2002163": 0.36,
            "2002170": 0.46,
            "2002176": 0.48,
            "2002183": 0.5,
            "2002190": 0.66,
            "2002199": 0.76,
            "2002204": 0.83,
            "2002212": 0.88,
            "2002218": 0.89,
            "2002225": 0.91,
            "2002232": 0.92,
            "2002239": 0.95,
            "2002246": 0.89,
            "2002260": 0.98
        }
    },
    "_id": "6442e19c8ac5472ea32ed442",
    "pid": "6442e19c8ac5472ea32ed442"
}{
    "type": "Feature",
    "geometry": {
        "type": "Polygon",
        "coordinates": [
            [
                [
                    -111.97150789,
                    33.06743393
                ],
                [
                    -111.97139887,
                    33.06743331
                ],
                [
                    -111.97139903,
                    33.06738809
                ],
                [
                    -111.97150792,
                    33.06738858
                ],
                [
                    -111.97150789,
                    33.06743393
                ]
            ]
        ]
    },
    "properties": {
        "plt_label": "p904",
        "trt_label": "1-Jun",
        "PLT_AREA": 51.072626,
        "CUL_NAME": "Deltapine 458 B/RR",
        "PDATE": "04/16/2002",
        "HARM": "Hand",
        "HADAT": "10/15/2002",
        "WBWAH": 520.3,
        "GNDAT": "10/31/2002",
        "FFRAC": 0.3234,
        "SFRAC": 0.572,
        "TFRAC": 0.1047,
        "WFWAH": 168.2,
        "WSWAH": 297.6,
        "WSCWAH": 465.8,
        "QLDAT": "11/08/2002",
        "FBMIC": 50.0,
        "FBLTH": 1.04,
        "FBUNI": 79.0,
        "FBSTR": 28.5,
        "FBCRD": 80.0,
        "FBCGR": "11-3",
        "FBTAR": 0.1,
        "CHTD": {
            "2002163": 0.31,
            "2002170": 0.44,
            "2002176": 0.45,
            "2002183": 0.49,
            "2002190": 0.49,
            "2002199": 0.51,
            "2002204": 0.51,
            "2002212": 0.5,
            "2002218": 0.52,
            "2002225": 0.5,
            "2002232": 0.52,
            "2002239": 0.53,
            "2002246": 0.53,
            "2002260": 0.59
        },
        "CWID": {
            "2002163": 0.38,
            "2002170": 0.44,
            "2002176": 0.43,
            "2002183": 0.42,
            "2002190": 0.51,
            "2002199": 0.54,
            "2002204": 0.54,
            "2002212": 0.56,
            "2002218": 0.58,
            "2002225": 0.5,
            "2002232": 0.56,
            "2002239": 0.51,
            "2002246": 0.55,
            "2002260": 0.6
        }
    },
    "_id": "6442e19c8ac5472ea32ed443",
    "pid": "6442e19c8ac5472ea32ed443"
}{
    "type": "Feature",
    "geometry": {
        "type": "Polygon",
        "coordinates": [
            [
                [
                    -111.97124745,
                    33.06743245
                ],
                [
                    -111.97113831,
                    33.06743182
                ],
                [
                    -111.9711385,
                    33.06738703
                ],
                [
                    -111.97124745,
                    33.0673874
                ],
                [
                    -111.97124745,
                    33.06743245
                ]
            ]
        ]
    },
    "properties": {
        "plt_label": "p906",
        "trt_label": "15-Jul",
        "PLT_AREA": 50.698917,
        "CUL_NAME": "Deltapine 458 B/RR",
        "PDATE": "04/16/2002",
        "HARM": "Hand",
        "HADAT": "10/15/2002",
        "WBWAH": 2343.9,
        "GNDAT": "10/31/2002",
        "FFRAC": 0.3352,
        "SFRAC": 0.6238,
        "TFRAC": 0.041,
        "WFWAH": 785.7,
        "WSWAH": 1462.1,
        "WSCWAH": 2247.8,
        "QLDAT": "11/08/2002",
        "FBMIC": 41.0,
        "FBLTH": 1.11,
        "FBUNI": 81.0,
        "FBSTR": 29.9,
        "FBCRD": 82.0,
        "FBCGR": "11-1",
        "FBTAR": 0.1,
        "CHTD": {
            "2002163": 0.3,
            "2002170": 0.42,
            "2002176": 0.57,
            "2002183": 0.64,
            "2002190": 0.79,
            "2002199": 0.89,
            "2002204": 0.97,
            "2002212": 1.02,
            "2002218": 1.07,
            "2002225": 1.01,
            "2002232": 1.02,
            "2002239": 1.05,
            "2002246": 1.02,
            "2002260": 1.15
        },
        "CWID": {
            "2002163": 0.35,
            "2002170": 0.38,
            "2002176": 0.52,
            "2002183": 0.5,
            "2002190": 0.69,
            "2002199": 0.86,
            "2002204": 0.9,
            "2002212": 0.9,
            "2002218": 0.98,
            "2002225": 0.97,
            "2002232": 1.0,
            "2002239": 0.95,
            "2002246": 0.98,
            "2002260": 0.81
        }
    },
    "_id": "6442e19c8ac5472ea32ed444",
    "pid": "6442e19c8ac5472ea32ed444"
}{
    "type": "Feature",
    "geometry": {
        "type": "Polygon",
        "coordinates": [
            [
                [
                    -111.97098734,
                    33.06743091
                ],
                [
                    -111.97087917,
                    33.06742994
                ],
                [
                    -111.97087867,
                    33.0673858
                ],
                [
                    -111.97098735,
                    33.06738633
                ],
                [
                    -111.97098734,
                    33.06743091
                ]
            ]
        ]
    },
    "properties": {
        "plt_label": "p908",
        "trt_label": "1-Jun",
        "PLT_AREA": 49.778117,
        "CUL_NAME": "Deltapine 458 B/RR",
        "PDATE": "04/16/2002",
        "HARM": "Hand",
        "HADAT": "10/15/2002",
        "WBWAH": 630.3,
        "GNDAT": "10/31/2002",
        "FFRAC": 0.3104,
        "SFRAC": 0.5793,
        "TFRAC": 0.1103,
        "WFWAH": 195.7,
        "WSWAH": 365.1,
        "WSCWAH": 560.8,
        "QLDAT": "11/08/2002",
        "FBMIC": 48.0,
        "FBLTH": 1.06,
        "FBUNI": 80.0,
        "FBSTR": 29.8,
        "FBCRD": 79.0,
        "FBCGR": "11-4",
        "FBTAR": 0.1,
        "CHTD": {
            "2002163": 0.32,
            "2002170": 0.41,
            "2002176": 0.46,
            "2002183": 0.44,
            "2002190": 0.46,
            "2002199": 0.5,
            "2002204": 0.49,
            "2002212": 0.5,
            "2002218": 0.48,
            "2002225": 0.52,
            "2002232": 0.51,
            "2002239": 0.5,
            "2002246": 0.51,
            "2002260": 0.48
        },
        "CWID": {
            "2002163": 0.38,
            "2002170": 0.44,
            "2002176": 0.43,
            "2002183": 0.37,
            "2002190": 0.47,
            "2002199": 0.53,
            "2002204": 0.49,
            "2002212": 0.51,
            "2002218": 0.53,
            "2002225": 0.53,
            "2002232": 0.53,
            "2002239": 0.48,
            "2002246": 0.49,
            "2002260": 0.5
        }
    },
    "_id": "6442e19c8ac5472ea32ed445",
    "pid": "6442e19c8ac5472ea32ed445"
}