{
    "type": "FeatureCollection",
    "features": [
        {
            "type": "Feature",
            "geometry": {
                "type": "Polygon",
                "coordinates": [
                    [
                        [
                            -111.97187609,
                            33.06768107
                        ],
                        [
                            -111.97187603,
                            33.06771714
                        ],
                        [
                            -111.97181071,
                            33.06771765
                        ],
                        [
                            -111.9718108,
                            33.06768158
                        ],
                        [
                            -111.97187609,
                            33.06768107
                        ]
                    ]
                ]
            },
            "properties": {
                "ha_label": "p101",
                "HA_AREA": 24.385584,
                "HARM": "Hand",
                "HADAT": "10/08/2002",
                "WBWAH": 3939.1,
                "GNDAT": "10/31/2002",
                "FFRAC": 0.3456,
                "SFRAC": 0.6272,
                "TFRAC": 0.0272,
                "WFWAH": 1361.5,
                "WSWAH": 2470.4,
                "WSCWAH": 3831.9,
                "QLDAT": "11/08/2002",
                "FBMIC": 50.0,
                "FBLTH": 1.09,
                "FBUNI": 80.0,
                "FBSTR": 30.3,
                "FBCRD": 82.0,
                "FBCGR": "11-1",
                "FBTAR": 0.1
            },
            "_id": "68c1c94c8ac54761106dfbd9",
            "haid": "68c1c94c8ac54761106dfbd9"
        },
        {
            "type": "Feature",
            "geometry": {
                "type": "Polygon",
                "coordinates": [
                    [
                        [
                            -111.97168058,
                            33.06768076
                        ],
                        [
                            -111.97174577,
                            33.06768025
                        ],
                        [
                            -111.97174572,
                            33.06771633
                        ],
                        [
                            -111.97168054,
                            33.06771684
                        ],
                        [
                            -111.97168058,
                            33.06768076
                        ]
                    ]
                ]
            },
            "properties": {
                "ha_label": "p102",
                "HA_AREA": 24.339976,
                "HARM": "Hand",
                "HADAT": "10/08/2002",
                "WBWAH": 4330.8,
                "GNDAT": "10/31/2002",
                "FFRAC": 0.3692,
                "SFRAC": 0.6017,
                "TFRAC": 0.0291,
                "WFWAH": 1598.7,
                "WSWAH": 2605.8,
                "WSCWAH": 4204.6,
                "QLDAT": "11/08/2002",
                "FBMIC": 53.0,
                "FBLTH": 1.11,
                "FBUNI": 82.0,
                "FBSTR": 31.2,
                "FBCRD": 83.0,
                "FBCGR": "11-1",
                "FBTAR": 0.1
            },
            "_id": "68c1c94c8ac54761106dfbda",
            "haid": "68c1c94c8ac54761106dfbda"
        },
        {
            "type": "Feature",
            "geometry": {
                "type": "Polygon",
                "coordinates": [
                    [
                        [
                            -111.97161541,
                            33.06767949
                        ],
                        [
                            -111.97161538,
                            33.06771556
                        ],
                        [
                            -111.97155018,
                            33.06771607
                        ],
                        [
                            -111.97155022,
                            33.06768
                        ],
                        [
                            -111.97161541,
                            33.06767949
                        ]
                    ]
                ]
            },
            "properties": {
                "ha_label": "p103",
                "HA_AREA": 24.345254,
                "HARM": "Hand",
                "HADAT": "10/08/2002",
                "WBWAH": 3719.7,
                "GNDAT": "10/31/2002",
                "FFRAC": 0.3535,
                "SFRAC": 0.6152,
                "TFRAC": 0.0314,
                "WFWAH": 1314.8,
                "WSWAH": 2288.2,
                "WSCWAH": 3603.0,
                "QLDAT": "11/08/2002",
                "FBMIC": 49.0,
                "FBLTH": 1.09,
                "FBUNI": 80.0,
                "FBSTR": 30.5,
                "FBCRD": 82.0,
                "FBCGR": "11-1",
                "FBTAR": 0.2
            },
            "_id": "68c1c94c8ac54761106dfbdb",
            "haid": "68c1c94c8ac54761106dfbdb"
        },
        {
            "type": "Feature",
            "geometry": {
                "type": "Polygon",
                "coordinates": [
                    [
                        [
                            -111.97148554,
                            33.06767898
                        ],
                        [
                            -111.97148544,
                            33.06771506
                        ],
                        [
                            -111.9714199,
                            33.06771557
                        ],
                        [
                            -111.97142006,
                            33.06767949
                        ],
                        [
                            -111.97148554,
                            33.06767898
                        ]
                    ]
                ]
            },
            "properties": {
                "ha_label": "p104",
                "HA_AREA": 24.462547,
                "HARM": "Hand",
                "HADAT": "10/08/2002",
                "WBWAH": 3549.3,
                "GNDAT": "10/31/2002",
                "FFRAC": 0.3745,
                "SFRAC": 0.6019,
                "TFRAC": 0.0235,
                "WFWAH": 1329.3,
                "WSWAH": 2136.5,
                "WSCWAH": 3465.8,
                "QLDAT": "11/08/2002",
                "FBMIC": 51.0,
                "FBLTH": 1.11,
                "FBUNI": 82.0,
                "FBSTR": 31.0,
                "FBCRD": 82.0,
                "FBCGR": "21-1",
                "FBTAR": 0.1
            },
            "_id": "68c1c94c8ac54761106dfbdc",
            "haid": "68c1c94c8ac54761106dfbdc"
        },
        {
            "type": "Feature",
            "geometry": {
                "type": "Polygon",
                "coordinates": [
                    [
                        [
                            -111.97128962,
                            33.06767811
                        ],
                        [
                            -111.97135508,
                            33.0676776
                        ],
                        [
                            -111.97135501,
                            33.06771368
                        ],
                        [
                            -111.97128955,
                            33.06771419
                        ],
                        [
                            -111.97128962,
                            33.06767811
                        ]
                    ]
                ]
            },
            "properties": {
                "ha_label": "p105",
                "HA_AREA": 24.443695,
                "HARM": "Hand",
                "HADAT": "10/08/2002",
                "WBWAH": 3512.1,
                "GNDAT": "10/31/2002",
                "FFRAC": 0.3608,
                "SFRAC": 0.6045,
                "TFRAC": 0.0347,
                "WFWAH": 1267.1,
                "WSWAH": 2123.0,
                "WSCWAH": 3390.1,
                "QLDAT": "11/08/2002",
                "FBMIC": 45.0,
                "FBLTH": 1.11,
                "FBUNI": 81.0,
                "FBSTR": 29.0,
                "FBCRD": 81.0,
                "FBCGR": "21-1",
                "FBTAR": 0.1
            },
            "_id": "68c1c94c8ac54761106dfbdd",
            "haid": "68c1c94c8ac54761106dfbdd"
        },
        {
            "type": "Feature",
            "geometry": {
                "type": "Polygon",
                "coordinates": [
                    [
                        [
                            -111.97122509,
                            33.06767662
                        ],
                        [
                            -111.97122502,
                            33.06771269
                        ],
                        [
                            -111.97115962,
                            33.0677132
                        ],
                        [
                            -111.9711597,
                            33.06767713
                        ],
                        [
                            -111.97122509,
                            33.06767662
                        ]
                    ]
                ]
            },
            "properties": {
                "ha_label": "p106",
                "HA_AREA": 24.421927,
                "HARM": "Hand",
                "HADAT": "10/08/2002",
                "WBWAH": 3392.8,
                "GNDAT": "10/31/2002",
                "FFRAC": 0.3349,
                "SFRAC": 0.6121,
                "TFRAC": 0.053,
                "WFWAH": 1136.4,
                "WSWAH": 2076.8,
                "WSCWAH": 3213.2,
                "QLDAT": "11/08/2002",
                "FBMIC": 50.0,
                "FBLTH": 1.12,
                "FBUNI": 82.0,
                "FBSTR": 31.1,
                "FBCRD": 81.0,
                "FBCGR": "21-1",
                "FBTAR": 0.1
            },
            "_id": "68c1c94c8ac54761106dfbde",
            "haid": "68c1c94c8ac54761106dfbde"
        },
        {
            "type": "Feature",
            "geometry": {
                "type": "Polygon",
                "coordinates": [
                    [
                        [
                            -111.97109557,
                            33.06767642
                        ],
                        [
                            -111.97109558,
                            33.0677125
                        ],
                        [
                            -111.97103,
                            33.06771302
                        ],
                        [
                            -111.97103012,
                            33.06767694
                        ],
                        [
                            -111.97109557,
                            33.06767642
                        ]
                    ]
                ]
            },
            "properties": {
                "ha_label": "p107",
                "HA_AREA": 24.46374,
                "HARM": "Hand",
                "HADAT": "10/08/2002",
                "WBWAH": 3920.8,
                "GNDAT": "10/31/2002",
                "FFRAC": 0.3661,
                "SFRAC": 0.5973,
                "TFRAC": 0.0365,
                "WFWAH": 1435.5,
                "WSWAH": 2342.1,
                "WSCWAH": 3777.5,
                "QLDAT": "11/08/2002",
                "FBMIC": 53.0,
                "FBLTH": 1.1,
                "FBUNI": 80.0,
                "FBSTR": 29.8,
                "FBCRD": 82.0,
                "FBCGR": "21-1",
                "FBTAR": 0.1
            },
            "_id": "68c1c94c8ac54761106dfbdf",
            "haid": "68c1c94c8ac54761106dfbdf"
        },
        {
            "type": "Feature",
            "geometry": {
                "type": "Polygon",
                "coordinates": [
                    [
                        [
                            -111.97096543,
                            33.06767504
                        ],
                        [
                            -111.97096541,
                            33.06771112
                        ],
                        [
                            -111.97090056,
                            33.06771163
                        ],
                        [
                            -111.97090076,
                            33.06767555
                        ],
                        [
                            -111.97096543,
                            33.06767504
                        ]
                    ]
                ]
            },
            "properties": {
                "ha_label": "p108",
                "HA_AREA": 24.182099,
                "HARM": "Hand",
                "HADAT": "10/08/2002",
                "WBWAH": 4241.3,
                "GNDAT": "10/31/2002",
                "FFRAC": 0.3514,
                "SFRAC": 0.6053,
                "TFRAC": 0.0433,
                "WFWAH": 1490.3,
                "WSWAH": 2567.4,
                "WSCWAH": 4057.7,
                "QLDAT": "11/08/2002",
                "FBMIC": 48.0,
                "FBLTH": 1.13,
                "FBUNI": 82.0,
                "FBSTR": 30.0,
                "FBCRD": 82.0,
                "FBCGR": "21-1",
                "FBTAR": 0.1
            },
            "_id": "68c1c94c8ac54761106dfbe0",
            "haid": "68c1c94c8ac54761106dfbe0"
        },
        {
            "type": "Feature",
            "geometry": {
                "type": "Polygon",
                "coordinates": [
                    [
                        [
                            -111.97187652,
                            33.06748211
                        ],
                        [
                            -111.97187645,
                            33.06751819
                        ],
                        [
                            -111.97181114,
                            33.0675187
                        ],
                        [
                            -111.9718112,
                            33.06748262
                        ],
                        [
                            -111.97187652,
                            33.06748211
                        ]
                    ]
                ]
            },
            "properties": {
                "ha_label": "p201",
                "HA_AREA": 24.388842,
                "HARM": "Hand",
                "HADAT": "10/08/2002",
                "WBWAH": 4159.7,
                "GNDAT": "10/31/2002",
                "FFRAC": 0.3691,
                "SFRAC": 0.5985,
                "TFRAC": 0.0324,
                "WFWAH": 1535.2,
                "WSWAH": 2489.7,
                "WSCWAH": 4024.8,
                "QLDAT": "11/08/2002",
                "FBMIC": 51.0,
                "FBLTH": 1.06,
                "FBUNI": 80.0,
                "FBSTR": 29.0,
                "FBCRD": 83.0,
                "FBCGR": "11-1",
                "FBTAR": 0.1
            },
            "_id": "68c1c94c8ac54761106dfbe1",
            "haid": "68c1c94c8ac54761106dfbe1"
        },
        {
            "type": "Feature",
            "geometry": {
                "type": "Polygon",
                "coordinates": [
                    [
                        [
                            -111.97174641,
                            33.06748113
                        ],
                        [
                            -111.97174626,
                            33.06751721
                        ],
                        [
                            -111.97168135,
                            33.06751772
                        ],
                        [
                            -111.97168164,
                            33.06748164
                        ],
                        [
                            -111.97174641,
                            33.06748113
                        ]
                    ]
                ]
            },
            "properties": {
                "ha_label": "p202",
                "HA_AREA": 24.211692,
                "HARM": "Hand",
                "HADAT": "10/08/2002",
                "WBWAH": 3364.1,
                "GNDAT": "10/31/2002",
                "FFRAC": 0.3545,
                "SFRAC": 0.6229,
                "TFRAC": 0.0226,
                "WFWAH": 1192.5,
                "WSWAH": 2095.4,
                "WSCWAH": 3287.9,
                "QLDAT": "11/08/2002",
                "FBMIC": 53.0,
                "FBLTH": 1.1,
                "FBUNI": 80.0,
                "FBSTR": 30.5,
                "FBCRD": 82.0,
                "FBCGR": "11-2",
                "FBTAR": 0.1
            },
            "_id": "68c1c94c8ac54761106dfbe2",
            "haid": "68c1c94c8ac54761106dfbe2"
        },
        {
            "type": "Feature",
            "geometry": {
                "type": "Polygon",
                "coordinates": [
                    [
                        [
                            -111.97154988,
                            33.06748038
                        ],
                        [
                            -111.9716156,
                            33.06747987
                        ],
                        [
                            -111.97161545,
                            33.06751595
                        ],
                        [
                            -111.97154994,
                            33.06751645
                        ],
                        [
                            -111.97154988,
                            33.06748038
                        ]
                    ]
                ]
            },
            "properties": {
                "ha_label": "p203",
                "HA_AREA": 24.501946,
                "HARM": "Hand",
                "HADAT": "10/08/2002",
                "WBWAH": 4520.2,
                "GNDAT": "10/31/2002",
                "FFRAC": 0.3558,
                "SFRAC": 0.6117,
                "TFRAC": 0.0325,
                "WFWAH": 1608.1,
                "WSWAH": 2765.2,
                "WSCWAH": 4373.3,
                "QLDAT": "11/08/2002",
                "FBMIC": 55.0,
                "FBLTH": 1.09,
                "FBUNI": 81.0,
                "FBSTR": 30.3,
                "FBCRD": 82.0,
                "FBCGR": "11-1",
                "FBTAR": 0.1
            },
            "_id": "68c1c94c8ac54761106dfbe3",
            "haid": "68c1c94c8ac54761106dfbe3"
        },
        {
            "type": "Feature",
            "geometry": {
                "type": "Polygon",
                "coordinates": [
                    [
                        [
                            -111.97142055,
                            33.06747952
                        ],
                        [
                            -111.97148607,
                            33.06747901
                        ],
                        [
                            -111.97148597,
                            33.06751508
                        ],
                        [
                            -111.97142045,
                            33.0675156
                        ],
                        [
                            -111.97142055,
                            33.06747952
                        ]
                    ]
                ]
            },
            "properties": {
                "ha_label": "p204",
                "HA_AREA": 24.464976,
                "HARM": "Hand",
                "HADAT": "10/08/2002",
                "WBWAH": 3129.6,
                "GNDAT": "10/31/2002",
                "FFRAC": 0.3437,
                "SFRAC": 0.6182,
                "TFRAC": 0.038,
                "WFWAH": 1075.8,
                "WSWAH": 1934.9,
                "WSCWAH": 3010.6,
                "QLDAT": "11/08/2002",
                "FBMIC": 44.0,
                "FBLTH": 1.12,
                "FBUNI": 82.0,
                "FBSTR": 30.3,
                "FBCRD": 81.0,
                "FBCGR": "11-2",
                "FBTAR": 0.1
            },
            "_id": "68c1c94c8ac54761106dfbe4",
            "haid": "68c1c94c8ac54761106dfbe4"
        },
        {
            "type": "Feature",
            "geometry": {
                "type": "Polygon",
                "coordinates": [
                    [
                        [
                            -111.97135532,
                            33.06747791
                        ],
                        [
                            -111.9713553,
                            33.06751399
                        ],
                        [
                            -111.97129003,
                            33.0675145
                        ],
                        [
                            -111.97129011,
                            33.06747842
                        ],
                        [
                            -111.97135532,
                            33.06747791
                        ]
                    ]
                ]
            },
            "properties": {
                "ha_label": "p205",
                "HA_AREA": 24.360371,
                "HARM": "Hand",
                "HADAT": "10/11/2002",
                "WBWAH": 4873.4,
                "GNDAT": "10/31/2002",
                "FFRAC": 0.3465,
                "SFRAC": 0.613,
                "TFRAC": 0.0405,
                "WFWAH": 1688.8,
                "WSWAH": 2987.5,
                "WSCWAH": 4676.3,
                "QLDAT": "11/08/2002",
                "FBMIC": 51.0,
                "FBLTH": 1.12,
                "FBUNI": 81.0,
                "FBSTR": 30.3,
                "FBCRD": 83.0,
                "FBCGR": "11-1",
                "FBTAR": 0.1
            },
            "_id": "68c1c94c8ac54761106dfbe5",
            "haid": "68c1c94c8ac54761106dfbe5"
        },
        {
            "type": "Feature",
            "geometry": {
                "type": "Polygon",
                "coordinates": [
                    [
                        [
                            -111.97115995,
                            33.06747747
                        ],
                        [
                            -111.97122546,
                            33.06747696
                        ],
                        [
                            -111.97122539,
                            33.06751304
                        ],
                        [
                            -111.97115989,
                            33.06751355
                        ],
                        [
                            -111.97115995,
                            33.06747747
                        ]
                    ]
                ]
            },
            "properties": {
                "ha_label": "p206",
                "HA_AREA": 24.461563,
                "HARM": "Hand",
                "HADAT": "10/11/2002",
                "WBWAH": 3594.1,
                "GNDAT": "10/31/2002",
                "FFRAC": 0.3558,
                "SFRAC": 0.6079,
                "TFRAC": 0.0363,
                "WFWAH": 1278.6,
                "WSWAH": 2184.9,
                "WSCWAH": 3463.5,
                "QLDAT": "11/08/2002",
                "FBMIC": 52.0,
                "FBLTH": 1.09,
                "FBUNI": 80.0,
                "FBSTR": 30.8,
                "FBCRD": 83.0,
                "FBCGR": "11-1",
                "FBTAR": 0.1
            },
            "_id": "68c1c94c8ac54761106dfbe6",
            "haid": "68c1c94c8ac54761106dfbe6"
        },
        {
            "type": "Feature",
            "geometry": {
                "type": "Polygon",
                "coordinates": [
                    [
                        [
                            -111.97109532,
                            33.06747598
                        ],
                        [
                            -111.97109534,
                            33.06751206
                        ],
                        [
                            -111.97103017,
                            33.06751257
                        ],
                        [
                            -111.97103016,
                            33.06747649
                        ],
                        [
                            -111.97109532,
                            33.06747598
                        ]
                    ]
                ]
            },
            "properties": {
                "ha_label": "p207",
                "HA_AREA": 24.333005,
                "HARM": "Hand",
                "HADAT": "10/11/2002",
                "WBWAH": 4173.3,
                "GNDAT": "10/31/2002",
                "FFRAC": 0.3589,
                "SFRAC": 0.5986,
                "TFRAC": 0.0425,
                "WFWAH": 1497.6,
                "WSWAH": 2498.3,
                "WSCWAH": 3995.9,
                "QLDAT": "11/08/2002",
                "FBMIC": 53.0,
                "FBLTH": 1.12,
                "FBUNI": 81.0,
                "FBSTR": 29.0,
                "FBCRD": 83.0,
                "FBCGR": "11-2",
                "FBTAR": 0.1
            },
            "_id": "68c1c94c8ac54761106dfbe7",
            "haid": "68c1c94c8ac54761106dfbe7"
        },
        {
            "type": "Feature",
            "geometry": {
                "type": "Polygon",
                "coordinates": [
                    [
                        [
                            -111.97096556,
                            33.06747491
                        ],
                        [
                            -111.97096546,
                            33.06751099
                        ],
                        [
                            -111.97090035,
                            33.0675115
                        ],
                        [
                            -111.97090047,
                            33.06747542
                        ],
                        [
                            -111.97096556,
                            33.06747491
                        ]
                    ]
                ]
            },
            "properties": {
                "ha_label": "p208",
                "HA_AREA": 24.309569,
                "HARM": "Hand",
                "HADAT": "10/11/2002",
                "WBWAH": 4262.0,
                "GNDAT": "10/31/2002",
                "FFRAC": 0.3541,
                "SFRAC": 0.6171,
                "TFRAC": 0.0288,
                "WFWAH": 1509.2,
                "WSWAH": 2629.9,
                "WSCWAH": 4139.2,
                "QLDAT": "11/08/2002",
                "FBMIC": 54.0,
                "FBLTH": 1.12,
                "FBUNI": 82.0,
                "FBSTR": 30.1,
                "FBCRD": 83.0,
                "FBCGR": "11-1",
                "FBTAR": 0.1
            },
            "_id": "68c1c94c8ac54761106dfbe8",
            "haid": "68c1c94c8ac54761106dfbe8"
        },
        {
            "type": "Feature",
            "geometry": {
                "type": "Polygon",
                "coordinates": [
                    [
                        [
                            -111.97187699,
                            33.06721282
                        ],
                        [
                            -111.97187694,
                            33.0672489
                        ],
                        [
                            -111.97181186,
                            33.06724941
                        ],
                        [
                            -111.97181192,
                            33.06721333
                        ],
                        [
                            -111.97187699,
                            33.06721282
                        ]
                    ]
                ]
            },
            "properties": {
                "ha_label": "p301",
                "HA_AREA": 24.300908,
                "HARM": "Hand",
                "HADAT": "10/11/2002",
                "WBWAH": 3781.5,
                "GNDAT": "10/31/2002",
                "FFRAC": 0.3693,
                "SFRAC": 0.6027,
                "TFRAC": 0.028,
                "WFWAH": 1396.6,
                "WSWAH": 2279.0,
                "WSCWAH": 3675.6,
                "QLDAT": "11/08/2002",
                "FBMIC": 54.0,
                "FBLTH": 1.12,
                "FBUNI": 82.0,
                "FBSTR": 31.1,
                "FBCRD": 83.0,
                "FBCGR": "11-1",
                "FBTAR": 0.1
            },
            "_id": "68c1c94c8ac54761106dfbe9",
            "haid": "68c1c94c8ac54761106dfbe9"
        },
        {
            "type": "Feature",
            "geometry": {
                "type": "Polygon",
                "coordinates": [
                    [
                        [
                            -111.9717464,
                            33.06721217
                        ],
                        [
                            -111.97174632,
                            33.06724825
                        ],
                        [
                            -111.97168089,
                            33.06724876
                        ],
                        [
                            -111.97168101,
                            33.06721268
                        ],
                        [
                            -111.9717464,
                            33.06721217
                        ]
                    ]
                ]
            },
            "properties": {
                "ha_label": "p302",
                "HA_AREA": 24.42449,
                "HARM": "Hand",
                "HADAT": "10/08/2002",
                "WBWAH": 4605.7,
                "GNDAT": "10/31/2002",
                "FFRAC": 0.3761,
                "SFRAC": 0.5947,
                "TFRAC": 0.0291,
                "WFWAH": 1732.4,
                "WSWAH": 2739.1,
                "WSCWAH": 4471.5,
                "QLDAT": "11/08/2002",
                "FBMIC": 54.0,
                "FBLTH": 1.12,
                "FBUNI": 83.0,
                "FBSTR": 32.1,
                "FBCRD": 83.0,
                "FBCGR": "21-1",
                "FBTAR": 0.2
            },
            "_id": "68c1c94c8ac54761106dfbea",
            "haid": "68c1c94c8ac54761106dfbea"
        },
        {
            "type": "Feature",
            "geometry": {
                "type": "Polygon",
                "coordinates": [
                    [
                        [
                            -111.97161612,
                            33.06721039
                        ],
                        [
                            -111.97161619,
                            33.06724647
                        ],
                        [
                            -111.97155075,
                            33.06724698
                        ],
                        [
                            -111.97155077,
                            33.0672109
                        ],
                        [
                            -111.97161612,
                            33.06721039
                        ]
                    ]
                ]
            },
            "properties": {
                "ha_label": "p303",
                "HA_AREA": 24.417231,
                "HARM": "Hand",
                "HADAT": "10/10/2002",
                "WBWAH": 3884.1,
                "GNDAT": "10/31/2002",
                "FFRAC": 0.364,
                "SFRAC": 0.6232,
                "TFRAC": 0.0128,
                "WFWAH": 1413.7,
                "WSWAH": 2420.5,
                "WSCWAH": 3834.2,
                "QLDAT": "11/08/2002",
                "FBMIC": 52.0,
                "FBLTH": 1.13,
                "FBUNI": 83.0,
                "FBSTR": 30.7,
                "FBCRD": 83.0,
                "FBCGR": "11-1",
                "FBTAR": 0.1
            },
            "_id": "68c1c94c8ac54761106dfbeb",
            "haid": "68c1c94c8ac54761106dfbeb"
        },
        {
            "type": "Feature",
            "geometry": {
                "type": "Polygon",
                "coordinates": [
                    [
                        [
                            -111.97142102,
                            33.06721102
                        ],
                        [
                            -111.97148656,
                            33.06721051
                        ],
                        [
                            -111.9714865,
                            33.06724659
                        ],
                        [
                            -111.97142101,
                            33.0672471
                        ],
                        [
                            -111.97142102,
                            33.06721102
                        ]
                    ]
                ]
            },
            "properties": {
                "ha_label": "p304",
                "HA_AREA": 24.465774,
                "HARM": "Hand",
                "HADAT": "10/10/2002",
                "WBWAH": 4625.7,
                "GNDAT": "10/31/2002",
                "FFRAC": 0.371,
                "SFRAC": 0.5988,
                "TFRAC": 0.0302,
                "WFWAH": 1716.2,
                "WSWAH": 2769.7,
                "WSCWAH": 4486.0,
                "QLDAT": "11/08/2002",
                "FBMIC": 54.0,
                "FBLTH": 1.12,
                "FBUNI": 80.0,
                "FBSTR": 30.5,
                "FBCRD": 83.0,
                "FBCGR": "11-2",
                "FBTAR": 0.1
            },
            "_id": "68c1c94c8ac54761106dfbec",
            "haid": "68c1c94c8ac54761106dfbec"
        },
        {
            "type": "Feature",
            "geometry": {
                "type": "Polygon",
                "coordinates": [
                    [
                        [
                            -111.97135584,
                            33.06720976
                        ],
                        [
                            -111.97135581,
                            33.06724583
                        ],
                        [
                            -111.97129037,
                            33.06724634
                        ],
                        [
                            -111.97129041,
                            33.06721027
                        ],
                        [
                            -111.97135584,
                            33.06720976
                        ]
                    ]
                ]
            },
            "properties": {
                "ha_label": "p305",
                "HA_AREA": 24.435206,
                "HARM": "Hand",
                "HADAT": "10/11/2002",
                "WBWAH": 3769.4,
                "GNDAT": "10/31/2002",
                "FFRAC": 0.3512,
                "SFRAC": 0.6153,
                "TFRAC": 0.0335,
                "WFWAH": 1323.8,
                "WSWAH": 2319.3,
                "WSCWAH": 3643.1,
                "QLDAT": "11/08/2002",
                "FBMIC": 44.0,
                "FBLTH": 1.11,
                "FBUNI": 81.0,
                "FBSTR": 29.8,
                "FBCRD": 82.0,
                "FBCGR": "11-2",
                "FBTAR": 0.2
            },
            "_id": "68c1c94c8ac54761106dfbed",
            "haid": "68c1c94c8ac54761106dfbed"
        },
        {
            "type": "Feature",
            "geometry": {
                "type": "Polygon",
                "coordinates": [
                    [
                        [
                            -111.97116059,
                            33.06720931
                        ],
                        [
                            -111.97122605,
                            33.0672088
                        ],
                        [
                            -111.97122601,
                            33.06724488
                        ],
                        [
                            -111.97116055,
                            33.06724539
                        ],
                        [
                            -111.97116059,
                            33.06720931
                        ]
                    ]
                ]
            },
            "properties": {
                "ha_label": "p306",
                "HA_AREA": 24.4448,
                "HARM": "Hand",
                "HADAT": "10/11/2002",
                "WBWAH": 4495.4,
                "GNDAT": "10/31/2002",
                "FFRAC": 0.3768,
                "SFRAC": 0.5906,
                "TFRAC": 0.0326,
                "WFWAH": 1693.9,
                "WSWAH": 2655.0,
                "WSCWAH": 4348.9,
                "QLDAT": "11/08/2002",
                "FBMIC": 54.0,
                "FBLTH": 1.12,
                "FBUNI": 80.0,
                "FBSTR": 28.5,
                "FBCRD": 82.0,
                "FBCGR": "21-1",
                "FBTAR": 0.1
            },
            "_id": "68c1c94c8ac54761106dfbee",
            "haid": "68c1c94c8ac54761106dfbee"
        },
        {
            "type": "Feature",
            "geometry": {
                "type": "Polygon",
                "coordinates": [
                    [
                        [
                            -111.97109568,
                            33.06720799
                        ],
                        [
                            -111.97109568,
                            33.06724407
                        ],
                        [
                            -111.97103042,
                            33.06724458
                        ],
                        [
                            -111.97103045,
                            33.0672085
                        ],
                        [
                            -111.97109568,
                            33.06720799
                        ]
                    ]
                ]
            },
            "properties": {
                "ha_label": "p307",
                "HA_AREA": 24.364987,
                "HARM": "Hand",
                "HADAT": "10/11/2002",
                "WBWAH": 3780.3,
                "GNDAT": "10/31/2002",
                "FFRAC": 0.3553,
                "SFRAC": 0.6111,
                "TFRAC": 0.0336,
                "WFWAH": 1343.3,
                "WSWAH": 2310.2,
                "WSCWAH": 3653.5,
                "QLDAT": "11/08/2002",
                "FBMIC": 54.0,
                "FBLTH": 1.06,
                "FBUNI": 80.0,
                "FBSTR": 28.9,
                "FBCRD": 82.0,
                "FBCGR": "11-1",
                "FBTAR": 0.1
            },
            "_id": "68c1c94c8ac54761106dfbef",
            "haid": "68c1c94c8ac54761106dfbef"
        },
        {
            "type": "Feature",
            "geometry": {
                "type": "Polygon",
                "coordinates": [
                    [
                        [
                            -111.97090081,
                            33.06720768
                        ],
                        [
                            -111.970966,
                            33.06720717
                        ],
                        [
                            -111.97096593,
                            33.06724325
                        ],
                        [
                            -111.97090074,
                            33.06724376
                        ],
                        [
                            -111.97090081,
                            33.06720768
                        ]
                    ]
                ]
            },
            "properties": {
                "ha_label": "p308",
                "HA_AREA": 24.342083,
                "HARM": "Hand",
                "HADAT": "10/11/2002",
                "WBWAH": 3718.8,
                "GNDAT": "10/31/2002",
                "FFRAC": 0.3515,
                "SFRAC": 0.6031,
                "TFRAC": 0.0453,
                "WFWAH": 1307.3,
                "WSWAH": 2242.9,
                "WSCWAH": 3550.2,
                "QLDAT": "11/08/2002",
                "FBMIC": 52.0,
                "FBLTH": 1.1,
                "FBUNI": 80.0,
                "FBSTR": 30.9,
                "FBCRD": 83.0,
                "FBCGR": "11-1",
                "FBTAR": 0.1
            },
            "_id": "68c1c94c8ac54761106dfbf0",
            "haid": "68c1c94c8ac54761106dfbf0"
        },
        {
            "type": "Feature",
            "geometry": {
                "type": "Polygon",
                "coordinates": [
                    [
                        [
                            -111.97187748,
                            33.06701089
                        ],
                        [
                            -111.97187739,
                            33.06704697
                        ],
                        [
                            -111.9718122,
                            33.06704748
                        ],
                        [
                            -111.97181233,
                            33.0670114
                        ],
                        [
                            -111.97187748,
                            33.06701089
                        ]
                    ]
                ]
            },
            "properties": {
                "ha_label": "p401",
                "HA_AREA": 24.33556,
                "HARM": "Hand",
                "HADAT": "10/10/2002",
                "WBWAH": 3248.9,
                "GNDAT": "10/31/2002",
                "FFRAC": 0.3368,
                "SFRAC": 0.6236,
                "TFRAC": 0.0396,
                "WFWAH": 1094.1,
                "WSWAH": 2026.2,
                "WSCWAH": 3120.2,
                "QLDAT": "11/08/2002",
                "FBMIC": 51.0,
                "FBLTH": 1.05,
                "FBUNI": 79.0,
                "FBSTR": 29.4,
                "FBCRD": 82.0,
                "FBCGR": "11-1",
                "FBTAR": 0.2
            },
            "_id": "68c1c94c8ac54761106dfbf1",
            "haid": "68c1c94c8ac54761106dfbf1"
        },
        {
            "type": "Feature",
            "geometry": {
                "type": "Polygon",
                "coordinates": [
                    [
                        [
                            -111.9716814,
                            33.06701062
                        ],
                        [
                            -111.97174674,
                            33.06701011
                        ],
                        [
                            -111.9717467,
                            33.06704619
                        ],
                        [
                            -111.97168139,
                            33.0670467
                        ],
                        [
                            -111.9716814,
                            33.06701062
                        ]
                    ]
                ]
            },
            "properties": {
                "ha_label": "p402",
                "HA_AREA": 24.391731,
                "HARM": "Hand",
                "HADAT": "10/10/2002",
                "WBWAH": 4072.2,
                "GNDAT": "10/31/2002",
                "FFRAC": 0.3528,
                "SFRAC": 0.6141,
                "TFRAC": 0.0331,
                "WFWAH": 1436.7,
                "WSWAH": 2500.8,
                "WSCWAH": 3937.5,
                "QLDAT": "11/08/2002",
                "FBMIC": 51.0,
                "FBLTH": 1.1,
                "FBUNI": 81.0,
                "FBSTR": 30.0,
                "FBCRD": 83.0,
                "FBCGR": "11-1",
                "FBTAR": 0.1
            },
            "_id": "68c1c94c8ac54761106dfbf2",
            "haid": "68c1c94c8ac54761106dfbf2"
        },
        {
            "type": "Feature",
            "geometry": {
                "type": "Polygon",
                "coordinates": [
                    [
                        [
                            -111.97161614,
                            33.0670095
                        ],
                        [
                            -111.97161612,
                            33.06704558
                        ],
                        [
                            -111.97155101,
                            33.06704609
                        ],
                        [
                            -111.97155105,
                            33.06701001
                        ],
                        [
                            -111.97161614,
                            33.0670095
                        ]
                    ]
                ]
            },
            "properties": {
                "ha_label": "p403",
                "HA_AREA": 24.30912,
                "HARM": "Hand",
                "HADAT": "10/10/2002",
                "WBWAH": 4151.2,
                "GNDAT": "10/31/2002",
                "FFRAC": 0.3767,
                "SFRAC": 0.5909,
                "TFRAC": 0.0325,
                "WFWAH": 1563.6,
                "WSWAH": 2452.8,
                "WSCWAH": 4016.4,
                "QLDAT": "11/08/2002",
                "FBMIC": 55.0,
                "FBLTH": 1.1,
                "FBUNI": 81.0,
                "FBSTR": 30.1,
                "FBCRD": 83.0,
                "FBCGR": "11-1",
                "FBTAR": 0.1
            },
            "_id": "68c1c94c8ac54761106dfbf3",
            "haid": "68c1c94c8ac54761106dfbf3"
        },
        {
            "type": "Feature",
            "geometry": {
                "type": "Polygon",
                "coordinates": [
                    [
                        [
                            -111.97142155,
                            33.06700904
                        ],
                        [
                            -111.97148697,
                            33.06700854
                        ],
                        [
                            -111.97148688,
                            33.06704461
                        ],
                        [
                            -111.97142147,
                            33.06704512
                        ],
                        [
                            -111.97142155,
                            33.06700904
                        ]
                    ]
                ]
            },
            "properties": {
                "ha_label": "p404",
                "HA_AREA": 24.427164,
                "HARM": "Hand",
                "HADAT": "10/10/2002",
                "WBWAH": 4160.5,
                "GNDAT": "10/31/2002",
                "FFRAC": 0.3544,
                "SFRAC": 0.6193,
                "TFRAC": 0.0263,
                "WFWAH": 1474.6,
                "WSWAH": 2576.6,
                "WSCWAH": 4051.2,
                "QLDAT": "11/08/2002",
                "FBMIC": 50.0,
                "FBLTH": 1.12,
                "FBUNI": 81.0,
                "FBSTR": 30.9,
                "FBCRD": 82.0,
                "FBCGR": "21-1",
                "FBTAR": 0.2
            },
            "_id": "68c1c94c8ac54761106dfbf4",
            "haid": "68c1c94c8ac54761106dfbf4"
        },
        {
            "type": "Feature",
            "geometry": {
                "type": "Polygon",
                "coordinates": [
                    [
                        [
                            -111.97135613,
                            33.0670079
                        ],
                        [
                            -111.97135613,
                            33.06704398
                        ],
                        [
                            -111.97129085,
                            33.06704449
                        ],
                        [
                            -111.97129089,
                            33.06700841
                        ],
                        [
                            -111.97135613,
                            33.0670079
                        ]
                    ]
                ]
            },
            "properties": {
                "ha_label": "p405",
                "HA_AREA": 24.369456,
                "HARM": "Hand",
                "HADAT": "10/10/2002",
                "WBWAH": 3884.3,
                "GNDAT": "10/31/2002",
                "FFRAC": 0.3776,
                "SFRAC": 0.5908,
                "TFRAC": 0.0316,
                "WFWAH": 1466.6,
                "WSWAH": 2294.8,
                "WSCWAH": 3761.5,
                "QLDAT": "11/08/2002",
                "FBMIC": 57.0,
                "FBLTH": 1.11,
                "FBUNI": 82.0,
                "FBSTR": 28.8,
                "FBCRD": 83.0,
                "FBCGR": "11-1",
                "FBTAR": 0.1
            },
            "_id": "68c1c94c8ac54761106dfbf5",
            "haid": "68c1c94c8ac54761106dfbf5"
        },
        {
            "type": "Feature",
            "geometry": {
                "type": "Polygon",
                "coordinates": [
                    [
                        [
                            -111.97116099,
                            33.06700749
                        ],
                        [
                            -111.97122659,
                            33.06700698
                        ],
                        [
                            -111.97122649,
                            33.06704306
                        ],
                        [
                            -111.97116091,
                            33.06704357
                        ],
                        [
                            -111.97116099,
                            33.06700749
                        ]
                    ]
                ]
            },
            "properties": {
                "ha_label": "p406",
                "HA_AREA": 24.49272,
                "HARM": "Hand",
                "HADAT": "10/10/2002",
                "WBWAH": 4141.7,
                "GNDAT": "10/31/2002",
                "FFRAC": 0.3537,
                "SFRAC": 0.6061,
                "TFRAC": 0.0402,
                "WFWAH": 1465.0,
                "WSWAH": 2510.3,
                "WSCWAH": 3975.3,
                "QLDAT": "11/08/2002",
                "FBMIC": 52.0,
                "FBLTH": 1.11,
                "FBUNI": 81.0,
                "FBSTR": 31.5,
                "FBCRD": 83.0,
                "FBCGR": "11-1",
                "FBTAR": 0.1
            },
            "_id": "68c1c94c8ac54761106dfbf6",
            "haid": "68c1c94c8ac54761106dfbf6"
        },
        {
            "type": "Feature",
            "geometry": {
                "type": "Polygon",
                "coordinates": [
                    [
                        [
                            -111.97109574,
                            33.06700639
                        ],
                        [
                            -111.97109573,
                            33.06704246
                        ],
                        [
                            -111.97103064,
                            33.06704297
                        ],
                        [
                            -111.97103066,
                            33.06700689
                        ],
                        [
                            -111.97109574,
                            33.06700639
                        ]
                    ]
                ]
            },
            "properties": {
                "ha_label": "p407",
                "HA_AREA": 24.304632,
                "HARM": "Hand",
                "HADAT": "10/10/2002",
                "WBWAH": 3997.3,
                "GNDAT": "10/31/2002",
                "FFRAC": 0.3388,
                "SFRAC": 0.6143,
                "TFRAC": 0.0469,
                "WFWAH": 1354.3,
                "WSWAH": 2455.6,
                "WSCWAH": 3809.9,
                "QLDAT": "11/08/2002",
                "FBMIC": 50.0,
                "FBLTH": 1.1,
                "FBUNI": 81.0,
                "FBSTR": 31.4,
                "FBCRD": 83.0,
                "FBCGR": "11-1",
                "FBTAR": 0.1
            },
            "_id": "68c1c94c8ac54761106dfbf7",
            "haid": "68c1c94c8ac54761106dfbf7"
        },
        {
            "type": "Feature",
            "geometry": {
                "type": "Polygon",
                "coordinates": [
                    [
                        [
                            -111.97090111,
                            33.06700583
                        ],
                        [
                            -111.97096618,
                            33.06700533
                        ],
                        [
                            -111.97096611,
                            33.0670414
                        ],
                        [
                            -111.97090105,
                            33.06704191
                        ],
                        [
                            -111.97090111,
                            33.06700583
                        ]
                    ]
                ]
            },
            "properties": {
                "ha_label": "p408",
                "HA_AREA": 24.298146,
                "HARM": "Hand",
                "HADAT": "10/10/2002",
                "WBWAH": 3365.4,
                "GNDAT": "10/31/2002",
                "FFRAC": 0.3577,
                "SFRAC": 0.6008,
                "TFRAC": 0.0416,
                "WFWAH": 1203.6,
                "WSWAH": 2021.8,
                "WSCWAH": 3225.4,
                "QLDAT": "11/08/2002",
                "FBMIC": 54.0,
                "FBLTH": 1.08,
                "FBUNI": 81.0,
                "FBSTR": 29.7,
                "FBCRD": 83.0,
                "FBCGR": "11-1",
                "FBTAR": 0.2
            },
            "_id": "68c1c94c8ac54761106dfbf8",
            "haid": "68c1c94c8ac54761106dfbf8"
        },
        {
            "type": "Feature",
            "geometry": {
                "type": "Polygon",
                "coordinates": [
                    [
                        [
                            -111.97168083,
                            33.06740452
                        ],
                        [
                            -111.97174616,
                            33.06740401
                        ],
                        [
                            -111.97174614,
                            33.06742205
                        ],
                        [
                            -111.97168085,
                            33.06742256
                        ],
                        [
                            -111.97168083,
                            33.06740452
                        ]
                    ]
                ]
            },
            "properties": {
                "ha_label": "p902",
                "HA_AREA": 12.193374,
                "HARM": "Hand",
                "HADAT": "10/15/2002",
                "WBWAH": 2008.9,
                "GNDAT": "10/31/2002",
                "FFRAC": 0.3336,
                "SFRAC": 0.6288,
                "TFRAC": 0.0375,
                "WFWAH": 670.3,
                "WSWAH": 1263.3,
                "WSCWAH": 1933.6,
                "QLDAT": "11/08/2002",
                "FBMIC": 43.0,
                "FBLTH": 1.07,
                "FBUNI": 80.0,
                "FBSTR": 31.5,
                "FBCRD": 81.0,
                "FBCGR": "11-1",
                "FBTAR": 0.1
            },
            "_id": "68c1c94c8ac54761106dfbf9",
            "haid": "68c1c94c8ac54761106dfbf9"
        },
        {
            "type": "Feature",
            "geometry": {
                "type": "Polygon",
                "coordinates": [
                    [
                        [
                            -111.97148613,
                            33.06740254
                        ],
                        [
                            -111.97148611,
                            33.06742058
                        ],
                        [
                            -111.97142073,
                            33.06742108
                        ],
                        [
                            -111.97142078,
                            33.06740305
                        ],
                        [
                            -111.97148613,
                            33.06740254
                        ]
                    ]
                ]
            },
            "properties": {
                "ha_label": "p904",
                "HA_AREA": 12.204002,
                "HARM": "Hand",
                "HADAT": "10/15/2002",
                "WBWAH": 520.3,
                "GNDAT": "10/31/2002",
                "FFRAC": 0.3234,
                "SFRAC": 0.572,
                "TFRAC": 0.1047,
                "WFWAH": 168.2,
                "WSWAH": 297.6,
                "WSCWAH": 465.8,
                "QLDAT": "11/08/2002",
                "FBMIC": 50.0,
                "FBLTH": 1.04,
                "FBUNI": 79.0,
                "FBSTR": 28.5,
                "FBCRD": 80.0,
                "FBCGR": "11-3",
                "FBTAR": 0.1
            },
            "_id": "68c1c94c8ac54761106dfbfa",
            "haid": "68c1c94c8ac54761106dfbfa"
        },
        {
            "type": "Feature",
            "geometry": {
                "type": "Polygon",
                "coordinates": [
                    [
                        [
                            -111.97122565,
                            33.06740105
                        ],
                        [
                            -111.97122564,
                            33.06741909
                        ],
                        [
                            -111.9711602,
                            33.0674196
                        ],
                        [
                            -111.97116025,
                            33.06740156
                        ],
                        [
                            -111.97122565,
                            33.06740105
                        ]
                    ]
                ]
            },
            "properties": {
                "ha_label": "p906",
                "HA_AREA": 12.214217,
                "HARM": "Hand",
                "HADAT": "10/15/2002",
                "WBWAH": 2343.9,
                "GNDAT": "10/31/2002",
                "FFRAC": 0.3352,
                "SFRAC": 0.6238,
                "TFRAC": 0.041,
                "WFWAH": 785.7,
                "WSWAH": 1462.1,
                "WSCWAH": 2247.8,
                "QLDAT": "11/08/2002",
                "FBMIC": 41.0,
                "FBLTH": 1.11,
                "FBUNI": 81.0,
                "FBSTR": 29.9,
                "FBCRD": 82.0,
                "FBCGR": "11-1",
                "FBTAR": 0.1
            },
            "_id": "68c1c94c8ac54761106dfbfb",
            "haid": "68c1c94c8ac54761106dfbfb"
        },
        {
            "type": "Feature",
            "geometry": {
                "type": "Polygon",
                "coordinates": [
                    [
                        [
                            -111.97090053,
                            33.06740002
                        ],
                        [
                            -111.97096564,
                            33.06739951
                        ],
                        [
                            -111.97096568,
                            33.06741755
                        ],
                        [
                            -111.97090069,
                            33.06741805
                        ],
                        [
                            -111.97090053,
                            33.06740002
                        ]
                    ]
                ]
            },
            "properties": {
                "ha_label": "p908",
                "HA_AREA": 12.145754,
                "HARM": "Hand",
                "HADAT": "10/15/2002",
                "WBWAH": 630.3,
                "GNDAT": "10/31/2002",
                "FFRAC": 0.3104,
                "SFRAC": 0.5793,
                "TFRAC": 0.1103,
                "WFWAH": 195.7,
                "WSWAH": 365.1,
                "WSCWAH": 560.8,
                "QLDAT": "11/08/2002",
                "FBMIC": 48.0,
                "FBLTH": 1.06,
                "FBUNI": 80.0,
                "FBSTR": 29.8,
                "FBCRD": 79.0,
                "FBCGR": "11-4",
                "FBTAR": 0.1
            },
            "_id": "68c1c94c8ac54761106dfbfc",
            "haid": "68c1c94c8ac54761106dfbfc"
        }
    ]
}