{
    "type": "FeatureCollection",
    "features": [
        {
            "type": "Feature",
            "geometry": {
                "type": "Point",
                "coordinates": [
                    33.06774462,
                    -111.97184827
                ]
            },
            "properties": {
                "sa_label": "p101",
                "SOIL_DATE": "2008",
                "SLSND": {
                    "15": 77.2,
                    "45": 77.2,
                    "75": 80.53,
                    "105": 74.47,
                    "135": 68.27,
                    "165": 78.87
                },
                "SLSLT": {
                    "15": 5.13,
                    "45": 3.47,
                    "75": 4.07,
                    "105": 6.8,
                    "135": 9.07,
                    "165": 5.13
                },
                "SLCLY": {
                    "15": 17.67,
                    "45": 19.33,
                    "75": 15.4,
                    "105": 18.73,
                    "135": 22.67,
                    "165": 16.0
                },
                "SLTX": {
                    "15": "Sandy Loam",
                    "45": "Sandy Loam",
                    "75": "Sandy Loam",
                    "105": "Sandy Loam",
                    "135": "Sandy Clay Loam",
                    "165": "Sandy Loam"
                },
                "SLWP1": {
                    "15": 0.119,
                    "45": 0.097,
                    "75": 0.074,
                    "105": 0.088,
                    "135": 0.139,
                    "165": 0.138
                },
                "SLWP2": {
                    "15": 0.133,
                    "45": 0.107,
                    "75": 0.085,
                    "105": 0.101,
                    "135": 0.162,
                    "165": 0.15
                },
                "SLFC1": {
                    "15": 0.199,
                    "45": 0.168,
                    "75": 0.143,
                    "105": 0.197,
                    "135": 0.251,
                    "165": 0.243
                }
            },
            "_id": "691ce9088ac547214ffd9c4f",
            "said": "691ce9088ac547214ffd9c4f"
        },
        {
            "type": "Feature",
            "geometry": {
                "type": "Point",
                "coordinates": [
                    33.06774569,
                    -111.97171543
                ]
            },
            "properties": {
                "sa_label": "p102",
                "SOIL_DATE": "2008",
                "SLSND": {
                    "15": 72.33,
                    "45": 76.27,
                    "75": 79.47,
                    "105": 77.8,
                    "135": 79.47,
                    "165": 76.13
                },
                "SLSLT": {
                    "15": 9.53,
                    "45": 8.93,
                    "75": 8.47,
                    "105": 6.8,
                    "135": 5.13,
                    "165": 7.87
                },
                "SLCLY": {
                    "15": 18.13,
                    "45": 14.8,
                    "75": 12.07,
                    "105": 15.4,
                    "135": 15.4,
                    "165": 16.0
                },
                "SLTX": {
                    "15": "Sandy Loam",
                    "45": "Sandy Loam",
                    "75": "Sandy Loam",
                    "105": "Sandy Loam",
                    "135": "Sandy Loam",
                    "165": "Sandy Loam"
                },
                "SLWP1": {
                    "15": 0.113,
                    "45": 0.101,
                    "75": 0.099,
                    "105": 0.121,
                    "135": 0.135,
                    "165": 0.134
                },
                "SLWP2": {
                    "15": 0.123,
                    "45": 0.105,
                    "75": 0.126,
                    "105": 0.131,
                    "135": 0.14,
                    "165": 0.146
                },
                "SLFC1": {
                    "15": 0.211,
                    "45": 0.2,
                    "75": 0.18,
                    "105": 0.228,
                    "135": 0.266,
                    "165": 0.261
                }
            },
            "_id": "691ce9088ac547214ffd9c50",
            "said": "691ce9088ac547214ffd9c50"
        },
        {
            "type": "Feature",
            "geometry": {
                "type": "Point",
                "coordinates": [
                    33.067745,
                    -111.97158355
                ]
            },
            "properties": {
                "sa_label": "p103",
                "SOIL_DATE": "2008",
                "SLSND": {
                    "15": 72.8,
                    "45": 66.13,
                    "75": 57.33,
                    "105": 63.4,
                    "135": 82.8,
                    "165": 72.8
                },
                "SLSLT": {
                    "15": 8.6,
                    "45": 9.07,
                    "75": 14.53,
                    "105": 11.8,
                    "135": 5.73,
                    "165": 10.73
                },
                "SLCLY": {
                    "15": 18.6,
                    "45": 24.8,
                    "75": 28.13,
                    "105": 24.8,
                    "135": 11.47,
                    "165": 16.47
                },
                "SLTX": {
                    "15": "Sandy Clay Loam",
                    "45": "Sandy Clay Loam",
                    "75": "Sandy Clay Loam",
                    "105": "Sandy Clay Loam",
                    "135": "Loamy Sand",
                    "165": "Sandy Loam"
                },
                "SLWP1": {
                    "15": 0.099,
                    "45": 0.149,
                    "75": 0.148,
                    "105": 0.114,
                    "135": 0.081,
                    "165": 0.113
                },
                "SLWP2": {
                    "15": 0.136,
                    "45": 0.193,
                    "75": 0.236,
                    "105": 0.171,
                    "135": 0.11,
                    "165": 0.169
                },
                "SLFC1": {
                    "15": 0.214,
                    "45": 0.302,
                    "75": 0.36,
                    "105": 0.288,
                    "135": 0.183,
                    "165": 0.218
                }
            },
            "_id": "691ce9088ac547214ffd9c51",
            "said": "691ce9088ac547214ffd9c51"
        },
        {
            "type": "Feature",
            "geometry": {
                "type": "Point",
                "coordinates": [
                    33.06774537,
                    -111.97145513
                ]
            },
            "properties": {
                "sa_label": "p104",
                "SOIL_DATE": "2008",
                "SLSND": {
                    "15": 69.47,
                    "45": 76.13,
                    "75": 69.47,
                    "105": 70.53,
                    "135": 76.13,
                    "165": 76.73
                },
                "SLSLT": {
                    "15": 10.73,
                    "45": 5.73,
                    "75": 10.73,
                    "105": 8.0,
                    "135": 6.33,
                    "165": 5.73
                },
                "SLCLY": {
                    "15": 19.8,
                    "45": 18.13,
                    "75": 19.8,
                    "105": 21.47,
                    "135": 17.53,
                    "165": 17.53
                },
                "SLTX": {
                    "15": "Sandy Clay Loam",
                    "45": "Sandy Loam",
                    "75": "Sandy Clay Loam",
                    "105": "Sandy Clay Loam",
                    "135": "Sandy Loam",
                    "165": "Sandy Loam"
                },
                "SLWP1": {
                    "15": 0.104,
                    "45": 0.085,
                    "75": 0.102,
                    "105": 0.096,
                    "135": 0.083,
                    "165": 0.101
                },
                "SLWP2": {
                    "15": 0.104,
                    "45": 0.125,
                    "75": 0.161,
                    "105": 0.146,
                    "135": 0.126,
                    "165": 0.175
                },
                "SLFC1": {
                    "15": 0.226,
                    "45": 0.205,
                    "75": 0.249,
                    "105": 0.247,
                    "135": 0.274,
                    "165": 0.286
                }
            },
            "_id": "691ce9088ac547214ffd9c52",
            "said": "691ce9088ac547214ffd9c52"
        },
        {
            "type": "Feature",
            "geometry": {
                "type": "Point",
                "coordinates": [
                    33.06774558,
                    -111.9713259
                ]
            },
            "properties": {
                "sa_label": "p105",
                "SOIL_DATE": "2008",
                "SLSND": {
                    "15": 74.6,
                    "45": 67.33,
                    "75": 54.0,
                    "105": 60.67,
                    "135": 76.73,
                    "165": 79.47
                },
                "SLSLT": {
                    "15": 8.93,
                    "45": 8.93,
                    "75": 17.87,
                    "105": 14.53,
                    "135": 6.8,
                    "165": 5.13
                },
                "SLCLY": {
                    "15": 16.47,
                    "45": 23.73,
                    "75": 28.13,
                    "105": 24.8,
                    "135": 16.47,
                    "165": 15.4
                },
                "SLTX": {
                    "15": "Sandy Loam",
                    "45": "Sandy Clay Loam",
                    "75": "Sandy Clay Loam",
                    "105": "Sandy Clay Loam",
                    "135": "Sandy Loam",
                    "165": "Sandy Loam"
                },
                "SLWP1": {
                    "15": 0.136,
                    "45": 0.201,
                    "75": 0.198,
                    "105": 0.183,
                    "135": 0.129,
                    "165": 0.167
                },
                "SLWP2": {
                    "15": 0.143,
                    "45": 0.206,
                    "75": 0.185,
                    "105": 0.186,
                    "135": 0.154,
                    "165": 0.167
                },
                "SLFC1": {
                    "15": 0.225,
                    "45": 0.305,
                    "75": 0.319,
                    "105": 0.294,
                    "135": 0.248,
                    "165": 0.303
                }
            },
            "_id": "691ce9088ac547214ffd9c53",
            "said": "691ce9088ac547214ffd9c53"
        },
        {
            "type": "Feature",
            "geometry": {
                "type": "Point",
                "coordinates": [
                    33.06774492,
                    -111.97119481
                ]
            },
            "properties": {
                "sa_label": "p106",
                "SOIL_DATE": "2008",
                "SLSND": {
                    "15": 70.67,
                    "45": 66.27,
                    "75": 54.0,
                    "105": 56.73,
                    "135": 67.93,
                    "165": 77.93
                },
                "SLSLT": {
                    "15": 10.03,
                    "45": 13.47,
                    "75": 15.73,
                    "105": 19.67,
                    "135": 17.27,
                    "165": 3.93
                },
                "SLCLY": {
                    "15": 19.31,
                    "45": 20.27,
                    "75": 30.27,
                    "105": 23.6,
                    "135": 14.8,
                    "165": 18.13
                },
                "SLTX": {
                    "15": "Sandy Loam",
                    "45": "Sandy Clay Loam",
                    "75": "Sandy Clay Loam",
                    "105": "Sandy Clay Loam",
                    "135": "Sandy Loam",
                    "165": "Sandy Loam"
                },
                "SLWP1": {
                    "15": 0.085,
                    "45": 0.172,
                    "75": 0.217,
                    "105": 0.165,
                    "135": 0.138,
                    "165": 0.147
                },
                "SLWP2": {
                    "15": 0.133,
                    "45": 0.175,
                    "75": 0.214,
                    "105": 0.167,
                    "135": 0.146,
                    "165": 0.159
                },
                "SLFC1": {
                    "15": 0.242,
                    "45": 0.3,
                    "75": 0.359,
                    "105": 0.305,
                    "135": 0.264,
                    "165": 0.299
                }
            },
            "_id": "691ce9088ac547214ffd9c54",
            "said": "691ce9088ac547214ffd9c54"
        },
        {
            "type": "Feature",
            "geometry": {
                "type": "Point",
                "coordinates": [
                    33.06774588,
                    -111.97106602
                ]
            },
            "properties": {
                "sa_label": "p107",
                "SOIL_DATE": "2008",
                "SLSND": {
                    "15": 75.93,
                    "45": 78.67,
                    "75": 77.6,
                    "105": 75.2,
                    "135": 70.67,
                    "165": 73.4
                },
                "SLSLT": {
                    "15": 6.67,
                    "45": 5.6,
                    "75": 6.67,
                    "105": 9.07,
                    "135": 9.07,
                    "165": 8.0
                },
                "SLCLY": {
                    "15": 17.4,
                    "45": 15.73,
                    "75": 15.73,
                    "105": 15.73,
                    "135": 20.27,
                    "165": 18.6
                },
                "SLTX": {
                    "15": "Sandy Loam",
                    "45": "Sandy Loam",
                    "75": "Sandy Loam",
                    "105": "Sandy Loam",
                    "135": "Sandy Clay Loam",
                    "165": "Sandy Loam"
                },
                "SLWP1": {
                    "15": 0.123,
                    "45": 0.123,
                    "75": 0.131,
                    "105": 0.142,
                    "135": 0.184,
                    "165": 0.21
                },
                "SLWP2": {
                    "15": 0.145,
                    "45": 0.143,
                    "75": 0.151,
                    "105": 0.148,
                    "135": 0.184,
                    "165": 0.198
                },
                "SLFC1": {
                    "15": 0.213,
                    "45": 0.208,
                    "75": 0.264,
                    "105": 0.251,
                    "135": 0.288,
                    "165": 0.349
                }
            },
            "_id": "691ce9088ac547214ffd9c55",
            "said": "691ce9088ac547214ffd9c55"
        },
        {
            "type": "Feature",
            "geometry": {
                "type": "Point",
                "coordinates": [
                    33.0677461,
                    -111.97093575
                ]
            },
            "properties": {
                "sa_label": "p108",
                "SOIL_DATE": "2008",
                "SLSND": {
                    "15": 67.33,
                    "45": 67.33,
                    "75": 57.33,
                    "105": 70.67,
                    "135": 77.6,
                    "165": 80.93
                },
                "SLSLT": {
                    "15": 15.73,
                    "45": 10.73,
                    "75": 12.4,
                    "105": 9.07,
                    "135": 3.33,
                    "165": 3.33
                },
                "SLCLY": {
                    "15": 16.93,
                    "45": 21.93,
                    "75": 30.27,
                    "105": 20.27,
                    "135": 19.07,
                    "165": 15.73
                },
                "SLTX": {
                    "15": "Sandy Loam",
                    "45": "Sandy Clay Loam",
                    "75": "Sandy Clay Loam",
                    "105": "Sandy Clay Loam",
                    "135": "Sandy Clay Loam",
                    "165": "Sandy Loam"
                },
                "SLWP1": {
                    "15": 0.132,
                    "45": 0.198,
                    "75": 0.194,
                    "105": 0.186,
                    "135": 0.185,
                    "165": 0.135
                },
                "SLWP2": {
                    "15": 0.188,
                    "45": 0.18,
                    "75": 0.134,
                    "105": 0.227,
                    "135": 0.185,
                    "165": 0.135
                },
                "SLFC1": {
                    "15": 0.229,
                    "45": 0.291,
                    "75": 0.328,
                    "105": 0.263,
                    "135": 0.278,
                    "165": 0.216
                }
            },
            "_id": "691ce9088ac547214ffd9c56",
            "said": "691ce9088ac547214ffd9c56"
        },
        {
            "type": "Feature",
            "geometry": {
                "type": "Point",
                "coordinates": [
                    33.06754774,
                    -111.9718465
                ]
            },
            "properties": {
                "sa_label": "p201",
                "SOIL_DATE": "2008",
                "SLSND": {
                    "15": 71.27,
                    "45": 60.67,
                    "75": 51.87,
                    "105": 64.0,
                    "135": 72.8,
                    "165": 76.13
                },
                "SLSLT": {
                    "15": 11.8,
                    "45": 15.73,
                    "75": 21.8,
                    "105": 12.4,
                    "135": 10.27,
                    "165": 8.6
                },
                "SLCLY": {
                    "15": 16.93,
                    "45": 23.6,
                    "75": 26.33,
                    "105": 23.6,
                    "135": 16.93,
                    "165": 15.27
                },
                "SLTX": {
                    "15": "Sandy Loam",
                    "45": "Sandy Clay Loam",
                    "75": "Sandy Clay Loam",
                    "105": "Sandy Clay Loam",
                    "135": "Sandy Loam",
                    "165": "Sandy Loam"
                },
                "SLWP1": {
                    "15": 0.117,
                    "45": 0.185,
                    "75": 0.182,
                    "105": 0.128,
                    "135": 0.121,
                    "165": 0.153
                },
                "SLWP2": {
                    "15": 0.148,
                    "45": 0.235,
                    "75": 0.199,
                    "105": 0.144,
                    "135": 0.155,
                    "165": 0.178
                },
                "SLFC1": {
                    "15": 0.148,
                    "45": 0.122,
                    "75": 0.316,
                    "105": 0.217,
                    "135": 0.167,
                    "165": 0.25
                }
            },
            "_id": "691ce9088ac547214ffd9c57",
            "said": "691ce9088ac547214ffd9c57"
        },
        {
            "type": "Feature",
            "geometry": {
                "type": "Point",
                "coordinates": [
                    33.06754729,
                    -111.97171606
                ]
            },
            "properties": {
                "sa_label": "p202",
                "SOIL_DATE": "2008",
                "SLSND": {
                    "15": 70.67,
                    "45": 76.73,
                    "75": 72.8,
                    "105": 72.8,
                    "135": 70.67,
                    "165": 77.93
                },
                "SLSLT": {
                    "15": 12.4,
                    "45": 9.07,
                    "75": 15.73,
                    "105": 12.4,
                    "135": 13.0,
                    "165": 9.07
                },
                "SLCLY": {
                    "15": 16.93,
                    "45": 14.2,
                    "75": 11.47,
                    "105": 14.8,
                    "135": 16.33,
                    "165": 13.0
                },
                "SLTX": {
                    "15": "Sandy Loam",
                    "45": "Sandy Loam",
                    "75": "Sandy Loam",
                    "105": "Sandy Loam",
                    "135": "Sandy Loam",
                    "165": "Sandy Loam"
                },
                "SLWP1": {
                    "15": 0.201,
                    "45": 0.12,
                    "75": 0.106,
                    "105": 0.144,
                    "135": 0.189,
                    "165": 0.156
                },
                "SLWP2": {
                    "15": 0.151,
                    "45": 0.115,
                    "75": 0.272,
                    "105": 0.137,
                    "135": 0.218,
                    "165": 0.159
                },
                "SLFC1": {
                    "15": 0.197,
                    "45": 0.172,
                    "75": 0.149,
                    "105": 0.207,
                    "135": 0.236,
                    "165": 0.206
                }
            },
            "_id": "691ce9088ac547214ffd9c58",
            "said": "691ce9088ac547214ffd9c58"
        },
        {
            "type": "Feature",
            "geometry": {
                "type": "Point",
                "coordinates": [
                    33.06754709,
                    -111.97158344
                ]
            },
            "properties": {
                "sa_label": "p203",
                "SOIL_DATE": "2008",
                "SLSND": {
                    "15": 75.8,
                    "45": 75.8,
                    "75": 70.07,
                    "105": 60.67,
                    "135": 72.8,
                    "165": 69.47
                },
                "SLSLT": {
                    "15": 7.27,
                    "45": 8.93,
                    "75": 13.0,
                    "105": 15.73,
                    "135": 9.07,
                    "165": 9.07
                },
                "SLCLY": {
                    "15": 16.93,
                    "45": 15.27,
                    "75": 16.93,
                    "105": 23.6,
                    "135": 18.13,
                    "165": 21.47
                },
                "SLTX": {
                    "15": "Sandy Loam",
                    "45": "Sandy Loam",
                    "75": "Sandy Loam",
                    "105": "Sandy Clay Loam",
                    "135": "Sandy Loam",
                    "165": "Sandy Clay Loam"
                },
                "SLWP1": {
                    "15": 0.098,
                    "45": 0.11,
                    "75": 0.145,
                    "105": 0.165,
                    "135": 0.115,
                    "165": 0.167
                },
                "SLWP2": {
                    "15": 0.149,
                    "45": 0.152,
                    "75": 0.176,
                    "105": 0.178,
                    "135": 0.159,
                    "165": 0.183
                },
                "SLFC1": {
                    "15": 0.181,
                    "45": 0.189,
                    "75": 0.248,
                    "105": 0.295,
                    "135": 0.257,
                    "165": 0.27
                }
            },
            "_id": "691ce9088ac547214ffd9c59",
            "said": "691ce9088ac547214ffd9c59"
        },
        {
            "type": "Feature",
            "geometry": {
                "type": "Point",
                "coordinates": [
                    33.06754702,
                    -111.97145598
                ]
            },
            "properties": {
                "sa_label": "p204",
                "SOIL_DATE": "2008",
                "SLSND": {
                    "15": 77.33,
                    "45": 78.53,
                    "75": 68.53,
                    "105": 70.67,
                    "135": 75.8,
                    "165": 79.73
                },
                "SLSLT": {
                    "15": 5.73,
                    "45": 4.53,
                    "75": 7.27,
                    "105": 7.87,
                    "135": 10.6,
                    "165": 6.67
                },
                "SLCLY": {
                    "15": 16.93,
                    "45": 16.93,
                    "75": 24.2,
                    "105": 21.47,
                    "135": 13.6,
                    "165": 13.6
                },
                "SLTX": {
                    "15": "Sandy Loam",
                    "45": "Sandy Loam",
                    "75": "Sandy Clay Loam",
                    "105": "Sandy Clay Loam",
                    "135": "Sandy Loam",
                    "165": "Sandy Loam"
                },
                "SLWP1": {
                    "15": 0.106,
                    "45": 0.131,
                    "75": 0.152,
                    "105": 0.143,
                    "135": 0.125,
                    "165": 0.134
                },
                "SLWP2": {
                    "15": 0.137,
                    "45": 0.145,
                    "75": 0.196,
                    "105": 0.193,
                    "135": 0.153,
                    "165": 0.17
                },
                "SLFC1": {
                    "15": 0.217,
                    "45": 0.227,
                    "75": 0.304,
                    "105": 0.295,
                    "135": 0.259,
                    "165": 0.229
                }
            },
            "_id": "691ce9088ac547214ffd9c5a",
            "said": "691ce9088ac547214ffd9c5a"
        },
        {
            "type": "Feature",
            "geometry": {
                "type": "Point",
                "coordinates": [
                    33.06754782,
                    -111.97132501
                ]
            },
            "properties": {
                "sa_label": "p205",
                "SOIL_DATE": "2008",
                "SLSND": {
                    "15": 74.0,
                    "45": 63.4,
                    "75": 60.67,
                    "105": 73.4,
                    "135": 76.13,
                    "165": 79.47
                },
                "SLSLT": {
                    "15": 7.87,
                    "45": 8.47,
                    "75": 12.4,
                    "105": 9.07,
                    "135": 9.07,
                    "165": 5.73
                },
                "SLCLY": {
                    "15": 18.13,
                    "45": 28.13,
                    "75": 26.93,
                    "105": 17.53,
                    "135": 14.8,
                    "165": 14.8
                },
                "SLTX": {
                    "15": "Sandy Loam",
                    "45": "Sandy Clay Loam",
                    "75": "Sandy Clay Loam",
                    "105": "Sandy Loam",
                    "135": "Sandy Loam",
                    "165": "Sandy Loam"
                },
                "SLWP1": {
                    "15": 0.212,
                    "45": 0.213,
                    "75": 0.195,
                    "105": 0.127,
                    "135": 0.106,
                    "165": 0.135
                },
                "SLWP2": {
                    "15": 0.153,
                    "45": 0.231,
                    "75": 0.229,
                    "105": 0.147,
                    "135": 0.13,
                    "165": 0.154
                },
                "SLFC1": {
                    "15": 0.27,
                    "45": 0.365,
                    "75": 0.35,
                    "105": 0.245,
                    "135": 0.19,
                    "165": 0.232
                }
            },
            "_id": "691ce9088ac547214ffd9c5b",
            "said": "691ce9088ac547214ffd9c5b"
        },
        {
            "type": "Feature",
            "geometry": {
                "type": "Point",
                "coordinates": [
                    33.06754755,
                    -111.9711953
                ]
            },
            "properties": {
                "sa_label": "p206",
                "SOIL_DATE": "2008",
                "SLSND": {
                    "15": 68.53,
                    "45": 71.87,
                    "75": 67.93,
                    "105": 71.87,
                    "135": 64.0,
                    "165": 74.0
                },
                "SLSLT": {
                    "15": 14.53,
                    "45": 11.2,
                    "75": 11.2,
                    "105": 14.53,
                    "135": 22.4,
                    "165": 8.47
                },
                "SLCLY": {
                    "15": 16.93,
                    "45": 16.93,
                    "75": 20.87,
                    "105": 13.6,
                    "135": 13.6,
                    "165": 17.53
                },
                "SLTX": {
                    "15": "Sandy Loam",
                    "45": "Sandy Loam",
                    "75": "Sandy Clay Loam",
                    "105": "Sandy Loam",
                    "135": "Sandy Loam",
                    "165": "Sandy Loam"
                },
                "SLWP1": {
                    "15": 0.136,
                    "45": 0.151,
                    "75": 0.172,
                    "105": 0.153,
                    "135": 0.144,
                    "165": 0.199
                },
                "SLWP2": {
                    "15": 0.125,
                    "45": 0.166,
                    "75": 0.173,
                    "105": 0.149,
                    "135": 0.145,
                    "165": 0.197
                },
                "SLFC1": {
                    "15": 0.226,
                    "45": 0.241,
                    "75": 0.232,
                    "105": 0.252,
                    "135": 0.242,
                    "165": 0.295
                }
            },
            "_id": "691ce9088ac547214ffd9c5c",
            "said": "691ce9088ac547214ffd9c5c"
        },
        {
            "type": "Feature",
            "geometry": {
                "type": "Point",
                "coordinates": [
                    33.06754757,
                    -111.97106386
                ]
            },
            "properties": {
                "sa_label": "p207",
                "SOIL_DATE": "2008",
                "SLSND": {
                    "15": 70.67,
                    "45": 66.73,
                    "75": 57.33,
                    "105": 64.0,
                    "135": 73.4,
                    "165": 76.13
                },
                "SLSLT": {
                    "15": 11.8,
                    "45": 11.8,
                    "75": 18.47,
                    "105": 15.73,
                    "135": 10.73,
                    "165": 9.07
                },
                "SLCLY": {
                    "15": 17.53,
                    "45": 21.47,
                    "75": 24.2,
                    "105": 20.27,
                    "135": 15.87,
                    "165": 14.8
                },
                "SLTX": {
                    "15": "Sandy Loam",
                    "45": "Sandy Clay Loam",
                    "75": "Sandy Clay Loam",
                    "105": "Sandy Clay Loam",
                    "135": "Sandy Loam",
                    "165": "Sandy Loam"
                },
                "SLWP1": {
                    "15": 0.145,
                    "45": 0.183,
                    "75": 0.234,
                    "105": 0.161,
                    "135": 0.155,
                    "165": 0.159
                },
                "SLWP2": {
                    "15": 0.147,
                    "45": 0.172,
                    "75": 0.21,
                    "105": 0.153,
                    "135": 0.138,
                    "165": 0.128
                },
                "SLFC1": {
                    "15": 0.221,
                    "45": 0.332,
                    "75": 0.312,
                    "105": 0.255,
                    "135": 0.203,
                    "165": 0.214
                }
            },
            "_id": "691ce9088ac547214ffd9c5d",
            "said": "691ce9088ac547214ffd9c5d"
        },
        {
            "type": "Feature",
            "geometry": {
                "type": "Point",
                "coordinates": [
                    33.06754737,
                    -111.97093611
                ]
            },
            "properties": {
                "sa_label": "p208",
                "SOIL_DATE": "2008",
                "SLSND": {
                    "15": 65.8,
                    "45": 69.13,
                    "75": 61.87,
                    "105": 69.13,
                    "135": 70.67,
                    "165": 74.6
                },
                "SLSLT": {
                    "15": 17.27,
                    "45": 13.33,
                    "75": 13.93,
                    "105": 11.67,
                    "135": 15.73,
                    "165": 7.87
                },
                "SLCLY": {
                    "15": 16.93,
                    "45": 17.53,
                    "75": 24.2,
                    "105": 19.2,
                    "135": 13.6,
                    "165": 17.53
                },
                "SLTX": {
                    "15": "Sandy Loam",
                    "45": "Sandy Loam",
                    "75": "Sandy Clay Loam",
                    "105": "Sandy Loam",
                    "135": "Sandy Loam",
                    "165": "Sandy Loam"
                },
                "SLWP1": {
                    "15": 0.13,
                    "45": 0.159,
                    "75": 0.229,
                    "105": 0.172,
                    "135": 0.169,
                    "165": 0.154
                },
                "SLWP2": {
                    "15": 0.126,
                    "45": 0.132,
                    "75": 0.194,
                    "105": 0.143,
                    "135": 0.134,
                    "165": 0.13
                },
                "SLFC1": {
                    "15": 0.193,
                    "45": 0.205,
                    "75": 0.317,
                    "105": 0.243,
                    "135": 0.235,
                    "165": 0.234
                }
            },
            "_id": "691ce9088ac547214ffd9c5e",
            "said": "691ce9088ac547214ffd9c5e"
        },
        {
            "type": "Feature",
            "geometry": {
                "type": "Point",
                "coordinates": [
                    33.06727339,
                    -111.97184534
                ]
            },
            "properties": {
                "sa_label": "p301",
                "SOIL_DATE": "2008",
                "SLSND": {
                    "15": 72.8,
                    "45": 52.8,
                    "75": 48.87,
                    "105": 76.13,
                    "135": 78.27,
                    "165": 74.93
                },
                "SLSLT": {
                    "15": 5.73,
                    "45": 15.73,
                    "75": 16.33,
                    "105": 9.07,
                    "135": 8.6,
                    "165": 8.0
                },
                "SLCLY": {
                    "15": 21.47,
                    "45": 31.47,
                    "75": 34.8,
                    "105": 14.8,
                    "135": 13.13,
                    "165": 17.07
                },
                "SLTX": {
                    "15": "Sandy Clay Loam",
                    "45": "Sandy Clay Loam",
                    "75": "Sandy Clay Loam",
                    "105": "Sandy Loam",
                    "135": "Sandy Loam",
                    "165": "Sandy Loam"
                },
                "SLWP1": {
                    "15": 0.115,
                    "45": 0.176,
                    "75": 0.16,
                    "105": 0.086,
                    "135": 0.09,
                    "165": 0.123
                },
                "SLWP2": {
                    "15": 0.196,
                    "45": 0.255,
                    "75": 0.269,
                    "105": 0.123,
                    "135": 0.095,
                    "165": 0.206
                },
                "SLFC1": {
                    "15": 0.19,
                    "45": 0.282,
                    "75": 0.302,
                    "105": 0.194,
                    "135": 0.184,
                    "165": 0.207
                }
            },
            "_id": "691ce9088ac547214ffd9c5f",
            "said": "691ce9088ac547214ffd9c5f"
        },
        {
            "type": "Feature",
            "geometry": {
                "type": "Point",
                "coordinates": [
                    33.06727321,
                    -111.97171583
                ]
            },
            "properties": {
                "sa_label": "p302",
                "SOIL_DATE": "2008",
                "SLSND": {
                    "15": 67.8,
                    "45": 49.47,
                    "75": 51.6,
                    "105": 54.93,
                    "135": 74.47,
                    "165": 66.13
                },
                "SLSLT": {
                    "15": 10.73,
                    "45": 15.73,
                    "75": 15.27,
                    "105": 16.93,
                    "135": 7.4,
                    "165": 9.67
                },
                "SLCLY": {
                    "15": 21.47,
                    "45": 34.8,
                    "75": 33.13,
                    "105": 28.13,
                    "135": 18.13,
                    "165": 24.2
                },
                "SLTX": {
                    "15": "Sandy Clay Loam",
                    "45": "Sandy Clay Loam",
                    "75": "Sandy Clay Loam",
                    "105": "Sandy Clay Loam",
                    "135": "Sandy Loam",
                    "165": "Sandy Clay Loam"
                },
                "SLWP1": {
                    "15": 0.122,
                    "45": 0.186,
                    "75": 0.169,
                    "105": 0.136,
                    "135": 0.114,
                    "165": 0.186
                },
                "SLWP2": {
                    "15": 0.176,
                    "45": 0.269,
                    "75": 0.256,
                    "105": 0.212,
                    "135": 0.153,
                    "165": 0.285
                },
                "SLFC1": {
                    "15": 0.204,
                    "45": 0.305,
                    "75": 0.303,
                    "105": 0.26,
                    "135": 0.194,
                    "165": 0.369
                }
            },
            "_id": "691ce9088ac547214ffd9c60",
            "said": "691ce9088ac547214ffd9c60"
        },
        {
            "type": "Feature",
            "geometry": {
                "type": "Point",
                "coordinates": [
                    33.06727351,
                    -111.97158737
                ]
            },
            "properties": {
                "sa_label": "p303",
                "SOIL_DATE": "2008",
                "SLSND": {
                    "15": 70.8,
                    "45": 59.13,
                    "75": 53.4,
                    "105": 66.73,
                    "135": 72.8,
                    "165": 69.47
                },
                "SLSLT": {
                    "15": 8.33,
                    "45": 10.0,
                    "75": 21.8,
                    "105": 9.07,
                    "135": 5.73,
                    "165": 9.07
                },
                "SLCLY": {
                    "15": 20.87,
                    "45": 30.87,
                    "75": 24.8,
                    "105": 24.2,
                    "135": 21.47,
                    "165": 21.47
                },
                "SLTX": {
                    "15": "Sandy Clay Loam",
                    "45": "Sandy Clay Loam",
                    "75": "Sandy Clay Loam",
                    "105": "Sandy Clay Loam",
                    "135": "Sandy Clay Loam",
                    "165": "Sandy Clay Loam"
                },
                "SLWP1": {
                    "15": 0.126,
                    "45": 0.174,
                    "75": 0.174,
                    "105": 0.121,
                    "135": 0.11,
                    "165": 0.138
                },
                "SLWP2": {
                    "15": 0.173,
                    "45": 0.236,
                    "75": 0.25,
                    "105": 0.171,
                    "135": 0.166,
                    "165": 0.272
                },
                "SLFC1": {
                    "15": 0.187,
                    "45": 0.25,
                    "75": 0.267,
                    "105": 0.32,
                    "135": 0.198,
                    "165": 0.208
                }
            },
            "_id": "691ce9088ac547214ffd9c61",
            "said": "691ce9088ac547214ffd9c61"
        },
        {
            "type": "Feature",
            "geometry": {
                "type": "Point",
                "coordinates": [
                    33.06727353,
                    -111.97145521
                ]
            },
            "properties": {
                "sa_label": "p304",
                "SOIL_DATE": "2008",
                "SLSND": {
                    "15": 63.4,
                    "45": 60.67,
                    "75": 65.53,
                    "105": 65.53,
                    "135": 75.8,
                    "165": 65.8
                },
                "SLSLT": {
                    "15": 11.2,
                    "45": 14.53,
                    "75": 12.4,
                    "105": 12.4,
                    "135": 6.67,
                    "165": 10.0
                },
                "SLCLY": {
                    "15": 25.4,
                    "45": 24.8,
                    "75": 22.07,
                    "105": 22.07,
                    "135": 17.53,
                    "165": 24.2
                },
                "SLTX": {
                    "15": "Sandy Clay Loam",
                    "45": "Sandy Clay Loam",
                    "75": "Sandy Clay Loam",
                    "105": "Sandy Clay Loam",
                    "135": "Sandy Loam",
                    "165": "Sandy Clay Loam"
                },
                "SLWP1": {
                    "15": 0.14,
                    "45": 0.124,
                    "75": 0.126,
                    "105": 0.127,
                    "135": 0.088,
                    "165": 0.168
                },
                "SLWP2": {
                    "15": 0.161,
                    "45": 0.21,
                    "75": 0.281,
                    "105": 0.26,
                    "135": 0.199,
                    "165": 0.199
                },
                "SLFC1": {
                    "15": 0.229,
                    "45": 0.269,
                    "75": 0.185,
                    "105": 0.215,
                    "135": 0.165,
                    "165": 0.263
                }
            },
            "_id": "691ce9088ac547214ffd9c62",
            "said": "691ce9088ac547214ffd9c62"
        },
        {
            "type": "Feature",
            "geometry": {
                "type": "Point",
                "coordinates": [
                    33.06727363,
                    -111.97132417
                ]
            },
            "properties": {
                "sa_label": "p305",
                "SOIL_DATE": "2008",
                "SLSND": {
                    "15": 77.33,
                    "45": 66.13,
                    "75": 58.27,
                    "105": 61.6,
                    "135": 64.93,
                    "165": 62.67
                },
                "SLSLT": {
                    "15": 7.87,
                    "45": 12.4,
                    "75": 16.93,
                    "105": 16.93,
                    "135": 11.33,
                    "165": 11.33
                },
                "SLCLY": {
                    "15": 14.8,
                    "45": 21.47,
                    "75": 24.8,
                    "105": 21.47,
                    "135": 23.73,
                    "165": 26.0
                },
                "SLTX": {
                    "15": "Sandy Loam",
                    "45": "Sandy Clay Loam",
                    "75": "Sandy Clay Loam",
                    "105": "Sandy Clay Loam",
                    "135": "Sandy Clay Loam",
                    "165": "Sandy Clay Loam"
                },
                "SLWP1": {
                    "15": 0.13,
                    "45": 0.15,
                    "75": 0.158,
                    "105": 0.141,
                    "135": 0.15,
                    "165": 0.231
                },
                "SLWP2": {
                    "15": 0.18,
                    "45": 0.219,
                    "75": 0.238,
                    "105": 0.213,
                    "135": 0.225,
                    "165": 0.292
                },
                "SLFC1": {
                    "15": 0.204,
                    "45": 0.274,
                    "75": 0.274,
                    "105": 0.262,
                    "135": 0.269,
                    "165": 0.352
                }
            },
            "_id": "691ce9088ac547214ffd9c63",
            "said": "691ce9088ac547214ffd9c63"
        },
        {
            "type": "Feature",
            "geometry": {
                "type": "Point",
                "coordinates": [
                    33.06727439,
                    -111.97119637
                ]
            },
            "properties": {
                "sa_label": "p306",
                "SOIL_DATE": "2008",
                "SLSND": {
                    "15": 60.53,
                    "45": 49.47,
                    "75": 61.6,
                    "105": 64.93,
                    "135": 61.6,
                    "165": 57.67
                },
                "SLSLT": {
                    "15": 11.33,
                    "45": 15.73,
                    "75": 13.6,
                    "105": 10.27,
                    "135": 16.93,
                    "165": 18.13
                },
                "SLCLY": {
                    "15": 28.13,
                    "45": 34.8,
                    "75": 24.8,
                    "105": 24.8,
                    "135": 21.47,
                    "165": 24.2
                },
                "SLTX": {
                    "15": "Sandy Clay Loam",
                    "45": "Sandy Clay Loam",
                    "75": "Sandy Clay Loam",
                    "105": "Sandy Clay Loam",
                    "135": "Sandy Clay Loam",
                    "165": "Sandy Clay Loam"
                },
                "SLWP1": {
                    "15": 0.13,
                    "45": 0.204,
                    "75": 0.164,
                    "105": 0.124,
                    "135": 0.109,
                    "165": 0.176
                },
                "SLWP2": {
                    "15": 0.205,
                    "45": 0.268,
                    "75": 0.192,
                    "105": 0.213,
                    "135": 0.179,
                    "165": 0.248
                },
                "SLFC1": {
                    "15": 0.254,
                    "45": 0.323,
                    "75": 0.298,
                    "105": 0.245,
                    "135": 0.217,
                    "165": 0.287
                }
            },
            "_id": "691ce9088ac547214ffd9c64",
            "said": "691ce9088ac547214ffd9c64"
        },
        {
            "type": "Feature",
            "geometry": {
                "type": "Point",
                "coordinates": [
                    33.06727393,
                    -111.97106673
                ]
            },
            "properties": {
                "sa_label": "p307",
                "SOIL_DATE": "2008",
                "SLSND": {
                    "15": 72.8,
                    "45": 62.8,
                    "75": 59.47,
                    "105": 69.47,
                    "135": 78.87,
                    "165": 72.2
                },
                "SLSLT": {
                    "15": 9.07,
                    "45": 12.4,
                    "75": 9.07,
                    "105": 7.4,
                    "135": 6.33,
                    "165": 8.0
                },
                "SLCLY": {
                    "15": 18.13,
                    "45": 24.8,
                    "75": 31.47,
                    "105": 23.13,
                    "135": 14.8,
                    "165": 19.8
                },
                "SLTX": {
                    "15": "Sandy Loam",
                    "45": "Sandy Clay Loam",
                    "75": "Sandy Clay Loam",
                    "105": "Sandy Clay Loam",
                    "135": "Sandy Loam",
                    "165": "Sandy Loam "
                },
                "SLWP1": {
                    "15": 0.125,
                    "45": 0.16,
                    "75": 0.167,
                    "105": 0.137,
                    "135": 0.098,
                    "165": 0.117
                },
                "SLWP2": {
                    "15": 0.143,
                    "45": 0.222,
                    "75": 0.212,
                    "105": 0.163,
                    "135": 0.145,
                    "165": 0.156
                },
                "SLFC1": {
                    "15": 0.204,
                    "45": 0.273,
                    "75": 0.295,
                    "105": 0.212,
                    "135": 0.207,
                    "165": 0.217
                }
            },
            "_id": "691ce9088ac547214ffd9c65",
            "said": "691ce9088ac547214ffd9c65"
        },
        {
            "type": "Feature",
            "geometry": {
                "type": "Point",
                "coordinates": [
                    33.06727466,
                    -111.97093471
                ]
            },
            "properties": {
                "sa_label": "p308",
                "SOIL_DATE": "2008",
                "SLSND": {
                    "15": 68.87,
                    "45": 78.87,
                    "75": 74.93,
                    "105": 74.93,
                    "135": 66.13,
                    "165": 60.07
                },
                "SLSLT": {
                    "15": 13.0,
                    "45": 6.33,
                    "75": 10.27,
                    "105": 10.27,
                    "135": 11.93,
                    "165": 13.47
                },
                "SLCLY": {
                    "15": 18.13,
                    "45": 14.8,
                    "75": 14.8,
                    "105": 14.8,
                    "135": 21.93,
                    "165": 26.47
                },
                "SLTX": {
                    "15": "Sandy Loam",
                    "45": "Sandy Loam",
                    "75": "Sandy Loam",
                    "105": "Sandy Loam",
                    "135": "Sandy Clay Loam",
                    "165": "Sandy Clay Loam"
                },
                "SLWP1": {
                    "15": 0.137,
                    "45": 0.093,
                    "75": 0.098,
                    "105": 0.102,
                    "135": 0.182,
                    "165": 0.189
                },
                "SLWP2": {
                    "15": 0.125,
                    "45": 0.113,
                    "75": 0.119,
                    "105": 0.141,
                    "135": 0.252,
                    "165": 0.255
                },
                "SLFC1": {
                    "15": 0.185,
                    "45": 0.144,
                    "75": 0.153,
                    "105": 0.189,
                    "135": 0.308,
                    "165": 0.334
                }
            },
            "_id": "691ce9088ac547214ffd9c66",
            "said": "691ce9088ac547214ffd9c66"
        },
        {
            "type": "Feature",
            "geometry": {
                "type": "Point",
                "coordinates": [
                    33.06707431,
                    -111.97184538
                ]
            },
            "properties": {
                "sa_label": "p401",
                "SOIL_DATE": "2008",
                "SLSND": {
                    "15": 57.8,
                    "45": 59.47,
                    "75": 49.47,
                    "105": 67.33,
                    "135": 76.13,
                    "165": 62.8
                },
                "SLSLT": {
                    "15": 9.67,
                    "45": 5.73,
                    "75": 19.67,
                    "105": 11.8,
                    "135": 6.33,
                    "165": 11.93
                },
                "SLCLY": {
                    "15": 32.53,
                    "45": 34.8,
                    "75": 30.87,
                    "105": 20.87,
                    "135": 17.53,
                    "165": 25.27
                },
                "SLTX": {
                    "15": "Sandy Clay Loam",
                    "45": "Sandy Clay Loam",
                    "75": "Sandy Clay Loam",
                    "105": "Sandy Clay Loam",
                    "135": "Sandy Loam",
                    "165": "Sandy Clay Loam"
                },
                "SLWP1": {
                    "15": 0.11,
                    "45": 0.142,
                    "75": 0.174,
                    "105": 0.103,
                    "135": 0.093,
                    "165": 0.17
                },
                "SLWP2": {
                    "15": 0.149,
                    "45": 0.154,
                    "75": 0.204,
                    "105": 0.142,
                    "135": 0.127,
                    "165": 0.254
                },
                "SLFC1": {
                    "15": 0.179,
                    "45": 0.205,
                    "75": 0.255,
                    "105": 0.188,
                    "135": 0.158,
                    "165": 0.274
                }
            },
            "_id": "691ce9088ac547214ffd9c67",
            "said": "691ce9088ac547214ffd9c67"
        },
        {
            "type": "Feature",
            "geometry": {
                "type": "Point",
                "coordinates": [
                    33.06707471,
                    -111.97171559
                ]
            },
            "properties": {
                "sa_label": "p402",
                "SOIL_DATE": "2008",
                "SLSND": {
                    "15": 62.8,
                    "45": 52.8,
                    "75": 58.87,
                    "105": 72.8,
                    "135": 61.87,
                    "165": 51.27
                },
                "SLSLT": {
                    "15": 12.4,
                    "45": 12.4,
                    "75": 9.07,
                    "105": 9.07,
                    "135": 11.2,
                    "165": 15.13
                },
                "SLCLY": {
                    "15": 24.8,
                    "45": 34.8,
                    "75": 32.07,
                    "105": 18.13,
                    "135": 26.93,
                    "165": 33.6
                },
                "SLTX": {
                    "15": "Sandy Clay Loam",
                    "45": "Sandy Clay Loam",
                    "75": "Sandy Clay Loam",
                    "105": "Sandy Loam",
                    "135": "Sandy Clay Loam",
                    "165": "Sandy Clay Loam"
                },
                "SLWP1": {
                    "15": 0.143,
                    "45": 0.219,
                    "75": 0.148,
                    "105": 0.127,
                    "135": 0.146,
                    "165": 0.2
                },
                "SLWP2": {
                    "45": 0.215,
                    "75": 0.2,
                    "105": 0.112,
                    "135": 0.125,
                    "165": 0.217
                },
                "SLFC1": {
                    "15": 0.198,
                    "45": 0.264,
                    "75": 0.255,
                    "105": 0.13,
                    "135": 0.125,
                    "165": 0.251
                }
            },
            "_id": "691ce9088ac547214ffd9c68",
            "said": "691ce9088ac547214ffd9c68"
        },
        {
            "type": "Feature",
            "geometry": {
                "type": "Point",
                "coordinates": [
                    33.06707466,
                    -111.97158627
                ]
            },
            "properties": {
                "sa_label": "p403",
                "SOIL_DATE": "2008",
                "SLSND": {
                    "15": 55.87,
                    "45": 70.87,
                    "75": 57.07,
                    "105": 70.4,
                    "135": 75.87,
                    "165": 69.2
                },
                "SLSLT": {
                    "15": 14.2,
                    "45": 9.2,
                    "75": 16.93,
                    "105": 13.6,
                    "135": 11.47,
                    "165": 11.47
                },
                "SLCLY": {
                    "15": 29.93,
                    "45": 19.93,
                    "75": 26.0,
                    "105": 16.0,
                    "135": 12.67,
                    "165": 19.33
                },
                "SLTX": {
                    "15": "Sandy Clay Loam",
                    "45": "Sandy Loam",
                    "75": "Sandy Clay Loam",
                    "105": "Sandy Loam",
                    "135": "Sandy Loam",
                    "165": "Sandy Loam"
                },
                "SLWP1": {
                    "15": 0.169,
                    "45": 0.12,
                    "75": 0.188,
                    "105": 0.13,
                    "135": 0.254,
                    "165": 0.153
                },
                "SLWP2": {
                    "15": 0.235,
                    "45": 0.155,
                    "75": 0.214,
                    "105": 0.228,
                    "135": 0.314,
                    "165": 0.208
                },
                "SLFC1": {
                    "15": 0.229,
                    "45": 0.182,
                    "75": 0.247,
                    "105": 0.138,
                    "135": 0.151,
                    "165": 0.229
                }
            },
            "_id": "691ce9088ac547214ffd9c69",
            "said": "691ce9088ac547214ffd9c69"
        },
        {
            "type": "Feature",
            "geometry": {
                "type": "Point",
                "coordinates": [
                    33.06707485,
                    -111.97145606
                ]
            },
            "properties": {
                "sa_label": "p404",
                "SOIL_DATE": "2008",
                "SLSND": {
                    "15": 54.93,
                    "45": 61.6,
                    "75": 74.33,
                    "105": 64.33,
                    "135": 81.6,
                    "165": 73.73
                },
                "SLSLT": {
                    "15": 12.4,
                    "45": 13.0,
                    "75": 6.93,
                    "105": 9.67,
                    "135": 5.73,
                    "165": 10.27
                },
                "SLCLY": {
                    "15": 32.67,
                    "45": 25.4,
                    "75": 18.73,
                    "105": 26.0,
                    "135": 12.67,
                    "165": 16.0
                },
                "SLTX": {
                    "15": "Sandy Clay Loam",
                    "45": "Sandy Clay Loam",
                    "75": "Sandy Loam",
                    "105": "Sandy Clay Loam",
                    "135": "Sandy Loam",
                    "165": "Sandy Loam"
                },
                "SLWP1": {
                    "15": 0.203,
                    "45": 0.159,
                    "75": 0.12,
                    "105": 0.165,
                    "135": 0.12,
                    "165": 0.173
                },
                "SLWP2": {
                    "75": 0.187,
                    "105": 0.212,
                    "135": 0.166,
                    "165": 0.222
                },
                "SLFC1": {
                    "15": 0.273,
                    "45": 0.241,
                    "75": 0.182,
                    "105": 0.234,
                    "135": 0.173,
                    "165": 0.236
                }
            },
            "_id": "691ce9088ac547214ffd9c6a",
            "said": "691ce9088ac547214ffd9c6a"
        },
        {
            "type": "Feature",
            "geometry": {
                "type": "Point",
                "coordinates": [
                    33.06707501,
                    -111.97132337
                ]
            },
            "properties": {
                "sa_label": "p405",
                "SOIL_DATE": "2008",
                "SLSND": {
                    "15": 71.93,
                    "45": 50.27,
                    "75": 51.93,
                    "105": 55.27,
                    "135": 74.67,
                    "165": 68.0
                },
                "SLSLT": {
                    "15": 6.93,
                    "45": 11.93,
                    "75": 14.2,
                    "105": 15.87,
                    "135": 7.53,
                    "165": 10.87
                },
                "SLCLY": {
                    "15": 21.13,
                    "45": 37.8,
                    "75": 33.87,
                    "105": 28.87,
                    "135": 17.8,
                    "165": 21.13
                },
                "SLTX": {
                    "15": "Sandy Clay Loam",
                    "45": "Sandy Clay",
                    "75": "Sandy Clay Loam",
                    "105": "Sandy Clay Loam",
                    "135": "Sandy Loam",
                    "165": "Sandy Clay Loam"
                },
                "SLWP1": {
                    "15": 0.122,
                    "45": 0.188,
                    "75": 0.216,
                    "105": 0.164,
                    "135": 0.126,
                    "165": 0.171
                },
                "SLWP2": {
                    "15": 0.152,
                    "45": 0.233,
                    "75": 0.224,
                    "105": 0.185,
                    "135": 0.146,
                    "165": 0.218
                },
                "SLFC1": {
                    "15": 0.249,
                    "45": 0.344,
                    "75": 0.296,
                    "105": 0.284,
                    "135": 0.237,
                    "165": 0.276
                }
            },
            "_id": "691ce9088ac547214ffd9c6b",
            "said": "691ce9088ac547214ffd9c6b"
        },
        {
            "type": "Feature",
            "geometry": {
                "type": "Point",
                "coordinates": [
                    33.06707542,
                    -111.97119359
                ]
            },
            "properties": {
                "sa_label": "p406",
                "SOIL_DATE": "2008",
                "SLSND": {
                    "15": 67.07,
                    "45": 44.33,
                    "75": 51.0,
                    "105": 53.73,
                    "135": 72.53,
                    "165": 75.87
                },
                "SLSLT": {
                    "15": 12.4,
                    "45": 19.07,
                    "75": 15.13,
                    "105": 15.73,
                    "135": 8.6,
                    "165": 6.93
                },
                "SLCLY": {
                    "15": 20.53,
                    "45": 36.6,
                    "75": 33.87,
                    "105": 30.53,
                    "135": 18.87,
                    "165": 17.2
                },
                "SLTX": {
                    "15": "Sandy Clay Loam",
                    "45": "Sandy Clay Loam",
                    "75": "Sandy Clay Loam",
                    "105": "Sandy Clay Loam",
                    "135": "Sandy Loam",
                    "165": "Sandy Loam"
                },
                "SLWP1": {
                    "15": 0.114,
                    "45": 0.177,
                    "75": 0.189,
                    "105": 0.149,
                    "135": 0.101,
                    "165": 0.109
                },
                "SLWP2": {
                    "15": 0.144,
                    "45": 0.244,
                    "75": 0.232,
                    "105": 0.32,
                    "135": 0.13,
                    "165": 0.133
                },
                "SLFC1": {
                    "15": 0.291,
                    "45": 0.34,
                    "75": 0.309,
                    "105": 0.252,
                    "135": 0.204,
                    "165": 0.402
                }
            },
            "_id": "691ce9088ac547214ffd9c6c",
            "said": "691ce9088ac547214ffd9c6c"
        },
        {
            "type": "Feature",
            "geometry": {
                "type": "Point",
                "coordinates": [
                    33.06707568,
                    -111.97106234
                ]
            },
            "properties": {
                "sa_label": "p407",
                "SOIL_DATE": "2008",
                "SLSND": {
                    "15": 71.6,
                    "45": 58.27,
                    "75": 59.47,
                    "105": 52.2,
                    "135": 68.27,
                    "165": 64.93
                },
                "SLSLT": {
                    "15": 10.27,
                    "45": 13.0,
                    "75": 12.4,
                    "105": 16.33,
                    "135": 9.67,
                    "165": 10.73
                },
                "SLCLY": {
                    "15": 18.13,
                    "45": 28.73,
                    "75": 28.13,
                    "105": 31.47,
                    "135": 22.07,
                    "165": 24.33
                },
                "SLTX": {
                    "15": "Sandy Loam",
                    "45": "Sandy Clay Loam",
                    "75": "Sandy Clay Loam",
                    "105": "Sandy Clay Loam",
                    "135": "Sandy Clay Loam",
                    "165": "Sandy Clay Loam "
                },
                "SLWP1": {
                    "15": 0.124,
                    "45": 0.171,
                    "75": 0.167,
                    "105": 0.147,
                    "135": 0.113,
                    "165": 0.148
                },
                "SLWP2": {
                    "15": 0.133,
                    "45": 0.212,
                    "75": 0.194,
                    "105": 0.184,
                    "135": 0.14,
                    "165": 0.19
                },
                "SLFC1": {
                    "15": 0.214,
                    "45": 0.312,
                    "75": 0.286,
                    "105": 0.276,
                    "135": 0.244,
                    "165": 0.277
                }
            },
            "_id": "691ce9088ac547214ffd9c6d",
            "said": "691ce9088ac547214ffd9c6d"
        },
        {
            "type": "Feature",
            "geometry": {
                "type": "Point",
                "coordinates": [
                    33.06707592,
                    -111.97093339
                ]
            },
            "properties": {
                "sa_label": "p408",
                "SOIL_DATE": "2008",
                "SLSND": {
                    "15": 69.47,
                    "45": 64.0,
                    "75": 49.47,
                    "105": 54.93,
                    "135": 72.8,
                    "165": 79.47
                },
                "SLSLT": {
                    "15": 9.67,
                    "45": 11.2,
                    "75": 15.73,
                    "105": 13.6,
                    "135": 10.27,
                    "165": 5.73
                },
                "SLCLY": {
                    "15": 20.87,
                    "45": 24.8,
                    "75": 34.8,
                    "105": 31.47,
                    "135": 16.93,
                    "165": 14.8
                },
                "SLTX": {
                    "15": "Sandy Clay Loam",
                    "45": "Sandy Clay Loam",
                    "75": "Sandy Clay Loam",
                    "105": "Sandy Clay Loam",
                    "135": "Sandy Loam",
                    "165": "Sandy Loam"
                },
                "SLWP1": {
                    "15": 0.116,
                    "45": 0.132,
                    "75": 0.177,
                    "105": 0.153,
                    "135": 0.106,
                    "165": 0.131
                },
                "SLWP2": {
                    "15": 0.143,
                    "45": 0.163,
                    "75": 0.237,
                    "105": 0.2,
                    "135": 0.131,
                    "165": 0.147
                },
                "SLFC1": {
                    "15": 0.219,
                    "45": 0.249,
                    "75": 0.326,
                    "105": 0.28,
                    "135": 0.187,
                    "165": 0.325
                }
            },
            "_id": "691ce9088ac547214ffd9c6e",
            "said": "691ce9088ac547214ffd9c6e"
        }
    ]
}