{
    "type": "FeatureCollection",
    "features": [
        {
            "type": "Feature",
            "geometry": {
                "type": "Point",
                "coordinates": [
                    33.07862777,
                    -111.97593241
                ]
            },
            "properties": {
                "sa_label": "p01-4",
                "SOIL_DATE": "05/22/2018",
                "SNO3": {
                    "20": 3.2,
                    "60": 1.4,
                    "100": 1.6,
                    "140": 3.0,
                    "180": 5.5
                }
            },
            "_id": "682396978ac54752f9cbc911",
            "said": "682396978ac54752f9cbc911"
        },
        {
            "type": "Feature",
            "geometry": {
                "type": "Point",
                "coordinates": [
                    33.07935036,
                    -111.97608109
                ]
            },
            "properties": {
                "sa_label": "p02-2",
                "SOIL_DATE": "05/22/2018",
                "SNO3": {
                    "20": 5.8,
                    "60": 1.1,
                    "100": 0.6,
                    "140": 0.8,
                    "180": 2.1
                }
            },
            "_id": "682396978ac54752f9cbc912",
            "said": "682396978ac54752f9cbc912"
        },
        {
            "type": "Feature",
            "geometry": {
                "type": "Point",
                "coordinates": [
                    33.07935277,
                    -111.97667073
                ]
            },
            "properties": {
                "sa_label": "p06-2",
                "SOIL_DATE": "05/22/2018",
                "SNO3": {
                    "20": 10.4,
                    "60": 7.4,
                    "100": 4.2,
                    "140": 3.5,
                    "180": 3.6
                }
            },
            "_id": "682396978ac54752f9cbc913",
            "said": "682396978ac54752f9cbc913"
        },
        {
            "type": "Feature",
            "geometry": {
                "type": "Point",
                "coordinates": [
                    33.07935419,
                    -111.97696477
                ]
            },
            "properties": {
                "sa_label": "p08-2",
                "SOIL_DATE": "05/22/2018",
                "SNO3": {
                    "20": 5.9,
                    "60": 3.6,
                    "100": 1.4,
                    "140": 7.0,
                    "180": 7.6
                }
            },
            "_id": "682396978ac54752f9cbc914",
            "said": "682396978ac54752f9cbc914"
        },
        {
            "type": "Feature",
            "geometry": {
                "type": "Point",
                "coordinates": [
                    33.07863403,
                    -111.97727336
                ]
            },
            "properties": {
                "sa_label": "p10-4",
                "SOIL_DATE": "05/22/2018",
                "SNO3": {
                    "20": 7.1,
                    "60": 1.3,
                    "100": 1.1,
                    "140": 4.6,
                    "180": 2.1
                }
            },
            "_id": "682396978ac54752f9cbc915",
            "said": "682396978ac54752f9cbc915"
        },
        {
            "type": "Feature",
            "geometry": {
                "type": "Point",
                "coordinates": [
                    33.07971805,
                    -111.97757042
                ]
            },
            "properties": {
                "sa_label": "p12-1",
                "SOIL_DATE": "05/22/2018",
                "SNO3": {
                    "20": 10.2,
                    "60": 3.4,
                    "100": 2.2,
                    "140": 8.3,
                    "180": 14.9
                }
            },
            "_id": "682396978ac54752f9cbc916",
            "said": "682396978ac54752f9cbc916"
        },
        {
            "type": "Feature",
            "geometry": {
                "type": "Point",
                "coordinates": [
                    33.07935948,
                    -111.97802941
                ]
            },
            "properties": {
                "sa_label": "p15-2",
                "SOIL_DATE": "05/22/2018",
                "SNO3": {
                    "20": 9.4,
                    "60": 7.9,
                    "100": 6.6,
                    "140": 4.4,
                    "180": 1.0
                }
            },
            "_id": "682396978ac54752f9cbc917",
            "said": "682396978ac54752f9cbc917"
        }
    ]
}