{
    "type": "Feature",
    "geometry": {
        "type": "Point",
        "coordinates": [
            33.07981739,
            -111.97590276
        ]
    },
    "properties": {
        "ht_label": "01-1A"
    },
    "_id": "6424e07c8ac5472ad4dbdd11",
    "chid": "6424e07c8ac5472ad4dbdd11"
}{
    "type": "Feature",
    "geometry": {
        "type": "Point",
        "coordinates": [
            33.07972718,
            -111.97590334
        ]
    },
    "properties": {
        "ht_label": "01-1B"
    },
    "_id": "6424e07c8ac5472ad4dbdd12",
    "chid": "6424e07c8ac5472ad4dbdd12"
}{
    "type": "Feature",
    "geometry": {
        "type": "Point",
        "coordinates": [
            33.07963698,
            -111.97590409
        ]
    },
    "properties": {
        "ht_label": "01-1C"
    },
    "_id": "6424e07c8ac5472ad4dbdd13",
    "chid": "6424e07c8ac5472ad4dbdd13"
}{
    "type": "Feature",
    "geometry": {
        "type": "Point",
        "coordinates": [
            33.07945656,
            -111.97590505
        ]
    },
    "properties": {
        "ht_label": "01-2A"
    },
    "_id": "6424e07c8ac5472ad4dbdd14",
    "chid": "6424e07c8ac5472ad4dbdd14"
}{
    "type": "Feature",
    "geometry": {
        "type": "Point",
        "coordinates": [
            33.07936635,
            -111.97590592
        ]
    },
    "properties": {
        "ht_label": "01-2B"
    },
    "_id": "6424e07c8ac5472ad4dbdd15",
    "chid": "6424e07c8ac5472ad4dbdd15"
}{
    "type": "Feature",
    "geometry": {
        "type": "Point",
        "coordinates": [
            33.07927614,
            -111.97590637
        ]
    },
    "properties": {
        "ht_label": "01-2C"
    },
    "_id": "6424e07c8ac5472ad4dbdd16",
    "chid": "6424e07c8ac5472ad4dbdd16"
}{
    "type": "Feature",
    "geometry": {
        "type": "Point",
        "coordinates": [
            33.07909573,
            -111.97590787
        ]
    },
    "properties": {
        "ht_label": "01-3A"
    },
    "_id": "6424e07c8ac5472ad4dbdd17",
    "chid": "6424e07c8ac5472ad4dbdd17"
}{
    "type": "Feature",
    "geometry": {
        "type": "Point",
        "coordinates": [
            33.07900552,
            -111.97590834
        ]
    },
    "properties": {
        "ht_label": "01-3B"
    },
    "_id": "6424e07c8ac5472ad4dbdd18",
    "chid": "6424e07c8ac5472ad4dbdd18"
}{
    "type": "Feature",
    "geometry": {
        "type": "Point",
        "coordinates": [
            33.07891531,
            -111.97590904
        ]
    },
    "properties": {
        "ht_label": "01-3C"
    },
    "_id": "6424e07c8ac5472ad4dbdd19",
    "chid": "6424e07c8ac5472ad4dbdd19"
}{
    "type": "Feature",
    "geometry": {
        "type": "Point",
        "coordinates": [
            33.0787349,
            -111.97591029
        ]
    },
    "properties": {
        "ht_label": "01-4A"
    },
    "_id": "6424e07c8ac5472ad4dbdd1a",
    "chid": "6424e07c8ac5472ad4dbdd1a"
}{
    "type": "Feature",
    "geometry": {
        "type": "Point",
        "coordinates": [
            33.07864469,
            -111.97591131
        ]
    },
    "properties": {
        "ht_label": "01-4B"
    },
    "_id": "6424e07c8ac5472ad4dbdd1b",
    "chid": "6424e07c8ac5472ad4dbdd1b"
}{
    "type": "Feature",
    "geometry": {
        "type": "Point",
        "coordinates": [
            33.07855448,
            -111.97591136
        ]
    },
    "properties": {
        "ht_label": "01-4C"
    },
    "_id": "6424e07c8ac5472ad4dbdd1c",
    "chid": "6424e07c8ac5472ad4dbdd1c"
}{
    "type": "Feature",
    "geometry": {
        "type": "Point",
        "coordinates": [
            33.07981815,
            -111.97605535
        ]
    },
    "properties": {
        "ht_label": "02-1A"
    },
    "_id": "6424e07c8ac5472ad4dbdd1d",
    "chid": "6424e07c8ac5472ad4dbdd1d"
}{
    "type": "Feature",
    "geometry": {
        "type": "Point",
        "coordinates": [
            33.07972794,
            -111.97605584
        ]
    },
    "properties": {
        "ht_label": "02-1B"
    },
    "_id": "6424e07c8ac5472ad4dbdd1e",
    "chid": "6424e07c8ac5472ad4dbdd1e"
}{
    "type": "Feature",
    "geometry": {
        "type": "Point",
        "coordinates": [
            33.07963774,
            -111.97605648
        ]
    },
    "properties": {
        "ht_label": "02-1C"
    },
    "_id": "6424e07c8ac5472ad4dbdd1f",
    "chid": "6424e07c8ac5472ad4dbdd1f"
}{
    "type": "Feature",
    "geometry": {
        "type": "Point",
        "coordinates": [
            33.07945732,
            -111.97605773
        ]
    },
    "properties": {
        "ht_label": "02-2A"
    },
    "_id": "6424e07c8ac5472ad4dbdd20",
    "chid": "6424e07c8ac5472ad4dbdd20"
}{
    "type": "Feature",
    "geometry": {
        "type": "Point",
        "coordinates": [
            33.07936711,
            -111.97605837
        ]
    },
    "properties": {
        "ht_label": "02-2B"
    },
    "_id": "6424e07c8ac5472ad4dbdd21",
    "chid": "6424e07c8ac5472ad4dbdd21"
}{
    "type": "Feature",
    "geometry": {
        "type": "Point",
        "coordinates": [
            33.0792769,
            -111.97605923
        ]
    },
    "properties": {
        "ht_label": "02-2C"
    },
    "_id": "6424e07c8ac5472ad4dbdd22",
    "chid": "6424e07c8ac5472ad4dbdd22"
}{
    "type": "Feature",
    "geometry": {
        "type": "Point",
        "coordinates": [
            33.07909649,
            -111.97606057
        ]
    },
    "properties": {
        "ht_label": "02-3A"
    },
    "_id": "6424e07c8ac5472ad4dbdd23",
    "chid": "6424e07c8ac5472ad4dbdd23"
}{
    "type": "Feature",
    "geometry": {
        "type": "Point",
        "coordinates": [
            33.07900628,
            -111.97606089
        ]
    },
    "properties": {
        "ht_label": "02-3B"
    },
    "_id": "6424e07c8ac5472ad4dbdd24",
    "chid": "6424e07c8ac5472ad4dbdd24"
}{
    "type": "Feature",
    "geometry": {
        "type": "Point",
        "coordinates": [
            33.07891607,
            -111.97606174
        ]
    },
    "properties": {
        "ht_label": "02-3C"
    },
    "_id": "6424e07c8ac5472ad4dbdd25",
    "chid": "6424e07c8ac5472ad4dbdd25"
}{
    "type": "Feature",
    "geometry": {
        "type": "Point",
        "coordinates": [
            33.07873565,
            -111.97606268
        ]
    },
    "properties": {
        "ht_label": "02-4A"
    },
    "_id": "6424e07c8ac5472ad4dbdd26",
    "chid": "6424e07c8ac5472ad4dbdd26"
}{
    "type": "Feature",
    "geometry": {
        "type": "Point",
        "coordinates": [
            33.07864545,
            -111.97606338
        ]
    },
    "properties": {
        "ht_label": "02-4B"
    },
    "_id": "6424e07c8ac5472ad4dbdd27",
    "chid": "6424e07c8ac5472ad4dbdd27"
}{
    "type": "Feature",
    "geometry": {
        "type": "Point",
        "coordinates": [
            33.07855524,
            -111.97606401
        ]
    },
    "properties": {
        "ht_label": "02-4C"
    },
    "_id": "6424e07c8ac5472ad4dbdd28",
    "chid": "6424e07c8ac5472ad4dbdd28"
}{
    "type": "Feature",
    "geometry": {
        "type": "Point",
        "coordinates": [
            33.07981891,
            -111.97620755
        ]
    },
    "properties": {
        "ht_label": "03-1A"
    },
    "_id": "6424e07c8ac5472ad4dbdd29",
    "chid": "6424e07c8ac5472ad4dbdd29"
}{
    "type": "Feature",
    "geometry": {
        "type": "Point",
        "coordinates": [
            33.0797287,
            -111.97620795
        ]
    },
    "properties": {
        "ht_label": "03-1B"
    },
    "_id": "6424e07c8ac5472ad4dbdd2a",
    "chid": "6424e07c8ac5472ad4dbdd2a"
}{
    "type": "Feature",
    "geometry": {
        "type": "Point",
        "coordinates": [
            33.07963849,
            -111.97620871
        ]
    },
    "properties": {
        "ht_label": "03-1C"
    },
    "_id": "6424e07c8ac5472ad4dbdd2b",
    "chid": "6424e07c8ac5472ad4dbdd2b"
}{
    "type": "Feature",
    "geometry": {
        "type": "Point",
        "coordinates": [
            33.07945808,
            -111.97621027
        ]
    },
    "properties": {
        "ht_label": "03-2A"
    },
    "_id": "6424e07c8ac5472ad4dbdd2c",
    "chid": "6424e07c8ac5472ad4dbdd2c"
}{
    "type": "Feature",
    "geometry": {
        "type": "Point",
        "coordinates": [
            33.07936787,
            -111.97621066
        ]
    },
    "properties": {
        "ht_label": "03-2B"
    },
    "_id": "6424e07c8ac5472ad4dbdd2d",
    "chid": "6424e07c8ac5472ad4dbdd2d"
}{
    "type": "Feature",
    "geometry": {
        "type": "Point",
        "coordinates": [
            33.07927766,
            -111.97621151
        ]
    },
    "properties": {
        "ht_label": "03-2C"
    },
    "_id": "6424e07c8ac5472ad4dbdd2e",
    "chid": "6424e07c8ac5472ad4dbdd2e"
}{
    "type": "Feature",
    "geometry": {
        "type": "Point",
        "coordinates": [
            33.07909725,
            -111.9762128
        ]
    },
    "properties": {
        "ht_label": "03-3A"
    },
    "_id": "6424e07c8ac5472ad4dbdd2f",
    "chid": "6424e07c8ac5472ad4dbdd2f"
}{
    "type": "Feature",
    "geometry": {
        "type": "Point",
        "coordinates": [
            33.07900704,
            -111.97621338
        ]
    },
    "properties": {
        "ht_label": "03-3B"
    },
    "_id": "6424e07c8ac5472ad4dbdd30",
    "chid": "6424e07c8ac5472ad4dbdd30"
}{
    "type": "Feature",
    "geometry": {
        "type": "Point",
        "coordinates": [
            33.07891683,
            -111.97621401
        ]
    },
    "properties": {
        "ht_label": "03-3C"
    },
    "_id": "6424e07c8ac5472ad4dbdd31",
    "chid": "6424e07c8ac5472ad4dbdd31"
}{
    "type": "Feature",
    "geometry": {
        "type": "Point",
        "coordinates": [
            33.07873641,
            -111.97621506
        ]
    },
    "properties": {
        "ht_label": "03-4A"
    },
    "_id": "6424e07c8ac5472ad4dbdd32",
    "chid": "6424e07c8ac5472ad4dbdd32"
}{
    "type": "Feature",
    "geometry": {
        "type": "Point",
        "coordinates": [
            33.0786462,
            -111.97621592
        ]
    },
    "properties": {
        "ht_label": "03-4B"
    },
    "_id": "6424e07c8ac5472ad4dbdd33",
    "chid": "6424e07c8ac5472ad4dbdd33"
}{
    "type": "Feature",
    "geometry": {
        "type": "Point",
        "coordinates": [
            33.078556,
            -111.97621654
        ]
    },
    "properties": {
        "ht_label": "03-4C"
    },
    "_id": "6424e07c8ac5472ad4dbdd34",
    "chid": "6424e07c8ac5472ad4dbdd34"
}{
    "type": "Feature",
    "geometry": {
        "type": "Point",
        "coordinates": [
            33.07982073,
            -111.97640374
        ]
    },
    "properties": {
        "ht_label": "04-1A"
    },
    "_id": "6424e07c8ac5472ad4dbdd35",
    "chid": "6424e07c8ac5472ad4dbdd35"
}{
    "type": "Feature",
    "geometry": {
        "type": "Point",
        "coordinates": [
            33.07973052,
            -111.9764044
        ]
    },
    "properties": {
        "ht_label": "04-1B"
    },
    "_id": "6424e07c8ac5472ad4dbdd36",
    "chid": "6424e07c8ac5472ad4dbdd36"
}{
    "type": "Feature",
    "geometry": {
        "type": "Point",
        "coordinates": [
            33.07964032,
            -111.97640549
        ]
    },
    "properties": {
        "ht_label": "04-1C"
    },
    "_id": "6424e07c8ac5472ad4dbdd37",
    "chid": "6424e07c8ac5472ad4dbdd37"
}{
    "type": "Feature",
    "geometry": {
        "type": "Point",
        "coordinates": [
            33.0794599,
            -111.97640612
        ]
    },
    "properties": {
        "ht_label": "04-2A"
    },
    "_id": "6424e07c8ac5472ad4dbdd38",
    "chid": "6424e07c8ac5472ad4dbdd38"
}{
    "type": "Feature",
    "geometry": {
        "type": "Point",
        "coordinates": [
            33.07936969,
            -111.97640653
        ]
    },
    "properties": {
        "ht_label": "04-2B"
    },
    "_id": "6424e07c8ac5472ad4dbdd39",
    "chid": "6424e07c8ac5472ad4dbdd39"
}{
    "type": "Feature",
    "geometry": {
        "type": "Point",
        "coordinates": [
            33.07927948,
            -111.97640753
        ]
    },
    "properties": {
        "ht_label": "04-2C"
    },
    "_id": "6424e07c8ac5472ad4dbdd3a",
    "chid": "6424e07c8ac5472ad4dbdd3a"
}{
    "type": "Feature",
    "geometry": {
        "type": "Point",
        "coordinates": [
            33.07909907,
            -111.97640909
        ]
    },
    "properties": {
        "ht_label": "04-3A"
    },
    "_id": "6424e07c8ac5472ad4dbdd3b",
    "chid": "6424e07c8ac5472ad4dbdd3b"
}{
    "type": "Feature",
    "geometry": {
        "type": "Point",
        "coordinates": [
            33.07900886,
            -111.97640935
        ]
    },
    "properties": {
        "ht_label": "04-3B"
    },
    "_id": "6424e07c8ac5472ad4dbdd3c",
    "chid": "6424e07c8ac5472ad4dbdd3c"
}{
    "type": "Feature",
    "geometry": {
        "type": "Point",
        "coordinates": [
            33.07891865,
            -111.97641023
        ]
    },
    "properties": {
        "ht_label": "04-3C"
    },
    "_id": "6424e07c8ac5472ad4dbdd3d",
    "chid": "6424e07c8ac5472ad4dbdd3d"
}{
    "type": "Feature",
    "geometry": {
        "type": "Point",
        "coordinates": [
            33.07873823,
            -111.97641131
        ]
    },
    "properties": {
        "ht_label": "04-4A"
    },
    "_id": "6424e07c8ac5472ad4dbdd3e",
    "chid": "6424e07c8ac5472ad4dbdd3e"
}{
    "type": "Feature",
    "geometry": {
        "type": "Point",
        "coordinates": [
            33.07864803,
            -111.9764118
        ]
    },
    "properties": {
        "ht_label": "04-4B"
    },
    "_id": "6424e07c8ac5472ad4dbdd3f",
    "chid": "6424e07c8ac5472ad4dbdd3f"
}{
    "type": "Feature",
    "geometry": {
        "type": "Point",
        "coordinates": [
            33.07855782,
            -111.9764126
        ]
    },
    "properties": {
        "ht_label": "04-4C"
    },
    "_id": "6424e07c8ac5472ad4dbdd40",
    "chid": "6424e07c8ac5472ad4dbdd40"
}{
    "type": "Feature",
    "geometry": {
        "type": "Point",
        "coordinates": [
            33.07982081,
            -111.97649312
        ]
    },
    "properties": {
        "ht_label": "05-1A"
    },
    "_id": "6424e07c8ac5472ad4dbdd41",
    "chid": "6424e07c8ac5472ad4dbdd41"
}{
    "type": "Feature",
    "geometry": {
        "type": "Point",
        "coordinates": [
            33.0797306,
            -111.97649373
        ]
    },
    "properties": {
        "ht_label": "05-1B"
    },
    "_id": "6424e07c8ac5472ad4dbdd42",
    "chid": "6424e07c8ac5472ad4dbdd42"
}{
    "type": "Feature",
    "geometry": {
        "type": "Point",
        "coordinates": [
            33.0796404,
            -111.97649438
        ]
    },
    "properties": {
        "ht_label": "05-1C"
    },
    "_id": "6424e07c8ac5472ad4dbdd43",
    "chid": "6424e07c8ac5472ad4dbdd43"
}{
    "type": "Feature",
    "geometry": {
        "type": "Point",
        "coordinates": [
            33.07945998,
            -111.97649554
        ]
    },
    "properties": {
        "ht_label": "05-2A"
    },
    "_id": "6424e07c8ac5472ad4dbdd44",
    "chid": "6424e07c8ac5472ad4dbdd44"
}{
    "type": "Feature",
    "geometry": {
        "type": "Point",
        "coordinates": [
            33.07936977,
            -111.97649627
        ]
    },
    "properties": {
        "ht_label": "05-2B"
    },
    "_id": "6424e07c8ac5472ad4dbdd45",
    "chid": "6424e07c8ac5472ad4dbdd45"
}{
    "type": "Feature",
    "geometry": {
        "type": "Point",
        "coordinates": [
            33.07927957,
            -111.97649712
        ]
    },
    "properties": {
        "ht_label": "05-2C"
    },
    "_id": "6424e07c8ac5472ad4dbdd46",
    "chid": "6424e07c8ac5472ad4dbdd46"
}{
    "type": "Feature",
    "geometry": {
        "type": "Point",
        "coordinates": [
            33.07909915,
            -111.97649804
        ]
    },
    "properties": {
        "ht_label": "05-3A"
    },
    "_id": "6424e07c8ac5472ad4dbdd47",
    "chid": "6424e07c8ac5472ad4dbdd47"
}{
    "type": "Feature",
    "geometry": {
        "type": "Point",
        "coordinates": [
            33.07900894,
            -111.97649894
        ]
    },
    "properties": {
        "ht_label": "05-3B"
    },
    "_id": "6424e07c8ac5472ad4dbdd48",
    "chid": "6424e07c8ac5472ad4dbdd48"
}{
    "type": "Feature",
    "geometry": {
        "type": "Point",
        "coordinates": [
            33.07891873,
            -111.97649978
        ]
    },
    "properties": {
        "ht_label": "05-3C"
    },
    "_id": "6424e07c8ac5472ad4dbdd49",
    "chid": "6424e07c8ac5472ad4dbdd49"
}{
    "type": "Feature",
    "geometry": {
        "type": "Point",
        "coordinates": [
            33.07873831,
            -111.97650051
        ]
    },
    "properties": {
        "ht_label": "05-4A"
    },
    "_id": "6424e07c8ac5472ad4dbdd4a",
    "chid": "6424e07c8ac5472ad4dbdd4a"
}{
    "type": "Feature",
    "geometry": {
        "type": "Point",
        "coordinates": [
            33.07864811,
            -111.97650138
        ]
    },
    "properties": {
        "ht_label": "05-4B"
    },
    "_id": "6424e07c8ac5472ad4dbdd4b",
    "chid": "6424e07c8ac5472ad4dbdd4b"
}{
    "type": "Feature",
    "geometry": {
        "type": "Point",
        "coordinates": [
            33.0785579,
            -111.97650224
        ]
    },
    "properties": {
        "ht_label": "05-4C"
    },
    "_id": "6424e07c8ac5472ad4dbdd4c",
    "chid": "6424e07c8ac5472ad4dbdd4c"
}{
    "type": "Feature",
    "geometry": {
        "type": "Point",
        "coordinates": [
            33.07982157,
            -111.97664584
        ]
    },
    "properties": {
        "ht_label": "06-1A"
    },
    "_id": "6424e07c8ac5472ad4dbdd4d",
    "chid": "6424e07c8ac5472ad4dbdd4d"
}{
    "type": "Feature",
    "geometry": {
        "type": "Point",
        "coordinates": [
            33.07973136,
            -111.97664642
        ]
    },
    "properties": {
        "ht_label": "06-1B"
    },
    "_id": "6424e07c8ac5472ad4dbdd4e",
    "chid": "6424e07c8ac5472ad4dbdd4e"
}{
    "type": "Feature",
    "geometry": {
        "type": "Point",
        "coordinates": [
            33.07964116,
            -111.97664677
        ]
    },
    "properties": {
        "ht_label": "06-1C"
    },
    "_id": "6424e07c8ac5472ad4dbdd4f",
    "chid": "6424e07c8ac5472ad4dbdd4f"
}{
    "type": "Feature",
    "geometry": {
        "type": "Point",
        "coordinates": [
            33.07946074,
            -111.97664807
        ]
    },
    "properties": {
        "ht_label": "06-2A"
    },
    "_id": "6424e07c8ac5472ad4dbdd50",
    "chid": "6424e07c8ac5472ad4dbdd50"
}{
    "type": "Feature",
    "geometry": {
        "type": "Point",
        "coordinates": [
            33.07937053,
            -111.97664877
        ]
    },
    "properties": {
        "ht_label": "06-2B"
    },
    "_id": "6424e07c8ac5472ad4dbdd51",
    "chid": "6424e07c8ac5472ad4dbdd51"
}{
    "type": "Feature",
    "geometry": {
        "type": "Point",
        "coordinates": [
            33.07928032,
            -111.97664912
        ]
    },
    "properties": {
        "ht_label": "06-2C"
    },
    "_id": "6424e07c8ac5472ad4dbdd52",
    "chid": "6424e07c8ac5472ad4dbdd52"
}{
    "type": "Feature",
    "geometry": {
        "type": "Point",
        "coordinates": [
            33.07909991,
            -111.97665059
        ]
    },
    "properties": {
        "ht_label": "06-3A"
    },
    "_id": "6424e07c8ac5472ad4dbdd53",
    "chid": "6424e07c8ac5472ad4dbdd53"
}{
    "type": "Feature",
    "geometry": {
        "type": "Point",
        "coordinates": [
            33.0790097,
            -111.97665131
        ]
    },
    "properties": {
        "ht_label": "06-3B"
    },
    "_id": "6424e07c8ac5472ad4dbdd54",
    "chid": "6424e07c8ac5472ad4dbdd54"
}{
    "type": "Feature",
    "geometry": {
        "type": "Point",
        "coordinates": [
            33.07891949,
            -111.97665197
        ]
    },
    "properties": {
        "ht_label": "06-3C"
    },
    "_id": "6424e07c8ac5472ad4dbdd55",
    "chid": "6424e07c8ac5472ad4dbdd55"
}{
    "type": "Feature",
    "geometry": {
        "type": "Point",
        "coordinates": [
            33.07873907,
            -111.97665279
        ]
    },
    "properties": {
        "ht_label": "06-4A"
    },
    "_id": "6424e07c8ac5472ad4dbdd56",
    "chid": "6424e07c8ac5472ad4dbdd56"
}{
    "type": "Feature",
    "geometry": {
        "type": "Point",
        "coordinates": [
            33.07864887,
            -111.97665389
        ]
    },
    "properties": {
        "ht_label": "06-4B"
    },
    "_id": "6424e07c8ac5472ad4dbdd57",
    "chid": "6424e07c8ac5472ad4dbdd57"
}{
    "type": "Feature",
    "geometry": {
        "type": "Point",
        "coordinates": [
            33.07855866,
            -111.97665471
        ]
    },
    "properties": {
        "ht_label": "06-4C"
    },
    "_id": "6424e07c8ac5472ad4dbdd58",
    "chid": "6424e07c8ac5472ad4dbdd58"
}{
    "type": "Feature",
    "geometry": {
        "type": "Point",
        "coordinates": [
            33.07982242,
            -111.976831
        ]
    },
    "properties": {
        "ht_label": "07-1A"
    },
    "_id": "6424e07c8ac5472ad4dbdd59",
    "chid": "6424e07c8ac5472ad4dbdd59"
}{
    "type": "Feature",
    "geometry": {
        "type": "Point",
        "coordinates": [
            33.07973221,
            -111.9768314
        ]
    },
    "properties": {
        "ht_label": "07-1B"
    },
    "_id": "6424e07c8ac5472ad4dbdd5a",
    "chid": "6424e07c8ac5472ad4dbdd5a"
}{
    "type": "Feature",
    "geometry": {
        "type": "Point",
        "coordinates": [
            33.079642,
            -111.97683201
        ]
    },
    "properties": {
        "ht_label": "07-1C"
    },
    "_id": "6424e07c8ac5472ad4dbdd5b",
    "chid": "6424e07c8ac5472ad4dbdd5b"
}{
    "type": "Feature",
    "geometry": {
        "type": "Point",
        "coordinates": [
            33.07946158,
            -111.97683273
        ]
    },
    "properties": {
        "ht_label": "07-2A"
    },
    "_id": "6424e07c8ac5472ad4dbdd5c",
    "chid": "6424e07c8ac5472ad4dbdd5c"
}{
    "type": "Feature",
    "geometry": {
        "type": "Point",
        "coordinates": [
            33.07937138,
            -111.9768338
        ]
    },
    "properties": {
        "ht_label": "07-2B"
    },
    "_id": "6424e07c8ac5472ad4dbdd5d",
    "chid": "6424e07c8ac5472ad4dbdd5d"
}{
    "type": "Feature",
    "geometry": {
        "type": "Point",
        "coordinates": [
            33.07928117,
            -111.97683464
        ]
    },
    "properties": {
        "ht_label": "07-2C"
    },
    "_id": "6424e07c8ac5472ad4dbdd5e",
    "chid": "6424e07c8ac5472ad4dbdd5e"
}{
    "type": "Feature",
    "geometry": {
        "type": "Point",
        "coordinates": [
            33.07910075,
            -111.97683526
        ]
    },
    "properties": {
        "ht_label": "07-3A"
    },
    "_id": "6424e07c8ac5472ad4dbdd5f",
    "chid": "6424e07c8ac5472ad4dbdd5f"
}{
    "type": "Feature",
    "geometry": {
        "type": "Point",
        "coordinates": [
            33.07901054,
            -111.97683638
        ]
    },
    "properties": {
        "ht_label": "07-3B"
    },
    "_id": "6424e07c8ac5472ad4dbdd60",
    "chid": "6424e07c8ac5472ad4dbdd60"
}{
    "type": "Feature",
    "geometry": {
        "type": "Point",
        "coordinates": [
            33.07892034,
            -111.97683721
        ]
    },
    "properties": {
        "ht_label": "07-3C"
    },
    "_id": "6424e07c8ac5472ad4dbdd61",
    "chid": "6424e07c8ac5472ad4dbdd61"
}{
    "type": "Feature",
    "geometry": {
        "type": "Point",
        "coordinates": [
            33.07873992,
            -111.97683836
        ]
    },
    "properties": {
        "ht_label": "07-4A"
    },
    "_id": "6424e07c8ac5472ad4dbdd62",
    "chid": "6424e07c8ac5472ad4dbdd62"
}{
    "type": "Feature",
    "geometry": {
        "type": "Point",
        "coordinates": [
            33.07864971,
            -111.976839
        ]
    },
    "properties": {
        "ht_label": "07-4B"
    },
    "_id": "6424e07c8ac5472ad4dbdd63",
    "chid": "6424e07c8ac5472ad4dbdd63"
}{
    "type": "Feature",
    "geometry": {
        "type": "Point",
        "coordinates": [
            33.0785595,
            -111.97683937
        ]
    },
    "properties": {
        "ht_label": "07-4C"
    },
    "_id": "6424e07c8ac5472ad4dbdd64",
    "chid": "6424e07c8ac5472ad4dbdd64"
}{
    "type": "Feature",
    "geometry": {
        "type": "Point",
        "coordinates": [
            33.07982317,
            -111.97698313
        ]
    },
    "properties": {
        "ht_label": "08-1A"
    },
    "_id": "6424e07c8ac5472ad4dbdd65",
    "chid": "6424e07c8ac5472ad4dbdd65"
}{
    "type": "Feature",
    "geometry": {
        "type": "Point",
        "coordinates": [
            33.07973297,
            -111.97698371
        ]
    },
    "properties": {
        "ht_label": "08-1B"
    },
    "_id": "6424e07c8ac5472ad4dbdd66",
    "chid": "6424e07c8ac5472ad4dbdd66"
}{
    "type": "Feature",
    "geometry": {
        "type": "Point",
        "coordinates": [
            33.07964276,
            -111.97698453
        ]
    },
    "properties": {
        "ht_label": "08-1C"
    },
    "_id": "6424e07c8ac5472ad4dbdd67",
    "chid": "6424e07c8ac5472ad4dbdd67"
}{
    "type": "Feature",
    "geometry": {
        "type": "Point",
        "coordinates": [
            33.07946234,
            -111.97698573
        ]
    },
    "properties": {
        "ht_label": "08-2A"
    },
    "_id": "6424e07c8ac5472ad4dbdd68",
    "chid": "6424e07c8ac5472ad4dbdd68"
}{
    "type": "Feature",
    "geometry": {
        "type": "Point",
        "coordinates": [
            33.07937214,
            -111.97698678
        ]
    },
    "properties": {
        "ht_label": "08-2B"
    },
    "_id": "6424e07c8ac5472ad4dbdd69",
    "chid": "6424e07c8ac5472ad4dbdd69"
}{
    "type": "Feature",
    "geometry": {
        "type": "Point",
        "coordinates": [
            33.07928193,
            -111.97698688
        ]
    },
    "properties": {
        "ht_label": "08-2C"
    },
    "_id": "6424e07c8ac5472ad4dbdd6a",
    "chid": "6424e07c8ac5472ad4dbdd6a"
}{
    "type": "Feature",
    "geometry": {
        "type": "Point",
        "coordinates": [
            33.07910151,
            -111.97698832
        ]
    },
    "properties": {
        "ht_label": "08-3A"
    },
    "_id": "6424e07c8ac5472ad4dbdd6b",
    "chid": "6424e07c8ac5472ad4dbdd6b"
}{
    "type": "Feature",
    "geometry": {
        "type": "Point",
        "coordinates": [
            33.0790113,
            -111.97698889
        ]
    },
    "properties": {
        "ht_label": "08-3B"
    },
    "_id": "6424e07c8ac5472ad4dbdd6c",
    "chid": "6424e07c8ac5472ad4dbdd6c"
}{
    "type": "Feature",
    "geometry": {
        "type": "Point",
        "coordinates": [
            33.07892109,
            -111.97698963
        ]
    },
    "properties": {
        "ht_label": "08-3C"
    },
    "_id": "6424e07c8ac5472ad4dbdd6d",
    "chid": "6424e07c8ac5472ad4dbdd6d"
}{
    "type": "Feature",
    "geometry": {
        "type": "Point",
        "coordinates": [
            33.07874068,
            -111.97699095
        ]
    },
    "properties": {
        "ht_label": "08-4A"
    },
    "_id": "6424e07c8ac5472ad4dbdd6e",
    "chid": "6424e07c8ac5472ad4dbdd6e"
}{
    "type": "Feature",
    "geometry": {
        "type": "Point",
        "coordinates": [
            33.07865047,
            -111.97699154
        ]
    },
    "properties": {
        "ht_label": "08-4B"
    },
    "_id": "6424e07c8ac5472ad4dbdd6f",
    "chid": "6424e07c8ac5472ad4dbdd6f"
}{
    "type": "Feature",
    "geometry": {
        "type": "Point",
        "coordinates": [
            33.07856026,
            -111.9769919
        ]
    },
    "properties": {
        "ht_label": "08-4C"
    },
    "_id": "6424e07c8ac5472ad4dbdd70",
    "chid": "6424e07c8ac5472ad4dbdd70"
}{
    "type": "Feature",
    "geometry": {
        "type": "Point",
        "coordinates": [
            33.07982421,
            -111.97713484
        ]
    },
    "properties": {
        "ht_label": "09-1A"
    },
    "_id": "6424e07c8ac5472ad4dbdd71",
    "chid": "6424e07c8ac5472ad4dbdd71"
}{
    "type": "Feature",
    "geometry": {
        "type": "Point",
        "coordinates": [
            33.07973401,
            -111.97713566
        ]
    },
    "properties": {
        "ht_label": "09-1B"
    },
    "_id": "6424e07c8ac5472ad4dbdd72",
    "chid": "6424e07c8ac5472ad4dbdd72"
}{
    "type": "Feature",
    "geometry": {
        "type": "Point",
        "coordinates": [
            33.0796438,
            -111.97713602
        ]
    },
    "properties": {
        "ht_label": "09-1C"
    },
    "_id": "6424e07c8ac5472ad4dbdd73",
    "chid": "6424e07c8ac5472ad4dbdd73"
}{
    "type": "Feature",
    "geometry": {
        "type": "Point",
        "coordinates": [
            33.07946338,
            -111.97713718
        ]
    },
    "properties": {
        "ht_label": "09-2A"
    },
    "_id": "6424e07c8ac5472ad4dbdd74",
    "chid": "6424e07c8ac5472ad4dbdd74"
}{
    "type": "Feature",
    "geometry": {
        "type": "Point",
        "coordinates": [
            33.07937317,
            -111.97713776
        ]
    },
    "properties": {
        "ht_label": "09-2B"
    },
    "_id": "6424e07c8ac5472ad4dbdd75",
    "chid": "6424e07c8ac5472ad4dbdd75"
}{
    "type": "Feature",
    "geometry": {
        "type": "Point",
        "coordinates": [
            33.07928297,
            -111.97713858
        ]
    },
    "properties": {
        "ht_label": "09-2C"
    },
    "_id": "6424e07c8ac5472ad4dbdd76",
    "chid": "6424e07c8ac5472ad4dbdd76"
}{
    "type": "Feature",
    "geometry": {
        "type": "Point",
        "coordinates": [
            33.07910255,
            -111.9771398
        ]
    },
    "properties": {
        "ht_label": "09-3A"
    },
    "_id": "6424e07c8ac5472ad4dbdd77",
    "chid": "6424e07c8ac5472ad4dbdd77"
}{
    "type": "Feature",
    "geometry": {
        "type": "Point",
        "coordinates": [
            33.07901234,
            -111.97714037
        ]
    },
    "properties": {
        "ht_label": "09-3B"
    },
    "_id": "6424e07c8ac5472ad4dbdd78",
    "chid": "6424e07c8ac5472ad4dbdd78"
}{
    "type": "Feature",
    "geometry": {
        "type": "Point",
        "coordinates": [
            33.07892214,
            -111.97714121
        ]
    },
    "properties": {
        "ht_label": "09-3C"
    },
    "_id": "6424e07c8ac5472ad4dbdd79",
    "chid": "6424e07c8ac5472ad4dbdd79"
}{
    "type": "Feature",
    "geometry": {
        "type": "Point",
        "coordinates": [
            33.07874172,
            -111.97714193
        ]
    },
    "properties": {
        "ht_label": "09-4A"
    },
    "_id": "6424e07c8ac5472ad4dbdd7a",
    "chid": "6424e07c8ac5472ad4dbdd7a"
}{
    "type": "Feature",
    "geometry": {
        "type": "Point",
        "coordinates": [
            33.07865151,
            -111.97714316
        ]
    },
    "properties": {
        "ht_label": "09-4B"
    },
    "_id": "6424e07c8ac5472ad4dbdd7b",
    "chid": "6424e07c8ac5472ad4dbdd7b"
}{
    "type": "Feature",
    "geometry": {
        "type": "Point",
        "coordinates": [
            33.0785613,
            -111.97714398
        ]
    },
    "properties": {
        "ht_label": "09-4C"
    },
    "_id": "6424e07c8ac5472ad4dbdd7c",
    "chid": "6424e07c8ac5472ad4dbdd7c"
}{
    "type": "Feature",
    "geometry": {
        "type": "Point",
        "coordinates": [
            33.07982497,
            -111.97728714
        ]
    },
    "properties": {
        "ht_label": "10-1A"
    },
    "_id": "6424e07c8ac5472ad4dbdd7d",
    "chid": "6424e07c8ac5472ad4dbdd7d"
}{
    "type": "Feature",
    "geometry": {
        "type": "Point",
        "coordinates": [
            33.07973476,
            -111.97728748
        ]
    },
    "properties": {
        "ht_label": "10-1B"
    },
    "_id": "6424e07c8ac5472ad4dbdd7e",
    "chid": "6424e07c8ac5472ad4dbdd7e"
}{
    "type": "Feature",
    "geometry": {
        "type": "Point",
        "coordinates": [
            33.07964456,
            -111.97728853
        ]
    },
    "properties": {
        "ht_label": "10-1C"
    },
    "_id": "6424e07c8ac5472ad4dbdd7f",
    "chid": "6424e07c8ac5472ad4dbdd7f"
}{
    "type": "Feature",
    "geometry": {
        "type": "Point",
        "coordinates": [
            33.07946414,
            -111.97729011
        ]
    },
    "properties": {
        "ht_label": "10-2A"
    },
    "_id": "6424e07c8ac5472ad4dbdd80",
    "chid": "6424e07c8ac5472ad4dbdd80"
}{
    "type": "Feature",
    "geometry": {
        "type": "Point",
        "coordinates": [
            33.07937393,
            -111.97729074
        ]
    },
    "properties": {
        "ht_label": "10-2B"
    },
    "_id": "6424e07c8ac5472ad4dbdd81",
    "chid": "6424e07c8ac5472ad4dbdd81"
}{
    "type": "Feature",
    "geometry": {
        "type": "Point",
        "coordinates": [
            33.07928372,
            -111.97729092
        ]
    },
    "properties": {
        "ht_label": "10-2C"
    },
    "_id": "6424e07c8ac5472ad4dbdd82",
    "chid": "6424e07c8ac5472ad4dbdd82"
}{
    "type": "Feature",
    "geometry": {
        "type": "Point",
        "coordinates": [
            33.07910331,
            -111.9772925
        ]
    },
    "properties": {
        "ht_label": "10-3A"
    },
    "_id": "6424e07c8ac5472ad4dbdd83",
    "chid": "6424e07c8ac5472ad4dbdd83"
}{
    "type": "Feature",
    "geometry": {
        "type": "Point",
        "coordinates": [
            33.0790131,
            -111.9772932
        ]
    },
    "properties": {
        "ht_label": "10-3B"
    },
    "_id": "6424e07c8ac5472ad4dbdd84",
    "chid": "6424e07c8ac5472ad4dbdd84"
}{
    "type": "Feature",
    "geometry": {
        "type": "Point",
        "coordinates": [
            33.07892289,
            -111.97729378
        ]
    },
    "properties": {
        "ht_label": "10-3C"
    },
    "_id": "6424e07c8ac5472ad4dbdd85",
    "chid": "6424e07c8ac5472ad4dbdd85"
}{
    "type": "Feature",
    "geometry": {
        "type": "Point",
        "coordinates": [
            33.07874248,
            -111.97729485
        ]
    },
    "properties": {
        "ht_label": "10-4A"
    },
    "_id": "6424e07c8ac5472ad4dbdd86",
    "chid": "6424e07c8ac5472ad4dbdd86"
}{
    "type": "Feature",
    "geometry": {
        "type": "Point",
        "coordinates": [
            33.07865227,
            -111.97729571
        ]
    },
    "properties": {
        "ht_label": "10-4B"
    },
    "_id": "6424e07c8ac5472ad4dbdd87",
    "chid": "6424e07c8ac5472ad4dbdd87"
}{
    "type": "Feature",
    "geometry": {
        "type": "Point",
        "coordinates": [
            33.07856206,
            -111.97729632
        ]
    },
    "properties": {
        "ht_label": "10-4C"
    },
    "_id": "6424e07c8ac5472ad4dbdd88",
    "chid": "6424e07c8ac5472ad4dbdd88"
}{
    "type": "Feature",
    "geometry": {
        "type": "Point",
        "coordinates": [
            33.07982573,
            -111.97743965
        ]
    },
    "properties": {
        "ht_label": "11-1A"
    },
    "_id": "6424e07c8ac5472ad4dbdd89",
    "chid": "6424e07c8ac5472ad4dbdd89"
}{
    "type": "Feature",
    "geometry": {
        "type": "Point",
        "coordinates": [
            33.07973552,
            -111.97744002
        ]
    },
    "properties": {
        "ht_label": "11-1B"
    },
    "_id": "6424e07c8ac5472ad4dbdd8a",
    "chid": "6424e07c8ac5472ad4dbdd8a"
}{
    "type": "Feature",
    "geometry": {
        "type": "Point",
        "coordinates": [
            33.07964531,
            -111.97744056
        ]
    },
    "properties": {
        "ht_label": "11-1C"
    },
    "_id": "6424e07c8ac5472ad4dbdd8b",
    "chid": "6424e07c8ac5472ad4dbdd8b"
}{
    "type": "Feature",
    "geometry": {
        "type": "Point",
        "coordinates": [
            33.0794649,
            -111.97744245
        ]
    },
    "properties": {
        "ht_label": "11-2A"
    },
    "_id": "6424e07c8ac5472ad4dbdd8c",
    "chid": "6424e07c8ac5472ad4dbdd8c"
}{
    "type": "Feature",
    "geometry": {
        "type": "Point",
        "coordinates": [
            33.07937469,
            -111.9774424
        ]
    },
    "properties": {
        "ht_label": "11-2B"
    },
    "_id": "6424e07c8ac5472ad4dbdd8d",
    "chid": "6424e07c8ac5472ad4dbdd8d"
}{
    "type": "Feature",
    "geometry": {
        "type": "Point",
        "coordinates": [
            33.07928448,
            -111.97744364
        ]
    },
    "properties": {
        "ht_label": "11-2C"
    },
    "_id": "6424e07c8ac5472ad4dbdd8e",
    "chid": "6424e07c8ac5472ad4dbdd8e"
}{
    "type": "Feature",
    "geometry": {
        "type": "Point",
        "coordinates": [
            33.07910407,
            -111.97744504
        ]
    },
    "properties": {
        "ht_label": "11-3A"
    },
    "_id": "6424e07c8ac5472ad4dbdd8f",
    "chid": "6424e07c8ac5472ad4dbdd8f"
}{
    "type": "Feature",
    "geometry": {
        "type": "Point",
        "coordinates": [
            33.07901386,
            -111.97744546
        ]
    },
    "properties": {
        "ht_label": "11-3B"
    },
    "_id": "6424e07c8ac5472ad4dbdd90",
    "chid": "6424e07c8ac5472ad4dbdd90"
}{
    "type": "Feature",
    "geometry": {
        "type": "Point",
        "coordinates": [
            33.07892365,
            -111.97744607
        ]
    },
    "properties": {
        "ht_label": "11-3C"
    },
    "_id": "6424e07c8ac5472ad4dbdd91",
    "chid": "6424e07c8ac5472ad4dbdd91"
}{
    "type": "Feature",
    "geometry": {
        "type": "Point",
        "coordinates": [
            33.07874323,
            -111.97744726
        ]
    },
    "properties": {
        "ht_label": "11-4A"
    },
    "_id": "6424e07c8ac5472ad4dbdd92",
    "chid": "6424e07c8ac5472ad4dbdd92"
}{
    "type": "Feature",
    "geometry": {
        "type": "Point",
        "coordinates": [
            33.07865302,
            -111.97744785
        ]
    },
    "properties": {
        "ht_label": "11-4B"
    },
    "_id": "6424e07c8ac5472ad4dbdd93",
    "chid": "6424e07c8ac5472ad4dbdd93"
}{
    "type": "Feature",
    "geometry": {
        "type": "Point",
        "coordinates": [
            33.07856282,
            -111.97744865
        ]
    },
    "properties": {
        "ht_label": "11-4C"
    },
    "_id": "6424e07c8ac5472ad4dbdd94",
    "chid": "6424e07c8ac5472ad4dbdd94"
}{
    "type": "Feature",
    "geometry": {
        "type": "Point",
        "coordinates": [
            33.07982648,
            -111.9775921
        ]
    },
    "properties": {
        "ht_label": "12-1A"
    },
    "_id": "6424e07c8ac5472ad4dbdd95",
    "chid": "6424e07c8ac5472ad4dbdd95"
}{
    "type": "Feature",
    "geometry": {
        "type": "Point",
        "coordinates": [
            33.07973628,
            -111.97759254
        ]
    },
    "properties": {
        "ht_label": "12-1B"
    },
    "_id": "6424e07c8ac5472ad4dbdd96",
    "chid": "6424e07c8ac5472ad4dbdd96"
}{
    "type": "Feature",
    "geometry": {
        "type": "Point",
        "coordinates": [
            33.07964607,
            -111.97759345
        ]
    },
    "properties": {
        "ht_label": "12-1C"
    },
    "_id": "6424e07c8ac5472ad4dbdd97",
    "chid": "6424e07c8ac5472ad4dbdd97"
}{
    "type": "Feature",
    "geometry": {
        "type": "Point",
        "coordinates": [
            33.07946565,
            -111.97759438
        ]
    },
    "properties": {
        "ht_label": "12-2A"
    },
    "_id": "6424e07c8ac5472ad4dbdd98",
    "chid": "6424e07c8ac5472ad4dbdd98"
}{
    "type": "Feature",
    "geometry": {
        "type": "Point",
        "coordinates": [
            33.07937544,
            -111.97759532
        ]
    },
    "properties": {
        "ht_label": "12-2B"
    },
    "_id": "6424e07c8ac5472ad4dbdd99",
    "chid": "6424e07c8ac5472ad4dbdd99"
}{
    "type": "Feature",
    "geometry": {
        "type": "Point",
        "coordinates": [
            33.07928524,
            -111.9775958
        ]
    },
    "properties": {
        "ht_label": "12-2C"
    },
    "_id": "6424e07c8ac5472ad4dbdd9a",
    "chid": "6424e07c8ac5472ad4dbdd9a"
}{
    "type": "Feature",
    "geometry": {
        "type": "Point",
        "coordinates": [
            33.07910482,
            -111.97759692
        ]
    },
    "properties": {
        "ht_label": "12-3A"
    },
    "_id": "6424e07c8ac5472ad4dbdd9b",
    "chid": "6424e07c8ac5472ad4dbdd9b"
}{
    "type": "Feature",
    "geometry": {
        "type": "Point",
        "coordinates": [
            33.07901461,
            -111.97759746
        ]
    },
    "properties": {
        "ht_label": "12-3B"
    },
    "_id": "6424e07c8ac5472ad4dbdd9c",
    "chid": "6424e07c8ac5472ad4dbdd9c"
}{
    "type": "Feature",
    "geometry": {
        "type": "Point",
        "coordinates": [
            33.07892441,
            -111.97759837
        ]
    },
    "properties": {
        "ht_label": "12-3C"
    },
    "_id": "6424e07c8ac5472ad4dbdd9d",
    "chid": "6424e07c8ac5472ad4dbdd9d"
}{
    "type": "Feature",
    "geometry": {
        "type": "Point",
        "coordinates": [
            33.07874399,
            -111.97759951
        ]
    },
    "properties": {
        "ht_label": "12-4A"
    },
    "_id": "6424e07c8ac5472ad4dbdd9e",
    "chid": "6424e07c8ac5472ad4dbdd9e"
}{
    "type": "Feature",
    "geometry": {
        "type": "Point",
        "coordinates": [
            33.07865378,
            -111.97760001
        ]
    },
    "properties": {
        "ht_label": "12-4B"
    },
    "_id": "6424e07c8ac5472ad4dbdd9f",
    "chid": "6424e07c8ac5472ad4dbdd9f"
}{
    "type": "Feature",
    "geometry": {
        "type": "Point",
        "coordinates": [
            33.07856357,
            -111.97760073
        ]
    },
    "properties": {
        "ht_label": "12-4C"
    },
    "_id": "6424e07c8ac5472ad4dbdda0",
    "chid": "6424e07c8ac5472ad4dbdda0"
}{
    "type": "Feature",
    "geometry": {
        "type": "Point",
        "coordinates": [
            33.079827,
            -111.97774358
        ]
    },
    "properties": {
        "ht_label": "13-1A"
    },
    "_id": "6424e07c8ac5472ad4dbdda1",
    "chid": "6424e07c8ac5472ad4dbdda1"
}{
    "type": "Feature",
    "geometry": {
        "type": "Point",
        "coordinates": [
            33.07973679,
            -111.97774421
        ]
    },
    "properties": {
        "ht_label": "13-1B"
    },
    "_id": "6424e07c8ac5472ad4dbdda2",
    "chid": "6424e07c8ac5472ad4dbdda2"
}{
    "type": "Feature",
    "geometry": {
        "type": "Point",
        "coordinates": [
            33.07964658,
            -111.97774467
        ]
    },
    "properties": {
        "ht_label": "13-1C"
    },
    "_id": "6424e07c8ac5472ad4dbdda3",
    "chid": "6424e07c8ac5472ad4dbdda3"
}{
    "type": "Feature",
    "geometry": {
        "type": "Point",
        "coordinates": [
            33.07946616,
            -111.97774583
        ]
    },
    "properties": {
        "ht_label": "13-2A"
    },
    "_id": "6424e07c8ac5472ad4dbdda4",
    "chid": "6424e07c8ac5472ad4dbdda4"
}{
    "type": "Feature",
    "geometry": {
        "type": "Point",
        "coordinates": [
            33.07937595,
            -111.97774629
        ]
    },
    "properties": {
        "ht_label": "13-2B"
    },
    "_id": "6424e07c8ac5472ad4dbdda5",
    "chid": "6424e07c8ac5472ad4dbdda5"
}{
    "type": "Feature",
    "geometry": {
        "type": "Point",
        "coordinates": [
            33.07928575,
            -111.97774745
        ]
    },
    "properties": {
        "ht_label": "13-2C"
    },
    "_id": "6424e07c8ac5472ad4dbdda6",
    "chid": "6424e07c8ac5472ad4dbdda6"
}{
    "type": "Feature",
    "geometry": {
        "type": "Point",
        "coordinates": [
            33.07910533,
            -111.97774861
        ]
    },
    "properties": {
        "ht_label": "13-3A"
    },
    "_id": "6424e07c8ac5472ad4dbdda7",
    "chid": "6424e07c8ac5472ad4dbdda7"
}{
    "type": "Feature",
    "geometry": {
        "type": "Point",
        "coordinates": [
            33.07901512,
            -111.97774885
        ]
    },
    "properties": {
        "ht_label": "13-3B"
    },
    "_id": "6424e07c8ac5472ad4dbdda8",
    "chid": "6424e07c8ac5472ad4dbdda8"
}{
    "type": "Feature",
    "geometry": {
        "type": "Point",
        "coordinates": [
            33.07892492,
            -111.97774957
        ]
    },
    "properties": {
        "ht_label": "13-3C"
    },
    "_id": "6424e07c8ac5472ad4dbdda9",
    "chid": "6424e07c8ac5472ad4dbdda9"
}{
    "type": "Feature",
    "geometry": {
        "type": "Point",
        "coordinates": [
            33.0787445,
            -111.97775121
        ]
    },
    "properties": {
        "ht_label": "13-4A"
    },
    "_id": "6424e07c8ac5472ad4dbddaa",
    "chid": "6424e07c8ac5472ad4dbddaa"
}{
    "type": "Feature",
    "geometry": {
        "type": "Point",
        "coordinates": [
            33.07865429,
            -111.97775193
        ]
    },
    "properties": {
        "ht_label": "13-4B"
    },
    "_id": "6424e07c8ac5472ad4dbddab",
    "chid": "6424e07c8ac5472ad4dbddab"
}{
    "type": "Feature",
    "geometry": {
        "type": "Point",
        "coordinates": [
            33.07856408,
            -111.97775233
        ]
    },
    "properties": {
        "ht_label": "13-4C"
    },
    "_id": "6424e07c8ac5472ad4dbddac",
    "chid": "6424e07c8ac5472ad4dbddac"
}{
    "type": "Feature",
    "geometry": {
        "type": "Point",
        "coordinates": [
            33.07982775,
            -111.97789555
        ]
    },
    "properties": {
        "ht_label": "14-1A"
    },
    "_id": "6424e07c8ac5472ad4dbddad",
    "chid": "6424e07c8ac5472ad4dbddad"
}{
    "type": "Feature",
    "geometry": {
        "type": "Point",
        "coordinates": [
            33.07973754,
            -111.97789606
        ]
    },
    "properties": {
        "ht_label": "14-1B"
    },
    "_id": "6424e07c8ac5472ad4dbddae",
    "chid": "6424e07c8ac5472ad4dbddae"
}{
    "type": "Feature",
    "geometry": {
        "type": "Point",
        "coordinates": [
            33.07964734,
            -111.97789652
        ]
    },
    "properties": {
        "ht_label": "14-1C"
    },
    "_id": "6424e07c8ac5472ad4dbddaf",
    "chid": "6424e07c8ac5472ad4dbddaf"
}{
    "type": "Feature",
    "geometry": {
        "type": "Point",
        "coordinates": [
            33.07946692,
            -111.97789838
        ]
    },
    "properties": {
        "ht_label": "14-2A"
    },
    "_id": "6424e07c8ac5472ad4dbddb0",
    "chid": "6424e07c8ac5472ad4dbddb0"
}{
    "type": "Feature",
    "geometry": {
        "type": "Point",
        "coordinates": [
            33.07937671,
            -111.97789906
        ]
    },
    "properties": {
        "ht_label": "14-2B"
    },
    "_id": "6424e07c8ac5472ad4dbddb1",
    "chid": "6424e07c8ac5472ad4dbddb1"
}{
    "type": "Feature",
    "geometry": {
        "type": "Point",
        "coordinates": [
            33.0792865,
            -111.97789951
        ]
    },
    "properties": {
        "ht_label": "14-2C"
    },
    "_id": "6424e07c8ac5472ad4dbddb2",
    "chid": "6424e07c8ac5472ad4dbddb2"
}{
    "type": "Feature",
    "geometry": {
        "type": "Point",
        "coordinates": [
            33.07910609,
            -111.97790073
        ]
    },
    "properties": {
        "ht_label": "14-3A"
    },
    "_id": "6424e07c8ac5472ad4dbddb3",
    "chid": "6424e07c8ac5472ad4dbddb3"
}{
    "type": "Feature",
    "geometry": {
        "type": "Point",
        "coordinates": [
            33.07901588,
            -111.97790192
        ]
    },
    "properties": {
        "ht_label": "14-3B"
    },
    "_id": "6424e07c8ac5472ad4dbddb4",
    "chid": "6424e07c8ac5472ad4dbddb4"
}{
    "type": "Feature",
    "geometry": {
        "type": "Point",
        "coordinates": [
            33.07892567,
            -111.97790187
        ]
    },
    "properties": {
        "ht_label": "14-3C"
    },
    "_id": "6424e07c8ac5472ad4dbddb5",
    "chid": "6424e07c8ac5472ad4dbddb5"
}{
    "type": "Feature",
    "geometry": {
        "type": "Point",
        "coordinates": [
            33.07874526,
            -111.97790329
        ]
    },
    "properties": {
        "ht_label": "14-4A"
    },
    "_id": "6424e07c8ac5472ad4dbddb6",
    "chid": "6424e07c8ac5472ad4dbddb6"
}{
    "type": "Feature",
    "geometry": {
        "type": "Point",
        "coordinates": [
            33.07865505,
            -111.97790401
        ]
    },
    "properties": {
        "ht_label": "14-4B"
    },
    "_id": "6424e07c8ac5472ad4dbddb7",
    "chid": "6424e07c8ac5472ad4dbddb7"
}{
    "type": "Feature",
    "geometry": {
        "type": "Point",
        "coordinates": [
            33.07856484,
            -111.97790464
        ]
    },
    "properties": {
        "ht_label": "14-4C"
    },
    "_id": "6424e07c8ac5472ad4dbddb8",
    "chid": "6424e07c8ac5472ad4dbddb8"
}{
    "type": "Feature",
    "geometry": {
        "type": "Point",
        "coordinates": [
            33.07982851,
            -111.97804814
        ]
    },
    "properties": {
        "ht_label": "15-1A"
    },
    "_id": "6424e07c8ac5472ad4dbddb9",
    "chid": "6424e07c8ac5472ad4dbddb9"
}{
    "type": "Feature",
    "geometry": {
        "type": "Point",
        "coordinates": [
            33.0797383,
            -111.97804891
        ]
    },
    "properties": {
        "ht_label": "15-1B"
    },
    "_id": "6424e07c8ac5472ad4dbddba",
    "chid": "6424e07c8ac5472ad4dbddba"
}{
    "type": "Feature",
    "geometry": {
        "type": "Point",
        "coordinates": [
            33.07964809,
            -111.97804936
        ]
    },
    "properties": {
        "ht_label": "15-1C"
    },
    "_id": "6424e07c8ac5472ad4dbddbb",
    "chid": "6424e07c8ac5472ad4dbddbb"
}{
    "type": "Feature",
    "geometry": {
        "type": "Point",
        "coordinates": [
            33.07946767,
            -111.97805071
        ]
    },
    "properties": {
        "ht_label": "15-2A"
    },
    "_id": "6424e07c8ac5472ad4dbddbc",
    "chid": "6424e07c8ac5472ad4dbddbc"
}{
    "type": "Feature",
    "geometry": {
        "type": "Point",
        "coordinates": [
            33.07937747,
            -111.97805117
        ]
    },
    "properties": {
        "ht_label": "15-2B"
    },
    "_id": "6424e07c8ac5472ad4dbddbd",
    "chid": "6424e07c8ac5472ad4dbddbd"
}{
    "type": "Feature",
    "geometry": {
        "type": "Point",
        "coordinates": [
            33.07928726,
            -111.97805206
        ]
    },
    "properties": {
        "ht_label": "15-2C"
    },
    "_id": "6424e07c8ac5472ad4dbddbe",
    "chid": "6424e07c8ac5472ad4dbddbe"
}{
    "type": "Feature",
    "geometry": {
        "type": "Point",
        "coordinates": [
            33.07910684,
            -111.97805302
        ]
    },
    "properties": {
        "ht_label": "15-3A"
    },
    "_id": "6424e07c8ac5472ad4dbddbf",
    "chid": "6424e07c8ac5472ad4dbddbf"
}{
    "type": "Feature",
    "geometry": {
        "type": "Point",
        "coordinates": [
            33.07901664,
            -111.97805394
        ]
    },
    "properties": {
        "ht_label": "15-3B"
    },
    "_id": "6424e07c8ac5472ad4dbddc0",
    "chid": "6424e07c8ac5472ad4dbddc0"
}{
    "type": "Feature",
    "geometry": {
        "type": "Point",
        "coordinates": [
            33.07892643,
            -111.97805465
        ]
    },
    "properties": {
        "ht_label": "15-3C"
    },
    "_id": "6424e07c8ac5472ad4dbddc1",
    "chid": "6424e07c8ac5472ad4dbddc1"
}{
    "type": "Feature",
    "geometry": {
        "type": "Point",
        "coordinates": [
            33.07874601,
            -111.97805581
        ]
    },
    "properties": {
        "ht_label": "15-4A"
    },
    "_id": "6424e07c8ac5472ad4dbddc2",
    "chid": "6424e07c8ac5472ad4dbddc2"
}{
    "type": "Feature",
    "geometry": {
        "type": "Point",
        "coordinates": [
            33.0786558,
            -111.97805625
        ]
    },
    "properties": {
        "ht_label": "15-4B"
    },
    "_id": "6424e07c8ac5472ad4dbddc3",
    "chid": "6424e07c8ac5472ad4dbddc3"
}{
    "type": "Feature",
    "geometry": {
        "type": "Point",
        "coordinates": [
            33.0785656,
            -111.97805703
        ]
    },
    "properties": {
        "ht_label": "15-4C"
    },
    "_id": "6424e07c8ac5472ad4dbddc4",
    "chid": "6424e07c8ac5472ad4dbddc4"
}{
    "type": "Feature",
    "geometry": {
        "type": "Point",
        "coordinates": [
            33.07982926,
            -111.97820067
        ]
    },
    "properties": {
        "ht_label": "16-1A"
    },
    "_id": "6424e07c8ac5472ad4dbddc5",
    "chid": "6424e07c8ac5472ad4dbddc5"
}{
    "type": "Feature",
    "geometry": {
        "type": "Point",
        "coordinates": [
            33.07973906,
            -111.97820118
        ]
    },
    "properties": {
        "ht_label": "16-1B"
    },
    "_id": "6424e07c8ac5472ad4dbddc6",
    "chid": "6424e07c8ac5472ad4dbddc6"
}{
    "type": "Feature",
    "geometry": {
        "type": "Point",
        "coordinates": [
            33.07964885,
            -111.97820154
        ]
    },
    "properties": {
        "ht_label": "16-1C"
    },
    "_id": "6424e07c8ac5472ad4dbddc7",
    "chid": "6424e07c8ac5472ad4dbddc7"
}{
    "type": "Feature",
    "geometry": {
        "type": "Point",
        "coordinates": [
            33.07946843,
            -111.97820284
        ]
    },
    "properties": {
        "ht_label": "16-2A"
    },
    "_id": "6424e07c8ac5472ad4dbddc8",
    "chid": "6424e07c8ac5472ad4dbddc8"
}{
    "type": "Feature",
    "geometry": {
        "type": "Point",
        "coordinates": [
            33.07937822,
            -111.9782036
        ]
    },
    "properties": {
        "ht_label": "16-2B"
    },
    "_id": "6424e07c8ac5472ad4dbddc9",
    "chid": "6424e07c8ac5472ad4dbddc9"
}{
    "type": "Feature",
    "geometry": {
        "type": "Point",
        "coordinates": [
            33.07928801,
            -111.97820381
        ]
    },
    "properties": {
        "ht_label": "16-2C"
    },
    "_id": "6424e07c8ac5472ad4dbddca",
    "chid": "6424e07c8ac5472ad4dbddca"
}{
    "type": "Feature",
    "geometry": {
        "type": "Point",
        "coordinates": [
            33.0791076,
            -111.97820552
        ]
    },
    "properties": {
        "ht_label": "16-3A"
    },
    "_id": "6424e07c8ac5472ad4dbddcb",
    "chid": "6424e07c8ac5472ad4dbddcb"
}{
    "type": "Feature",
    "geometry": {
        "type": "Point",
        "coordinates": [
            33.07901739,
            -111.97820644
        ]
    },
    "properties": {
        "ht_label": "16-3B"
    },
    "_id": "6424e07c8ac5472ad4dbddcc",
    "chid": "6424e07c8ac5472ad4dbddcc"
}{
    "type": "Feature",
    "geometry": {
        "type": "Point",
        "coordinates": [
            33.07892718,
            -111.97820657
        ]
    },
    "properties": {
        "ht_label": "16-3C"
    },
    "_id": "6424e07c8ac5472ad4dbddcd",
    "chid": "6424e07c8ac5472ad4dbddcd"
}{
    "type": "Feature",
    "geometry": {
        "type": "Point",
        "coordinates": [
            33.07874677,
            -111.97820799
        ]
    },
    "properties": {
        "ht_label": "16-4A"
    },
    "_id": "6424e07c8ac5472ad4dbddce",
    "chid": "6424e07c8ac5472ad4dbddce"
}{
    "type": "Feature",
    "geometry": {
        "type": "Point",
        "coordinates": [
            33.07865656,
            -111.97820822
        ]
    },
    "properties": {
        "ht_label": "16-4B"
    },
    "_id": "6424e07c8ac5472ad4dbddcf",
    "chid": "6424e07c8ac5472ad4dbddcf"
}{
    "type": "Feature",
    "geometry": {
        "type": "Point",
        "coordinates": [
            33.07856635,
            -111.97820927
        ]
    },
    "properties": {
        "ht_label": "16-4C"
    },
    "_id": "6424e07c8ac5472ad4dbddd0",
    "chid": "6424e07c8ac5472ad4dbddd0"
}