{
    "type": "FeatureCollection",
    "features": [
        {
            "type": "Feature",
            "geometry": {
                "type": "Point",
                "coordinates": [
                    33.07862777,
                    -111.97593241
                ]
            },
            "properties": {
                "sc_label": "p01-4",
                "SOIL_DATE": "2018-05-22",
                "SNO3": [
                    {
                        "depth": 20,
                        "mindepth": 0,
                        "maxdepth": 40,
                        "value": 3.2
                    },
                    {
                        "depth": 60,
                        "mindepth": 40,
                        "maxdepth": 80,
                        "value": 1.4
                    },
                    {
                        "depth": 100,
                        "mindepth": 80,
                        "maxdepth": 120,
                        "value": 1.6
                    },
                    {
                        "depth": 140,
                        "mindepth": 120,
                        "maxdepth": 160,
                        "value": 3.0
                    },
                    {
                        "depth": 180,
                        "mindepth": 160,
                        "maxdepth": 200,
                        "value": 5.5
                    }
                ]
            },
            "_id": "682396978ac54752f9cbc911",
            "scid": "682396978ac54752f9cbc911"
        },
        {
            "type": "Feature",
            "geometry": {
                "type": "Point",
                "coordinates": [
                    33.07935036,
                    -111.97608109
                ]
            },
            "properties": {
                "sc_label": "p02-2",
                "SOIL_DATE": "2018-05-22",
                "SNO3": [
                    {
                        "depth": 20,
                        "mindepth": 0,
                        "maxdepth": 40,
                        "value": 5.8
                    },
                    {
                        "depth": 60,
                        "mindepth": 40,
                        "maxdepth": 80,
                        "value": 1.1
                    },
                    {
                        "depth": 100,
                        "mindepth": 80,
                        "maxdepth": 120,
                        "value": 0.6
                    },
                    {
                        "depth": 140,
                        "mindepth": 120,
                        "maxdepth": 160,
                        "value": 0.8
                    },
                    {
                        "depth": 180,
                        "mindepth": 160,
                        "maxdepth": 200,
                        "value": 2.1
                    }
                ]
            },
            "_id": "682396978ac54752f9cbc912",
            "scid": "682396978ac54752f9cbc912"
        },
        {
            "type": "Feature",
            "geometry": {
                "type": "Point",
                "coordinates": [
                    33.07935277,
                    -111.97667073
                ]
            },
            "properties": {
                "sc_label": "p06-2",
                "SOIL_DATE": "2018-05-22",
                "SNO3": [
                    {
                        "depth": 20,
                        "mindepth": 0,
                        "maxdepth": 40,
                        "value": 10.4
                    },
                    {
                        "depth": 60,
                        "mindepth": 40,
                        "maxdepth": 80,
                        "value": 7.4
                    },
                    {
                        "depth": 100,
                        "mindepth": 80,
                        "maxdepth": 120,
                        "value": 4.2
                    },
                    {
                        "depth": 140,
                        "mindepth": 120,
                        "maxdepth": 160,
                        "value": 3.5
                    },
                    {
                        "depth": 180,
                        "mindepth": 160,
                        "maxdepth": 200,
                        "value": 3.6
                    }
                ]
            },
            "_id": "682396978ac54752f9cbc913",
            "scid": "682396978ac54752f9cbc913"
        },
        {
            "type": "Feature",
            "geometry": {
                "type": "Point",
                "coordinates": [
                    33.07935419,
                    -111.97696477
                ]
            },
            "properties": {
                "sc_label": "p08-2",
                "SOIL_DATE": "2018-05-22",
                "SNO3": [
                    {
                        "depth": 20,
                        "mindepth": 0,
                        "maxdepth": 40,
                        "value": 5.9
                    },
                    {
                        "depth": 60,
                        "mindepth": 40,
                        "maxdepth": 80,
                        "value": 3.6
                    },
                    {
                        "depth": 100,
                        "mindepth": 80,
                        "maxdepth": 120,
                        "value": 1.4
                    },
                    {
                        "depth": 140,
                        "mindepth": 120,
                        "maxdepth": 160,
                        "value": 7.0
                    },
                    {
                        "depth": 180,
                        "mindepth": 160,
                        "maxdepth": 200,
                        "value": 7.6
                    }
                ]
            },
            "_id": "682396978ac54752f9cbc914",
            "scid": "682396978ac54752f9cbc914"
        },
        {
            "type": "Feature",
            "geometry": {
                "type": "Point",
                "coordinates": [
                    33.07863403,
                    -111.97727336
                ]
            },
            "properties": {
                "sc_label": "p10-4",
                "SOIL_DATE": "2018-05-22",
                "SNO3": [
                    {
                        "depth": 20,
                        "mindepth": 0,
                        "maxdepth": 40,
                        "value": 7.1
                    },
                    {
                        "depth": 60,
                        "mindepth": 40,
                        "maxdepth": 80,
                        "value": 1.3
                    },
                    {
                        "depth": 100,
                        "mindepth": 80,
                        "maxdepth": 120,
                        "value": 1.1
                    },
                    {
                        "depth": 140,
                        "mindepth": 120,
                        "maxdepth": 160,
                        "value": 4.6
                    },
                    {
                        "depth": 180,
                        "mindepth": 160,
                        "maxdepth": 200,
                        "value": 2.1
                    }
                ]
            },
            "_id": "682396978ac54752f9cbc915",
            "scid": "682396978ac54752f9cbc915"
        },
        {
            "type": "Feature",
            "geometry": {
                "type": "Point",
                "coordinates": [
                    33.07971805,
                    -111.97757042
                ]
            },
            "properties": {
                "sc_label": "p12-1",
                "SOIL_DATE": "2018-05-22",
                "SNO3": [
                    {
                        "depth": 20,
                        "mindepth": 0,
                        "maxdepth": 40,
                        "value": 10.2
                    },
                    {
                        "depth": 60,
                        "mindepth": 40,
                        "maxdepth": 80,
                        "value": 3.4
                    },
                    {
                        "depth": 100,
                        "mindepth": 80,
                        "maxdepth": 120,
                        "value": 2.2
                    },
                    {
                        "depth": 140,
                        "mindepth": 120,
                        "maxdepth": 160,
                        "value": 8.3
                    },
                    {
                        "depth": 180,
                        "mindepth": 160,
                        "maxdepth": 200,
                        "value": 14.9
                    }
                ]
            },
            "_id": "682396978ac54752f9cbc916",
            "scid": "682396978ac54752f9cbc916"
        },
        {
            "type": "Feature",
            "geometry": {
                "type": "Point",
                "coordinates": [
                    33.07935948,
                    -111.97802941
                ]
            },
            "properties": {
                "sc_label": "p15-2",
                "SOIL_DATE": "2018-05-22",
                "SNO3": [
                    {
                        "depth": 20,
                        "mindepth": 0,
                        "maxdepth": 40,
                        "value": 9.4
                    },
                    {
                        "depth": 60,
                        "mindepth": 40,
                        "maxdepth": 80,
                        "value": 7.9
                    },
                    {
                        "depth": 100,
                        "mindepth": 80,
                        "maxdepth": 120,
                        "value": 6.6
                    },
                    {
                        "depth": 140,
                        "mindepth": 120,
                        "maxdepth": 160,
                        "value": 4.4
                    },
                    {
                        "depth": 180,
                        "mindepth": 160,
                        "maxdepth": 200,
                        "value": 1.0
                    }
                ]
            },
            "_id": "682396978ac54752f9cbc917",
            "scid": "682396978ac54752f9cbc917"
        }
    ]
}