{
    "type": "Feature",
    "geometry": {
        "type": "Point",
        "coordinates": [
            33.07372887,
            -111.99007053
        ]
    },
    "properties": {
        "ht_label": "p01-1"
    },
    "_id": "643edf688ac547b5ad828dee",
    "chid": "643edf688ac547b5ad828dee"
}{
    "type": "Feature",
    "geometry": {
        "type": "Point",
        "coordinates": [
            33.07420688,
            -111.99007589
        ]
    },
    "properties": {
        "ht_label": "p01-2"
    },
    "_id": "643edf688ac547b5ad828ded",
    "chid": "643edf688ac547b5ad828ded"
}{
    "type": "Feature",
    "geometry": {
        "type": "Point",
        "coordinates": [
            33.07468488,
            -111.99008124
        ]
    },
    "properties": {
        "ht_label": "p01-3"
    },
    "_id": "643edf688ac547b5ad828dec",
    "chid": "643edf688ac547b5ad828dec"
}{
    "type": "Feature",
    "geometry": {
        "type": "Point",
        "coordinates": [
            33.07372766,
            -111.9902229
        ]
    },
    "properties": {
        "ht_label": "p02-1"
    },
    "_id": "643edf688ac547b5ad828df1",
    "chid": "643edf688ac547b5ad828df1"
}{
    "type": "Feature",
    "geometry": {
        "type": "Point",
        "coordinates": [
            33.07420567,
            -111.99022826
        ]
    },
    "properties": {
        "ht_label": "p02-2"
    },
    "_id": "643edf688ac547b5ad828df0",
    "chid": "643edf688ac547b5ad828df0"
}{
    "type": "Feature",
    "geometry": {
        "type": "Point",
        "coordinates": [
            33.07468367,
            -111.99023361
        ]
    },
    "properties": {
        "ht_label": "p02-3"
    },
    "_id": "643edf688ac547b5ad828def",
    "chid": "643edf688ac547b5ad828def"
}{
    "type": "Feature",
    "geometry": {
        "type": "Point",
        "coordinates": [
            33.07372645,
            -111.99037527
        ]
    },
    "properties": {
        "ht_label": "p03-1"
    },
    "_id": "643edf688ac547b5ad828df4",
    "chid": "643edf688ac547b5ad828df4"
}{
    "type": "Feature",
    "geometry": {
        "type": "Point",
        "coordinates": [
            33.07420446,
            -111.99038063
        ]
    },
    "properties": {
        "ht_label": "p03-2"
    },
    "_id": "643edf688ac547b5ad828df3",
    "chid": "643edf688ac547b5ad828df3"
}{
    "type": "Feature",
    "geometry": {
        "type": "Point",
        "coordinates": [
            33.07468246,
            -111.99038598
        ]
    },
    "properties": {
        "ht_label": "p03-3"
    },
    "_id": "643edf688ac547b5ad828df2",
    "chid": "643edf688ac547b5ad828df2"
}{
    "type": "Feature",
    "geometry": {
        "type": "Point",
        "coordinates": [
            33.07372524,
            -111.99052764
        ]
    },
    "properties": {
        "ht_label": "p04-1"
    },
    "_id": "643edf688ac547b5ad828df7",
    "chid": "643edf688ac547b5ad828df7"
}{
    "type": "Feature",
    "geometry": {
        "type": "Point",
        "coordinates": [
            33.07420325,
            -111.990533
        ]
    },
    "properties": {
        "ht_label": "p04-2"
    },
    "_id": "643edf688ac547b5ad828df6",
    "chid": "643edf688ac547b5ad828df6"
}{
    "type": "Feature",
    "geometry": {
        "type": "Point",
        "coordinates": [
            33.07468125,
            -111.99053835
        ]
    },
    "properties": {
        "ht_label": "p04-3"
    },
    "_id": "643edf688ac547b5ad828df5",
    "chid": "643edf688ac547b5ad828df5"
}{
    "type": "Feature",
    "geometry": {
        "type": "Point",
        "coordinates": [
            33.07372403,
            -111.99068001
        ]
    },
    "properties": {
        "ht_label": "p05-1"
    },
    "_id": "643edf688ac547b5ad828dfa",
    "chid": "643edf688ac547b5ad828dfa"
}{
    "type": "Feature",
    "geometry": {
        "type": "Point",
        "coordinates": [
            33.07420204,
            -111.99068537
        ]
    },
    "properties": {
        "ht_label": "p05-2"
    },
    "_id": "643edf688ac547b5ad828df9",
    "chid": "643edf688ac547b5ad828df9"
}{
    "type": "Feature",
    "geometry": {
        "type": "Point",
        "coordinates": [
            33.07468004,
            -111.99069072
        ]
    },
    "properties": {
        "ht_label": "p05-3"
    },
    "_id": "643edf688ac547b5ad828df8",
    "chid": "643edf688ac547b5ad828df8"
}{
    "type": "Feature",
    "geometry": {
        "type": "Point",
        "coordinates": [
            33.07372282,
            -111.99083238
        ]
    },
    "properties": {
        "ht_label": "p06-1"
    },
    "_id": "643edf688ac547b5ad828dfd",
    "chid": "643edf688ac547b5ad828dfd"
}{
    "type": "Feature",
    "geometry": {
        "type": "Point",
        "coordinates": [
            33.07420082,
            -111.99083774
        ]
    },
    "properties": {
        "ht_label": "p06-2"
    },
    "_id": "643edf688ac547b5ad828dfc",
    "chid": "643edf688ac547b5ad828dfc"
}{
    "type": "Feature",
    "geometry": {
        "type": "Point",
        "coordinates": [
            33.07467883,
            -111.9908431
        ]
    },
    "properties": {
        "ht_label": "p06-3"
    },
    "_id": "643edf688ac547b5ad828dfb",
    "chid": "643edf688ac547b5ad828dfb"
}{
    "type": "Feature",
    "geometry": {
        "type": "Point",
        "coordinates": [
            33.07372161,
            -111.99098475
        ]
    },
    "properties": {
        "ht_label": "p07-1"
    },
    "_id": "643edf688ac547b5ad828e00",
    "chid": "643edf688ac547b5ad828e00"
}{
    "type": "Feature",
    "geometry": {
        "type": "Point",
        "coordinates": [
            33.07419961,
            -111.99099011
        ]
    },
    "properties": {
        "ht_label": "p07-2"
    },
    "_id": "643edf688ac547b5ad828dff",
    "chid": "643edf688ac547b5ad828dff"
}{
    "type": "Feature",
    "geometry": {
        "type": "Point",
        "coordinates": [
            33.07467762,
            -111.99099547
        ]
    },
    "properties": {
        "ht_label": "p07-3"
    },
    "_id": "643edf688ac547b5ad828dfe",
    "chid": "643edf688ac547b5ad828dfe"
}{
    "type": "Feature",
    "geometry": {
        "type": "Point",
        "coordinates": [
            33.0737204,
            -111.99113712
        ]
    },
    "properties": {
        "ht_label": "p08-1"
    },
    "_id": "643edf688ac547b5ad828e03",
    "chid": "643edf688ac547b5ad828e03"
}{
    "type": "Feature",
    "geometry": {
        "type": "Point",
        "coordinates": [
            33.0741984,
            -111.99114248
        ]
    },
    "properties": {
        "ht_label": "p08-2"
    },
    "_id": "643edf688ac547b5ad828e02",
    "chid": "643edf688ac547b5ad828e02"
}{
    "type": "Feature",
    "geometry": {
        "type": "Point",
        "coordinates": [
            33.07467641,
            -111.99114784
        ]
    },
    "properties": {
        "ht_label": "p08-3"
    },
    "_id": "643edf688ac547b5ad828e01",
    "chid": "643edf688ac547b5ad828e01"
}{
    "type": "Feature",
    "geometry": {
        "type": "Point",
        "coordinates": [
            33.07371919,
            -111.99128949
        ]
    },
    "properties": {
        "ht_label": "p09-1"
    },
    "_id": "643edf688ac547b5ad828e06",
    "chid": "643edf688ac547b5ad828e06"
}{
    "type": "Feature",
    "geometry": {
        "type": "Point",
        "coordinates": [
            33.07419719,
            -111.99129485
        ]
    },
    "properties": {
        "ht_label": "p09-2"
    },
    "_id": "643edf688ac547b5ad828e05",
    "chid": "643edf688ac547b5ad828e05"
}{
    "type": "Feature",
    "geometry": {
        "type": "Point",
        "coordinates": [
            33.07467519,
            -111.99130021
        ]
    },
    "properties": {
        "ht_label": "p09-3"
    },
    "_id": "643edf688ac547b5ad828e04",
    "chid": "643edf688ac547b5ad828e04"
}{
    "type": "Feature",
    "geometry": {
        "type": "Point",
        "coordinates": [
            33.07371798,
            -111.99144186
        ]
    },
    "properties": {
        "ht_label": "p10-1"
    },
    "_id": "643edf688ac547b5ad828e09",
    "chid": "643edf688ac547b5ad828e09"
}{
    "type": "Feature",
    "geometry": {
        "type": "Point",
        "coordinates": [
            33.07419598,
            -111.99144722
        ]
    },
    "properties": {
        "ht_label": "p10-2"
    },
    "_id": "643edf688ac547b5ad828e08",
    "chid": "643edf688ac547b5ad828e08"
}{
    "type": "Feature",
    "geometry": {
        "type": "Point",
        "coordinates": [
            33.07467398,
            -111.99145258
        ]
    },
    "properties": {
        "ht_label": "p10-3"
    },
    "_id": "643edf688ac547b5ad828e07",
    "chid": "643edf688ac547b5ad828e07"
}{
    "type": "Feature",
    "geometry": {
        "type": "Point",
        "coordinates": [
            33.07371677,
            -111.99159422
        ]
    },
    "properties": {
        "ht_label": "p11-1"
    },
    "_id": "643edf688ac547b5ad828e0c",
    "chid": "643edf688ac547b5ad828e0c"
}{
    "type": "Feature",
    "geometry": {
        "type": "Point",
        "coordinates": [
            33.07419477,
            -111.99159959
        ]
    },
    "properties": {
        "ht_label": "p11-2"
    },
    "_id": "643edf688ac547b5ad828e0b",
    "chid": "643edf688ac547b5ad828e0b"
}{
    "type": "Feature",
    "geometry": {
        "type": "Point",
        "coordinates": [
            33.07467277,
            -111.99160495
        ]
    },
    "properties": {
        "ht_label": "p11-3"
    },
    "_id": "643edf688ac547b5ad828e0a",
    "chid": "643edf688ac547b5ad828e0a"
}{
    "type": "Feature",
    "geometry": {
        "type": "Point",
        "coordinates": [
            33.07371555,
            -111.99174659
        ]
    },
    "properties": {
        "ht_label": "p12-1"
    },
    "_id": "643edf688ac547b5ad828e0f",
    "chid": "643edf688ac547b5ad828e0f"
}{
    "type": "Feature",
    "geometry": {
        "type": "Point",
        "coordinates": [
            33.07419356,
            -111.99175196
        ]
    },
    "properties": {
        "ht_label": "p12-2"
    },
    "_id": "643edf688ac547b5ad828e0e",
    "chid": "643edf688ac547b5ad828e0e"
}{
    "type": "Feature",
    "geometry": {
        "type": "Point",
        "coordinates": [
            33.07467156,
            -111.99175732
        ]
    },
    "properties": {
        "ht_label": "p12-3"
    },
    "_id": "643edf688ac547b5ad828e0d",
    "chid": "643edf688ac547b5ad828e0d"
}{
    "type": "Feature",
    "geometry": {
        "type": "Point",
        "coordinates": [
            33.07371313,
            -111.99205133
        ]
    },
    "properties": {
        "ht_label": "p13-1"
    },
    "_id": "643edf688ac547b5ad828e12",
    "chid": "643edf688ac547b5ad828e12"
}{
    "type": "Feature",
    "geometry": {
        "type": "Point",
        "coordinates": [
            33.07419113,
            -111.9920567
        ]
    },
    "properties": {
        "ht_label": "p13-2"
    },
    "_id": "643edf688ac547b5ad828e11",
    "chid": "643edf688ac547b5ad828e11"
}{
    "type": "Feature",
    "geometry": {
        "type": "Point",
        "coordinates": [
            33.07466913,
            -111.99206206
        ]
    },
    "properties": {
        "ht_label": "p13-3"
    },
    "_id": "643edf688ac547b5ad828e10",
    "chid": "643edf688ac547b5ad828e10"
}{
    "type": "Feature",
    "geometry": {
        "type": "Point",
        "coordinates": [
            33.07371192,
            -111.9922037
        ]
    },
    "properties": {
        "ht_label": "p14-1"
    },
    "_id": "643edf688ac547b5ad828e15",
    "chid": "643edf688ac547b5ad828e15"
}{
    "type": "Feature",
    "geometry": {
        "type": "Point",
        "coordinates": [
            33.07418992,
            -111.99220907
        ]
    },
    "properties": {
        "ht_label": "p14-2"
    },
    "_id": "643edf688ac547b5ad828e14",
    "chid": "643edf688ac547b5ad828e14"
}{
    "type": "Feature",
    "geometry": {
        "type": "Point",
        "coordinates": [
            33.07466792,
            -111.99221443
        ]
    },
    "properties": {
        "ht_label": "p14-3"
    },
    "_id": "643edf688ac547b5ad828e13",
    "chid": "643edf688ac547b5ad828e13"
}{
    "type": "Feature",
    "geometry": {
        "type": "Point",
        "coordinates": [
            33.07371071,
            -111.99235607
        ]
    },
    "properties": {
        "ht_label": "p15-1"
    },
    "_id": "643edf688ac547b5ad828e18",
    "chid": "643edf688ac547b5ad828e18"
}{
    "type": "Feature",
    "geometry": {
        "type": "Point",
        "coordinates": [
            33.07418871,
            -111.99236144
        ]
    },
    "properties": {
        "ht_label": "p15-2"
    },
    "_id": "643edf688ac547b5ad828e17",
    "chid": "643edf688ac547b5ad828e17"
}{
    "type": "Feature",
    "geometry": {
        "type": "Point",
        "coordinates": [
            33.07466671,
            -111.99236681
        ]
    },
    "properties": {
        "ht_label": "p15-3"
    },
    "_id": "643edf688ac547b5ad828e16",
    "chid": "643edf688ac547b5ad828e16"
}{
    "type": "Feature",
    "geometry": {
        "type": "Point",
        "coordinates": [
            33.07370949,
            -111.99250844
        ]
    },
    "properties": {
        "ht_label": "p16-1"
    },
    "_id": "643edf688ac547b5ad828e1b",
    "chid": "643edf688ac547b5ad828e1b"
}{
    "type": "Feature",
    "geometry": {
        "type": "Point",
        "coordinates": [
            33.07418749,
            -111.99251381
        ]
    },
    "properties": {
        "ht_label": "p16-2"
    },
    "_id": "643edf688ac547b5ad828e1a",
    "chid": "643edf688ac547b5ad828e1a"
}{
    "type": "Feature",
    "geometry": {
        "type": "Point",
        "coordinates": [
            33.0746655,
            -111.99251918
        ]
    },
    "properties": {
        "ht_label": "p16-3"
    },
    "_id": "643edf688ac547b5ad828e19",
    "chid": "643edf688ac547b5ad828e19"
}