{
    "type": "FeatureCollection",
    "features": [
        {
            "type": "Feature",
            "geometry": {
                "type": "Polygon",
                "coordinates": [
                    [
                        [
                            -111.99001576,
                            33.07470942
                        ],
                        [
                            -111.99000445,
                            33.0736993
                        ],
                        [
                            -111.99001533,
                            33.07369922
                        ],
                        [
                            -111.99002665,
                            33.07470934
                        ],
                        [
                            -111.99001576,
                            33.07470942
                        ]
                    ]
                ]
            },
            "properties": {
                "pa_label": "p01-S1",
                "PSDATE": "06/10/2009",
                "SQRNUM": 3.8,
                "FLRNUM": 0.0,
                "GBNUM": 0.0,
                "MBNUM": 0.0,
                "LWPD": 3.94,
                "SWPD": 4.0,
                "CWPD": 9.06,
                "LWAD": 833.9,
                "SWAD": 847.2,
                "PWAD": 10.1,
                "CWAD": 1691.1,
                "LAIDL": 1.27
            },
            "_id": "689e0d378ac547e0e8d20102",
            "paid": "689e0d378ac547e0e8d20102"
        },
        {
            "type": "Feature",
            "geometry": {
                "type": "Polygon",
                "coordinates": [
                    [
                        [
                            -111.9903205,
                            33.074707
                        ],
                        [
                            -111.99030919,
                            33.07369688
                        ],
                        [
                            -111.99032007,
                            33.0736968
                        ],
                        [
                            -111.99033139,
                            33.07470692
                        ],
                        [
                            -111.9903205,
                            33.074707
                        ]
                    ]
                ]
            },
            "properties": {
                "pa_label": "p03-S1",
                "PSDATE": "06/10/2009",
                "SQRNUM": 3.1,
                "FLRNUM": 0.0,
                "GBNUM": 0.0,
                "MBNUM": 0.0,
                "LWPD": 4.07,
                "SWPD": 4.16,
                "CWPD": 8.72,
                "LWAD": 819.0,
                "SWAD": 837.4,
                "PWAD": 6.5,
                "CWAD": 1662.9,
                "LAIDL": 1.286
            },
            "_id": "689e0d378ac547e0e8d20103",
            "paid": "689e0d378ac547e0e8d20103"
        },
        {
            "type": "Feature",
            "geometry": {
                "type": "Polygon",
                "coordinates": [
                    [
                        [
                            -111.99062525,
                            33.07470458
                        ],
                        [
                            -111.99061393,
                            33.07369446
                        ],
                        [
                            -111.99062481,
                            33.07369438
                        ],
                        [
                            -111.99063613,
                            33.0747045
                        ],
                        [
                            -111.99062525,
                            33.07470458
                        ]
                    ]
                ]
            },
            "properties": {
                "pa_label": "p05-S1",
                "PSDATE": "06/10/2009",
                "SQRNUM": 3.5,
                "FLRNUM": 0.0,
                "GBNUM": 0.0,
                "MBNUM": 0.0,
                "LWPD": 3.87,
                "SWPD": 3.88,
                "CWPD": 7.92,
                "LWAD": 787.8,
                "SWAD": 791.1,
                "PWAD": 6.6,
                "CWAD": 1585.4,
                "LAIDL": 1.221
            },
            "_id": "689e0d378ac547e0e8d20104",
            "paid": "689e0d378ac547e0e8d20104"
        },
        {
            "type": "Feature",
            "geometry": {
                "type": "Polygon",
                "coordinates": [
                    [
                        [
                            -111.99092999,
                            33.07470216
                        ],
                        [
                            -111.99091866,
                            33.07369204
                        ],
                        [
                            -111.99092955,
                            33.07369196
                        ],
                        [
                            -111.99094087,
                            33.07470207
                        ],
                        [
                            -111.99092999,
                            33.07470216
                        ]
                    ]
                ]
            },
            "properties": {
                "pa_label": "p07-S1",
                "PSDATE": "06/10/2009",
                "SQRNUM": 2.9,
                "FLRNUM": 0.0,
                "GBNUM": 0.0,
                "MBNUM": 0.0,
                "LWPD": 0.43,
                "SWPD": 4.16,
                "CWPD": 8.27,
                "LWAD": 143.3,
                "SWAD": 1374.7,
                "PWAD": 16.9,
                "CWAD": 1535.0,
                "LAIDL": 2.186
            },
            "_id": "689e0d378ac547e0e8d20105",
            "paid": "689e0d378ac547e0e8d20105"
        },
        {
            "type": "Feature",
            "geometry": {
                "type": "Polygon",
                "coordinates": [
                    [
                        [
                            -111.9913871,
                            33.07469853
                        ],
                        [
                            -111.99137577,
                            33.07368841
                        ],
                        [
                            -111.99138666,
                            33.07368832
                        ],
                        [
                            -111.99139799,
                            33.07469844
                        ],
                        [
                            -111.9913871,
                            33.07469853
                        ]
                    ]
                ]
            },
            "properties": {
                "pa_label": "p10-S1",
                "PSDATE": "06/10/2009",
                "SQRNUM": 2.8,
                "FLRNUM": 0.0,
                "GBNUM": 0.0,
                "MBNUM": 0.0,
                "LWPD": 4.01,
                "SWPD": 3.74,
                "CWPD": 8.29,
                "LWAD": 763.5,
                "SWAD": 711.2,
                "PWAD": 5.7,
                "CWAD": 1480.4,
                "LAIDL": 1.144
            },
            "_id": "689e0d378ac547e0e8d20106",
            "paid": "689e0d378ac547e0e8d20106"
        },
        {
            "type": "Feature",
            "geometry": {
                "type": "Polygon",
                "coordinates": [
                    [
                        [
                            -111.99169184,
                            33.0746961
                        ],
                        [
                            -111.99168051,
                            33.07368599
                        ],
                        [
                            -111.99169139,
                            33.0736859
                        ],
                        [
                            -111.99170273,
                            33.07469602
                        ],
                        [
                            -111.99169184,
                            33.0746961
                        ]
                    ]
                ]
            },
            "properties": {
                "pa_label": "p12-S1",
                "PSDATE": "06/10/2009",
                "SQRNUM": 3.4,
                "FLRNUM": 0.0,
                "GBNUM": 0.0,
                "MBNUM": 0.0,
                "LWPD": 4.41,
                "SWPD": 4.16,
                "CWPD": 9.34,
                "LWAD": 854.5,
                "SWAD": 806.0,
                "PWAD": 11.1,
                "CWAD": 1671.7,
                "LAIDL": 1.279
            },
            "_id": "689e0d378ac547e0e8d20107",
            "paid": "689e0d378ac547e0e8d20107"
        },
        {
            "type": "Feature",
            "geometry": {
                "type": "Polygon",
                "coordinates": [
                    [
                        [
                            -111.99199659,
                            33.07469368
                        ],
                        [
                            -111.99198525,
                            33.07368356
                        ],
                        [
                            -111.99199613,
                            33.07368348
                        ],
                        [
                            -111.99200747,
                            33.07469359
                        ],
                        [
                            -111.99199659,
                            33.07469368
                        ]
                    ]
                ]
            },
            "properties": {
                "pa_label": "p13-S1",
                "PSDATE": "06/10/2009",
                "SQRNUM": 3.5,
                "FLRNUM": 0.0,
                "GBNUM": 0.0,
                "MBNUM": 0.0,
                "LWPD": 4.91,
                "SWPD": 5.05,
                "CWPD": 9.94,
                "LWAD": 785.7,
                "SWAD": 808.1,
                "PWAD": 12.2,
                "CWAD": 1606.0,
                "LAIDL": 1.107
            },
            "_id": "689e0d378ac547e0e8d20108",
            "paid": "689e0d378ac547e0e8d20108"
        },
        {
            "type": "Feature",
            "geometry": {
                "type": "Polygon",
                "coordinates": [
                    [
                        [
                            -111.9924537,
                            33.07469004
                        ],
                        [
                            -111.99244236,
                            33.07367992
                        ],
                        [
                            -111.99245324,
                            33.07367984
                        ],
                        [
                            -111.99246458,
                            33.07468996
                        ],
                        [
                            -111.9924537,
                            33.07469004
                        ]
                    ]
                ]
            },
            "properties": {
                "pa_label": "p16-S1",
                "PSDATE": "06/10/2009",
                "SQRNUM": 4.2,
                "FLRNUM": 0.0,
                "GBNUM": 0.0,
                "MBNUM": 0.0,
                "LWPD": 5.21,
                "SWPD": 5.28,
                "CWPD": 11.49,
                "LWAD": 865.6,
                "SWAD": 876.2,
                "PWAD": 19.3,
                "CWAD": 1761.2,
                "LAIDL": 1.348
            },
            "_id": "689e0d378ac547e0e8d20109",
            "paid": "689e0d378ac547e0e8d20109"
        },
        {
            "type": "Feature",
            "geometry": {
                "type": "Polygon",
                "coordinates": [
                    [
                        [
                            -111.99016813,
                            33.07470821
                        ],
                        [
                            -111.99015682,
                            33.07369809
                        ],
                        [
                            -111.9901677,
                            33.07369801
                        ],
                        [
                            -111.99017902,
                            33.07470813
                        ],
                        [
                            -111.99016813,
                            33.07470821
                        ]
                    ]
                ]
            },
            "properties": {
                "pa_label": "p02-S2",
                "PSDATE": "07/07/2009",
                "SQRNUM": 11.9,
                "FLRNUM": 0.4,
                "GBNUM": 2.6,
                "MBNUM": 0.0,
                "LWPD": 10.36,
                "SWPD": 13.39,
                "CWPD": 27.23,
                "LWAD": 2246.9,
                "SWAD": 2904.0,
                "PWAD": 476.5,
                "CWAD": 5627.5,
                "LAIDL": 4.592
            },
            "_id": "689e0d378ac547e0e8d2010a",
            "paid": "689e0d378ac547e0e8d2010a"
        },
        {
            "type": "Feature",
            "geometry": {
                "type": "Polygon",
                "coordinates": [
                    [
                        [
                            -111.99047288,
                            33.07470579
                        ],
                        [
                            -111.99046156,
                            33.07369567
                        ],
                        [
                            -111.99047244,
                            33.07369559
                        ],
                        [
                            -111.99048376,
                            33.07470571
                        ],
                        [
                            -111.99047288,
                            33.07470579
                        ]
                    ]
                ]
            },
            "properties": {
                "pa_label": "p04-S2",
                "PSDATE": "07/07/2009",
                "SQRNUM": 15.4,
                "FLRNUM": 0.5,
                "GBNUM": 1.9,
                "MBNUM": 0.0,
                "LWPD": 13.33,
                "SWPD": 17.19,
                "CWPD": 142.85,
                "LWAD": 2304.6,
                "SWAD": 2971.7,
                "PWAD": 347.8,
                "CWAD": 5624.1,
                "LAIDL": 4.578
            },
            "_id": "689e0d378ac547e0e8d2010b",
            "paid": "689e0d378ac547e0e8d2010b"
        },
        {
            "type": "Feature",
            "geometry": {
                "type": "Polygon",
                "coordinates": [
                    [
                        [
                            -111.99077762,
                            33.07470337
                        ],
                        [
                            -111.99076629,
                            33.07369325
                        ],
                        [
                            -111.99077718,
                            33.07369317
                        ],
                        [
                            -111.9907885,
                            33.07470329
                        ],
                        [
                            -111.99077762,
                            33.07470337
                        ]
                    ]
                ]
            },
            "properties": {
                "pa_label": "p06-S2",
                "PSDATE": "07/07/2009",
                "SQRNUM": 12.9,
                "FLRNUM": 0.6,
                "GBNUM": 3.0,
                "MBNUM": 0.0,
                "LWPD": 12.03,
                "SWPD": 14.85,
                "CWPD": 26.95,
                "LWAD": 1948.7,
                "SWAD": 2405.2,
                "PWAD": 420.7,
                "CWAD": 4774.6,
                "LAIDL": 3.825
            },
            "_id": "689e0d378ac547e0e8d2010c",
            "paid": "689e0d378ac547e0e8d2010c"
        },
        {
            "type": "Feature",
            "geometry": {
                "type": "Polygon",
                "coordinates": [
                    [
                        [
                            -111.99108236,
                            33.07470095
                        ],
                        [
                            -111.99107103,
                            33.07369083
                        ],
                        [
                            -111.99108192,
                            33.07369074
                        ],
                        [
                            -111.99109324,
                            33.07470086
                        ],
                        [
                            -111.99108236,
                            33.07470095
                        ]
                    ]
                ]
            },
            "properties": {
                "pa_label": "p08-S2",
                "PSDATE": "07/07/2009",
                "SQRNUM": 15.9,
                "FLRNUM": 0.8,
                "GBNUM": 1.8,
                "MBNUM": 0.0,
                "LWPD": 12.44,
                "SWPD": 16.29,
                "CWPD": 31.69,
                "LWAD": 2373.0,
                "SWAD": 3106.8,
                "PWAD": 446.0,
                "CWAD": 5925.8,
                "LAIDL": 4.615
            },
            "_id": "689e0d378ac547e0e8d2010d",
            "paid": "689e0d378ac547e0e8d2010d"
        },
        {
            "type": "Feature",
            "geometry": {
                "type": "Polygon",
                "coordinates": [
                    [
                        [
                            -111.99123473,
                            33.07469974
                        ],
                        [
                            -111.9912234,
                            33.07368962
                        ],
                        [
                            -111.99123429,
                            33.07368953
                        ],
                        [
                            -111.99124561,
                            33.07469965
                        ],
                        [
                            -111.99123473,
                            33.07469974
                        ]
                    ]
                ]
            },
            "properties": {
                "pa_label": "p09-S2",
                "PSDATE": "07/07/2009",
                "SQRNUM": 10.5,
                "FLRNUM": 0.4,
                "GBNUM": 1.5,
                "MBNUM": 0.0,
                "LWPD": 9.79,
                "SWPD": 11.23,
                "CWPD": 24.95,
                "LWAD": 2435.5,
                "SWAD": 2792.4,
                "PWAD": 419.1,
                "CWAD": 5647.0,
                "LAIDL": 4.21
            },
            "_id": "689e0d378ac547e0e8d2010e",
            "paid": "689e0d378ac547e0e8d2010e"
        },
        {
            "type": "Feature",
            "geometry": {
                "type": "Polygon",
                "coordinates": [
                    [
                        [
                            -111.99153947,
                            33.07469732
                        ],
                        [
                            -111.99152814,
                            33.0736872
                        ],
                        [
                            -111.99153902,
                            33.07368711
                        ],
                        [
                            -111.99155036,
                            33.07469723
                        ],
                        [
                            -111.99153947,
                            33.07469732
                        ]
                    ]
                ]
            },
            "properties": {
                "pa_label": "p11-S2",
                "PSDATE": "07/07/2009",
                "SQRNUM": 9.8,
                "FLRNUM": 0.2,
                "GBNUM": 2.4,
                "MBNUM": 0.0,
                "LWPD": 10.07,
                "SWPD": 12.52,
                "CWPD": 25.67,
                "LWAD": 2528.8,
                "SWAD": 3144.2,
                "PWAD": 389.8,
                "CWAD": 6062.8,
                "LAIDL": 4.759
            },
            "_id": "689e0d378ac547e0e8d2010f",
            "paid": "689e0d378ac547e0e8d2010f"
        },
        {
            "type": "Feature",
            "geometry": {
                "type": "Polygon",
                "coordinates": [
                    [
                        [
                            -111.99214896,
                            33.07469247
                        ],
                        [
                            -111.99213762,
                            33.07368235
                        ],
                        [
                            -111.9921485,
                            33.07368226
                        ],
                        [
                            -111.99215984,
                            33.07469238
                        ],
                        [
                            -111.99214896,
                            33.07469247
                        ]
                    ]
                ]
            },
            "properties": {
                "pa_label": "p14-S2",
                "PSDATE": "07/07/2009",
                "SQRNUM": 16.0,
                "FLRNUM": 0.9,
                "GBNUM": 3.9,
                "MBNUM": 0.0,
                "LWPD": 14.55,
                "SWPD": 18.45,
                "CWPD": 35.53,
                "LWAD": 2604.2,
                "SWAD": 3301.7,
                "PWAD": 739.1,
                "CWAD": 6645.0,
                "LAIDL": 4.254
            },
            "_id": "689e0d378ac547e0e8d20110",
            "paid": "689e0d378ac547e0e8d20110"
        },
        {
            "type": "Feature",
            "geometry": {
                "type": "Polygon",
                "coordinates": [
                    [
                        [
                            -111.99230133,
                            33.07469126
                        ],
                        [
                            -111.99228999,
                            33.07368114
                        ],
                        [
                            -111.99230087,
                            33.07368105
                        ],
                        [
                            -111.99231221,
                            33.07469117
                        ],
                        [
                            -111.99230133,
                            33.07469126
                        ]
                    ]
                ]
            },
            "properties": {
                "pa_label": "p15-S2",
                "PSDATE": "07/07/2009",
                "SQRNUM": 9.1,
                "FLRNUM": 0.8,
                "GBNUM": 2.8,
                "MBNUM": 0.0,
                "LWPD": 9.88,
                "SWPD": 11.47,
                "CWPD": 24.14,
                "LWAD": 2743.6,
                "SWAD": 3184.2,
                "PWAD": 724.8,
                "CWAD": 6652.7,
                "LAIDL": 5.109
            },
            "_id": "689e0d378ac547e0e8d20111",
            "paid": "689e0d378ac547e0e8d20111"
        },
        {
            "type": "Feature",
            "geometry": {
                "type": "Polygon",
                "coordinates": [
                    [
                        [
                            -111.99001576,
                            33.07470942
                        ],
                        [
                            -111.99000445,
                            33.0736993
                        ],
                        [
                            -111.99001533,
                            33.07369922
                        ],
                        [
                            -111.99002665,
                            33.07470934
                        ],
                        [
                            -111.99001576,
                            33.07470942
                        ]
                    ]
                ]
            },
            "properties": {
                "pa_label": "p01-S3",
                "PSDATE": "08/10/2009",
                "SQRNUM": 2.4,
                "FLRNUM": 0.2,
                "GBNUM": 8.1,
                "MBNUM": 0.0,
                "LWPD": 17.79,
                "SWPD": 25.66,
                "CWPD": 66.42,
                "LWAD": 3364.2,
                "SWAD": 4852.1,
                "PWAD": 4205.3,
                "CWAD": 12421.6,
                "LAIDL": 5.844
            },
            "_id": "689e0d378ac547e0e8d20112",
            "paid": "689e0d378ac547e0e8d20112"
        },
        {
            "type": "Feature",
            "geometry": {
                "type": "Polygon",
                "coordinates": [
                    [
                        [
                            -111.9903205,
                            33.074707
                        ],
                        [
                            -111.99030919,
                            33.07369688
                        ],
                        [
                            -111.99032007,
                            33.0736968
                        ],
                        [
                            -111.99033139,
                            33.07470692
                        ],
                        [
                            -111.9903205,
                            33.074707
                        ]
                    ]
                ]
            },
            "properties": {
                "pa_label": "p03-S3",
                "PSDATE": "08/10/2009",
                "SQRNUM": 12.2,
                "FLRNUM": 0.6,
                "GBNUM": 7.2,
                "MBNUM": 0.0,
                "LWPD": 20.41,
                "SWPD": 27.65,
                "CWPD": 69.99,
                "LWAD": 4161.7,
                "SWAD": 5637.7,
                "PWAD": 3978.0,
                "CWAD": 13777.4,
                "LAIDL": 7.205
            },
            "_id": "689e0d378ac547e0e8d20113",
            "paid": "689e0d378ac547e0e8d20113"
        },
        {
            "type": "Feature",
            "geometry": {
                "type": "Polygon",
                "coordinates": [
                    [
                        [
                            -111.99062525,
                            33.07470458
                        ],
                        [
                            -111.99061393,
                            33.07369446
                        ],
                        [
                            -111.99062481,
                            33.07369438
                        ],
                        [
                            -111.99063613,
                            33.0747045
                        ],
                        [
                            -111.99062525,
                            33.07470458
                        ]
                    ]
                ]
            },
            "properties": {
                "pa_label": "p05-S3",
                "PSDATE": "08/10/2009",
                "SQRNUM": 3.2,
                "FLRNUM": 0.0,
                "GBNUM": 7.9,
                "MBNUM": 0.0,
                "LWPD": 19.23,
                "SWPD": 28.72,
                "CWPD": 65.39,
                "LWAD": 4007.5,
                "SWAD": 5986.7,
                "PWAD": 5452.4,
                "CWAD": 15446.6,
                "LAIDL": 7.614
            },
            "_id": "689e0d378ac547e0e8d20114",
            "paid": "689e0d378ac547e0e8d20114"
        },
        {
            "type": "Feature",
            "geometry": {
                "type": "Polygon",
                "coordinates": [
                    [
                        [
                            -111.99092999,
                            33.07470216
                        ],
                        [
                            -111.99091866,
                            33.07369204
                        ],
                        [
                            -111.99092955,
                            33.07369196
                        ],
                        [
                            -111.99094087,
                            33.07470207
                        ],
                        [
                            -111.99092999,
                            33.07470216
                        ]
                    ]
                ]
            },
            "properties": {
                "pa_label": "p07-S3",
                "PSDATE": "08/10/2009",
                "SQRNUM": 8.0,
                "FLRNUM": 0.0,
                "GBNUM": 6.6,
                "MBNUM": 0.0,
                "LWPD": 22.67,
                "SWPD": 32.33,
                "CWPD": 71.42,
                "LWAD": 4293.8,
                "SWAD": 6122.7,
                "PWAD": 4345.7,
                "CWAD": 14762.2,
                "LAIDL": 7.074
            },
            "_id": "689e0d378ac547e0e8d20115",
            "paid": "689e0d378ac547e0e8d20115"
        },
        {
            "type": "Feature",
            "geometry": {
                "type": "Polygon",
                "coordinates": [
                    [
                        [
                            -111.9913871,
                            33.07469853
                        ],
                        [
                            -111.99137577,
                            33.07368841
                        ],
                        [
                            -111.99138666,
                            33.07368832
                        ],
                        [
                            -111.99139799,
                            33.07469844
                        ],
                        [
                            -111.9913871,
                            33.07469853
                        ]
                    ]
                ]
            },
            "properties": {
                "pa_label": "p10-S3",
                "PSDATE": "08/10/2009",
                "SQRNUM": 1.5,
                "FLRNUM": 0.1,
                "GBNUM": 6.4,
                "MBNUM": 0.0,
                "LWPD": 16.73,
                "SWPD": 24.12,
                "CWPD": 67.51,
                "LWAD": 3958.9,
                "SWAD": 5706.3,
                "PWAD": 4953.3,
                "CWAD": 14618.4,
                "LAIDL": 6.781
            },
            "_id": "689e0d378ac547e0e8d20116",
            "paid": "689e0d378ac547e0e8d20116"
        },
        {
            "type": "Feature",
            "geometry": {
                "type": "Polygon",
                "coordinates": [
                    [
                        [
                            -111.99169184,
                            33.0746961
                        ],
                        [
                            -111.99168051,
                            33.07368599
                        ],
                        [
                            -111.99169139,
                            33.0736859
                        ],
                        [
                            -111.99170273,
                            33.07469602
                        ],
                        [
                            -111.99169184,
                            33.0746961
                        ]
                    ]
                ]
            },
            "properties": {
                "pa_label": "p12-S3",
                "PSDATE": "08/10/2009",
                "SQRNUM": 3.4,
                "FLRNUM": 0.0,
                "GBNUM": 5.5,
                "MBNUM": 0.0,
                "LWPD": 18.49,
                "SWPD": 29.85,
                "CWPD": 65.97,
                "LWAD": 4394.8,
                "SWAD": 7094.1,
                "PWAD": 5394.1,
                "CWAD": 16883.1,
                "LAIDL": 7.187
            },
            "_id": "689e0d378ac547e0e8d20117",
            "paid": "689e0d378ac547e0e8d20117"
        },
        {
            "type": "Feature",
            "geometry": {
                "type": "Polygon",
                "coordinates": [
                    [
                        [
                            -111.99199659,
                            33.07469368
                        ],
                        [
                            -111.99198525,
                            33.07368356
                        ],
                        [
                            -111.99199613,
                            33.07368348
                        ],
                        [
                            -111.99200747,
                            33.07469359
                        ],
                        [
                            -111.99199659,
                            33.07469368
                        ]
                    ]
                ]
            },
            "properties": {
                "pa_label": "p13-S3",
                "PSDATE": "08/10/2009",
                "SQRNUM": 8.5,
                "FLRNUM": 0.6,
                "GBNUM": 7.6,
                "MBNUM": 0.0,
                "LWPD": 19.76,
                "SWPD": 24.69,
                "CWPD": 77.76,
                "LWAD": 4431.3,
                "SWAD": 5536.1,
                "PWAD": 5340.2,
                "CWAD": 15307.5,
                "LAIDL": 7.179
            },
            "_id": "689e0d378ac547e0e8d20118",
            "paid": "689e0d378ac547e0e8d20118"
        },
        {
            "type": "Feature",
            "geometry": {
                "type": "Polygon",
                "coordinates": [
                    [
                        [
                            -111.9924537,
                            33.07469004
                        ],
                        [
                            -111.99244236,
                            33.07367992
                        ],
                        [
                            -111.99245324,
                            33.07367984
                        ],
                        [
                            -111.99246458,
                            33.07468996
                        ],
                        [
                            -111.9924537,
                            33.07469004
                        ]
                    ]
                ]
            },
            "properties": {
                "pa_label": "p16-S3",
                "PSDATE": "08/10/2009",
                "SQRNUM": 1.9,
                "FLRNUM": 0.1,
                "GBNUM": 6.9,
                "MBNUM": 0.0,
                "LWPD": 15.46,
                "SWPD": 23.48,
                "CWPD": 59.73,
                "LWAD": 3506.6,
                "SWAD": 5325.7,
                "PWAD": 5278.1,
                "CWAD": 14110.3,
                "LAIDL": 5.707
            },
            "_id": "689e0d378ac547e0e8d20119",
            "paid": "689e0d378ac547e0e8d20119"
        },
        {
            "type": "Feature",
            "geometry": {
                "type": "Polygon",
                "coordinates": [
                    [
                        [
                            -111.99016813,
                            33.07470821
                        ],
                        [
                            -111.99015682,
                            33.07369809
                        ],
                        [
                            -111.9901677,
                            33.07369801
                        ],
                        [
                            -111.99017902,
                            33.07470813
                        ],
                        [
                            -111.99016813,
                            33.07470821
                        ]
                    ]
                ]
            },
            "properties": {
                "pa_label": "p02-S4",
                "PSDATE": "08/31/2009",
                "SQRNUM": 5.6,
                "FLRNUM": 0.2,
                "GBNUM": 8.9,
                "MBNUM": 2.1,
                "LWPD": 16.93,
                "SWPD": 30.01,
                "CWPD": 85.22,
                "LWAD": 3755.9,
                "SWAD": 6656.9,
                "PWAD": 8039.8,
                "CWAD": 18452.7,
                "LAIDL": 6.776
            },
            "_id": "689e0d378ac547e0e8d2011a",
            "paid": "689e0d378ac547e0e8d2011a"
        },
        {
            "type": "Feature",
            "geometry": {
                "type": "Polygon",
                "coordinates": [
                    [
                        [
                            -111.99047288,
                            33.07470579
                        ],
                        [
                            -111.99046156,
                            33.07369567
                        ],
                        [
                            -111.99047244,
                            33.07369559
                        ],
                        [
                            -111.99048376,
                            33.07470571
                        ],
                        [
                            -111.99047288,
                            33.07470579
                        ]
                    ]
                ]
            },
            "properties": {
                "pa_label": "p04-S4",
                "PSDATE": "08/31/2009",
                "SQRNUM": 6.2,
                "FLRNUM": 0.1,
                "GBNUM": 5.1,
                "MBNUM": 3.6,
                "LWPD": 19.73,
                "SWPD": 32.04,
                "CWPD": 107.25,
                "LWAD": 4102.4,
                "SWAD": 6663.8,
                "PWAD": 8235.6,
                "CWAD": 19001.9,
                "LAIDL": 7.166
            },
            "_id": "689e0d378ac547e0e8d2011b",
            "paid": "689e0d378ac547e0e8d2011b"
        },
        {
            "type": "Feature",
            "geometry": {
                "type": "Polygon",
                "coordinates": [
                    [
                        [
                            -111.99077762,
                            33.07470337
                        ],
                        [
                            -111.99076629,
                            33.07369325
                        ],
                        [
                            -111.99077718,
                            33.07369317
                        ],
                        [
                            -111.9907885,
                            33.07470329
                        ],
                        [
                            -111.99077762,
                            33.07470337
                        ]
                    ]
                ]
            },
            "properties": {
                "pa_label": "p06-S4",
                "PSDATE": "08/31/2009",
                "SQRNUM": 9.4,
                "FLRNUM": 0.4,
                "GBNUM": 7.2,
                "MBNUM": 2.8,
                "LWPD": 18.98,
                "SWPD": 35.86,
                "CWPD": 80.97,
                "LWAD": 4117.1,
                "SWAD": 7779.7,
                "PWAD": 4839.1,
                "CWAD": 16735.9,
                "LAIDL": 7.574
            },
            "_id": "689e0d378ac547e0e8d2011c",
            "paid": "689e0d378ac547e0e8d2011c"
        },
        {
            "type": "Feature",
            "geometry": {
                "type": "Polygon",
                "coordinates": [
                    [
                        [
                            -111.99108236,
                            33.07470095
                        ],
                        [
                            -111.99107103,
                            33.07369083
                        ],
                        [
                            -111.99108192,
                            33.07369074
                        ],
                        [
                            -111.99109324,
                            33.07470086
                        ],
                        [
                            -111.99108236,
                            33.07470095
                        ]
                    ]
                ]
            },
            "properties": {
                "pa_label": "p08-S4",
                "PSDATE": "08/31/2009",
                "SQRNUM": 6.0,
                "FLRNUM": 0.0,
                "GBNUM": 5.5,
                "MBNUM": 3.4,
                "LWPD": 19.5,
                "SWPD": 30.95,
                "CWPD": 85.37,
                "LWAD": 3652.6,
                "SWAD": 5798.4,
                "PWAD": 6513.8,
                "CWAD": 15964.8,
                "LAIDL": 5.874
            },
            "_id": "689e0d378ac547e0e8d2011d",
            "paid": "689e0d378ac547e0e8d2011d"
        },
        {
            "type": "Feature",
            "geometry": {
                "type": "Polygon",
                "coordinates": [
                    [
                        [
                            -111.99123473,
                            33.07469974
                        ],
                        [
                            -111.9912234,
                            33.07368962
                        ],
                        [
                            -111.99123429,
                            33.07368953
                        ],
                        [
                            -111.99124561,
                            33.07469965
                        ],
                        [
                            -111.99123473,
                            33.07469974
                        ]
                    ]
                ]
            },
            "properties": {
                "pa_label": "p09-S4",
                "PSDATE": "08/31/2009",
                "SQRNUM": 6.8,
                "FLRNUM": 0.1,
                "GBNUM": 11.0,
                "MBNUM": 2.9,
                "LWPD": 20.36,
                "SWPD": 34.84,
                "CWPD": 92.39,
                "LWAD": 4325.8,
                "SWAD": 7403.1,
                "PWAD": 6458.7,
                "CWAD": 18187.6,
                "LAIDL": 7.482
            },
            "_id": "689e0d378ac547e0e8d2011e",
            "paid": "689e0d378ac547e0e8d2011e"
        },
        {
            "type": "Feature",
            "geometry": {
                "type": "Polygon",
                "coordinates": [
                    [
                        [
                            -111.99153947,
                            33.07469732
                        ],
                        [
                            -111.99152814,
                            33.0736872
                        ],
                        [
                            -111.99153902,
                            33.07368711
                        ],
                        [
                            -111.99155036,
                            33.07469723
                        ],
                        [
                            -111.99153947,
                            33.07469732
                        ]
                    ]
                ]
            },
            "properties": {
                "pa_label": "p11-S4",
                "PSDATE": "08/31/2009",
                "SQRNUM": 6.4,
                "FLRNUM": 0.1,
                "GBNUM": 8.5,
                "MBNUM": 3.6,
                "LWPD": 21.68,
                "SWPD": 43.22,
                "CWPD": 97.62,
                "LWAD": 4308.6,
                "SWAD": 8587.9,
                "PWAD": 7280.8,
                "CWAD": 20177.3,
                "LAIDL": 7.57
            },
            "_id": "689e0d378ac547e0e8d2011f",
            "paid": "689e0d378ac547e0e8d2011f"
        },
        {
            "type": "Feature",
            "geometry": {
                "type": "Polygon",
                "coordinates": [
                    [
                        [
                            -111.99214896,
                            33.07469247
                        ],
                        [
                            -111.99213762,
                            33.07368235
                        ],
                        [
                            -111.9921485,
                            33.07368226
                        ],
                        [
                            -111.99215984,
                            33.07469238
                        ],
                        [
                            -111.99214896,
                            33.07469247
                        ]
                    ]
                ]
            },
            "properties": {
                "pa_label": "p14-S4",
                "PSDATE": "08/31/2009",
                "SQRNUM": 11.6,
                "FLRNUM": 0.1,
                "GBNUM": 3.5,
                "MBNUM": 4.5,
                "LWPD": 20.91,
                "SWPD": 33.58,
                "CWPD": 95.08,
                "LWAD": 4885.0,
                "SWAD": 7842.9,
                "PWAD": 7859.5,
                "CWAD": 20587.4,
                "LAIDL": 7.954
            },
            "_id": "689e0d378ac547e0e8d20120",
            "paid": "689e0d378ac547e0e8d20120"
        },
        {
            "type": "Feature",
            "geometry": {
                "type": "Polygon",
                "coordinates": [
                    [
                        [
                            -111.99230133,
                            33.07469126
                        ],
                        [
                            -111.99228999,
                            33.07368114
                        ],
                        [
                            -111.99230087,
                            33.07368105
                        ],
                        [
                            -111.99231221,
                            33.07469117
                        ],
                        [
                            -111.99230133,
                            33.07469126
                        ]
                    ]
                ]
            },
            "properties": {
                "pa_label": "p15-S4",
                "PSDATE": "08/31/2009",
                "SQRNUM": 11.1,
                "FLRNUM": 0.2,
                "GBNUM": 3.6,
                "MBNUM": 4.8,
                "LWPD": 20.29,
                "SWPD": 30.62,
                "CWPD": 102.23,
                "LWAD": 4321.0,
                "SWAD": 6519.5,
                "PWAD": 7270.7,
                "CWAD": 18111.2,
                "LAIDL": 7.04
            },
            "_id": "689e0d378ac547e0e8d20121",
            "paid": "689e0d378ac547e0e8d20121"
        }
    ]
}