{
    "type": "Feature",
    "geometry": {
        "type": "Point",
        "coordinates": [
            33.07372887,
            -111.99007053
        ]
    },
    "properties": {
        "cc_label": "p01-1",
        "CHTD": {
            "2009154": 0.35,
            "2009163": 0.55,
            "2009174": 0.64,
            "2009187": 0.87,
            "2009194": 0.95,
            "2009219": 1.21
        },
        "CWID": {
            "2009154": 0.33,
            "2009163": 0.45,
            "2009174": 0.59,
            "2009187": 0.69,
            "2009194": 0.75,
            "2009219": 1.02
        }
    },
    "_id": "643edf688ac547b5ad828dee",
    "ccid": "643edf688ac547b5ad828dee"
}{
    "type": "Feature",
    "geometry": {
        "type": "Point",
        "coordinates": [
            33.07420688,
            -111.99007589
        ]
    },
    "properties": {
        "cc_label": "p01-2",
        "CHTD": {
            "2009154": 0.42,
            "2009163": 0.53,
            "2009174": 0.63,
            "2009187": 0.94,
            "2009194": 1.11,
            "2009219": 1.41
        },
        "CWID": {
            "2009154": 0.35,
            "2009163": 0.45,
            "2009174": 0.55,
            "2009187": 0.9,
            "2009194": 0.96,
            "2009219": 1.02
        }
    },
    "_id": "643edf688ac547b5ad828ded",
    "ccid": "643edf688ac547b5ad828ded"
}{
    "type": "Feature",
    "geometry": {
        "type": "Point",
        "coordinates": [
            33.07468488,
            -111.99008124
        ]
    },
    "properties": {
        "cc_label": "p01-3",
        "CHTD": {
            "2009154": 0.44,
            "2009163": 0.57,
            "2009174": 0.71,
            "2009187": 1.03,
            "2009194": 1.17,
            "2009219": 1.32
        },
        "CWID": {
            "2009154": 0.3,
            "2009163": 0.48,
            "2009174": 0.56,
            "2009187": 0.89,
            "2009194": 0.93,
            "2009219": 1.02
        }
    },
    "_id": "643edf688ac547b5ad828dec",
    "ccid": "643edf688ac547b5ad828dec"
}{
    "type": "Feature",
    "geometry": {
        "type": "Point",
        "coordinates": [
            33.07372766,
            -111.9902229
        ]
    },
    "properties": {
        "cc_label": "p02-1",
        "CHTD": {
            "2009154": 0.43,
            "2009163": 0.61,
            "2009174": 0.77,
            "2009187": 1.02,
            "2009219": 1.3
        },
        "CWID": {
            "2009154": 0.35,
            "2009163": 0.52,
            "2009174": 0.61,
            "2009187": 0.89,
            "2009219": 1.02
        }
    },
    "_id": "643edf688ac547b5ad828df1",
    "ccid": "643edf688ac547b5ad828df1"
}{
    "type": "Feature",
    "geometry": {
        "type": "Point",
        "coordinates": [
            33.07420567,
            -111.99022826
        ]
    },
    "properties": {
        "cc_label": "p02-2",
        "CHTD": {
            "2009154": 0.44,
            "2009163": 0.63,
            "2009174": 0.73,
            "2009187": 1.02,
            "2009219": 1.37
        },
        "CWID": {
            "2009154": 0.34,
            "2009163": 0.51,
            "2009174": 0.58,
            "2009187": 0.97,
            "2009219": 1.02
        }
    },
    "_id": "643edf688ac547b5ad828df0",
    "ccid": "643edf688ac547b5ad828df0"
}{
    "type": "Feature",
    "geometry": {
        "type": "Point",
        "coordinates": [
            33.07468367,
            -111.99023361
        ]
    },
    "properties": {
        "cc_label": "p02-3",
        "CHTD": {
            "2009154": 0.45,
            "2009163": 0.62,
            "2009174": 0.74,
            "2009187": 1.01,
            "2009219": 1.26
        },
        "CWID": {
            "2009154": 0.36,
            "2009163": 0.49,
            "2009174": 0.65,
            "2009187": 0.83,
            "2009219": 1.02
        }
    },
    "_id": "643edf688ac547b5ad828def",
    "ccid": "643edf688ac547b5ad828def"
}{
    "type": "Feature",
    "geometry": {
        "type": "Point",
        "coordinates": [
            33.07372645,
            -111.99037527
        ]
    },
    "properties": {
        "cc_label": "p03-1",
        "CHTD": {
            "2009154": 0.41,
            "2009163": 0.61,
            "2009174": 0.72,
            "2009187": 0.89,
            "2009194": 1.07,
            "2009219": 1.32
        },
        "CWID": {
            "2009154": 0.32,
            "2009163": 0.53,
            "2009174": 0.53,
            "2009187": 0.73,
            "2009194": 0.89,
            "2009219": 1.02
        }
    },
    "_id": "643edf688ac547b5ad828df4",
    "ccid": "643edf688ac547b5ad828df4"
}{
    "type": "Feature",
    "geometry": {
        "type": "Point",
        "coordinates": [
            33.07420446,
            -111.99038063
        ]
    },
    "properties": {
        "cc_label": "p03-2",
        "CHTD": {
            "2009154": 0.48,
            "2009163": 0.62,
            "2009174": 0.67,
            "2009187": 0.93,
            "2009194": 1.06,
            "2009219": 1.44
        },
        "CWID": {
            "2009154": 0.36,
            "2009163": 0.51,
            "2009174": 0.56,
            "2009187": 0.77,
            "2009194": 0.84,
            "2009219": 1.02
        }
    },
    "_id": "643edf688ac547b5ad828df3",
    "ccid": "643edf688ac547b5ad828df3"
}{
    "type": "Feature",
    "geometry": {
        "type": "Point",
        "coordinates": [
            33.07468246,
            -111.99038598
        ]
    },
    "properties": {
        "cc_label": "p03-3",
        "CHTD": {
            "2009154": 0.46,
            "2009163": 0.64,
            "2009174": 0.7,
            "2009187": 0.95,
            "2009194": 1.1,
            "2009219": 1.32
        },
        "CWID": {
            "2009154": 0.33,
            "2009163": 0.56,
            "2009174": 0.57,
            "2009187": 0.75,
            "2009194": 0.91,
            "2009219": 1.02
        }
    },
    "_id": "643edf688ac547b5ad828df2",
    "ccid": "643edf688ac547b5ad828df2"
}{
    "type": "Feature",
    "geometry": {
        "type": "Point",
        "coordinates": [
            33.07372524,
            -111.99052764
        ]
    },
    "properties": {
        "cc_label": "p04-1",
        "CHTD": {
            "2009154": 0.36,
            "2009163": 0.55,
            "2009174": 0.77,
            "2009187": 1.15,
            "2009194": 1.3,
            "2009219": 1.55
        },
        "CWID": {
            "2009154": 0.3,
            "2009163": 0.48,
            "2009174": 0.6,
            "2009187": 1.03,
            "2009194": 1.1,
            "2009219": 1.02
        }
    },
    "_id": "643edf688ac547b5ad828df7",
    "ccid": "643edf688ac547b5ad828df7"
}{
    "type": "Feature",
    "geometry": {
        "type": "Point",
        "coordinates": [
            33.07420325,
            -111.990533
        ]
    },
    "properties": {
        "cc_label": "p04-2",
        "CHTD": {
            "2009154": 0.44,
            "2009163": 0.59,
            "2009174": 0.73,
            "2009187": 1.14,
            "2009194": 1.32,
            "2009219": 1.51
        },
        "CWID": {
            "2009154": 0.31,
            "2009163": 0.48,
            "2009174": 0.61,
            "2009187": 0.99,
            "2009194": 1.04,
            "2009219": 1.02
        }
    },
    "_id": "643edf688ac547b5ad828df6",
    "ccid": "643edf688ac547b5ad828df6"
}{
    "type": "Feature",
    "geometry": {
        "type": "Point",
        "coordinates": [
            33.07468125,
            -111.99053835
        ]
    },
    "properties": {
        "cc_label": "p04-3",
        "CHTD": {
            "2009154": 0.39,
            "2009163": 0.54,
            "2009174": 0.67,
            "2009187": 1.11,
            "2009194": 1.28,
            "2009219": 1.49
        },
        "CWID": {
            "2009154": 0.34,
            "2009163": 0.43,
            "2009174": 0.55,
            "2009187": 0.89,
            "2009194": 0.98,
            "2009219": 1.02
        }
    },
    "_id": "643edf688ac547b5ad828df5",
    "ccid": "643edf688ac547b5ad828df5"
}{
    "type": "Feature",
    "geometry": {
        "type": "Point",
        "coordinates": [
            33.07372403,
            -111.99068001
        ]
    },
    "properties": {
        "cc_label": "p05-1",
        "CHTD": {
            "2009154": 0.44,
            "2009163": 0.6,
            "2009174": 0.7,
            "2009187": 1.04,
            "2009194": 1.26,
            "2009219": 1.43
        },
        "CWID": {
            "2009154": 0.4,
            "2009163": 0.5,
            "2009174": 0.61,
            "2009187": 0.85,
            "2009194": 0.96,
            "2009219": 1.02
        }
    },
    "_id": "643edf688ac547b5ad828dfa",
    "ccid": "643edf688ac547b5ad828dfa"
}{
    "type": "Feature",
    "geometry": {
        "type": "Point",
        "coordinates": [
            33.07420204,
            -111.99068537
        ]
    },
    "properties": {
        "cc_label": "p05-2",
        "CHTD": {
            "2009154": 0.44,
            "2009163": 0.61,
            "2009174": 0.7,
            "2009187": 1.07,
            "2009194": 1.23,
            "2009219": 1.55
        },
        "CWID": {
            "2009154": 0.31,
            "2009163": 0.53,
            "2009174": 0.61,
            "2009187": 0.96,
            "2009194": 1.0,
            "2009219": 1.02
        }
    },
    "_id": "643edf688ac547b5ad828df9",
    "ccid": "643edf688ac547b5ad828df9"
}{
    "type": "Feature",
    "geometry": {
        "type": "Point",
        "coordinates": [
            33.07468004,
            -111.99069072
        ]
    },
    "properties": {
        "cc_label": "p05-3",
        "CHTD": {
            "2009154": 0.46,
            "2009163": 0.58,
            "2009174": 0.62,
            "2009187": 1.0,
            "2009194": 1.18,
            "2009219": 1.48
        },
        "CWID": {
            "2009154": 0.34,
            "2009163": 0.53,
            "2009174": 0.56,
            "2009187": 0.88,
            "2009194": 0.93,
            "2009219": 1.02
        }
    },
    "_id": "643edf688ac547b5ad828df8",
    "ccid": "643edf688ac547b5ad828df8"
}{
    "type": "Feature",
    "geometry": {
        "type": "Point",
        "coordinates": [
            33.07372282,
            -111.99083238
        ]
    },
    "properties": {
        "cc_label": "p06-1",
        "CHTD": {
            "2009154": 0.43,
            "2009163": 0.62,
            "2009174": 0.72,
            "2009187": 0.94,
            "2009194": 1.09,
            "2009219": 1.37
        },
        "CWID": {
            "2009154": 0.4,
            "2009163": 0.55,
            "2009174": 0.62,
            "2009187": 0.8,
            "2009194": 0.89,
            "2009219": 1.02
        }
    },
    "_id": "643edf688ac547b5ad828dfd",
    "ccid": "643edf688ac547b5ad828dfd"
}{
    "type": "Feature",
    "geometry": {
        "type": "Point",
        "coordinates": [
            33.07420082,
            -111.99083774
        ]
    },
    "properties": {
        "cc_label": "p06-2",
        "CHTD": {
            "2009154": 0.41,
            "2009163": 0.59,
            "2009174": 0.69,
            "2009187": 0.9,
            "2009194": 0.97,
            "2009219": 1.38
        },
        "CWID": {
            "2009154": 0.34,
            "2009163": 0.51,
            "2009174": 0.6,
            "2009187": 0.67,
            "2009194": 0.84,
            "2009219": 1.02
        }
    },
    "_id": "643edf688ac547b5ad828dfc",
    "ccid": "643edf688ac547b5ad828dfc"
}{
    "type": "Feature",
    "geometry": {
        "type": "Point",
        "coordinates": [
            33.07467883,
            -111.9908431
        ]
    },
    "properties": {
        "cc_label": "p06-3",
        "CHTD": {
            "2009154": 0.42,
            "2009163": 0.56,
            "2009174": 0.69,
            "2009187": 0.88,
            "2009194": 0.91,
            "2009219": 1.28
        },
        "CWID": {
            "2009154": 0.34,
            "2009163": 0.53,
            "2009174": 0.63,
            "2009187": 0.76,
            "2009194": 0.77,
            "2009219": 1.02
        }
    },
    "_id": "643edf688ac547b5ad828dfb",
    "ccid": "643edf688ac547b5ad828dfb"
}{
    "type": "Feature",
    "geometry": {
        "type": "Point",
        "coordinates": [
            33.07372161,
            -111.99098475
        ]
    },
    "properties": {
        "cc_label": "p07-1",
        "CHTD": {
            "2009154": 0.4,
            "2009163": 0.58,
            "2009174": 0.71,
            "2009187": 1.06,
            "2009194": 1.2,
            "2009219": 1.47
        },
        "CWID": {
            "2009154": 0.33,
            "2009163": 0.58,
            "2009174": 0.64,
            "2009187": 1.03,
            "2009194": 1.01,
            "2009219": 1.02
        }
    },
    "_id": "643edf688ac547b5ad828e00",
    "ccid": "643edf688ac547b5ad828e00"
}{
    "type": "Feature",
    "geometry": {
        "type": "Point",
        "coordinates": [
            33.07419961,
            -111.99099011
        ]
    },
    "properties": {
        "cc_label": "p07-2",
        "CHTD": {
            "2009154": 0.45,
            "2009163": 0.57,
            "2009174": 0.73,
            "2009187": 1.14,
            "2009194": 1.27,
            "2009219": 1.58
        },
        "CWID": {
            "2009154": 0.38,
            "2009163": 0.55,
            "2009174": 0.65,
            "2009187": 1.06,
            "2009194": 1.04,
            "2009219": 1.02
        }
    },
    "_id": "643edf688ac547b5ad828dff",
    "ccid": "643edf688ac547b5ad828dff"
}{
    "type": "Feature",
    "geometry": {
        "type": "Point",
        "coordinates": [
            33.07467762,
            -111.99099547
        ]
    },
    "properties": {
        "cc_label": "p07-3",
        "CHTD": {
            "2009154": 0.45,
            "2009163": 0.64,
            "2009174": 0.78,
            "2009187": 1.13,
            "2009194": 1.36,
            "2009219": 1.65
        },
        "CWID": {
            "2009154": 0.31,
            "2009163": 0.51,
            "2009174": 0.65,
            "2009187": 0.98,
            "2009194": 1.04,
            "2009219": 1.02
        }
    },
    "_id": "643edf688ac547b5ad828dfe",
    "ccid": "643edf688ac547b5ad828dfe"
}{
    "type": "Feature",
    "geometry": {
        "type": "Point",
        "coordinates": [
            33.0737204,
            -111.99113712
        ]
    },
    "properties": {
        "cc_label": "p08-1",
        "CHTD": {
            "2009154": 0.38,
            "2009163": 0.5,
            "2009174": 0.61,
            "2009187": 0.97,
            "2009194": 1.06,
            "2009219": 1.36
        },
        "CWID": {
            "2009154": 0.29,
            "2009163": 0.39,
            "2009174": 0.57,
            "2009187": 0.82,
            "2009194": 0.84,
            "2009219": 1.02
        }
    },
    "_id": "643edf688ac547b5ad828e03",
    "ccid": "643edf688ac547b5ad828e03"
}{
    "type": "Feature",
    "geometry": {
        "type": "Point",
        "coordinates": [
            33.0741984,
            -111.99114248
        ]
    },
    "properties": {
        "cc_label": "p08-2",
        "CHTD": {
            "2009154": 0.43,
            "2009163": 0.58,
            "2009174": 0.72,
            "2009187": 1.12,
            "2009194": 1.25,
            "2009219": 1.51
        },
        "CWID": {
            "2009154": 0.31,
            "2009163": 0.45,
            "2009174": 0.62,
            "2009187": 0.91,
            "2009194": 0.94,
            "2009219": 1.02
        }
    },
    "_id": "643edf688ac547b5ad828e02",
    "ccid": "643edf688ac547b5ad828e02"
}{
    "type": "Feature",
    "geometry": {
        "type": "Point",
        "coordinates": [
            33.07467641,
            -111.99114784
        ]
    },
    "properties": {
        "cc_label": "p08-3",
        "CHTD": {
            "2009154": 0.43,
            "2009163": 0.57,
            "2009174": 0.71,
            "2009187": 1.04,
            "2009194": 1.18,
            "2009219": 1.39
        },
        "CWID": {
            "2009154": 0.37,
            "2009163": 0.51,
            "2009174": 0.57,
            "2009187": 0.89,
            "2009194": 0.95,
            "2009219": 1.02
        }
    },
    "_id": "643edf688ac547b5ad828e01",
    "ccid": "643edf688ac547b5ad828e01"
}{
    "type": "Feature",
    "geometry": {
        "type": "Point",
        "coordinates": [
            33.07371919,
            -111.99128949
        ]
    },
    "properties": {
        "cc_label": "p09-1",
        "CHTD": {
            "2009154": 0.34,
            "2009163": 0.53,
            "2009174": 0.63,
            "2009187": 0.95,
            "2009194": 1.05,
            "2009219": 1.34
        },
        "CWID": {
            "2009154": 0.29,
            "2009163": 0.51,
            "2009174": 0.6,
            "2009187": 0.87,
            "2009194": 0.86,
            "2009219": 1.02
        }
    },
    "_id": "643edf688ac547b5ad828e06",
    "ccid": "643edf688ac547b5ad828e06"
}{
    "type": "Feature",
    "geometry": {
        "type": "Point",
        "coordinates": [
            33.07419719,
            -111.99129485
        ]
    },
    "properties": {
        "cc_label": "p09-2",
        "CHTD": {
            "2009154": 0.45,
            "2009163": 0.56,
            "2009174": 0.66,
            "2009187": 0.82,
            "2009194": 1.06,
            "2009219": 1.35
        },
        "CWID": {
            "2009154": 0.38,
            "2009163": 0.51,
            "2009174": 0.62,
            "2009187": 0.75,
            "2009194": 0.94,
            "2009219": 1.02
        }
    },
    "_id": "643edf688ac547b5ad828e05",
    "ccid": "643edf688ac547b5ad828e05"
}{
    "type": "Feature",
    "geometry": {
        "type": "Point",
        "coordinates": [
            33.07467519,
            -111.99130021
        ]
    },
    "properties": {
        "cc_label": "p09-3",
        "CHTD": {
            "2009154": 0.43,
            "2009163": 0.58,
            "2009174": 0.67,
            "2009187": 0.92,
            "2009194": 1.03,
            "2009219": 1.33
        },
        "CWID": {
            "2009154": 0.36,
            "2009163": 0.54,
            "2009174": 0.63,
            "2009187": 0.86,
            "2009194": 0.87,
            "2009219": 1.02
        }
    },
    "_id": "643edf688ac547b5ad828e04",
    "ccid": "643edf688ac547b5ad828e04"
}{
    "type": "Feature",
    "geometry": {
        "type": "Point",
        "coordinates": [
            33.07371798,
            -111.99144186
        ]
    },
    "properties": {
        "cc_label": "p10-1",
        "CHTD": {
            "2009154": 0.39,
            "2009163": 0.55,
            "2009174": 0.69,
            "2009187": 1.03,
            "2009194": 1.23,
            "2009219": 1.45
        },
        "CWID": {
            "2009154": 0.28,
            "2009163": 0.45,
            "2009174": 0.58,
            "2009187": 0.98,
            "2009194": 1.01,
            "2009219": 1.02
        }
    },
    "_id": "643edf688ac547b5ad828e09",
    "ccid": "643edf688ac547b5ad828e09"
}{
    "type": "Feature",
    "geometry": {
        "type": "Point",
        "coordinates": [
            33.07419598,
            -111.99144722
        ]
    },
    "properties": {
        "cc_label": "p10-2",
        "CHTD": {
            "2009154": 0.47,
            "2009163": 0.59,
            "2009174": 0.72,
            "2009187": 1.04,
            "2009194": 1.18,
            "2009219": 1.42
        },
        "CWID": {
            "2009154": 0.43,
            "2009163": 0.49,
            "2009174": 0.6,
            "2009187": 0.92,
            "2009194": 0.97,
            "2009219": 1.02
        }
    },
    "_id": "643edf688ac547b5ad828e08",
    "ccid": "643edf688ac547b5ad828e08"
}{
    "type": "Feature",
    "geometry": {
        "type": "Point",
        "coordinates": [
            33.07467398,
            -111.99145258
        ]
    },
    "properties": {
        "cc_label": "p10-3",
        "CHTD": {
            "2009154": 0.36,
            "2009163": 0.55,
            "2009174": 0.68,
            "2009187": 1.04,
            "2009194": 1.19,
            "2009219": 1.46
        },
        "CWID": {
            "2009154": 0.34,
            "2009163": 0.48,
            "2009174": 0.59,
            "2009187": 0.84,
            "2009194": 0.92,
            "2009219": 1.02
        }
    },
    "_id": "643edf688ac547b5ad828e07",
    "ccid": "643edf688ac547b5ad828e07"
}{
    "type": "Feature",
    "geometry": {
        "type": "Point",
        "coordinates": [
            33.07371677,
            -111.99159422
        ]
    },
    "properties": {
        "cc_label": "p11-1",
        "CHTD": {
            "2009154": 0.42,
            "2009163": 0.6,
            "2009174": 0.73,
            "2009187": 1.06,
            "2009194": 1.22,
            "2009219": 1.51
        },
        "CWID": {
            "2009154": 0.36,
            "2009163": 0.52,
            "2009174": 0.58,
            "2009187": 0.92,
            "2009194": 1.01,
            "2009219": 1.02
        }
    },
    "_id": "643edf688ac547b5ad828e0c",
    "ccid": "643edf688ac547b5ad828e0c"
}{
    "type": "Feature",
    "geometry": {
        "type": "Point",
        "coordinates": [
            33.07419477,
            -111.99159959
        ]
    },
    "properties": {
        "cc_label": "p11-2",
        "CHTD": {
            "2009154": 0.46,
            "2009163": 0.61,
            "2009174": 0.74,
            "2009187": 1.09,
            "2009194": 1.28,
            "2009219": 1.54
        },
        "CWID": {
            "2009154": 0.41,
            "2009163": 0.57,
            "2009174": 0.68,
            "2009187": 0.98,
            "2009194": 1.08,
            "2009219": 1.02
        }
    },
    "_id": "643edf688ac547b5ad828e0b",
    "ccid": "643edf688ac547b5ad828e0b"
}{
    "type": "Feature",
    "geometry": {
        "type": "Point",
        "coordinates": [
            33.07467277,
            -111.99160495
        ]
    },
    "properties": {
        "cc_label": "p11-3",
        "CHTD": {
            "2009154": 0.42,
            "2009163": 0.57,
            "2009174": 0.71,
            "2009187": 1.07,
            "2009194": 1.21,
            "2009219": 1.53
        },
        "CWID": {
            "2009154": 0.39,
            "2009163": 0.56,
            "2009174": 0.63,
            "2009187": 0.88,
            "2009194": 0.98,
            "2009219": 1.02
        }
    },
    "_id": "643edf688ac547b5ad828e0a",
    "ccid": "643edf688ac547b5ad828e0a"
}{
    "type": "Feature",
    "geometry": {
        "type": "Point",
        "coordinates": [
            33.07371555,
            -111.99174659
        ]
    },
    "properties": {
        "cc_label": "p12-1",
        "CHTD": {
            "2009154": 0.46,
            "2009163": 0.63,
            "2009174": 0.77,
            "2009187": 1.18,
            "2009194": 1.33,
            "2009219": 1.42
        },
        "CWID": {
            "2009154": 0.41,
            "2009163": 0.56,
            "2009174": 0.71,
            "2009187": 1.01,
            "2009194": 1.04,
            "2009219": 1.02
        }
    },
    "_id": "643edf688ac547b5ad828e0f",
    "ccid": "643edf688ac547b5ad828e0f"
}{
    "type": "Feature",
    "geometry": {
        "type": "Point",
        "coordinates": [
            33.07419356,
            -111.99175196
        ]
    },
    "properties": {
        "cc_label": "p12-2",
        "CHTD": {
            "2009154": 0.41,
            "2009163": 0.55,
            "2009174": 0.77,
            "2009187": 1.14,
            "2009194": 1.32,
            "2009219": 1.55
        },
        "CWID": {
            "2009154": 0.3,
            "2009163": 0.5,
            "2009174": 0.62,
            "2009187": 1.01,
            "2009194": 1.02,
            "2009219": 1.02
        }
    },
    "_id": "643edf688ac547b5ad828e0e",
    "ccid": "643edf688ac547b5ad828e0e"
}{
    "type": "Feature",
    "geometry": {
        "type": "Point",
        "coordinates": [
            33.07467156,
            -111.99175732
        ]
    },
    "properties": {
        "cc_label": "p12-3",
        "CHTD": {
            "2009154": 0.41,
            "2009163": 0.58,
            "2009174": 0.73,
            "2009187": 1.14,
            "2009194": 1.27,
            "2009219": 1.44
        },
        "CWID": {
            "2009154": 0.37,
            "2009163": 0.55,
            "2009174": 0.66,
            "2009187": 0.94,
            "2009194": 1.0,
            "2009219": 1.02
        }
    },
    "_id": "643edf688ac547b5ad828e0d",
    "ccid": "643edf688ac547b5ad828e0d"
}{
    "type": "Feature",
    "geometry": {
        "type": "Point",
        "coordinates": [
            33.07371313,
            -111.99205133
        ]
    },
    "properties": {
        "cc_label": "p13-1",
        "CHTD": {
            "2009154": 0.43,
            "2009163": 0.55,
            "2009174": 0.64,
            "2009187": 0.95,
            "2009194": 1.06,
            "2009219": 1.26
        },
        "CWID": {
            "2009154": 0.28,
            "2009163": 0.46,
            "2009174": 0.54,
            "2009187": 0.79,
            "2009194": 0.88,
            "2009219": 1.02
        }
    },
    "_id": "643edf688ac547b5ad828e12",
    "ccid": "643edf688ac547b5ad828e12"
}{
    "type": "Feature",
    "geometry": {
        "type": "Point",
        "coordinates": [
            33.07419113,
            -111.9920567
        ]
    },
    "properties": {
        "cc_label": "p13-2",
        "CHTD": {
            "2009154": 0.39,
            "2009163": 0.58,
            "2009174": 0.66,
            "2009187": 0.97,
            "2009194": 1.08,
            "2009219": 1.26
        },
        "CWID": {
            "2009154": 0.32,
            "2009163": 0.53,
            "2009174": 0.53,
            "2009187": 0.71,
            "2009194": 0.87,
            "2009219": 1.02
        }
    },
    "_id": "643edf688ac547b5ad828e11",
    "ccid": "643edf688ac547b5ad828e11"
}{
    "type": "Feature",
    "geometry": {
        "type": "Point",
        "coordinates": [
            33.07466913,
            -111.99206206
        ]
    },
    "properties": {
        "cc_label": "p13-3",
        "CHTD": {
            "2009154": 0.41,
            "2009163": 0.56,
            "2009174": 0.63,
            "2009187": 0.83,
            "2009194": 0.94,
            "2009219": 1.21
        },
        "CWID": {
            "2009154": 0.36,
            "2009163": 0.48,
            "2009174": 0.58,
            "2009187": 0.72,
            "2009194": 0.89,
            "2009219": 1.02
        }
    },
    "_id": "643edf688ac547b5ad828e10",
    "ccid": "643edf688ac547b5ad828e10"
}{
    "type": "Feature",
    "geometry": {
        "type": "Point",
        "coordinates": [
            33.07371192,
            -111.9922037
        ]
    },
    "properties": {
        "cc_label": "p14-1",
        "CHTD": {
            "2009154": 0.41,
            "2009163": 0.6,
            "2009174": 0.74,
            "2009187": 1.14,
            "2009194": 1.23,
            "2009219": 1.35
        },
        "CWID": {
            "2009154": 0.31,
            "2009163": 0.53,
            "2009174": 0.58,
            "2009187": 1.0,
            "2009194": 1.07,
            "2009219": 1.02
        }
    },
    "_id": "643edf688ac547b5ad828e15",
    "ccid": "643edf688ac547b5ad828e15"
}{
    "type": "Feature",
    "geometry": {
        "type": "Point",
        "coordinates": [
            33.07418992,
            -111.99220907
        ]
    },
    "properties": {
        "cc_label": "p14-2",
        "CHTD": {
            "2009154": 0.42,
            "2009163": 0.57,
            "2009174": 0.74,
            "2009187": 1.06,
            "2009194": 1.24,
            "2009219": 1.43
        },
        "CWID": {
            "2009154": 0.31,
            "2009163": 0.45,
            "2009174": 0.56,
            "2009187": 0.91,
            "2009194": 0.99,
            "2009219": 1.02
        }
    },
    "_id": "643edf688ac547b5ad828e14",
    "ccid": "643edf688ac547b5ad828e14"
}{
    "type": "Feature",
    "geometry": {
        "type": "Point",
        "coordinates": [
            33.07466792,
            -111.99221443
        ]
    },
    "properties": {
        "cc_label": "p14-3",
        "CHTD": {
            "2009154": 0.45,
            "2009163": 0.57,
            "2009174": 0.74,
            "2009187": 1.08,
            "2009194": 1.25,
            "2009219": 1.46
        },
        "CWID": {
            "2009154": 0.34,
            "2009163": 0.48,
            "2009174": 0.61,
            "2009187": 0.89,
            "2009194": 0.97,
            "2009219": 1.02
        }
    },
    "_id": "643edf688ac547b5ad828e13",
    "ccid": "643edf688ac547b5ad828e13"
}{
    "type": "Feature",
    "geometry": {
        "type": "Point",
        "coordinates": [
            33.07371071,
            -111.99235607
        ]
    },
    "properties": {
        "cc_label": "p15-1",
        "CHTD": {
            "2009154": 0.43,
            "2009163": 0.58,
            "2009174": 0.63,
            "2009187": 0.97,
            "2009194": 1.15,
            "2009219": 1.26
        },
        "CWID": {
            "2009154": 0.32,
            "2009163": 0.44,
            "2009174": 0.6,
            "2009187": 0.81,
            "2009194": 0.94,
            "2009219": 1.02
        }
    },
    "_id": "643edf688ac547b5ad828e18",
    "ccid": "643edf688ac547b5ad828e18"
}{
    "type": "Feature",
    "geometry": {
        "type": "Point",
        "coordinates": [
            33.07418871,
            -111.99236144
        ]
    },
    "properties": {
        "cc_label": "p15-2",
        "CHTD": {
            "2009154": 0.41,
            "2009163": 0.55,
            "2009174": 0.61,
            "2009187": 0.98,
            "2009194": 1.1,
            "2009219": 1.31
        },
        "CWID": {
            "2009154": 0.34,
            "2009163": 0.5,
            "2009174": 0.53,
            "2009187": 0.89,
            "2009194": 0.93,
            "2009219": 1.02
        }
    },
    "_id": "643edf688ac547b5ad828e17",
    "ccid": "643edf688ac547b5ad828e17"
}{
    "type": "Feature",
    "geometry": {
        "type": "Point",
        "coordinates": [
            33.07466671,
            -111.99236681
        ]
    },
    "properties": {
        "cc_label": "p15-3",
        "CHTD": {
            "2009154": 0.43,
            "2009163": 0.58,
            "2009174": 0.69,
            "2009187": 1.02,
            "2009194": 1.22,
            "2009219": 1.46
        },
        "CWID": {
            "2009154": 0.35,
            "2009163": 0.45,
            "2009174": 0.54,
            "2009187": 0.83,
            "2009194": 0.99,
            "2009219": 1.02
        }
    },
    "_id": "643edf688ac547b5ad828e16",
    "ccid": "643edf688ac547b5ad828e16"
}{
    "type": "Feature",
    "geometry": {
        "type": "Point",
        "coordinates": [
            33.07370949,
            -111.99250844
        ]
    },
    "properties": {
        "cc_label": "p16-1",
        "CHTD": {
            "2009154": 0.45,
            "2009163": 0.56,
            "2009174": 0.64,
            "2009187": 0.95,
            "2009194": 1.0,
            "2009219": 1.27
        },
        "CWID": {
            "2009154": 0.39,
            "2009163": 0.48,
            "2009174": 0.59,
            "2009187": 0.76,
            "2009194": 0.88,
            "2009219": 1.02
        }
    },
    "_id": "643edf688ac547b5ad828e1b",
    "ccid": "643edf688ac547b5ad828e1b"
}{
    "type": "Feature",
    "geometry": {
        "type": "Point",
        "coordinates": [
            33.07418749,
            -111.99251381
        ]
    },
    "properties": {
        "cc_label": "p16-2",
        "CHTD": {
            "2009154": 0.45,
            "2009163": 0.59,
            "2009174": 0.74,
            "2009187": 0.97,
            "2009194": 1.05,
            "2009219": 1.24
        },
        "CWID": {
            "2009154": 0.38,
            "2009163": 0.51,
            "2009174": 0.66,
            "2009187": 0.92,
            "2009194": 1.01,
            "2009219": 1.02
        }
    },
    "_id": "643edf688ac547b5ad828e1a",
    "ccid": "643edf688ac547b5ad828e1a"
}{
    "type": "Feature",
    "geometry": {
        "type": "Point",
        "coordinates": [
            33.0746655,
            -111.99251918
        ]
    },
    "properties": {
        "cc_label": "p16-3",
        "CHTD": {
            "2009154": 0.43,
            "2009163": 0.54,
            "2009174": 0.7,
            "2009187": 0.95,
            "2009194": 1.08,
            "2009219": 1.29
        },
        "CWID": {
            "2009154": 0.36,
            "2009163": 0.43,
            "2009174": 0.54,
            "2009187": 0.78,
            "2009194": 0.79,
            "2009219": 1.02
        }
    },
    "_id": "643edf688ac547b5ad828e19",
    "ccid": "643edf688ac547b5ad828e19"
}