{
    "type": "FeatureCollection",
    "features": [
        {
            "type": "Feature",
            "geometry": {
                "type": "Polygon",
                "coordinates": [
                    [
                        [
                            -111.97495731,
                            33.07840863
                        ],
                        [
                            -111.97521854,
                            33.07840993
                        ],
                        [
                            -111.97520842,
                            33.07985326
                        ],
                        [
                            -111.97494719,
                            33.07985196
                        ],
                        [
                            -111.97495731,
                            33.07840863
                        ]
                    ]
                ]
            },
            "properties": {
                "plt_label": "p02",
                "trt_label": "FAO",
                "PLT_AREA": 3902.159203,
                "CUL_NAME": "Deltapine 1044 B2RF",
                "PDATE": "04/29/2015",
                "PLYR": 2015,
                "PLDAY": 119,
                "IROP": "IR004",
                "IRVAL": {
                    "2015098": 6.7,
                    "2015099": 13.3,
                    "2015100": 22.2,
                    "2015101": 22.2,
                    "2015103": 18.5,
                    "2015105": 18.5,
                    "2015106": 22.2,
                    "2015107": 18.5,
                    "2015120": 13.3,
                    "2015121": 13.3,
                    "2015122": 13.3,
                    "2015125": 13.3,
                    "2015127": 6.7,
                    "2015128": 6.7,
                    "2015133": 3.4,
                    "2015155": 13.3,
                    "2015156": 3.4,
                    "2015161": 6.7,
                    "2015162": 13.3,
                    "2015163": 13.3,
                    "2015164": 13.3,
                    "2015169": 20.0,
                    "2015170": 13.3,
                    "2015175": 13.3,
                    "2015176": 13.3,
                    "2015177": 13.3,
                    "2015178": 13.3,
                    "2015182": 26.6,
                    "2015183": 26.6,
                    "2015188": 3.4,
                    "2015189": 6.7,
                    "2015190": 15.9,
                    "2015191": 15.9,
                    "2015195": 12.0,
                    "2015196": 35.8,
                    "2015197": 27.9,
                    "2015203": 23.9,
                    "2015204": 23.9,
                    "2015205": 12.0,
                    "2015210": 23.9,
                    "2015211": 23.9,
                    "2015212": 23.9,
                    "2015217": 15.9,
                    "2015218": 15.9,
                    "2015219": 23.9,
                    "2015225": 19.9,
                    "2015226": 23.9,
                    "2015231": 23.9,
                    "2015232": 23.9,
                    "2015233": 15.9,
                    "2015239": 31.8,
                    "2015240": 23.9,
                    "2015245": 23.9,
                    "2015246": 23.9,
                    "2015247": 8.0
                },
                "FEAMN": {
                    "2015160": 60.0,
                    "2015175": 60.0,
                    "2015188": 60.0
                },
                "PLPD": 11.0,
                "EDATE": "05/05/2015",
                "PLYRE": 2015,
                "PLODE": 125,
                "LF1D": "05/19/2015",
                "EM38V": {
                    "2013260": 53.58
                },
                "EM38": {
                    "2015119": 54.98
                },
                "SLSND": {
                    "15": 58.29,
                    "45": 57.53,
                    "75": 56.56,
                    "105": 56.62,
                    "135": 60.58,
                    "165": 64.04
                },
                "SLSLT": {
                    "15": 15.9,
                    "45": 14.66,
                    "75": 17.51,
                    "105": 14.49,
                    "135": 15.29,
                    "165": 13.49
                },
                "SLCLY": {
                    "15": 25.92,
                    "45": 27.8,
                    "75": 25.75,
                    "105": 29.37,
                    "135": 24.21,
                    "165": 23.25
                },
                "SLWP1": {
                    "15": 0.166,
                    "45": 0.176,
                    "75": 0.183,
                    "105": 0.17,
                    "135": 0.15,
                    "165": 0.142
                },
                "SLWP2": {
                    "15": 0.177,
                    "45": 0.187,
                    "75": 0.195,
                    "105": 0.182,
                    "135": 0.159,
                    "165": 0.157
                },
                "SLFC1": {
                    "15": 0.287,
                    "45": 0.295,
                    "75": 0.307,
                    "105": 0.297,
                    "135": 0.266,
                    "165": 0.277
                },
                "SLSND_KRT": {
                    "20": 57.28,
                    "60": 56.99,
                    "100": 60.03,
                    "140": 65.75,
                    "180": 67.14
                },
                "SLSLT_KRT": {
                    "20": 15.98,
                    "60": 17.33,
                    "100": 16.42,
                    "140": 14.3,
                    "180": 14.08
                },
                "SLCLY_KRT": {
                    "20": 26.94,
                    "60": 26.18,
                    "100": 23.49,
                    "140": 20.45,
                    "180": 18.44
                },
                "SLSND2_KRT": {
                    "20": 66.54,
                    "60": 66.31,
                    "100": 68.9,
                    "140": 74.94,
                    "180": 76.48
                },
                "SLSLT2_KRT": {
                    "20": 17.84,
                    "60": 19.29,
                    "100": 19.32,
                    "140": 15.32,
                    "180": 14.74
                },
                "SLCLY2_KRT": {
                    "20": 15.69,
                    "60": 14.65,
                    "100": 11.76,
                    "140": 9.64,
                    "180": 8.17
                },
                "HARM": "Machine",
                "HADAT": "11/17/2015",
                "WBWAH": 6740.7,
                "BWCAH": 6.7,
                "DBWAH": 6289.1,
                "GNDAT": "12/01/2015",
                "FFRAC": 0.3577,
                "SFRAC": 0.5336,
                "TFRAC": 0.1088,
                "WFWAH": 2410.9,
                "WSWAH": 3596.6,
                "WSCWAH": 6007.5,
                "DFWAH": 2249.4,
                "DSWAH": 3355.7,
                "DSCWAH": 5605.0,
                "haids": [
                    "64386c2b8ac5470908056e06",
                    "64386c2b8ac5470908056e07",
                    "64386c2b8ac5470908056e08",
                    "64386c2b8ac5470908056e09",
                    "64386c2b8ac5470908056e0a",
                    "64386c2b8ac5470908056e0b",
                    "64386c2b8ac5470908056e0c",
                    "64386c2b8ac5470908056e0d",
                    "64386c2b8ac5470908056e0e",
                    "64386c2b8ac5470908056e0f"
                ],
                "tids": [
                    "6438726b8ac5470dfd83c6a6",
                    "6438726b8ac5470dfd83c6a7",
                    "6438726b8ac5470dfd83c6a8",
                    "6438726b8ac5470dfd83c6a9",
                    "6438726b8ac5470dfd83c6aa"
                ],
                "ccids": [
                    "643873f98ac5470ec1e3d03a",
                    "643873f98ac5470ec1e3d03b",
                    "643873f98ac5470ec1e3d03c",
                    "643873f98ac5470ec1e3d03d",
                    "643873f98ac5470ec1e3d03e"
                ],
                "paids": [
                    "684317f58ac547d57dfce36e",
                    "684317f58ac547d57dfce36f",
                    "684317f58ac547d57dfce37a",
                    "684317f58ac547d57dfce37b",
                    "684317f58ac547d57dfce386",
                    "684317f58ac547d57dfce387",
                    "684317f58ac547d57dfce392",
                    "684317f58ac547d57dfce393",
                    "684317f58ac547d57dfce39e",
                    "684317f58ac547d57dfce39f",
                    "684317f58ac547d57dfce3aa",
                    "684317f58ac547d57dfce3ab",
                    "684317f58ac547d57dfce3b6",
                    "684317f58ac547d57dfce3b7"
                ],
                "saids": [
                    "684b226e8ac5476ed06f0cb9",
                    "684b226e8ac5476ed06f0cba",
                    "684b226e8ac5476ed06f0cbb",
                    "684b226e8ac5476ed06f0cbc",
                    "684b226e8ac5476ed06f0cbd",
                    "684b226e8ac5476ed06f0cbe",
                    "684b226e8ac5476ed06f0d35",
                    "684b226e8ac5476ed06f0d36",
                    "684b226e8ac5476ed06f0d37",
                    "684b226e8ac5476ed06f0d38",
                    "684b226e8ac5476ed06f0d39",
                    "684b226e8ac5476ed06f0dab",
                    "684b226e8ac5476ed06f0dad",
                    "684b226e8ac5476ed06f0dae",
                    "684b226e8ac5476ed06f0daf",
                    "684b226e8ac5476ed06f0df8",
                    "684b226e8ac5476ed06f0df9",
                    "684b226e8ac5476ed06f0dfa",
                    "684b226e8ac5476ed06f0dfb"
                ]
            },
            "_id": "6438482a8ac547ff05422d2f",
            "pid": "6438482a8ac547ff05422d2f"
        },
        {
            "type": "Feature",
            "geometry": {
                "type": "Polygon",
                "coordinates": [
                    [
                        [
                            -111.97528385,
                            33.07841025
                        ],
                        [
                            -111.97554507,
                            33.07841155
                        ],
                        [
                            -111.97553496,
                            33.07985489
                        ],
                        [
                            -111.97527373,
                            33.07985359
                        ],
                        [
                            -111.97528385,
                            33.07841025
                        ]
                    ]
                ]
            },
            "properties": {
                "plt_label": "p03",
                "trt_label": "CropMod",
                "PLT_AREA": 3902.159202,
                "CUL_NAME": "Deltapine 1044 B2RF",
                "PDATE": "04/29/2015",
                "PLYR": 2015,
                "PLDAY": 119,
                "IROP": "IR004",
                "IRVAL": {
                    "2015098": 6.7,
                    "2015099": 13.3,
                    "2015100": 22.2,
                    "2015101": 22.2,
                    "2015103": 18.5,
                    "2015105": 18.5,
                    "2015106": 22.2,
                    "2015107": 18.5,
                    "2015120": 13.3,
                    "2015121": 13.3,
                    "2015122": 13.3,
                    "2015125": 13.3,
                    "2015127": 6.7,
                    "2015128": 6.7,
                    "2015133": 3.4,
                    "2015155": 13.3,
                    "2015161": 6.7,
                    "2015162": 13.3,
                    "2015163": 13.3,
                    "2015169": 20.0,
                    "2015170": 13.3,
                    "2015175": 13.3,
                    "2015176": 20.0,
                    "2015177": 13.3,
                    "2015178": 13.3,
                    "2015182": 26.6,
                    "2015183": 26.6,
                    "2015188": 3.4,
                    "2015189": 6.7,
                    "2015190": 15.9,
                    "2015191": 15.9,
                    "2015195": 12.0,
                    "2015196": 35.8,
                    "2015197": 27.9,
                    "2015198": 15.9,
                    "2015203": 23.9,
                    "2015204": 23.9,
                    "2015205": 8.0,
                    "2015210": 23.9,
                    "2015211": 23.9,
                    "2015212": 23.9,
                    "2015217": 15.9,
                    "2015218": 15.9,
                    "2015219": 23.9,
                    "2015225": 19.9,
                    "2015226": 23.9,
                    "2015231": 23.9,
                    "2015232": 23.9,
                    "2015233": 15.9,
                    "2015239": 31.8,
                    "2015240": 23.9,
                    "2015245": 23.9,
                    "2015246": 23.9,
                    "2015247": 4.0
                },
                "FEAMN": {
                    "2015160": 60.0,
                    "2015175": 60.0,
                    "2015188": 60.0
                },
                "PLPD": 10.8,
                "EDATE": "05/05/2015",
                "PLYRE": 2015,
                "PLODE": 125,
                "LF1D": "05/19/2015",
                "EM38V": {
                    "2013260": 60.62
                },
                "EM38": {
                    "2015119": 59.98
                },
                "SLSND": {
                    "15": 60.17,
                    "45": 61.52,
                    "75": 59.54,
                    "105": 56.4,
                    "135": 60.47,
                    "165": 64.77
                },
                "SLSLT": {
                    "15": 14.08,
                    "45": 12.04,
                    "75": 13.35,
                    "105": 14.31,
                    "135": 14.35,
                    "165": 12.37
                },
                "SLCLY": {
                    "15": 26.04,
                    "45": 26.53,
                    "75": 27.15,
                    "105": 29.24,
                    "135": 25.84,
                    "165": 23.4
                },
                "SLWP1": {
                    "15": 0.159,
                    "45": 0.163,
                    "75": 0.178,
                    "105": 0.167,
                    "135": 0.15,
                    "165": 0.142
                },
                "SLWP2": {
                    "15": 0.176,
                    "45": 0.181,
                    "75": 0.201,
                    "105": 0.187,
                    "135": 0.165,
                    "165": 0.161
                },
                "SLFC1": {
                    "15": 0.28,
                    "45": 0.279,
                    "75": 0.307,
                    "105": 0.298,
                    "135": 0.274,
                    "165": 0.279
                },
                "SLSND_KRT": {
                    "20": 56.16,
                    "60": 56.67,
                    "100": 56.43,
                    "140": 62.56,
                    "180": 65.35
                },
                "SLSLT_KRT": {
                    "20": 16.66,
                    "60": 17.65,
                    "100": 18.53,
                    "140": 17.19,
                    "180": 14.25
                },
                "SLCLY_KRT": {
                    "20": 27.53,
                    "60": 26.05,
                    "100": 24.23,
                    "140": 20.71,
                    "180": 19.72
                },
                "SLSND2_KRT": {
                    "20": 65.28,
                    "60": 65.91,
                    "100": 65.78,
                    "140": 71.62,
                    "180": 74.37
                },
                "SLSLT2_KRT": {
                    "20": 18.2,
                    "60": 19.4,
                    "100": 21.82,
                    "140": 18.72,
                    "180": 15.66
                },
                "SLCLY2_KRT": {
                    "20": 16.19,
                    "60": 15.09,
                    "100": 12.35,
                    "140": 9.83,
                    "180": 9.85
                },
                "HARM": "Machine",
                "HADAT": "11/17/2015",
                "WBWAH": 7033.0,
                "BWCAH": 6.35,
                "DBWAH": 6586.7,
                "GNDAT": "12/01/2015",
                "FFRAC": 0.3599,
                "SFRAC": 0.5332,
                "TFRAC": 0.1069,
                "WFWAH": 2531.3,
                "WSWAH": 3749.7,
                "WSCWAH": 6281.0,
                "DFWAH": 2370.6,
                "DSWAH": 3511.8,
                "DSCWAH": 5882.4,
                "haids": [
                    "64386c2b8ac5470908056e10",
                    "64386c2b8ac5470908056e11",
                    "64386c2b8ac5470908056e12",
                    "64386c2b8ac5470908056e13",
                    "64386c2b8ac5470908056e14",
                    "64386c2b8ac5470908056e15",
                    "64386c2b8ac5470908056e16",
                    "64386c2b8ac5470908056e17",
                    "64386c2b8ac5470908056e18",
                    "64386c2b8ac5470908056e19"
                ],
                "tids": [
                    "6438726b8ac5470dfd83c6ab",
                    "6438726b8ac5470dfd83c6ac",
                    "6438726b8ac5470dfd83c6ad",
                    "6438726b8ac5470dfd83c6ae",
                    "6438726b8ac5470dfd83c6af"
                ],
                "ccids": [
                    "643873f98ac5470ec1e3d03f",
                    "643873f98ac5470ec1e3d040",
                    "643873f98ac5470ec1e3d041",
                    "643873f98ac5470ec1e3d042",
                    "643873f98ac5470ec1e3d043"
                ],
                "paids": [
                    "684317f58ac547d57dfce370",
                    "684317f58ac547d57dfce371",
                    "684317f58ac547d57dfce37c",
                    "684317f58ac547d57dfce37d",
                    "684317f58ac547d57dfce388",
                    "684317f58ac547d57dfce389",
                    "684317f58ac547d57dfce394",
                    "684317f58ac547d57dfce395",
                    "684317f58ac547d57dfce3a0",
                    "684317f58ac547d57dfce3a1",
                    "684317f58ac547d57dfce3ac",
                    "684317f58ac547d57dfce3ad",
                    "684317f58ac547d57dfce3b8",
                    "684317f58ac547d57dfce3b9"
                ],
                "saids": [
                    "684b226e8ac5476ed06f0cbf",
                    "684b226e8ac5476ed06f0cc0",
                    "684b226e8ac5476ed06f0cc1",
                    "684b226e8ac5476ed06f0cc2",
                    "684b226e8ac5476ed06f0cc3",
                    "684b226e8ac5476ed06f0cc4",
                    "684b226e8ac5476ed06f0d3a",
                    "684b226e8ac5476ed06f0d3b",
                    "684b226e8ac5476ed06f0d3c",
                    "684b226e8ac5476ed06f0d3d",
                    "684b226e8ac5476ed06f0d3e",
                    "684b226e8ac5476ed06f0d67",
                    "684b226e8ac5476ed06f0d68",
                    "684b226e8ac5476ed06f0d69",
                    "684b226e8ac5476ed06f0d6a",
                    "684b226e8ac5476ed06f0db0",
                    "684b226e8ac5476ed06f0db1",
                    "684b226e8ac5476ed06f0df6",
                    "684b226e8ac5476ed06f0df7"
                ]
            },
            "_id": "6438482a8ac547ff05422d30",
            "pid": "6438482a8ac547ff05422d30"
        },
        {
            "type": "Feature",
            "geometry": {
                "type": "Polygon",
                "coordinates": [
                    [
                        [
                            -111.97556684,
                            33.07841166
                        ],
                        [
                            -111.97582807,
                            33.07841296
                        ],
                        [
                            -111.97581796,
                            33.0798563
                        ],
                        [
                            -111.97555673,
                            33.079855
                        ],
                        [
                            -111.97556684,
                            33.07841166
                        ]
                    ]
                ]
            },
            "properties": {
                "plt_label": "p04",
                "trt_label": "SEB",
                "PLT_AREA": 3902.159202,
                "CUL_NAME": "Deltapine 1044 B2RF",
                "PDATE": "04/29/2015",
                "PLYR": 2015,
                "PLDAY": 119,
                "IROP": "IR004",
                "IRVAL": {
                    "2015098": 6.7,
                    "2015099": 13.3,
                    "2015100": 22.2,
                    "2015101": 22.2,
                    "2015103": 18.5,
                    "2015105": 18.5,
                    "2015106": 22.2,
                    "2015107": 18.5,
                    "2015120": 13.3,
                    "2015121": 13.3,
                    "2015122": 13.3,
                    "2015125": 13.3,
                    "2015127": 6.7,
                    "2015128": 6.7,
                    "2015133": 3.4,
                    "2015155": 13.3,
                    "2015156": 3.4,
                    "2015161": 6.7,
                    "2015162": 13.3,
                    "2015163": 13.3,
                    "2015164": 13.3,
                    "2015169": 20.0,
                    "2015170": 13.3,
                    "2015175": 13.3,
                    "2015176": 13.3,
                    "2015177": 13.3,
                    "2015178": 13.3,
                    "2015182": 26.6,
                    "2015183": 26.6,
                    "2015188": 3.4,
                    "2015189": 6.7,
                    "2015190": 15.9,
                    "2015191": 15.9,
                    "2015195": 12.0,
                    "2015196": 35.8,
                    "2015197": 27.9,
                    "2015203": 23.9,
                    "2015204": 23.9,
                    "2015205": 12.0,
                    "2015210": 23.9,
                    "2015211": 23.9,
                    "2015212": 23.9,
                    "2015217": 15.9,
                    "2015218": 15.9,
                    "2015219": 23.9,
                    "2015225": 19.9,
                    "2015226": 23.9,
                    "2015231": 23.9,
                    "2015232": 23.9,
                    "2015233": 15.9,
                    "2015239": 31.8,
                    "2015240": 23.9,
                    "2015245": 23.9,
                    "2015246": 23.9,
                    "2015247": 8.0
                },
                "FEAMN": {
                    "2015160": 60.0,
                    "2015175": 60.0,
                    "2015188": 60.0
                },
                "PLPD": 10.0,
                "EDATE": "05/05/2015",
                "PLYRE": 2015,
                "PLODE": 125,
                "LF1D": "05/19/2015",
                "EM38V": {
                    "2013260": 61.03
                },
                "EM38": {
                    "2015119": 59.08
                },
                "SLSND": {
                    "15": 58.78,
                    "45": 60.76,
                    "75": 58.63,
                    "105": 55.14,
                    "135": 59.13,
                    "165": 61.5
                },
                "SLSLT": {
                    "15": 14.78,
                    "45": 12.17,
                    "75": 14.29,
                    "105": 14.87,
                    "135": 15.77,
                    "165": 13.88
                },
                "SLCLY": {
                    "15": 26.68,
                    "45": 27.09,
                    "75": 27.03,
                    "105": 29.79,
                    "135": 25.24,
                    "165": 24.73
                },
                "SLWP1": {
                    "15": 0.16,
                    "45": 0.16,
                    "75": 0.184,
                    "105": 0.168,
                    "135": 0.152,
                    "165": 0.155
                },
                "SLWP2": {
                    "15": 0.178,
                    "45": 0.181,
                    "75": 0.202,
                    "105": 0.188,
                    "135": 0.17,
                    "165": 0.165
                },
                "SLFC1": {
                    "15": 0.285,
                    "45": 0.275,
                    "75": 0.31,
                    "105": 0.303,
                    "135": 0.283,
                    "165": 0.285
                },
                "SLSND_KRT": {
                    "20": 54.74,
                    "60": 57.16,
                    "100": 55.52,
                    "140": 61.6,
                    "180": 65.07
                },
                "SLSLT_KRT": {
                    "20": 16.42,
                    "60": 17.97,
                    "100": 19.89,
                    "140": 17.47,
                    "180": 14.79
                },
                "SLCLY_KRT": {
                    "20": 28.8,
                    "60": 24.57,
                    "100": 24.16,
                    "140": 21.12,
                    "180": 19.63
                },
                "SLSND2_KRT": {
                    "20": 63.61,
                    "60": 66.35,
                    "100": 64.29,
                    "140": 70.57,
                    "180": 74.11
                },
                "SLSLT2_KRT": {
                    "20": 18.59,
                    "60": 19.41,
                    "100": 23.53,
                    "140": 19.45,
                    "180": 16.05
                },
                "SLCLY2_KRT": {
                    "20": 17.53,
                    "60": 14.03,
                    "100": 12.23,
                    "140": 10.07,
                    "180": 9.87
                },
                "HARM": "Machine",
                "HADAT": "11/17/2015",
                "WBWAH": 6823.7,
                "BWCAH": 5.91,
                "DBWAH": 6420.2,
                "GNDAT": "12/01/2015",
                "FFRAC": 0.3551,
                "SFRAC": 0.5282,
                "TFRAC": 0.1167,
                "WFWAH": 2422.9,
                "WSWAH": 3604.5,
                "WSCWAH": 6027.4,
                "DFWAH": 2279.6,
                "DSWAH": 3391.4,
                "DSCWAH": 5671.0,
                "haids": [
                    "64386c2b8ac5470908056e1a",
                    "64386c2b8ac5470908056e1b",
                    "64386c2b8ac5470908056e1c",
                    "64386c2b8ac5470908056e1d",
                    "64386c2b8ac5470908056e1e",
                    "64386c2b8ac5470908056e1f",
                    "64386c2b8ac5470908056e20",
                    "64386c2b8ac5470908056e21",
                    "64386c2b8ac5470908056e22",
                    "64386c2b8ac5470908056e23"
                ],
                "tids": [
                    "6438726b8ac5470dfd83c6b0",
                    "6438726b8ac5470dfd83c6b1",
                    "6438726b8ac5470dfd83c6b2",
                    "6438726b8ac5470dfd83c6b3",
                    "6438726b8ac5470dfd83c6b4"
                ],
                "ccids": [
                    "643873f98ac5470ec1e3d044",
                    "643873f98ac5470ec1e3d045",
                    "643873f98ac5470ec1e3d046",
                    "643873f98ac5470ec1e3d047",
                    "643873f98ac5470ec1e3d048"
                ],
                "saids": [
                    "684b226e8ac5476ed06f0cc5",
                    "684b226e8ac5476ed06f0cc6",
                    "684b226e8ac5476ed06f0cc7",
                    "684b226e8ac5476ed06f0cc8",
                    "684b226e8ac5476ed06f0cc9",
                    "684b226e8ac5476ed06f0cca",
                    "684b226e8ac5476ed06f0d3f",
                    "684b226e8ac5476ed06f0d40",
                    "684b226e8ac5476ed06f0d41",
                    "684b226e8ac5476ed06f0d42",
                    "684b226e8ac5476ed06f0d43",
                    "684b226e8ac5476ed06f0d6b",
                    "684b226e8ac5476ed06f0d6c",
                    "684b226e8ac5476ed06f0d6d",
                    "684b226e8ac5476ed06f0d6e",
                    "684b226e8ac5476ed06f0d6f",
                    "684b226e8ac5476ed06f0d70",
                    "684b226e8ac5476ed06f0d71",
                    "684b226e8ac5476ed06f0d72",
                    "684b226e8ac5476ed06f0df2",
                    "684b226e8ac5476ed06f0df3"
                ]
            },
            "_id": "6438482a8ac547ff05422d31",
            "pid": "6438482a8ac547ff05422d31"
        },
        {
            "type": "Feature",
            "geometry": {
                "type": "Polygon",
                "coordinates": [
                    [
                        [
                            -111.97588545,
                            33.07841325
                        ],
                        [
                            -111.97614667,
                            33.07841455
                        ],
                        [
                            -111.97613657,
                            33.07985788
                        ],
                        [
                            -111.97587534,
                            33.07985658
                        ],
                        [
                            -111.97588545,
                            33.07841325
                        ]
                    ]
                ]
            },
            "properties": {
                "plt_label": "p05",
                "trt_label": "NDVI",
                "PLT_AREA": 3902.159202,
                "CUL_NAME": "Deltapine 1044 B2RF",
                "PDATE": "04/29/2015",
                "PLYR": 2015,
                "PLDAY": 119,
                "IROP": "IR004",
                "IRVAL": {
                    "2015098": 6.7,
                    "2015099": 13.3,
                    "2015100": 22.2,
                    "2015101": 22.2,
                    "2015103": 18.5,
                    "2015105": 18.5,
                    "2015106": 22.2,
                    "2015107": 18.5,
                    "2015120": 13.3,
                    "2015121": 13.3,
                    "2015122": 13.3,
                    "2015125": 13.3,
                    "2015127": 6.7,
                    "2015128": 6.7,
                    "2015133": 3.4,
                    "2015155": 13.3,
                    "2015156": 3.4,
                    "2015161": 6.7,
                    "2015162": 13.3,
                    "2015163": 13.3,
                    "2015164": 13.3,
                    "2015169": 20.0,
                    "2015170": 13.3,
                    "2015175": 13.3,
                    "2015176": 13.3,
                    "2015177": 13.3,
                    "2015178": 13.3,
                    "2015182": 26.6,
                    "2015183": 26.6,
                    "2015188": 3.4,
                    "2015189": 6.7,
                    "2015190": 15.9,
                    "2015191": 15.9,
                    "2015195": 12.0,
                    "2015196": 35.8,
                    "2015197": 27.9,
                    "2015203": 23.9,
                    "2015204": 23.9,
                    "2015205": 12.0,
                    "2015210": 23.9,
                    "2015211": 23.9,
                    "2015212": 23.9,
                    "2015217": 15.9,
                    "2015218": 15.9,
                    "2015219": 23.9,
                    "2015225": 19.9,
                    "2015226": 23.9,
                    "2015231": 23.9,
                    "2015232": 23.9,
                    "2015233": 15.9,
                    "2015239": 31.8,
                    "2015240": 23.9,
                    "2015245": 23.9,
                    "2015246": 23.9,
                    "2015247": 8.0
                },
                "FEAMN": {
                    "2015160": 60.0,
                    "2015175": 60.0,
                    "2015188": 60.0
                },
                "PLPD": 10.1,
                "EDATE": "05/05/2015",
                "PLYRE": 2015,
                "PLODE": 125,
                "LF1D": "05/19/2015",
                "EM38V": {
                    "2013260": 59.87
                },
                "EM38": {
                    "2015119": 57.68
                },
                "SLSND": {
                    "15": 55.34,
                    "45": 56.8,
                    "75": 55.68,
                    "105": 53.43,
                    "135": 55.57,
                    "165": 58.33
                },
                "SLSLT": {
                    "15": 16.65,
                    "45": 13.65,
                    "75": 16.77,
                    "105": 15.77,
                    "135": 18.07,
                    "165": 15.29
                },
                "SLCLY": {
                    "15": 27.88,
                    "45": 29.6,
                    "75": 27.32,
                    "105": 30.36,
                    "135": 26.1,
                    "165": 26.1
                },
                "SLWP1": {
                    "15": 0.157,
                    "45": 0.163,
                    "75": 0.182,
                    "105": 0.162,
                    "135": 0.151,
                    "165": 0.146
                },
                "SLWP2": {
                    "15": 0.172,
                    "45": 0.183,
                    "75": 0.201,
                    "105": 0.181,
                    "135": 0.174,
                    "165": 0.165
                },
                "SLFC1": {
                    "15": 0.28,
                    "45": 0.28,
                    "75": 0.305,
                    "105": 0.302,
                    "135": 0.292,
                    "165": 0.291
                },
                "SLSND_KRT": {
                    "20": 53.78,
                    "60": 57.86,
                    "100": 56.18,
                    "140": 61.85,
                    "180": 66.02
                },
                "SLSLT_KRT": {
                    "20": 17.14,
                    "60": 17.6,
                    "100": 19.68,
                    "140": 17.3,
                    "180": 15.26
                },
                "SLCLY_KRT": {
                    "20": 28.98,
                    "60": 24.39,
                    "100": 23.71,
                    "140": 21.06,
                    "180": 18.64
                },
                "SLSND2_KRT": {
                    "20": 62.68,
                    "60": 67.24,
                    "100": 65.29,
                    "140": 71.04,
                    "180": 75.18
                },
                "SLSLT2_KRT": {
                    "20": 19.25,
                    "60": 18.87,
                    "100": 22.95,
                    "140": 18.74,
                    "180": 15.87
                },
                "SLCLY2_KRT": {
                    "20": 17.75,
                    "60": 13.75,
                    "100": 11.78,
                    "140": 10.16,
                    "180": 8.71
                },
                "HARM": "Machine",
                "HADAT": "11/17/2015",
                "WBWAH": 6596.3,
                "BWCAH": 6.07,
                "DBWAH": 6195.6,
                "GNDAT": "12/01/2015",
                "FFRAC": 0.3531,
                "SFRAC": 0.5357,
                "TFRAC": 0.1112,
                "WFWAH": 2329.3,
                "WSWAH": 3533.7,
                "WSCWAH": 5863.0,
                "DFWAH": 2187.8,
                "DSWAH": 3319.1,
                "DSCWAH": 5506.9,
                "haids": [
                    "64386c2b8ac5470908056e24",
                    "64386c2b8ac5470908056e25",
                    "64386c2b8ac5470908056e26",
                    "64386c2b8ac5470908056e27",
                    "64386c2b8ac5470908056e28",
                    "64386c2b8ac5470908056e29",
                    "64386c2b8ac5470908056e2a",
                    "64386c2b8ac5470908056e2b",
                    "64386c2b8ac5470908056e2c",
                    "64386c2b8ac5470908056e2d"
                ],
                "tids": [
                    "6438726b8ac5470dfd83c6b5",
                    "6438726b8ac5470dfd83c6b6",
                    "6438726b8ac5470dfd83c6b7",
                    "6438726b8ac5470dfd83c6b8",
                    "6438726b8ac5470dfd83c6b9"
                ],
                "ccids": [
                    "643873f98ac5470ec1e3d049",
                    "643873f98ac5470ec1e3d04a",
                    "643873f98ac5470ec1e3d04b",
                    "643873f98ac5470ec1e3d04c",
                    "643873f98ac5470ec1e3d04d"
                ],
                "saids": [
                    "684b226e8ac5476ed06f0ccb",
                    "684b226e8ac5476ed06f0ccc",
                    "684b226e8ac5476ed06f0ccd",
                    "684b226e8ac5476ed06f0cce",
                    "684b226e8ac5476ed06f0ccf",
                    "684b226e8ac5476ed06f0cd0",
                    "684b226e8ac5476ed06f0d44",
                    "684b226e8ac5476ed06f0d45",
                    "684b226e8ac5476ed06f0d46",
                    "684b226e8ac5476ed06f0d47",
                    "684b226e8ac5476ed06f0d48",
                    "684b226e8ac5476ed06f0d73",
                    "684b226e8ac5476ed06f0d74",
                    "684b226e8ac5476ed06f0d75",
                    "684b226e8ac5476ed06f0d76",
                    "684b226e8ac5476ed06f0df1",
                    "684b226e8ac5476ed06f0dff",
                    "684b226e8ac5476ed06f0e00",
                    "684b226e8ac5476ed06f0e01",
                    "684b226e8ac5476ed06f0e02"
                ]
            },
            "_id": "6438482a8ac547ff05422d32",
            "pid": "6438482a8ac547ff05422d32"
        },
        {
            "type": "Feature",
            "geometry": {
                "type": "Polygon",
                "coordinates": [
                    [
                        [
                            -111.97616844,
                            33.07841465
                        ],
                        [
                            -111.97642967,
                            33.07841595
                        ],
                        [
                            -111.97641957,
                            33.07985929
                        ],
                        [
                            -111.97615834,
                            33.07985799
                        ],
                        [
                            -111.97616844,
                            33.07841465
                        ]
                    ]
                ]
            },
            "properties": {
                "plt_label": "p06",
                "trt_label": "Stress",
                "PLT_AREA": 3902.159202,
                "CUL_NAME": "Deltapine 1044 B2RF",
                "PDATE": "04/29/2015",
                "PLYR": 2015,
                "PLDAY": 119,
                "IROP": "IR004",
                "IRVAL": {
                    "2015098": 6.7,
                    "2015099": 13.3,
                    "2015100": 22.2,
                    "2015101": 22.2,
                    "2015103": 18.5,
                    "2015105": 18.5,
                    "2015106": 22.2,
                    "2015107": 18.5,
                    "2015120": 13.3,
                    "2015121": 13.3,
                    "2015122": 13.3,
                    "2015125": 13.3,
                    "2015127": 6.7,
                    "2015128": 6.7,
                    "2015133": 3.4,
                    "2015155": 13.3,
                    "2015156": 3.4,
                    "2015161": 6.7,
                    "2015162": 13.3,
                    "2015163": 13.3,
                    "2015164": 13.3,
                    "2015169": 20.0,
                    "2015170": 13.3,
                    "2015175": 13.3,
                    "2015176": 13.3,
                    "2015177": 13.3,
                    "2015178": 13.3,
                    "2015182": 26.6,
                    "2015183": 26.6,
                    "2015188": 3.4,
                    "2015189": 4.5,
                    "2015190": 8.9,
                    "2015191": 8.9,
                    "2015195": 6.8,
                    "2015196": 20.1,
                    "2015197": 15.7,
                    "2015203": 13.4,
                    "2015204": 13.4,
                    "2015205": 6.8,
                    "2015210": 13.4,
                    "2015211": 13.4,
                    "2015212": 13.4,
                    "2015217": 8.9,
                    "2015218": 8.9,
                    "2015219": 13.4,
                    "2015225": 11.2,
                    "2015226": 13.4,
                    "2015231": 13.4,
                    "2015232": 13.4,
                    "2015233": 8.9,
                    "2015239": 17.8,
                    "2015240": 13.4,
                    "2015245": 13.4,
                    "2015246": 13.4,
                    "2015247": 4.5
                },
                "FEAMN": {
                    "2015160": 60.0,
                    "2015175": 60.0,
                    "2015188": 60.0
                },
                "PLPD": 9.8,
                "EDATE": "05/05/2015",
                "PLYRE": 2015,
                "PLODE": 125,
                "LF1D": "05/19/2015",
                "EM38V": {
                    "2013260": 58.35
                },
                "EM38": {
                    "2015119": 54.4
                },
                "SLSND": {
                    "15": 53.33,
                    "45": 54.75,
                    "75": 55.5,
                    "105": 53.59,
                    "135": 53.66,
                    "165": 56.17
                },
                "SLSLT": {
                    "15": 18.29,
                    "45": 15.46,
                    "75": 16.82,
                    "105": 15.89,
                    "135": 19.09,
                    "165": 17.14
                },
                "SLCLY": {
                    "15": 28.1,
                    "45": 29.81,
                    "75": 27.28,
                    "105": 30.48,
                    "135": 26.92,
                    "165": 26.83
                },
                "SLWP1": {
                    "15": 0.157,
                    "45": 0.159,
                    "75": 0.175,
                    "105": 0.161,
                    "135": 0.163,
                    "165": 0.148
                },
                "SLWP2": {
                    "15": 0.168,
                    "45": 0.173,
                    "75": 0.193,
                    "105": 0.184,
                    "135": 0.179,
                    "165": 0.166
                },
                "SLFC1": {
                    "15": 0.277,
                    "45": 0.278,
                    "75": 0.304,
                    "105": 0.301,
                    "135": 0.3,
                    "165": 0.294
                },
                "SLSND_KRT": {
                    "20": 53.49,
                    "60": 57.91,
                    "100": 58.7,
                    "140": 60.7,
                    "180": 65.26
                },
                "SLSLT_KRT": {
                    "20": 18.83,
                    "60": 17.57,
                    "100": 19.08,
                    "140": 18.37,
                    "180": 16.52
                },
                "SLCLY_KRT": {
                    "20": 27.85,
                    "60": 24.4,
                    "100": 22.58,
                    "140": 21.22,
                    "180": 18.45
                },
                "SLSND2_KRT": {
                    "20": 62.51,
                    "60": 67.49,
                    "100": 67.84,
                    "140": 70.08,
                    "180": 74.63
                },
                "SLSLT2_KRT": {
                    "20": 20.49,
                    "60": 18.7,
                    "100": 21.11,
                    "140": 19.86,
                    "180": 17.19
                },
                "SLCLY2_KRT": {
                    "20": 16.66,
                    "60": 14.1,
                    "100": 11.01,
                    "140": 10.12,
                    "180": 8.22
                },
                "HARM": "Machine",
                "HADAT": "11/17/2015",
                "WBWAH": 3986.0,
                "BWCAH": 5.54,
                "DBWAH": 3765.1,
                "GNDAT": "12/01/2015",
                "FFRAC": 0.3565,
                "SFRAC": 0.5444,
                "TFRAC": 0.0991,
                "WFWAH": 1421.0,
                "WSWAH": 2169.9,
                "WSCWAH": 3590.9,
                "DFWAH": 1342.2,
                "DSWAH": 2049.7,
                "DSCWAH": 3392.0,
                "haids": [
                    "64386c2b8ac5470908056e2e",
                    "64386c2b8ac5470908056e2f",
                    "64386c2b8ac5470908056e30",
                    "64386c2b8ac5470908056e31",
                    "64386c2b8ac5470908056e32",
                    "64386c2b8ac5470908056e33",
                    "64386c2b8ac5470908056e34",
                    "64386c2b8ac5470908056e35",
                    "64386c2b8ac5470908056e36",
                    "64386c2b8ac5470908056e37"
                ],
                "tids": [
                    "6438726b8ac5470dfd83c6ba",
                    "6438726b8ac5470dfd83c6bb",
                    "6438726b8ac5470dfd83c6bc",
                    "6438726b8ac5470dfd83c6bd",
                    "6438726b8ac5470dfd83c6be"
                ],
                "ccids": [
                    "643873f98ac5470ec1e3d04e",
                    "643873f98ac5470ec1e3d04f",
                    "643873f98ac5470ec1e3d050",
                    "643873f98ac5470ec1e3d051",
                    "643873f98ac5470ec1e3d052"
                ],
                "paids": [
                    "684317f58ac547d57dfce372",
                    "684317f58ac547d57dfce373",
                    "684317f58ac547d57dfce37e",
                    "684317f58ac547d57dfce37f",
                    "684317f58ac547d57dfce38a",
                    "684317f58ac547d57dfce38b",
                    "684317f58ac547d57dfce396",
                    "684317f58ac547d57dfce397",
                    "684317f58ac547d57dfce3a2",
                    "684317f58ac547d57dfce3a3",
                    "684317f58ac547d57dfce3ae",
                    "684317f58ac547d57dfce3af",
                    "684317f58ac547d57dfce3ba",
                    "684317f58ac547d57dfce3bb"
                ],
                "saids": [
                    "684b226e8ac5476ed06f0cd1",
                    "684b226e8ac5476ed06f0cd2",
                    "684b226e8ac5476ed06f0cd3",
                    "684b226e8ac5476ed06f0cd4",
                    "684b226e8ac5476ed06f0cd5",
                    "684b226e8ac5476ed06f0cd6",
                    "684b226e8ac5476ed06f0d49",
                    "684b226e8ac5476ed06f0d4a",
                    "684b226e8ac5476ed06f0d4b",
                    "684b226e8ac5476ed06f0d4c",
                    "684b226e8ac5476ed06f0d4d",
                    "684b226e8ac5476ed06f0ded",
                    "684b226e8ac5476ed06f0e03",
                    "684b226e8ac5476ed06f0e04",
                    "684b226e8ac5476ed06f0e05",
                    "684b226e8ac5476ed06f0e06"
                ]
            },
            "_id": "6438482a8ac547ff05422d33",
            "pid": "6438482a8ac547ff05422d33"
        },
        {
            "type": "Feature",
            "geometry": {
                "type": "Polygon",
                "coordinates": [
                    [
                        [
                            -111.97648667,
                            33.07841624
                        ],
                        [
                            -111.9767479,
                            33.07841754
                        ],
                        [
                            -111.9767378,
                            33.07986087
                        ],
                        [
                            -111.97647657,
                            33.07985957
                        ],
                        [
                            -111.97648667,
                            33.07841624
                        ]
                    ]
                ]
            },
            "properties": {
                "plt_label": "p07",
                "trt_label": "CropMod",
                "PLT_AREA": 3902.159202,
                "CUL_NAME": "Deltapine 1044 B2RF",
                "PDATE": "04/29/2015",
                "PLYR": 2015,
                "PLDAY": 119,
                "IROP": "IR004",
                "IRVAL": {
                    "2015098": 6.7,
                    "2015099": 13.3,
                    "2015100": 22.2,
                    "2015101": 22.2,
                    "2015103": 18.5,
                    "2015105": 18.5,
                    "2015106": 22.2,
                    "2015107": 18.5,
                    "2015120": 13.3,
                    "2015121": 13.3,
                    "2015122": 13.3,
                    "2015125": 13.3,
                    "2015127": 6.7,
                    "2015128": 6.7,
                    "2015133": 3.4,
                    "2015155": 13.3,
                    "2015161": 6.7,
                    "2015162": 13.3,
                    "2015163": 13.3,
                    "2015169": 20.0,
                    "2015170": 13.3,
                    "2015175": 13.3,
                    "2015176": 20.0,
                    "2015177": 13.3,
                    "2015178": 13.3,
                    "2015182": 26.6,
                    "2015183": 26.6,
                    "2015188": 3.4,
                    "2015189": 6.7,
                    "2015190": 15.9,
                    "2015191": 15.9,
                    "2015195": 12.0,
                    "2015196": 35.8,
                    "2015197": 27.9,
                    "2015198": 15.9,
                    "2015203": 23.9,
                    "2015204": 23.9,
                    "2015205": 8.0,
                    "2015210": 23.9,
                    "2015211": 23.9,
                    "2015212": 23.9,
                    "2015217": 15.9,
                    "2015218": 15.9,
                    "2015219": 23.9,
                    "2015225": 19.9,
                    "2015226": 23.9,
                    "2015231": 23.9,
                    "2015232": 23.9,
                    "2015233": 15.9,
                    "2015239": 31.8,
                    "2015240": 23.9,
                    "2015245": 23.9,
                    "2015246": 23.9,
                    "2015247": 4.0
                },
                "FEAMN": {
                    "2015160": 60.0,
                    "2015175": 60.0,
                    "2015188": 60.0
                },
                "PLPD": 10.1,
                "EDATE": "05/05/2015",
                "PLYRE": 2015,
                "PLODE": 125,
                "LF1D": "05/19/2015",
                "EM38V": {
                    "2013260": 49.26
                },
                "EM38": {
                    "2015119": 50.3
                },
                "SLSND": {
                    "15": 54.35,
                    "45": 57.28,
                    "75": 61.08,
                    "105": 55.65,
                    "135": 56.6,
                    "165": 57.1
                },
                "SLSLT": {
                    "15": 18.34,
                    "45": 16.28,
                    "75": 15.41,
                    "105": 15.71,
                    "135": 18.59,
                    "165": 15.91
                },
                "SLCLY": {
                    "15": 27.38,
                    "45": 26.4,
                    "75": 24.11,
                    "105": 28.1,
                    "135": 25.36,
                    "165": 27.14
                },
                "SLWP1": {
                    "15": 0.15,
                    "45": 0.143,
                    "75": 0.151,
                    "105": 0.148,
                    "135": 0.15,
                    "165": 0.142
                },
                "SLWP2": {
                    "15": 0.165,
                    "45": 0.158,
                    "75": 0.167,
                    "105": 0.168,
                    "135": 0.177,
                    "165": 0.165
                },
                "SLFC1": {
                    "15": 0.281,
                    "45": 0.257,
                    "75": 0.285,
                    "105": 0.291,
                    "135": 0.301,
                    "165": 0.295
                },
                "SLSND_KRT": {
                    "20": 53.4,
                    "60": 57.82,
                    "100": 59.29,
                    "140": 59.08,
                    "180": 64.91
                },
                "SLSLT_KRT": {
                    "20": 19.62,
                    "60": 17.97,
                    "100": 19.6,
                    "140": 19.26,
                    "180": 16.95
                },
                "SLCLY_KRT": {
                    "20": 26.97,
                    "60": 24.06,
                    "100": 21.76,
                    "140": 21.68,
                    "180": 18.4
                },
                "SLSND2_KRT": {
                    "20": 62.76,
                    "60": 67.43,
                    "100": 68.77,
                    "140": 68.7,
                    "180": 74.52
                },
                "SLSLT2_KRT": {
                    "20": 21.55,
                    "60": 19.23,
                    "100": 20.96,
                    "140": 21.29,
                    "180": 17.63
                },
                "SLCLY2_KRT": {
                    "20": 15.66,
                    "60": 13.25,
                    "100": 10.27,
                    "140": 10.07,
                    "180": 7.86
                },
                "HARM": "Machine",
                "HADAT": "11/17/2015",
                "WBWAH": 6904.6,
                "BWCAH": 5.88,
                "DBWAH": 6498.8,
                "GNDAT": "12/01/2015",
                "FFRAC": 0.3517,
                "SFRAC": 0.5275,
                "TFRAC": 0.1209,
                "WFWAH": 2428.1,
                "WSWAH": 3642.1,
                "WSCWAH": 6070.2,
                "DFWAH": 2285.4,
                "DSWAH": 3428.1,
                "DSCWAH": 5713.4,
                "haids": [
                    "64386c2b8ac5470908056e38",
                    "64386c2b8ac5470908056e39",
                    "64386c2b8ac5470908056e3a",
                    "64386c2b8ac5470908056e3b",
                    "64386c2b8ac5470908056e3c",
                    "64386c2b8ac5470908056e3d",
                    "64386c2b8ac5470908056e3e",
                    "64386c2b8ac5470908056e3f",
                    "64386c2b8ac5470908056e40",
                    "64386c2b8ac5470908056e41"
                ],
                "tids": [
                    "6438726b8ac5470dfd83c6bf",
                    "6438726b8ac5470dfd83c6c0",
                    "6438726b8ac5470dfd83c6c1",
                    "6438726b8ac5470dfd83c6c2",
                    "6438726b8ac5470dfd83c6c3"
                ],
                "ccids": [
                    "643873f98ac5470ec1e3d053",
                    "643873f98ac5470ec1e3d054",
                    "643873f98ac5470ec1e3d055",
                    "643873f98ac5470ec1e3d056",
                    "643873f98ac5470ec1e3d057"
                ],
                "paids": [
                    "684317f58ac547d57dfce374",
                    "684317f58ac547d57dfce375",
                    "684317f58ac547d57dfce380",
                    "684317f58ac547d57dfce381",
                    "684317f58ac547d57dfce38c",
                    "684317f58ac547d57dfce38d",
                    "684317f58ac547d57dfce398",
                    "684317f58ac547d57dfce399",
                    "684317f58ac547d57dfce3a4",
                    "684317f58ac547d57dfce3a5",
                    "684317f58ac547d57dfce3b0",
                    "684317f58ac547d57dfce3b1",
                    "684317f58ac547d57dfce3bc",
                    "684317f58ac547d57dfce3bd"
                ],
                "saids": [
                    "684b226e8ac5476ed06f0cd7",
                    "684b226e8ac5476ed06f0cd8",
                    "684b226e8ac5476ed06f0cd9",
                    "684b226e8ac5476ed06f0cda",
                    "684b226e8ac5476ed06f0cdb",
                    "684b226e8ac5476ed06f0cdc",
                    "684b226e8ac5476ed06f0d4e",
                    "684b226e8ac5476ed06f0d4f",
                    "684b226e8ac5476ed06f0d50",
                    "684b226e8ac5476ed06f0d51",
                    "684b226e8ac5476ed06f0d52",
                    "684b226e8ac5476ed06f0d77",
                    "684b226e8ac5476ed06f0d78",
                    "684b226e8ac5476ed06f0d79",
                    "684b226e8ac5476ed06f0d7a",
                    "684b226e8ac5476ed06f0d7b",
                    "684b226e8ac5476ed06f0d7c",
                    "684b226e8ac5476ed06f0d7d",
                    "684b226e8ac5476ed06f0d7e",
                    "684b226e8ac5476ed06f0dea",
                    "684b226e8ac5476ed06f0deb"
                ]
            },
            "_id": "6438482a8ac547ff05422d34",
            "pid": "6438482a8ac547ff05422d34"
        },
        {
            "type": "Feature",
            "geometry": {
                "type": "Polygon",
                "coordinates": [
                    [
                        [
                            -111.97676966,
                            33.07841764
                        ],
                        [
                            -111.97703089,
                            33.07841894
                        ],
                        [
                            -111.9770208,
                            33.07986228
                        ],
                        [
                            -111.97675957,
                            33.07986098
                        ],
                        [
                            -111.97676966,
                            33.07841764
                        ]
                    ]
                ]
            },
            "properties": {
                "plt_label": "p08",
                "trt_label": "SEB",
                "PLT_AREA": 3902.159202,
                "CUL_NAME": "Deltapine 1044 B2RF",
                "PDATE": "04/29/2015",
                "PLYR": 2015,
                "PLDAY": 119,
                "IROP": "IR004",
                "IRVAL": {
                    "2015098": 6.7,
                    "2015099": 13.3,
                    "2015100": 22.2,
                    "2015101": 22.2,
                    "2015103": 18.5,
                    "2015105": 18.5,
                    "2015106": 22.2,
                    "2015107": 18.5,
                    "2015120": 13.3,
                    "2015121": 13.3,
                    "2015122": 13.3,
                    "2015125": 13.3,
                    "2015127": 6.7,
                    "2015128": 6.7,
                    "2015133": 3.4,
                    "2015155": 13.3,
                    "2015156": 3.4,
                    "2015161": 6.7,
                    "2015162": 13.3,
                    "2015163": 13.3,
                    "2015164": 13.3,
                    "2015169": 20.0,
                    "2015170": 13.3,
                    "2015175": 13.3,
                    "2015176": 13.3,
                    "2015177": 13.3,
                    "2015178": 13.3,
                    "2015182": 26.6,
                    "2015183": 26.6,
                    "2015188": 3.4,
                    "2015189": 6.7,
                    "2015190": 15.9,
                    "2015191": 15.9,
                    "2015195": 12.0,
                    "2015196": 35.8,
                    "2015197": 27.9,
                    "2015203": 23.9,
                    "2015204": 23.9,
                    "2015205": 12.0,
                    "2015210": 23.9,
                    "2015211": 23.9,
                    "2015212": 23.9,
                    "2015217": 15.9,
                    "2015218": 15.9,
                    "2015219": 23.9,
                    "2015225": 19.9,
                    "2015226": 23.9,
                    "2015231": 23.9,
                    "2015232": 23.9,
                    "2015233": 15.9,
                    "2015239": 31.8,
                    "2015240": 23.9,
                    "2015245": 23.9,
                    "2015246": 23.9,
                    "2015247": 8.0
                },
                "FEAMN": {
                    "2015160": 60.0,
                    "2015175": 60.0,
                    "2015188": 60.0
                },
                "PLPD": 10.6,
                "EDATE": "05/05/2015",
                "PLYRE": 2015,
                "PLODE": 125,
                "LF1D": "05/19/2015",
                "EM38V": {
                    "2013260": 54.38
                },
                "EM38": {
                    "2015119": 52.91
                },
                "SLSND": {
                    "15": 53.61,
                    "45": 55.67,
                    "75": 56.37,
                    "105": 52.32,
                    "135": 51.42,
                    "165": 53.13
                },
                "SLSLT": {
                    "15": 20.09,
                    "45": 17.81,
                    "75": 18.94,
                    "105": 17.95,
                    "135": 20.87,
                    "165": 18.12
                },
                "SLCLY": {
                    "15": 26.45,
                    "45": 26.52,
                    "75": 24.57,
                    "105": 30.19,
                    "135": 27.46,
                    "165": 28.5
                },
                "SLWP1": {
                    "15": 0.144,
                    "45": 0.141,
                    "75": 0.152,
                    "105": 0.165,
                    "135": 0.161,
                    "165": 0.155
                },
                "SLWP2": {
                    "15": 0.165,
                    "45": 0.159,
                    "75": 0.169,
                    "105": 0.188,
                    "135": 0.182,
                    "165": 0.169
                },
                "SLFC1": {
                    "15": 0.284,
                    "45": 0.259,
                    "75": 0.292,
                    "105": 0.304,
                    "135": 0.307,
                    "165": 0.297
                },
                "SLSND_KRT": {
                    "20": 53.52,
                    "60": 57.59,
                    "100": 57.03,
                    "140": 55.82,
                    "180": 65.01
                },
                "SLSLT_KRT": {
                    "20": 19.87,
                    "60": 18.61,
                    "100": 21.66,
                    "140": 21.3,
                    "180": 16.9
                },
                "SLCLY_KRT": {
                    "20": 26.45,
                    "60": 23.42,
                    "100": 21.64,
                    "140": 22.68,
                    "180": 18.32
                },
                "SLSND2_KRT": {
                    "20": 62.97,
                    "60": 66.99,
                    "100": 66.89,
                    "140": 65.36,
                    "180": 74.65
                },
                "SLSLT2_KRT": {
                    "20": 22.18,
                    "60": 20.01,
                    "100": 23.28,
                    "140": 24.33,
                    "180": 17.5
                },
                "SLCLY2_KRT": {
                    "20": 14.86,
                    "60": 12.78,
                    "100": 9.95,
                    "140": 10.45,
                    "180": 7.77
                },
                "HARM": "Machine",
                "HADAT": "11/17/2015",
                "WBWAH": 6458.2,
                "BWCAH": 5.31,
                "DBWAH": 6115.4,
                "GNDAT": "12/01/2015",
                "FFRAC": 0.3597,
                "SFRAC": 0.5417,
                "TFRAC": 0.0986,
                "WFWAH": 2323.3,
                "WSWAH": 3498.1,
                "WSCWAH": 5821.4,
                "DFWAH": 2200.0,
                "DSWAH": 3312.4,
                "DSCWAH": 5512.4,
                "haids": [
                    "64386c2b8ac5470908056e42",
                    "64386c2b8ac5470908056e43",
                    "64386c2b8ac5470908056e44",
                    "64386c2b8ac5470908056e45",
                    "64386c2b8ac5470908056e46",
                    "64386c2b8ac5470908056e47",
                    "64386c2b8ac5470908056e48",
                    "64386c2b8ac5470908056e49",
                    "64386c2b8ac5470908056e4a",
                    "64386c2b8ac5470908056e4b"
                ],
                "tids": [
                    "6438726b8ac5470dfd83c6c4",
                    "6438726b8ac5470dfd83c6c5",
                    "6438726b8ac5470dfd83c6c6",
                    "6438726b8ac5470dfd83c6c7",
                    "6438726b8ac5470dfd83c6c8"
                ],
                "ccids": [
                    "643873f98ac5470ec1e3d058",
                    "643873f98ac5470ec1e3d059",
                    "643873f98ac5470ec1e3d05a",
                    "643873f98ac5470ec1e3d05b",
                    "643873f98ac5470ec1e3d05c"
                ],
                "saids": [
                    "684b226e8ac5476ed06f0cdd",
                    "684b226e8ac5476ed06f0cde",
                    "684b226e8ac5476ed06f0cdf",
                    "684b226e8ac5476ed06f0ce0",
                    "684b226e8ac5476ed06f0ce1",
                    "684b226e8ac5476ed06f0ce2",
                    "684b226e8ac5476ed06f0d53",
                    "684b226e8ac5476ed06f0d54",
                    "684b226e8ac5476ed06f0d55",
                    "684b226e8ac5476ed06f0d56",
                    "684b226e8ac5476ed06f0d57",
                    "684b226e8ac5476ed06f0d7f",
                    "684b226e8ac5476ed06f0d80",
                    "684b226e8ac5476ed06f0d81",
                    "684b226e8ac5476ed06f0d82",
                    "684b226e8ac5476ed06f0d83",
                    "684b226e8ac5476ed06f0d84",
                    "684b226e8ac5476ed06f0d85",
                    "684b226e8ac5476ed06f0d86",
                    "684b226e8ac5476ed06f0de6",
                    "684b226e8ac5476ed06f0de7"
                ]
            },
            "_id": "6438482a8ac547ff05422d35",
            "pid": "6438482a8ac547ff05422d35"
        },
        {
            "type": "Feature",
            "geometry": {
                "type": "Polygon",
                "coordinates": [
                    [
                        [
                            -111.97709536,
                            33.07841926
                        ],
                        [
                            -111.97735659,
                            33.07842056
                        ],
                        [
                            -111.9773465,
                            33.07986389
                        ],
                        [
                            -111.97708527,
                            33.0798626
                        ],
                        [
                            -111.97709536,
                            33.07841926
                        ]
                    ]
                ]
            },
            "properties": {
                "plt_label": "p09",
                "trt_label": "NDVI",
                "PLT_AREA": 3902.159202,
                "CUL_NAME": "Deltapine 1044 B2RF",
                "PDATE": "04/29/2015",
                "PLYR": 2015,
                "PLDAY": 119,
                "IROP": "IR004",
                "IRVAL": {
                    "2015098": 6.7,
                    "2015099": 13.3,
                    "2015100": 22.2,
                    "2015101": 22.2,
                    "2015103": 18.5,
                    "2015105": 18.5,
                    "2015106": 22.2,
                    "2015107": 18.5,
                    "2015120": 13.3,
                    "2015121": 13.3,
                    "2015122": 13.3,
                    "2015125": 13.3,
                    "2015127": 6.7,
                    "2015128": 6.7,
                    "2015133": 3.4,
                    "2015155": 13.3,
                    "2015156": 3.4,
                    "2015161": 6.7,
                    "2015162": 13.3,
                    "2015163": 13.3,
                    "2015164": 13.3,
                    "2015169": 20.0,
                    "2015170": 13.3,
                    "2015175": 13.3,
                    "2015176": 13.3,
                    "2015177": 13.3,
                    "2015178": 13.3,
                    "2015182": 26.6,
                    "2015183": 26.6,
                    "2015188": 3.4,
                    "2015189": 6.7,
                    "2015190": 15.9,
                    "2015191": 15.9,
                    "2015195": 12.0,
                    "2015196": 35.8,
                    "2015197": 27.9,
                    "2015203": 23.9,
                    "2015204": 23.9,
                    "2015205": 12.0,
                    "2015210": 23.9,
                    "2015211": 23.9,
                    "2015212": 23.9,
                    "2015217": 15.9,
                    "2015218": 15.9,
                    "2015219": 23.9,
                    "2015225": 19.9,
                    "2015226": 23.9,
                    "2015231": 23.9,
                    "2015232": 23.9,
                    "2015233": 15.9,
                    "2015239": 31.8,
                    "2015240": 23.9,
                    "2015245": 23.9,
                    "2015246": 23.9,
                    "2015247": 8.0
                },
                "FEAMN": {
                    "2015160": 60.0,
                    "2015175": 60.0,
                    "2015188": 60.0
                },
                "PLPD": 9.5,
                "EDATE": "05/05/2015",
                "PLYRE": 2015,
                "PLODE": 125,
                "LF1D": "05/19/2015",
                "EM38V": {
                    "2013260": 53.37
                },
                "EM38": {
                    "2015119": 52.5
                },
                "SLSND": {
                    "15": 52.27,
                    "45": 53.4,
                    "75": 54.7,
                    "105": 51.71,
                    "135": 51.33,
                    "165": 52.28
                },
                "SLSLT": {
                    "15": 21.31,
                    "45": 18.97,
                    "75": 20.66,
                    "105": 19.44,
                    "135": 21.96,
                    "165": 18.3
                },
                "SLCLY": {
                    "15": 26.51,
                    "45": 27.62,
                    "75": 24.6,
                    "105": 29.05,
                    "135": 26.56,
                    "165": 29.21
                },
                "SLWP1": {
                    "15": 0.141,
                    "45": 0.141,
                    "75": 0.143,
                    "105": 0.148,
                    "135": 0.149,
                    "165": 0.145
                },
                "SLWP2": {
                    "15": 0.165,
                    "45": 0.163,
                    "75": 0.168,
                    "105": 0.172,
                    "135": 0.177,
                    "165": 0.168
                },
                "SLFC1": {
                    "15": 0.285,
                    "45": 0.267,
                    "75": 0.292,
                    "105": 0.293,
                    "135": 0.304,
                    "165": 0.298
                },
                "SLSND_KRT": {
                    "20": 52.72,
                    "60": 56.99,
                    "100": 55.57,
                    "140": 54.12,
                    "180": 65.08
                },
                "SLSLT_KRT": {
                    "20": 20.71,
                    "60": 19.12,
                    "100": 22.78,
                    "140": 21.79,
                    "180": 16.73
                },
                "SLCLY_KRT": {
                    "20": 26.66,
                    "60": 24.02,
                    "100": 22.11,
                    "140": 23.53,
                    "180": 18.37
                },
                "SLSND2_KRT": {
                    "20": 62.03,
                    "60": 66.35,
                    "100": 64.85,
                    "140": 63.42,
                    "180": 74.55
                },
                "SLSLT2_KRT": {
                    "20": 22.97,
                    "60": 20.77,
                    "100": 25.07,
                    "140": 25.69,
                    "180": 17.49
                },
                "SLCLY2_KRT": {
                    "20": 15.06,
                    "60": 12.9,
                    "100": 10.22,
                    "140": 10.89,
                    "180": 7.8
                },
                "HARM": "Machine",
                "HADAT": "11/17/2015",
                "WBWAH": 6053.6,
                "BWCAH": 5.38,
                "DBWAH": 5727.8,
                "GNDAT": "12/01/2015",
                "FFRAC": 0.361,
                "SFRAC": 0.5472,
                "TFRAC": 0.0918,
                "WFWAH": 2185.3,
                "WSWAH": 3312.6,
                "WSCWAH": 5497.9,
                "DFWAH": 2067.7,
                "DSWAH": 3134.3,
                "DSCWAH": 5202.0,
                "haids": [
                    "64386c2b8ac5470908056e4c",
                    "64386c2b8ac5470908056e4d",
                    "64386c2b8ac5470908056e4e",
                    "64386c2b8ac5470908056e4f",
                    "64386c2b8ac5470908056e50",
                    "64386c2b8ac5470908056e51",
                    "64386c2b8ac5470908056e52",
                    "64386c2b8ac5470908056e53",
                    "64386c2b8ac5470908056e54",
                    "64386c2b8ac5470908056e55"
                ],
                "tids": [
                    "6438726b8ac5470dfd83c6c9",
                    "6438726b8ac5470dfd83c6ca",
                    "6438726b8ac5470dfd83c6cb",
                    "6438726b8ac5470dfd83c6cc",
                    "6438726b8ac5470dfd83c6cd"
                ],
                "ccids": [
                    "643873f98ac5470ec1e3d05d",
                    "643873f98ac5470ec1e3d05e",
                    "643873f98ac5470ec1e3d05f",
                    "643873f98ac5470ec1e3d060",
                    "643873f98ac5470ec1e3d061"
                ],
                "saids": [
                    "684b226e8ac5476ed06f0ce3",
                    "684b226e8ac5476ed06f0ce4",
                    "684b226e8ac5476ed06f0ce5",
                    "684b226e8ac5476ed06f0ce6",
                    "684b226e8ac5476ed06f0ce7",
                    "684b226e8ac5476ed06f0ce8",
                    "684b226e8ac5476ed06f0d58",
                    "684b226e8ac5476ed06f0d59",
                    "684b226e8ac5476ed06f0d5a",
                    "684b226e8ac5476ed06f0d5b",
                    "684b226e8ac5476ed06f0d5c",
                    "684b226e8ac5476ed06f0d87",
                    "684b226e8ac5476ed06f0d88",
                    "684b226e8ac5476ed06f0d89",
                    "684b226e8ac5476ed06f0d8a",
                    "684b226e8ac5476ed06f0d8b",
                    "684b226e8ac5476ed06f0d8c",
                    "684b226e8ac5476ed06f0d8d",
                    "684b226e8ac5476ed06f0d8e",
                    "684b226e8ac5476ed06f0de4",
                    "684b226e8ac5476ed06f0de5"
                ]
            },
            "_id": "6438482a8ac547ff05422d36",
            "pid": "6438482a8ac547ff05422d36"
        },
        {
            "type": "Feature",
            "geometry": {
                "type": "Polygon",
                "coordinates": [
                    [
                        [
                            -111.97737835,
                            33.07842067
                        ],
                        [
                            -111.97763958,
                            33.07842196
                        ],
                        [
                            -111.9776295,
                            33.0798653
                        ],
                        [
                            -111.97736827,
                            33.079864
                        ],
                        [
                            -111.97737835,
                            33.07842067
                        ]
                    ]
                ]
            },
            "properties": {
                "plt_label": "p10",
                "trt_label": "FAO",
                "PLT_AREA": 3902.159202,
                "CUL_NAME": "Deltapine 1044 B2RF",
                "PDATE": "04/29/2015",
                "PLYR": 2015,
                "PLDAY": 119,
                "IROP": "IR004",
                "IRVAL": {
                    "2015098": 6.7,
                    "2015099": 13.3,
                    "2015100": 22.2,
                    "2015101": 22.2,
                    "2015103": 18.5,
                    "2015105": 18.5,
                    "2015106": 22.2,
                    "2015107": 18.5,
                    "2015120": 13.3,
                    "2015121": 13.3,
                    "2015122": 13.3,
                    "2015125": 13.3,
                    "2015127": 6.7,
                    "2015128": 6.7,
                    "2015133": 3.4,
                    "2015155": 13.3,
                    "2015156": 3.4,
                    "2015161": 6.7,
                    "2015162": 13.3,
                    "2015163": 13.3,
                    "2015164": 13.3,
                    "2015169": 20.0,
                    "2015170": 13.3,
                    "2015175": 13.3,
                    "2015176": 13.3,
                    "2015177": 13.3,
                    "2015178": 13.3,
                    "2015182": 26.6,
                    "2015183": 26.6,
                    "2015188": 3.4,
                    "2015189": 6.7,
                    "2015190": 15.9,
                    "2015191": 15.9,
                    "2015195": 12.0,
                    "2015196": 35.8,
                    "2015197": 27.9,
                    "2015203": 23.9,
                    "2015204": 23.9,
                    "2015205": 12.0,
                    "2015210": 23.9,
                    "2015211": 23.9,
                    "2015212": 23.9,
                    "2015217": 15.9,
                    "2015218": 15.9,
                    "2015219": 23.9,
                    "2015225": 19.9,
                    "2015226": 23.9,
                    "2015231": 23.9,
                    "2015232": 23.9,
                    "2015233": 15.9,
                    "2015239": 31.8,
                    "2015240": 23.9,
                    "2015245": 23.9,
                    "2015246": 23.9,
                    "2015247": 8.0
                },
                "FEAMN": {
                    "2015160": 60.0,
                    "2015175": 60.0,
                    "2015188": 60.0
                },
                "PLPD": 9.6,
                "EDATE": "05/05/2015",
                "PLYRE": 2015,
                "PLODE": 125,
                "LF1D": "05/19/2015",
                "EM38V": {
                    "2013260": 53.69
                },
                "EM38": {
                    "2015119": 53.65
                },
                "SLSND": {
                    "15": 51.18,
                    "45": 53.08,
                    "75": 56.65,
                    "105": 53.15,
                    "135": 53.27,
                    "165": 52.25
                },
                "SLSLT": {
                    "15": 21.53,
                    "45": 18.8,
                    "75": 20.59,
                    "105": 18.96,
                    "135": 22.09,
                    "165": 17.63
                },
                "SLCLY": {
                    "15": 27.34,
                    "45": 28.18,
                    "75": 23.37,
                    "105": 27.72,
                    "135": 25.08,
                    "165": 29.61
                },
                "SLWP1": {
                    "15": 0.14,
                    "45": 0.14,
                    "75": 0.141,
                    "105": 0.14,
                    "135": 0.143,
                    "165": 0.146
                },
                "SLWP2": {
                    "15": 0.167,
                    "45": 0.162,
                    "75": 0.164,
                    "105": 0.162,
                    "135": 0.169,
                    "165": 0.167
                },
                "SLFC1": {
                    "15": 0.289,
                    "45": 0.267,
                    "75": 0.288,
                    "105": 0.288,
                    "135": 0.297,
                    "165": 0.299
                },
                "SLSND_KRT": {
                    "20": 52.47,
                    "60": 56.44,
                    "100": 54.64,
                    "140": 55.06,
                    "180": 64.01
                },
                "SLSLT_KRT": {
                    "20": 20.04,
                    "60": 19.67,
                    "100": 23.55,
                    "140": 21.88,
                    "180": 17.52
                },
                "SLCLY_KRT": {
                    "20": 27.33,
                    "60": 23.76,
                    "100": 22.55,
                    "140": 22.71,
                    "180": 18.72
                },
                "SLSND2_KRT": {
                    "20": 61.57,
                    "60": 65.67,
                    "100": 63.52,
                    "140": 64.29,
                    "180": 73.4
                },
                "SLSLT2_KRT": {
                    "20": 22.83,
                    "60": 21.47,
                    "100": 25.93,
                    "140": 25.35,
                    "180": 18.69
                },
                "SLCLY2_KRT": {
                    "20": 15.66,
                    "60": 12.53,
                    "100": 10.66,
                    "140": 10.43,
                    "180": 8.11
                },
                "HARM": "Machine",
                "HADAT": "11/17/2015",
                "WBWAH": 5989.4,
                "BWCAH": 4.91,
                "DBWAH": 5695.0,
                "GNDAT": "12/01/2015",
                "FFRAC": 0.3556,
                "SFRAC": 0.5501,
                "TFRAC": 0.0943,
                "WFWAH": 2129.7,
                "WSWAH": 3294.6,
                "WSCWAH": 5424.3,
                "DFWAH": 2025.1,
                "DSWAH": 3132.6,
                "DSCWAH": 5157.7,
                "haids": [
                    "64386c2b8ac5470908056e56",
                    "64386c2b8ac5470908056e57",
                    "64386c2b8ac5470908056e58",
                    "64386c2b8ac5470908056e59",
                    "64386c2b8ac5470908056e5a",
                    "64386c2b8ac5470908056e5b",
                    "64386c2b8ac5470908056e5c",
                    "64386c2b8ac5470908056e5d",
                    "64386c2b8ac5470908056e5e",
                    "64386c2b8ac5470908056e5f"
                ],
                "tids": [
                    "6438726b8ac5470dfd83c6ce",
                    "6438726b8ac5470dfd83c6cf",
                    "6438726b8ac5470dfd83c6d0",
                    "6438726b8ac5470dfd83c6d1",
                    "6438726b8ac5470dfd83c6d2"
                ],
                "ccids": [
                    "643873f98ac5470ec1e3d062",
                    "643873f98ac5470ec1e3d063",
                    "643873f98ac5470ec1e3d064",
                    "643873f98ac5470ec1e3d065",
                    "643873f98ac5470ec1e3d066"
                ],
                "paids": [
                    "684317f58ac547d57dfce376",
                    "684317f58ac547d57dfce377",
                    "684317f58ac547d57dfce382",
                    "684317f58ac547d57dfce383",
                    "684317f58ac547d57dfce38e",
                    "684317f58ac547d57dfce38f",
                    "684317f58ac547d57dfce39a",
                    "684317f58ac547d57dfce39b",
                    "684317f58ac547d57dfce3a6",
                    "684317f58ac547d57dfce3a7",
                    "684317f58ac547d57dfce3b2",
                    "684317f58ac547d57dfce3b3",
                    "684317f58ac547d57dfce3be",
                    "684317f58ac547d57dfce3bf"
                ],
                "saids": [
                    "684b226e8ac5476ed06f0ce9",
                    "684b226e8ac5476ed06f0cea",
                    "684b226e8ac5476ed06f0ceb",
                    "684b226e8ac5476ed06f0cec",
                    "684b226e8ac5476ed06f0ced",
                    "684b226e8ac5476ed06f0cee",
                    "684b226e8ac5476ed06f0d5d",
                    "684b226e8ac5476ed06f0d5e",
                    "684b226e8ac5476ed06f0d5f",
                    "684b226e8ac5476ed06f0d60",
                    "684b226e8ac5476ed06f0d61",
                    "684b226e8ac5476ed06f0d8f",
                    "684b226e8ac5476ed06f0d90",
                    "684b226e8ac5476ed06f0d91",
                    "684b226e8ac5476ed06f0d92",
                    "684b226e8ac5476ed06f0d93",
                    "684b226e8ac5476ed06f0d94",
                    "684b226e8ac5476ed06f0d95",
                    "684b226e8ac5476ed06f0d96",
                    "684b226e8ac5476ed06f0de1"
                ]
            },
            "_id": "6438482a8ac547ff05422d37",
            "pid": "6438482a8ac547ff05422d37"
        },
        {
            "type": "Feature",
            "geometry": {
                "type": "Polygon",
                "coordinates": [
                    [
                        [
                            -111.9783026,
                            33.07842525
                        ],
                        [
                            -111.97856383,
                            33.07842654
                        ],
                        [
                            -111.97855376,
                            33.07986988
                        ],
                        [
                            -111.97829253,
                            33.07986859
                        ],
                        [
                            -111.9783026,
                            33.07842525
                        ]
                    ]
                ]
            },
            "properties": {
                "plt_label": "p11",
                "trt_label": "Stress",
                "PLT_AREA": 3902.159202,
                "CUL_NAME": "Deltapine 1044 B2RF",
                "PDATE": "04/29/2015",
                "PLYR": 2015,
                "PLDAY": 119,
                "IROP": "IR004",
                "IRVAL": {
                    "2015098": 6.7,
                    "2015099": 13.3,
                    "2015100": 22.2,
                    "2015101": 22.2,
                    "2015103": 18.5,
                    "2015105": 18.5,
                    "2015106": 22.2,
                    "2015107": 18.5,
                    "2015120": 13.3,
                    "2015121": 13.3,
                    "2015122": 13.3,
                    "2015125": 13.3,
                    "2015127": 6.7,
                    "2015128": 6.7,
                    "2015133": 3.4,
                    "2015155": 13.3,
                    "2015156": 3.4,
                    "2015161": 6.7,
                    "2015162": 13.3,
                    "2015163": 13.3,
                    "2015164": 13.3,
                    "2015169": 20.0,
                    "2015170": 13.3,
                    "2015175": 13.3,
                    "2015176": 13.3,
                    "2015177": 13.3,
                    "2015178": 13.3,
                    "2015182": 26.6,
                    "2015183": 26.6,
                    "2015188": 3.4,
                    "2015189": 4.5,
                    "2015190": 8.9,
                    "2015191": 8.9,
                    "2015195": 6.8,
                    "2015196": 20.1,
                    "2015197": 15.7,
                    "2015203": 13.4,
                    "2015204": 13.4,
                    "2015205": 6.8,
                    "2015210": 13.4,
                    "2015211": 13.4,
                    "2015212": 13.4,
                    "2015217": 8.9,
                    "2015218": 8.9,
                    "2015219": 13.4,
                    "2015225": 11.2,
                    "2015226": 13.4,
                    "2015231": 13.4,
                    "2015232": 13.4,
                    "2015233": 8.9,
                    "2015239": 17.8,
                    "2015240": 13.4,
                    "2015245": 13.4,
                    "2015246": 13.4,
                    "2015247": 4.5
                },
                "FEAMN": {
                    "2015160": 60.0,
                    "2015175": 60.0,
                    "2015188": 60.0
                },
                "PLPD": 8.6,
                "EDATE": "05/05/2015",
                "PLYRE": 2015,
                "PLODE": 125,
                "LF1D": "05/19/2015",
                "EM38V": {
                    "2013260": 54.38
                },
                "EM38": {
                    "2015119": 51.76
                },
                "SLSND": {
                    "15": 53.21,
                    "45": 54.59,
                    "75": 58.12,
                    "105": 53.52,
                    "135": 57.18,
                    "165": 56.18
                },
                "SLSLT": {
                    "15": 17.85,
                    "45": 16.6,
                    "75": 16.3,
                    "105": 17.72,
                    "135": 17.61,
                    "165": 15.82
                },
                "SLCLY": {
                    "15": 28.94,
                    "45": 28.9,
                    "75": 25.79,
                    "105": 28.84,
                    "135": 25.85,
                    "165": 28.21
                },
                "SLWP1": {
                    "15": 0.149,
                    "45": 0.151,
                    "75": 0.149,
                    "105": 0.145,
                    "135": 0.146,
                    "165": 0.148
                },
                "SLWP2": {
                    "15": 0.169,
                    "45": 0.174,
                    "75": 0.164,
                    "105": 0.163,
                    "135": 0.159,
                    "165": 0.163
                },
                "SLFC1": {
                    "15": 0.284,
                    "45": 0.271,
                    "75": 0.29,
                    "105": 0.282,
                    "135": 0.28,
                    "165": 0.295
                },
                "SLSND_KRT": {
                    "20": 54.21,
                    "60": 56.04,
                    "100": 57.15,
                    "140": 57.96,
                    "180": 64.42
                },
                "SLSLT_KRT": {
                    "20": 19.18,
                    "60": 19.61,
                    "100": 21.17,
                    "140": 20.75,
                    "180": 17.64
                },
                "SLCLY_KRT": {
                    "20": 26.57,
                    "60": 24.6,
                    "100": 22.35,
                    "140": 21.29,
                    "180": 18.39
                },
                "SLSND2_KRT": {
                    "20": 63.12,
                    "60": 65.32,
                    "100": 66.73,
                    "140": 67.19,
                    "180": 73.89
                },
                "SLSLT2_KRT": {
                    "20": 21.53,
                    "60": 21.29,
                    "100": 22.52,
                    "140": 22.39,
                    "180": 18.0
                },
                "SLCLY2_KRT": {
                    "20": 15.56,
                    "60": 13.39,
                    "100": 10.81,
                    "140": 10.41,
                    "180": 8.09
                },
                "HARM": "Machine",
                "HADAT": "11/17/2015",
                "WBWAH": 2816.8,
                "BWCAH": 5.1,
                "DBWAH": 2673.1,
                "GNDAT": "12/01/2015",
                "FFRAC": 0.3509,
                "SFRAC": 0.5345,
                "TFRAC": 0.1146,
                "WFWAH": 988.4,
                "WSWAH": 1505.6,
                "WSCWAH": 2494.0,
                "DFWAH": 938.0,
                "DSWAH": 1428.7,
                "DSCWAH": 2366.7,
                "haids": [
                    "64386c2b8ac5470908056e60",
                    "64386c2b8ac5470908056e61",
                    "64386c2b8ac5470908056e62",
                    "64386c2b8ac5470908056e63",
                    "64386c2b8ac5470908056e64",
                    "64386c2b8ac5470908056e65",
                    "64386c2b8ac5470908056e66",
                    "64386c2b8ac5470908056e67",
                    "64386c2b8ac5470908056e68",
                    "64386c2b8ac5470908056e69"
                ],
                "tids": [
                    "6438726b8ac5470dfd83c6d3",
                    "6438726b8ac5470dfd83c6d4",
                    "6438726b8ac5470dfd83c6d5",
                    "6438726b8ac5470dfd83c6d6",
                    "6438726b8ac5470dfd83c6d7"
                ],
                "ccids": [
                    "643873f98ac5470ec1e3d067",
                    "643873f98ac5470ec1e3d068",
                    "643873f98ac5470ec1e3d069",
                    "643873f98ac5470ec1e3d06a",
                    "643873f98ac5470ec1e3d06b"
                ],
                "paids": [
                    "684317f58ac547d57dfce378",
                    "684317f58ac547d57dfce379",
                    "684317f58ac547d57dfce384",
                    "684317f58ac547d57dfce385",
                    "684317f58ac547d57dfce390",
                    "684317f58ac547d57dfce391",
                    "684317f58ac547d57dfce39c",
                    "684317f58ac547d57dfce39d",
                    "684317f58ac547d57dfce3a8",
                    "684317f58ac547d57dfce3a9",
                    "684317f58ac547d57dfce3b4",
                    "684317f58ac547d57dfce3b5",
                    "684317f58ac547d57dfce3c0",
                    "684317f58ac547d57dfce3c1"
                ],
                "saids": [
                    "684b226e8ac5476ed06f0cef",
                    "684b226e8ac5476ed06f0cf0",
                    "684b226e8ac5476ed06f0cf1",
                    "684b226e8ac5476ed06f0cf2",
                    "684b226e8ac5476ed06f0cf3",
                    "684b226e8ac5476ed06f0cf4",
                    "684b226e8ac5476ed06f0d62",
                    "684b226e8ac5476ed06f0d63",
                    "684b226e8ac5476ed06f0d64",
                    "684b226e8ac5476ed06f0d65",
                    "684b226e8ac5476ed06f0d66",
                    "684b226e8ac5476ed06f0da9",
                    "684b226e8ac5476ed06f0daa",
                    "684b226e8ac5476ed06f0dac",
                    "684b226e8ac5476ed06f0dd7",
                    "684b226e8ac5476ed06f0dd8",
                    "684b226e8ac5476ed06f0dd9"
                ]
            },
            "_id": "6438482a8ac547ff05422d38",
            "pid": "6438482a8ac547ff05422d38"
        }
    ]
}