{
    "type": "FeatureCollection",
    "features": [
        {
            "type": "Feature",
            "geometry": {
                "type": "Point",
                "coordinates": [
                    33.07970804,
                    -111.97507375
                ]
            },
            "properties": {
                "cc_label": "p02-1",
                "CHTD": {
                    "2015153": 0.14,
                    "2015166": 0.33,
                    "2015180": 0.55,
                    "2015194": 0.74,
                    "2015208": 0.96,
                    "2015223": 0.97,
                    "2015236": 0.93,
                    "2015251": 0.98
                },
                "CWID": {
                    "2015153": 0.11,
                    "2015166": 0.3,
                    "2015180": 0.49,
                    "2015194": 0.63,
                    "2015208": 0.82,
                    "2015223": 1.02,
                    "2015236": 0.89,
                    "2015251": 1.02
                }
            },
            "_id": "643873f98ac5470ec1e3d03a",
            "ccid": "643873f98ac5470ec1e3d03a"
        },
        {
            "type": "Feature",
            "geometry": {
                "type": "Point",
                "coordinates": [
                    33.07941943,
                    -111.97507591
                ]
            },
            "properties": {
                "cc_label": "p02-2",
                "CHTD": {
                    "2015153": 0.14,
                    "2015166": 0.3,
                    "2015180": 0.51,
                    "2015194": 0.64,
                    "2015208": 0.87,
                    "2015223": 0.96,
                    "2015236": 0.92,
                    "2015251": 0.95
                },
                "CWID": {
                    "2015153": 0.11,
                    "2015166": 0.28,
                    "2015180": 0.43,
                    "2015194": 0.64,
                    "2015208": 0.85,
                    "2015223": 1.02,
                    "2015236": 1.02,
                    "2015251": 1.02
                }
            },
            "_id": "643873f98ac5470ec1e3d03b",
            "ccid": "643873f98ac5470ec1e3d03b"
        },
        {
            "type": "Feature",
            "geometry": {
                "type": "Point",
                "coordinates": [
                    33.07913081,
                    -111.97507747
                ]
            },
            "properties": {
                "cc_label": "p02-3",
                "CHTD": {
                    "2015153": 0.13,
                    "2015166": 0.29,
                    "2015180": 0.52,
                    "2015194": 0.72,
                    "2015208": 0.87,
                    "2015223": 0.95,
                    "2015236": 0.91,
                    "2015251": 0.84
                },
                "CWID": {
                    "2015153": 0.11,
                    "2015166": 0.23,
                    "2015180": 0.45,
                    "2015194": 0.58,
                    "2015208": 0.72,
                    "2015223": 0.93,
                    "2015236": 1.02,
                    "2015251": 1.02
                }
            },
            "_id": "643873f98ac5470ec1e3d03c",
            "ccid": "643873f98ac5470ec1e3d03c"
        },
        {
            "type": "Feature",
            "geometry": {
                "type": "Point",
                "coordinates": [
                    33.07884219,
                    -111.97507955
                ]
            },
            "properties": {
                "cc_label": "p02-4",
                "CHTD": {
                    "2015153": 0.14,
                    "2015166": 0.37,
                    "2015180": 0.56,
                    "2015194": 0.69,
                    "2015208": 0.8,
                    "2015223": 0.89,
                    "2015236": 0.84,
                    "2015251": 0.92
                },
                "CWID": {
                    "2015153": 0.12,
                    "2015166": 0.34,
                    "2015180": 0.49,
                    "2015194": 0.62,
                    "2015208": 0.77,
                    "2015223": 0.96,
                    "2015236": 1.02,
                    "2015251": 1.02
                }
            },
            "_id": "643873f98ac5470ec1e3d03d",
            "ccid": "643873f98ac5470ec1e3d03d"
        },
        {
            "type": "Feature",
            "geometry": {
                "type": "Point",
                "coordinates": [
                    33.07855358,
                    -111.97508172
                ]
            },
            "properties": {
                "cc_label": "p02-5",
                "CHTD": {
                    "2015153": 0.12,
                    "2015166": 0.39,
                    "2015180": 0.5,
                    "2015194": 0.6,
                    "2015208": 0.69,
                    "2015223": 0.84,
                    "2015236": 0.94,
                    "2015251": 0.88
                },
                "CWID": {
                    "2015153": 0.13,
                    "2015166": 0.28,
                    "2015180": 0.45,
                    "2015194": 0.48,
                    "2015208": 0.7,
                    "2015223": 0.79,
                    "2015236": 1.02,
                    "2015251": 1.02
                }
            },
            "_id": "643873f98ac5470ec1e3d03e",
            "ccid": "643873f98ac5470ec1e3d03e"
        },
        {
            "type": "Feature",
            "geometry": {
                "type": "Point",
                "coordinates": [
                    33.07970967,
                    -111.97540007
                ]
            },
            "properties": {
                "cc_label": "p03-1",
                "CHTD": {
                    "2015153": 0.12,
                    "2015166": 0.31,
                    "2015180": 0.53,
                    "2015194": 0.7,
                    "2015208": 0.84,
                    "2015223": 0.89,
                    "2015236": 0.91,
                    "2015251": 1.01
                },
                "CWID": {
                    "2015153": 0.11,
                    "2015166": 0.26,
                    "2015180": 0.44,
                    "2015194": 0.59,
                    "2015208": 0.78,
                    "2015223": 1.02,
                    "2015236": 1.02,
                    "2015251": 1.02
                }
            },
            "_id": "643873f98ac5470ec1e3d03f",
            "ccid": "643873f98ac5470ec1e3d03f"
        },
        {
            "type": "Feature",
            "geometry": {
                "type": "Point",
                "coordinates": [
                    33.07942105,
                    -111.97540204
                ]
            },
            "properties": {
                "cc_label": "p03-2",
                "CHTD": {
                    "2015153": 0.14,
                    "2015166": 0.35,
                    "2015180": 0.55,
                    "2015194": 0.78,
                    "2015208": 0.87,
                    "2015223": 0.97,
                    "2015236": 0.99,
                    "2015251": 1.03
                },
                "CWID": {
                    "2015153": 0.12,
                    "2015166": 0.32,
                    "2015180": 0.44,
                    "2015194": 0.72,
                    "2015208": 0.82,
                    "2015223": 1.02,
                    "2015236": 1.02,
                    "2015251": 1.02
                }
            },
            "_id": "643873f98ac5470ec1e3d040",
            "ccid": "643873f98ac5470ec1e3d040"
        },
        {
            "type": "Feature",
            "geometry": {
                "type": "Point",
                "coordinates": [
                    33.07913243,
                    -111.97540392
                ]
            },
            "properties": {
                "cc_label": "p03-3",
                "CHTD": {
                    "2015153": 0.13,
                    "2015166": 0.32,
                    "2015180": 0.47,
                    "2015194": 0.66,
                    "2015208": 0.8,
                    "2015223": 0.9,
                    "2015236": 0.85,
                    "2015251": 0.95
                },
                "CWID": {
                    "2015153": 0.12,
                    "2015166": 0.29,
                    "2015180": 0.43,
                    "2015194": 0.56,
                    "2015208": 0.77,
                    "2015223": 0.86,
                    "2015236": 0.96,
                    "2015251": 1.02
                }
            },
            "_id": "643873f98ac5470ec1e3d041",
            "ccid": "643873f98ac5470ec1e3d041"
        },
        {
            "type": "Feature",
            "geometry": {
                "type": "Point",
                "coordinates": [
                    33.07884382,
                    -111.97540605
                ]
            },
            "properties": {
                "cc_label": "p03-4",
                "CHTD": {
                    "2015153": 0.12,
                    "2015166": 0.31,
                    "2015180": 0.43,
                    "2015194": 0.65,
                    "2015208": 0.8,
                    "2015223": 0.94,
                    "2015236": 0.99,
                    "2015251": 0.96
                },
                "CWID": {
                    "2015153": 0.11,
                    "2015166": 0.25,
                    "2015180": 0.42,
                    "2015194": 0.57,
                    "2015208": 0.8,
                    "2015223": 1.02,
                    "2015236": 1.02,
                    "2015251": 1.02
                }
            },
            "_id": "643873f98ac5470ec1e3d042",
            "ccid": "643873f98ac5470ec1e3d042"
        },
        {
            "type": "Feature",
            "geometry": {
                "type": "Point",
                "coordinates": [
                    33.0785552,
                    -111.97540795
                ]
            },
            "properties": {
                "cc_label": "p03-5",
                "CHTD": {
                    "2015153": 0.11,
                    "2015166": 0.31,
                    "2015180": 0.51,
                    "2015194": 0.66,
                    "2015208": 0.81,
                    "2015223": 0.91,
                    "2015236": 1.06,
                    "2015251": 1.08
                },
                "CWID": {
                    "2015153": 0.11,
                    "2015166": 0.27,
                    "2015180": 0.42,
                    "2015194": 0.52,
                    "2015208": 0.66,
                    "2015223": 0.84,
                    "2015236": 1.02,
                    "2015251": 1.02
                }
            },
            "_id": "643873f98ac5470ec1e3d043",
            "ccid": "643873f98ac5470ec1e3d043"
        },
        {
            "type": "Feature",
            "geometry": {
                "type": "Point",
                "coordinates": [
                    33.07971108,
                    -111.97568285
                ]
            },
            "properties": {
                "cc_label": "p04-1",
                "CHTD": {
                    "2015153": 0.1,
                    "2015166": 0.3,
                    "2015180": 0.56,
                    "2015194": 0.73,
                    "2015208": 0.86,
                    "2015223": 0.97,
                    "2015236": 0.96,
                    "2015251": 0.96
                },
                "CWID": {
                    "2015153": 0.11,
                    "2015166": 0.25,
                    "2015180": 0.49,
                    "2015194": 0.65,
                    "2015208": 0.82,
                    "2015223": 1.02,
                    "2015236": 1.02,
                    "2015251": 1.02
                }
            },
            "_id": "643873f98ac5470ec1e3d044",
            "ccid": "643873f98ac5470ec1e3d044"
        },
        {
            "type": "Feature",
            "geometry": {
                "type": "Point",
                "coordinates": [
                    33.07942246,
                    -111.97568498
                ]
            },
            "properties": {
                "cc_label": "p04-2",
                "CHTD": {
                    "2015153": 0.12,
                    "2015166": 0.28,
                    "2015180": 0.5,
                    "2015194": 0.71,
                    "2015208": 0.86,
                    "2015223": 0.97,
                    "2015236": 0.98,
                    "2015251": 0.95
                },
                "CWID": {
                    "2015153": 0.11,
                    "2015166": 0.25,
                    "2015180": 0.51,
                    "2015194": 0.66,
                    "2015208": 0.81,
                    "2015223": 1.02,
                    "2015236": 1.02,
                    "2015251": 1.02
                }
            },
            "_id": "643873f98ac5470ec1e3d045",
            "ccid": "643873f98ac5470ec1e3d045"
        },
        {
            "type": "Feature",
            "geometry": {
                "type": "Point",
                "coordinates": [
                    33.07913384,
                    -111.97568705
                ]
            },
            "properties": {
                "cc_label": "p04-3",
                "CHTD": {
                    "2015153": 0.13,
                    "2015166": 0.35,
                    "2015180": 0.54,
                    "2015194": 0.69,
                    "2015208": 0.88,
                    "2015223": 0.98,
                    "2015236": 0.97,
                    "2015251": 0.92
                },
                "CWID": {
                    "2015153": 0.13,
                    "2015166": 0.26,
                    "2015180": 0.53,
                    "2015194": 0.65,
                    "2015208": 0.88,
                    "2015223": 0.96,
                    "2015236": 1.02,
                    "2015251": 1.02
                }
            },
            "_id": "643873f98ac5470ec1e3d046",
            "ccid": "643873f98ac5470ec1e3d046"
        },
        {
            "type": "Feature",
            "geometry": {
                "type": "Point",
                "coordinates": [
                    33.07884523,
                    -111.97568909
                ]
            },
            "properties": {
                "cc_label": "p04-4",
                "CHTD": {
                    "2015153": 0.14,
                    "2015166": 0.31,
                    "2015180": 0.49,
                    "2015194": 0.62,
                    "2015208": 0.76,
                    "2015223": 0.92,
                    "2015236": 0.87,
                    "2015251": 0.98
                },
                "CWID": {
                    "2015153": 0.13,
                    "2015166": 0.31,
                    "2015180": 0.46,
                    "2015194": 0.61,
                    "2015208": 0.85,
                    "2015223": 0.97,
                    "2015236": 1.02,
                    "2015251": 1.02
                }
            },
            "_id": "643873f98ac5470ec1e3d047",
            "ccid": "643873f98ac5470ec1e3d047"
        },
        {
            "type": "Feature",
            "geometry": {
                "type": "Point",
                "coordinates": [
                    33.07855661,
                    -111.97569111
                ]
            },
            "properties": {
                "cc_label": "p04-5",
                "CHTD": {
                    "2015153": 0.11,
                    "2015166": 0.28,
                    "2015180": 0.47,
                    "2015194": 0.62,
                    "2015208": 0.79,
                    "2015223": 0.92,
                    "2015236": 0.98,
                    "2015251": 0.95
                },
                "CWID": {
                    "2015153": 0.1,
                    "2015166": 0.26,
                    "2015180": 0.45,
                    "2015194": 0.55,
                    "2015208": 0.72,
                    "2015223": 0.92,
                    "2015236": 1.02,
                    "2015251": 1.02
                }
            },
            "_id": "643873f98ac5470ec1e3d048",
            "ccid": "643873f98ac5470ec1e3d048"
        },
        {
            "type": "Feature",
            "geometry": {
                "type": "Point",
                "coordinates": [
                    33.07971266,
                    -111.9760014
                ]
            },
            "properties": {
                "cc_label": "p05-1",
                "CHTD": {
                    "2015153": 0.11,
                    "2015166": 0.28,
                    "2015180": 0.47,
                    "2015194": 0.64,
                    "2015208": 0.8,
                    "2015223": 0.88,
                    "2015236": 0.85,
                    "2015251": 0.9
                },
                "CWID": {
                    "2015153": 0.11,
                    "2015166": 0.25,
                    "2015180": 0.44,
                    "2015194": 0.59,
                    "2015208": 0.73,
                    "2015223": 1.02,
                    "2015236": 1.02,
                    "2015251": 1.02
                }
            },
            "_id": "643873f98ac5470ec1e3d049",
            "ccid": "643873f98ac5470ec1e3d049"
        },
        {
            "type": "Feature",
            "geometry": {
                "type": "Point",
                "coordinates": [
                    33.07942405,
                    -111.97600358
                ]
            },
            "properties": {
                "cc_label": "p05-2",
                "CHTD": {
                    "2015153": 0.13,
                    "2015166": 0.3,
                    "2015180": 0.48,
                    "2015194": 0.69,
                    "2015208": 0.8,
                    "2015223": 0.9,
                    "2015236": 0.91,
                    "2015251": 0.86
                },
                "CWID": {
                    "2015153": 0.12,
                    "2015166": 0.27,
                    "2015180": 0.47,
                    "2015194": 0.56,
                    "2015208": 0.71,
                    "2015223": 1.02,
                    "2015236": 1.02,
                    "2015251": 1.02
                }
            },
            "_id": "643873f98ac5470ec1e3d04a",
            "ccid": "643873f98ac5470ec1e3d04a"
        },
        {
            "type": "Feature",
            "geometry": {
                "type": "Point",
                "coordinates": [
                    33.07913543,
                    -111.97600545
                ]
            },
            "properties": {
                "cc_label": "p05-3",
                "CHTD": {
                    "2015153": 0.13,
                    "2015166": 0.31,
                    "2015180": 0.53,
                    "2015194": 0.71,
                    "2015208": 0.83,
                    "2015223": 0.86,
                    "2015236": 0.86,
                    "2015251": 1.0
                },
                "CWID": {
                    "2015153": 0.11,
                    "2015166": 0.26,
                    "2015180": 0.46,
                    "2015194": 0.53,
                    "2015208": 0.75,
                    "2015223": 0.92,
                    "2015236": 1.02,
                    "2015251": 1.02
                }
            },
            "_id": "643873f98ac5470ec1e3d04b",
            "ccid": "643873f98ac5470ec1e3d04b"
        },
        {
            "type": "Feature",
            "geometry": {
                "type": "Point",
                "coordinates": [
                    33.07884681,
                    -111.97600763
                ]
            },
            "properties": {
                "cc_label": "p05-4",
                "CHTD": {
                    "2015153": 0.12,
                    "2015166": 0.29,
                    "2015180": 0.52,
                    "2015194": 0.67,
                    "2015208": 0.81,
                    "2015223": 0.94,
                    "2015236": 0.95,
                    "2015251": 0.98
                },
                "CWID": {
                    "2015153": 0.11,
                    "2015166": 0.27,
                    "2015180": 0.43,
                    "2015194": 0.55,
                    "2015208": 0.65,
                    "2015223": 0.91,
                    "2015236": 1.02,
                    "2015251": 1.02
                }
            },
            "_id": "643873f98ac5470ec1e3d04c",
            "ccid": "643873f98ac5470ec1e3d04c"
        },
        {
            "type": "Feature",
            "geometry": {
                "type": "Point",
                "coordinates": [
                    33.07855819,
                    -111.97600941
                ]
            },
            "properties": {
                "cc_label": "p05-5",
                "CHTD": {
                    "2015153": 0.13,
                    "2015166": 0.3,
                    "2015180": 0.48,
                    "2015194": 0.59,
                    "2015208": 0.75,
                    "2015223": 0.8,
                    "2015236": 0.81,
                    "2015251": 1.08
                },
                "CWID": {
                    "2015153": 0.11,
                    "2015166": 0.25,
                    "2015180": 0.46,
                    "2015194": 0.51,
                    "2015208": 0.67,
                    "2015223": 0.85,
                    "2015236": 1.02,
                    "2015251": 1.02
                }
            },
            "_id": "643873f98ac5470ec1e3d04d",
            "ccid": "643873f98ac5470ec1e3d04d"
        },
        {
            "type": "Feature",
            "geometry": {
                "type": "Point",
                "coordinates": [
                    33.07971407,
                    -111.97628453
                ]
            },
            "properties": {
                "cc_label": "p06-1",
                "CHTD": {
                    "2015153": 0.11,
                    "2015166": 0.3,
                    "2015180": 0.54,
                    "2015194": 0.68,
                    "2015208": 0.94,
                    "2015223": 0.98,
                    "2015236": 0.91,
                    "2015251": 0.98
                },
                "CWID": {
                    "2015153": 0.11,
                    "2015166": 0.26,
                    "2015180": 0.52,
                    "2015194": 0.61,
                    "2015208": 0.86,
                    "2015223": 1.02,
                    "2015236": 1.02,
                    "2015251": 1.02
                }
            },
            "_id": "643873f98ac5470ec1e3d04e",
            "ccid": "643873f98ac5470ec1e3d04e"
        },
        {
            "type": "Feature",
            "geometry": {
                "type": "Point",
                "coordinates": [
                    33.07942545,
                    -111.97628637
                ]
            },
            "properties": {
                "cc_label": "p06-2",
                "CHTD": {
                    "2015153": 0.13,
                    "2015166": 0.32,
                    "2015180": 0.55,
                    "2015194": 0.73,
                    "2015208": 0.84,
                    "2015223": 0.86,
                    "2015236": 0.86,
                    "2015251": 0.92
                },
                "CWID": {
                    "2015153": 0.12,
                    "2015166": 0.26,
                    "2015180": 0.53,
                    "2015194": 0.65,
                    "2015208": 0.86,
                    "2015223": 1.02,
                    "2015236": 1.02,
                    "2015251": 1.02
                }
            },
            "_id": "643873f98ac5470ec1e3d04f",
            "ccid": "643873f98ac5470ec1e3d04f"
        },
        {
            "type": "Feature",
            "geometry": {
                "type": "Point",
                "coordinates": [
                    33.07913684,
                    -111.97628855
                ]
            },
            "properties": {
                "cc_label": "p06-3",
                "CHTD": {
                    "2015153": 0.12,
                    "2015166": 0.35,
                    "2015180": 0.57,
                    "2015194": 0.69,
                    "2015208": 0.82,
                    "2015223": 0.89,
                    "2015236": 0.86,
                    "2015251": 0.88
                },
                "CWID": {
                    "2015153": 0.11,
                    "2015166": 0.26,
                    "2015180": 0.46,
                    "2015194": 0.46,
                    "2015208": 0.7,
                    "2015223": 1.02,
                    "2015236": 1.02,
                    "2015251": 1.02
                }
            },
            "_id": "643873f98ac5470ec1e3d050",
            "ccid": "643873f98ac5470ec1e3d050"
        },
        {
            "type": "Feature",
            "geometry": {
                "type": "Point",
                "coordinates": [
                    33.07884822,
                    -111.9762906
                ]
            },
            "properties": {
                "cc_label": "p06-4",
                "CHTD": {
                    "2015153": 0.13,
                    "2015166": 0.36,
                    "2015180": 0.51,
                    "2015194": 0.59,
                    "2015208": 0.72,
                    "2015223": 0.76,
                    "2015236": 0.78,
                    "2015251": 0.79
                },
                "CWID": {
                    "2015153": 0.12,
                    "2015166": 0.28,
                    "2015180": 0.46,
                    "2015194": 0.49,
                    "2015208": 0.61,
                    "2015223": 0.66,
                    "2015236": 0.68,
                    "2015251": 1.02
                }
            },
            "_id": "643873f98ac5470ec1e3d051",
            "ccid": "643873f98ac5470ec1e3d051"
        },
        {
            "type": "Feature",
            "geometry": {
                "type": "Point",
                "coordinates": [
                    33.0785596,
                    -111.97629263
                ]
            },
            "properties": {
                "cc_label": "p06-5",
                "CHTD": {
                    "2015153": 0.12,
                    "2015166": 0.32,
                    "2015180": 0.57,
                    "2015194": 0.75,
                    "2015208": 0.83,
                    "2015223": 0.84,
                    "2015236": 0.8,
                    "2015251": 0.9
                },
                "CWID": {
                    "2015153": 0.12,
                    "2015166": 0.29,
                    "2015180": 0.54,
                    "2015194": 0.57,
                    "2015208": 0.82,
                    "2015223": 0.91,
                    "2015236": 1.02,
                    "2015251": 1.02
                }
            },
            "_id": "643873f98ac5470ec1e3d052",
            "ccid": "643873f98ac5470ec1e3d052"
        },
        {
            "type": "Feature",
            "geometry": {
                "type": "Point",
                "coordinates": [
                    33.07971565,
                    -111.97660263
                ]
            },
            "properties": {
                "cc_label": "p07-1",
                "CHTD": {
                    "2015153": 0.11,
                    "2015166": 0.28,
                    "2015180": 0.48,
                    "2015194": 0.62,
                    "2015208": 0.75,
                    "2015223": 0.83,
                    "2015236": 0.93,
                    "2015251": 1.0
                },
                "CWID": {
                    "2015153": 0.12,
                    "2015166": 0.24,
                    "2015180": 0.44,
                    "2015194": 0.52,
                    "2015208": 0.79,
                    "2015223": 1.02,
                    "2015236": 1.02,
                    "2015251": 1.02
                }
            },
            "_id": "643873f98ac5470ec1e3d053",
            "ccid": "643873f98ac5470ec1e3d053"
        },
        {
            "type": "Feature",
            "geometry": {
                "type": "Point",
                "coordinates": [
                    33.07942703,
                    -111.97660459
                ]
            },
            "properties": {
                "cc_label": "p07-2",
                "CHTD": {
                    "2015153": 0.12,
                    "2015166": 0.34,
                    "2015180": 0.51,
                    "2015194": 0.74,
                    "2015208": 0.89,
                    "2015223": 0.99,
                    "2015236": 1.07,
                    "2015251": 1.12
                },
                "CWID": {
                    "2015153": 0.13,
                    "2015166": 0.26,
                    "2015180": 0.51,
                    "2015194": 0.73,
                    "2015208": 0.95,
                    "2015223": 1.02,
                    "2015236": 1.02,
                    "2015251": 1.02
                }
            },
            "_id": "643873f98ac5470ec1e3d054",
            "ccid": "643873f98ac5470ec1e3d054"
        },
        {
            "type": "Feature",
            "geometry": {
                "type": "Point",
                "coordinates": [
                    33.07913842,
                    -111.97660655
                ]
            },
            "properties": {
                "cc_label": "p07-3",
                "CHTD": {
                    "2015153": 0.12,
                    "2015166": 0.33,
                    "2015180": 0.48,
                    "2015194": 0.65,
                    "2015208": 0.79,
                    "2015223": 0.88,
                    "2015236": 0.98,
                    "2015251": 0.96
                },
                "CWID": {
                    "2015153": 0.12,
                    "2015166": 0.3,
                    "2015180": 0.43,
                    "2015194": 0.51,
                    "2015208": 0.69,
                    "2015223": 1.02,
                    "2015236": 1.02,
                    "2015251": 1.02
                }
            },
            "_id": "643873f98ac5470ec1e3d055",
            "ccid": "643873f98ac5470ec1e3d055"
        },
        {
            "type": "Feature",
            "geometry": {
                "type": "Point",
                "coordinates": [
                    33.0788498,
                    -111.97660858
                ]
            },
            "properties": {
                "cc_label": "p07-4",
                "CHTD": {
                    "2015153": 0.11,
                    "2015166": 0.31,
                    "2015180": 0.5,
                    "2015194": 0.71,
                    "2015208": 0.88,
                    "2015223": 0.98,
                    "2015236": 0.98,
                    "2015251": 1.02
                },
                "CWID": {
                    "2015153": 0.11,
                    "2015166": 0.23,
                    "2015180": 0.48,
                    "2015194": 0.65,
                    "2015208": 0.82,
                    "2015223": 0.95,
                    "2015236": 1.02,
                    "2015251": 1.02
                }
            },
            "_id": "643873f98ac5470ec1e3d056",
            "ccid": "643873f98ac5470ec1e3d056"
        },
        {
            "type": "Feature",
            "geometry": {
                "type": "Point",
                "coordinates": [
                    33.07856118,
                    -111.97661076
                ]
            },
            "properties": {
                "cc_label": "p07-5",
                "CHTD": {
                    "2015153": 0.12,
                    "2015166": 0.29,
                    "2015180": 0.4,
                    "2015194": 0.46,
                    "2015208": 0.56,
                    "2015223": 0.77,
                    "2015236": 0.84,
                    "2015251": 0.94
                },
                "CWID": {
                    "2015153": 0.12,
                    "2015166": 0.22,
                    "2015180": 0.38,
                    "2015194": 0.43,
                    "2015208": 0.56,
                    "2015223": 0.74,
                    "2015236": 0.86,
                    "2015251": 1.02
                }
            },
            "_id": "643873f98ac5470ec1e3d057",
            "ccid": "643873f98ac5470ec1e3d057"
        },
        {
            "type": "Feature",
            "geometry": {
                "type": "Point",
                "coordinates": [
                    33.07971706,
                    -111.97688568
                ]
            },
            "properties": {
                "cc_label": "p08-1",
                "CHTD": {
                    "2015153": 0.09,
                    "2015166": 0.33,
                    "2015180": 0.52,
                    "2015194": 0.71,
                    "2015208": 0.9,
                    "2015223": 0.89,
                    "2015236": 1.02,
                    "2015251": 0.99
                },
                "CWID": {
                    "2015153": 0.1,
                    "2015166": 0.3,
                    "2015180": 0.53,
                    "2015194": 0.62,
                    "2015208": 0.78,
                    "2015223": 1.02,
                    "2015236": 1.02,
                    "2015251": 1.02
                }
            },
            "_id": "643873f98ac5470ec1e3d058",
            "ccid": "643873f98ac5470ec1e3d058"
        },
        {
            "type": "Feature",
            "geometry": {
                "type": "Point",
                "coordinates": [
                    33.07942844,
                    -111.97688783
                ]
            },
            "properties": {
                "cc_label": "p08-2",
                "CHTD": {
                    "2015153": 0.12,
                    "2015166": 0.36,
                    "2015180": 0.61,
                    "2015194": 0.8,
                    "2015208": 1.06,
                    "2015223": 1.21,
                    "2015236": 1.28,
                    "2015251": 1.15
                },
                "CWID": {
                    "2015153": 0.11,
                    "2015166": 0.32,
                    "2015180": 0.57,
                    "2015194": 0.72,
                    "2015208": 0.95,
                    "2015223": 1.02,
                    "2015236": 1.02,
                    "2015251": 1.02
                }
            },
            "_id": "643873f98ac5470ec1e3d059",
            "ccid": "643873f98ac5470ec1e3d059"
        },
        {
            "type": "Feature",
            "geometry": {
                "type": "Point",
                "coordinates": [
                    33.07913982,
                    -111.97688984
                ]
            },
            "properties": {
                "cc_label": "p08-3",
                "CHTD": {
                    "2015153": 0.12,
                    "2015166": 0.37,
                    "2015180": 0.57,
                    "2015194": 0.72,
                    "2015208": 0.89,
                    "2015223": 0.97,
                    "2015236": 1.06,
                    "2015251": 1.09
                },
                "CWID": {
                    "2015153": 0.13,
                    "2015166": 0.3,
                    "2015180": 0.53,
                    "2015194": 0.69,
                    "2015208": 0.88,
                    "2015223": 1.02,
                    "2015236": 1.02,
                    "2015251": 1.02
                }
            },
            "_id": "643873f98ac5470ec1e3d05a",
            "ccid": "643873f98ac5470ec1e3d05a"
        },
        {
            "type": "Feature",
            "geometry": {
                "type": "Point",
                "coordinates": [
                    33.07885121,
                    -111.97689165
                ]
            },
            "properties": {
                "cc_label": "p08-4",
                "CHTD": {
                    "2015153": 0.12,
                    "2015166": 0.33,
                    "2015180": 0.5,
                    "2015194": 0.66,
                    "2015208": 0.83,
                    "2015223": 0.98,
                    "2015236": 1.0,
                    "2015251": 0.99
                },
                "CWID": {
                    "2015153": 0.1,
                    "2015166": 0.26,
                    "2015180": 0.49,
                    "2015194": 0.57,
                    "2015208": 0.77,
                    "2015223": 1.02,
                    "2015236": 1.02,
                    "2015251": 1.02
                }
            },
            "_id": "643873f98ac5470ec1e3d05b",
            "ccid": "643873f98ac5470ec1e3d05b"
        },
        {
            "type": "Feature",
            "geometry": {
                "type": "Point",
                "coordinates": [
                    33.07856259,
                    -111.97689363
                ]
            },
            "properties": {
                "cc_label": "p08-5",
                "CHTD": {
                    "2015153": 0.11,
                    "2015166": 0.33,
                    "2015180": 0.5,
                    "2015194": 0.61,
                    "2015208": 0.68,
                    "2015223": 0.77,
                    "2015236": 0.84,
                    "2015251": 0.86
                },
                "CWID": {
                    "2015153": 0.1,
                    "2015166": 0.31,
                    "2015180": 0.48,
                    "2015194": 0.57,
                    "2015208": 0.68,
                    "2015223": 0.8,
                    "2015236": 0.92,
                    "2015251": 0.87
                }
            },
            "_id": "643873f98ac5470ec1e3d05c",
            "ccid": "643873f98ac5470ec1e3d05c"
        },
        {
            "type": "Feature",
            "geometry": {
                "type": "Point",
                "coordinates": [
                    33.07971868,
                    -111.97721145
                ]
            },
            "properties": {
                "cc_label": "p09-1",
                "CHTD": {
                    "2015153": 0.11,
                    "2015166": 0.32,
                    "2015180": 0.56,
                    "2015194": 0.77,
                    "2015208": 0.96,
                    "2015223": 0.99,
                    "2015236": 0.9,
                    "2015251": 1.0
                },
                "CWID": {
                    "2015153": 0.09,
                    "2015166": 0.29,
                    "2015180": 0.56,
                    "2015194": 0.55,
                    "2015208": 0.86,
                    "2015223": 1.02,
                    "2015236": 1.02,
                    "2015251": 1.02
                }
            },
            "_id": "643873f98ac5470ec1e3d05d",
            "ccid": "643873f98ac5470ec1e3d05d"
        },
        {
            "type": "Feature",
            "geometry": {
                "type": "Point",
                "coordinates": [
                    33.07943006,
                    -111.97721353
                ]
            },
            "properties": {
                "cc_label": "p09-2",
                "CHTD": {
                    "2015153": 0.12,
                    "2015166": 0.33,
                    "2015180": 0.54,
                    "2015194": 0.74,
                    "2015208": 0.88,
                    "2015223": 0.96,
                    "2015236": 1.04,
                    "2015251": 1.09
                },
                "CWID": {
                    "2015153": 0.12,
                    "2015166": 0.3,
                    "2015180": 0.52,
                    "2015194": 0.64,
                    "2015208": 0.88,
                    "2015223": 1.02,
                    "2015236": 1.02,
                    "2015251": 1.02
                }
            },
            "_id": "643873f98ac5470ec1e3d05e",
            "ccid": "643873f98ac5470ec1e3d05e"
        },
        {
            "type": "Feature",
            "geometry": {
                "type": "Point",
                "coordinates": [
                    33.07914144,
                    -111.97721549
                ]
            },
            "properties": {
                "cc_label": "p09-3",
                "CHTD": {
                    "2015153": 0.11,
                    "2015166": 0.29,
                    "2015180": 0.49,
                    "2015194": 0.68,
                    "2015208": 0.82,
                    "2015223": 0.92,
                    "2015236": 1.02,
                    "2015251": 0.9
                },
                "CWID": {
                    "2015153": 0.11,
                    "2015166": 0.27,
                    "2015180": 0.45,
                    "2015194": 0.53,
                    "2015208": 0.79,
                    "2015223": 0.9,
                    "2015236": 1.02,
                    "2015251": 1.02
                }
            },
            "_id": "643873f98ac5470ec1e3d05f",
            "ccid": "643873f98ac5470ec1e3d05f"
        },
        {
            "type": "Feature",
            "geometry": {
                "type": "Point",
                "coordinates": [
                    33.07885283,
                    -111.97721756
                ]
            },
            "properties": {
                "cc_label": "p09-4",
                "CHTD": {
                    "2015153": 0.12,
                    "2015166": 0.35,
                    "2015180": 0.47,
                    "2015194": 0.66,
                    "2015208": 0.78,
                    "2015223": 0.89,
                    "2015236": 0.94,
                    "2015251": 0.91
                },
                "CWID": {
                    "2015153": 0.11,
                    "2015166": 0.26,
                    "2015180": 0.47,
                    "2015194": 0.54,
                    "2015208": 0.76,
                    "2015223": 0.86,
                    "2015236": 1.02,
                    "2015251": 1.02
                }
            },
            "_id": "643873f98ac5470ec1e3d060",
            "ccid": "643873f98ac5470ec1e3d060"
        },
        {
            "type": "Feature",
            "geometry": {
                "type": "Point",
                "coordinates": [
                    33.07856421,
                    -111.97721934
                ]
            },
            "properties": {
                "cc_label": "p09-5",
                "CHTD": {
                    "2015153": 0.12,
                    "2015166": 0.35,
                    "2015180": 0.48,
                    "2015194": 0.67,
                    "2015208": 0.75,
                    "2015223": 0.92,
                    "2015236": 0.85,
                    "2015251": 0.83
                },
                "CWID": {
                    "2015153": 0.13,
                    "2015166": 0.28,
                    "2015180": 0.48,
                    "2015194": 0.54,
                    "2015208": 0.77,
                    "2015223": 0.9,
                    "2015236": 1.02,
                    "2015251": 1.02
                }
            },
            "_id": "643873f98ac5470ec1e3d061",
            "ccid": "643873f98ac5470ec1e3d061"
        },
        {
            "type": "Feature",
            "geometry": {
                "type": "Point",
                "coordinates": [
                    33.07972008,
                    -111.97749462
                ]
            },
            "properties": {
                "cc_label": "p10-1",
                "CHTD": {
                    "2015153": 0.12,
                    "2015166": 0.34,
                    "2015180": 0.56,
                    "2015194": 0.71,
                    "2015208": 0.85,
                    "2015223": 0.96,
                    "2015236": 0.95,
                    "2015251": 0.95
                },
                "CWID": {
                    "2015153": 0.11,
                    "2015166": 0.27,
                    "2015180": 0.55,
                    "2015194": 0.56,
                    "2015208": 0.76,
                    "2015223": 1.02,
                    "2015236": 1.02,
                    "2015251": 1.02
                }
            },
            "_id": "643873f98ac5470ec1e3d062",
            "ccid": "643873f98ac5470ec1e3d062"
        },
        {
            "type": "Feature",
            "geometry": {
                "type": "Point",
                "coordinates": [
                    33.07943146,
                    -111.97749641
                ]
            },
            "properties": {
                "cc_label": "p10-2",
                "CHTD": {
                    "2015153": 0.13,
                    "2015166": 0.37,
                    "2015180": 0.55,
                    "2015194": 0.69,
                    "2015208": 0.82,
                    "2015223": 0.93,
                    "2015236": 0.97,
                    "2015251": 1.02
                },
                "CWID": {
                    "2015153": 0.15,
                    "2015166": 0.31,
                    "2015180": 0.51,
                    "2015194": 0.58,
                    "2015208": 0.85,
                    "2015223": 1.02,
                    "2015236": 1.02,
                    "2015251": 1.02
                }
            },
            "_id": "643873f98ac5470ec1e3d063",
            "ccid": "643873f98ac5470ec1e3d063"
        },
        {
            "type": "Feature",
            "geometry": {
                "type": "Point",
                "coordinates": [
                    33.07914285,
                    -111.97749827
                ]
            },
            "properties": {
                "cc_label": "p10-3",
                "CHTD": {
                    "2015153": 0.09,
                    "2015166": 0.28,
                    "2015180": 0.51,
                    "2015194": 0.72,
                    "2015208": 0.92,
                    "2015223": 1.06,
                    "2015236": 1.1,
                    "2015251": 1.07
                },
                "CWID": {
                    "2015153": 0.09,
                    "2015166": 0.25,
                    "2015180": 0.5,
                    "2015194": 0.62,
                    "2015208": 0.84,
                    "2015223": 1.02,
                    "2015236": 1.02,
                    "2015251": 1.02
                }
            },
            "_id": "643873f98ac5470ec1e3d064",
            "ccid": "643873f98ac5470ec1e3d064"
        },
        {
            "type": "Feature",
            "geometry": {
                "type": "Point",
                "coordinates": [
                    33.07885423,
                    -111.97750057
                ]
            },
            "properties": {
                "cc_label": "p10-4",
                "CHTD": {
                    "2015153": 0.14,
                    "2015166": 0.38,
                    "2015180": 0.6,
                    "2015194": 0.78,
                    "2015208": 0.94,
                    "2015223": 1.05,
                    "2015236": 1.07,
                    "2015251": 1.09
                },
                "CWID": {
                    "2015153": 0.12,
                    "2015166": 0.32,
                    "2015180": 0.59,
                    "2015194": 0.69,
                    "2015208": 0.98,
                    "2015223": 1.02,
                    "2015236": 1.02,
                    "2015251": 1.02
                }
            },
            "_id": "643873f98ac5470ec1e3d065",
            "ccid": "643873f98ac5470ec1e3d065"
        },
        {
            "type": "Feature",
            "geometry": {
                "type": "Point",
                "coordinates": [
                    33.07856561,
                    -111.97750234
                ]
            },
            "properties": {
                "cc_label": "p10-5",
                "CHTD": {
                    "2015153": 0.12,
                    "2015166": 0.34,
                    "2015180": 0.51,
                    "2015194": 0.56,
                    "2015208": 0.62,
                    "2015223": 0.7,
                    "2015236": 0.89,
                    "2015251": 0.94
                },
                "CWID": {
                    "2015153": 0.13,
                    "2015166": 0.29,
                    "2015180": 0.47,
                    "2015194": 0.47,
                    "2015208": 0.67,
                    "2015223": 0.82,
                    "2015236": 0.9,
                    "2015251": 1.02
                }
            },
            "_id": "643873f98ac5470ec1e3d066",
            "ccid": "643873f98ac5470ec1e3d066"
        },
        {
            "type": "Feature",
            "geometry": {
                "type": "Point",
                "coordinates": [
                    33.07972466,
                    -111.97841864
                ]
            },
            "properties": {
                "cc_label": "p11-1",
                "CHTD": {
                    "2015153": 0.11,
                    "2015166": 0.31,
                    "2015180": 0.55,
                    "2015194": 0.75,
                    "2015208": 0.83,
                    "2015223": 0.83,
                    "2015236": 0.86,
                    "2015251": 0.91
                },
                "CWID": {
                    "2015153": 0.1,
                    "2015166": 0.31,
                    "2015180": 0.5,
                    "2015194": 0.58,
                    "2015208": 0.72,
                    "2015223": 0.81,
                    "2015236": 0.84,
                    "2015251": 0.89
                }
            },
            "_id": "643873f98ac5470ec1e3d067",
            "ccid": "643873f98ac5470ec1e3d067"
        },
        {
            "type": "Feature",
            "geometry": {
                "type": "Point",
                "coordinates": [
                    33.07943605,
                    -111.97842065
                ]
            },
            "properties": {
                "cc_label": "p11-2",
                "CHTD": {
                    "2015153": 0.1,
                    "2015166": 0.3,
                    "2015180": 0.56,
                    "2015194": 0.77,
                    "2015208": 0.85,
                    "2015223": 0.88,
                    "2015236": 0.89,
                    "2015251": 0.91
                },
                "CWID": {
                    "2015153": 0.09,
                    "2015166": 0.29,
                    "2015180": 0.53,
                    "2015194": 0.62,
                    "2015208": 0.75,
                    "2015223": 0.93,
                    "2015236": 1.02,
                    "2015251": 1.02
                }
            },
            "_id": "643873f98ac5470ec1e3d068",
            "ccid": "643873f98ac5470ec1e3d068"
        },
        {
            "type": "Feature",
            "geometry": {
                "type": "Point",
                "coordinates": [
                    33.07914743,
                    -111.97842279
                ]
            },
            "properties": {
                "cc_label": "p11-3",
                "CHTD": {
                    "2015153": 0.12,
                    "2015166": 0.33,
                    "2015180": 0.57,
                    "2015194": 0.72,
                    "2015208": 0.85,
                    "2015223": 0.87,
                    "2015236": 0.91,
                    "2015251": 0.93
                },
                "CWID": {
                    "2015153": 0.12,
                    "2015166": 0.31,
                    "2015180": 0.51,
                    "2015194": 0.58,
                    "2015208": 0.78,
                    "2015223": 0.89,
                    "2015236": 0.87,
                    "2015251": 0.84
                }
            },
            "_id": "643873f98ac5470ec1e3d069",
            "ccid": "643873f98ac5470ec1e3d069"
        },
        {
            "type": "Feature",
            "geometry": {
                "type": "Point",
                "coordinates": [
                    33.07885881,
                    -111.97842486
                ]
            },
            "properties": {
                "cc_label": "p11-4",
                "CHTD": {
                    "2015153": 0.1,
                    "2015166": 0.28,
                    "2015180": 0.47,
                    "2015194": 0.62,
                    "2015208": 0.7,
                    "2015223": 0.66,
                    "2015236": 0.68,
                    "2015251": 0.73
                },
                "CWID": {
                    "2015153": 0.1,
                    "2015166": 0.24,
                    "2015180": 0.45,
                    "2015194": 0.53,
                    "2015208": 0.63,
                    "2015223": 0.67,
                    "2015236": 0.73,
                    "2015251": 0.69
                }
            },
            "_id": "643873f98ac5470ec1e3d06a",
            "ccid": "643873f98ac5470ec1e3d06a"
        },
        {
            "type": "Feature",
            "geometry": {
                "type": "Point",
                "coordinates": [
                    33.0785702,
                    -111.97842677
                ]
            },
            "properties": {
                "cc_label": "p11-5",
                "CHTD": {
                    "2015153": 0.09,
                    "2015166": 0.26,
                    "2015180": 0.38,
                    "2015194": 0.44,
                    "2015208": 0.49,
                    "2015223": 0.58,
                    "2015236": 0.56,
                    "2015251": 0.61
                },
                "CWID": {
                    "2015153": 0.07,
                    "2015166": 0.23,
                    "2015180": 0.38,
                    "2015194": 0.35,
                    "2015208": 0.42,
                    "2015223": 0.53,
                    "2015236": 0.5,
                    "2015251": 0.6
                }
            },
            "_id": "643873f98ac5470ec1e3d06b",
            "ccid": "643873f98ac5470ec1e3d06b"
        }
    ]
}