{
    "type": "FeatureCollection",
    "features": [
        {
            "type": "Feature",
            "geometry": {
                "type": "Polygon",
                "coordinates": [
                    [
                        [
                            -111.97187609,
                            33.06768107
                        ],
                        [
                            -111.97187603,
                            33.06771714
                        ],
                        [
                            -111.97181071,
                            33.06771765
                        ],
                        [
                            -111.9718108,
                            33.06768158
                        ],
                        [
                            -111.97187609,
                            33.06768107
                        ]
                    ]
                ]
            },
            "properties": {
                "ha_label": "p101",
                "HA_AREA": 24.385584,
                "HARM": "Hand",
                "HADAT": "10/15/2003",
                "WBWAH": 4159.6,
                "GNDAT": "10/30/2003",
                "FFRAC": 0.3575,
                "SFRAC": 0.631,
                "TFRAC": 0.0114,
                "WFWAH": 1487.2,
                "WSWAH": 2624.8,
                "WSCWAH": 4112.0
            },
            "_id": "68c1c7b58ac5475f49015dd8",
            "haid": "68c1c7b58ac5475f49015dd8"
        },
        {
            "type": "Feature",
            "geometry": {
                "type": "Polygon",
                "coordinates": [
                    [
                        [
                            -111.97168058,
                            33.06768076
                        ],
                        [
                            -111.97174577,
                            33.06768025
                        ],
                        [
                            -111.97174572,
                            33.06771633
                        ],
                        [
                            -111.97168054,
                            33.06771684
                        ],
                        [
                            -111.97168058,
                            33.06768076
                        ]
                    ]
                ]
            },
            "properties": {
                "ha_label": "p102",
                "HA_AREA": 24.339976,
                "HARM": "Hand",
                "HADAT": "10/15/2003",
                "WBWAH": 4142.1,
                "GNDAT": "10/30/2003",
                "FFRAC": 0.3603,
                "SFRAC": 0.6103,
                "TFRAC": 0.0294,
                "WFWAH": 1492.5,
                "WSWAH": 2527.8,
                "WSCWAH": 4020.3
            },
            "_id": "68c1c7b58ac5475f49015dd9",
            "haid": "68c1c7b58ac5475f49015dd9"
        },
        {
            "type": "Feature",
            "geometry": {
                "type": "Polygon",
                "coordinates": [
                    [
                        [
                            -111.97161541,
                            33.06767949
                        ],
                        [
                            -111.97161538,
                            33.06771556
                        ],
                        [
                            -111.97155018,
                            33.06771607
                        ],
                        [
                            -111.97155022,
                            33.06768
                        ],
                        [
                            -111.97161541,
                            33.06767949
                        ]
                    ]
                ]
            },
            "properties": {
                "ha_label": "p103",
                "HA_AREA": 24.345254,
                "HARM": "Hand",
                "HADAT": "10/15/2003",
                "WBWAH": 5186.1,
                "GNDAT": "10/30/2003",
                "FFRAC": 0.3709,
                "SFRAC": 0.6103,
                "TFRAC": 0.0188,
                "WFWAH": 1923.5,
                "WSWAH": 3165.2,
                "WSCWAH": 5088.7
            },
            "_id": "68c1c7b58ac5475f49015dda",
            "haid": "68c1c7b58ac5475f49015dda"
        },
        {
            "type": "Feature",
            "geometry": {
                "type": "Polygon",
                "coordinates": [
                    [
                        [
                            -111.97148554,
                            33.06767898
                        ],
                        [
                            -111.97148544,
                            33.06771506
                        ],
                        [
                            -111.9714199,
                            33.06771557
                        ],
                        [
                            -111.97142006,
                            33.06767949
                        ],
                        [
                            -111.97148554,
                            33.06767898
                        ]
                    ]
                ]
            },
            "properties": {
                "ha_label": "p104",
                "HA_AREA": 24.462547,
                "HARM": "Hand",
                "HADAT": "10/15/2003",
                "WBWAH": 4864.5,
                "GNDAT": "10/30/2003",
                "FFRAC": 0.3662,
                "SFRAC": 0.583,
                "TFRAC": 0.0508,
                "WFWAH": 1781.5,
                "WSWAH": 2835.9,
                "WSCWAH": 4617.4
            },
            "_id": "68c1c7b58ac5475f49015ddb",
            "haid": "68c1c7b58ac5475f49015ddb"
        },
        {
            "type": "Feature",
            "geometry": {
                "type": "Polygon",
                "coordinates": [
                    [
                        [
                            -111.97128962,
                            33.06767811
                        ],
                        [
                            -111.97135508,
                            33.0676776
                        ],
                        [
                            -111.97135501,
                            33.06771368
                        ],
                        [
                            -111.97128955,
                            33.06771419
                        ],
                        [
                            -111.97128962,
                            33.06767811
                        ]
                    ]
                ]
            },
            "properties": {
                "ha_label": "p105",
                "HA_AREA": 24.443695,
                "HARM": "Hand",
                "HADAT": "10/15/2003",
                "WBWAH": 4437.4,
                "GNDAT": "10/30/2003",
                "FFRAC": 0.3903,
                "SFRAC": 0.6029,
                "TFRAC": 0.0068,
                "WFWAH": 1732.0,
                "WSWAH": 2675.4,
                "WSCWAH": 4407.4
            },
            "_id": "68c1c7b58ac5475f49015ddc",
            "haid": "68c1c7b58ac5475f49015ddc"
        },
        {
            "type": "Feature",
            "geometry": {
                "type": "Polygon",
                "coordinates": [
                    [
                        [
                            -111.97122509,
                            33.06767662
                        ],
                        [
                            -111.97122502,
                            33.06771269
                        ],
                        [
                            -111.97115962,
                            33.0677132
                        ],
                        [
                            -111.9711597,
                            33.06767713
                        ],
                        [
                            -111.97122509,
                            33.06767662
                        ]
                    ]
                ]
            },
            "properties": {
                "ha_label": "p106",
                "HA_AREA": 24.421927,
                "HARM": "Hand",
                "HADAT": "10/15/2003",
                "WBWAH": 5405.9,
                "GNDAT": "10/30/2003",
                "FFRAC": 0.3364,
                "SFRAC": 0.6046,
                "TFRAC": 0.059,
                "WFWAH": 1818.8,
                "WSWAH": 3268.3,
                "WSCWAH": 5087.1
            },
            "_id": "68c1c7b58ac5475f49015ddd",
            "haid": "68c1c7b58ac5475f49015ddd"
        },
        {
            "type": "Feature",
            "geometry": {
                "type": "Polygon",
                "coordinates": [
                    [
                        [
                            -111.97109557,
                            33.06767642
                        ],
                        [
                            -111.97109558,
                            33.0677125
                        ],
                        [
                            -111.97103,
                            33.06771302
                        ],
                        [
                            -111.97103012,
                            33.06767694
                        ],
                        [
                            -111.97109557,
                            33.06767642
                        ]
                    ]
                ]
            },
            "properties": {
                "ha_label": "p107",
                "HA_AREA": 24.46374,
                "HARM": "Hand",
                "HADAT": "10/15/2003",
                "WBWAH": 4747.0,
                "GNDAT": "10/30/2003",
                "FFRAC": 0.3659,
                "SFRAC": 0.6092,
                "TFRAC": 0.0248,
                "WFWAH": 1737.1,
                "WSWAH": 2892.1,
                "WSCWAH": 4629.2
            },
            "_id": "68c1c7b58ac5475f49015dde",
            "haid": "68c1c7b58ac5475f49015dde"
        },
        {
            "type": "Feature",
            "geometry": {
                "type": "Polygon",
                "coordinates": [
                    [
                        [
                            -111.97096543,
                            33.06767504
                        ],
                        [
                            -111.97096541,
                            33.06771112
                        ],
                        [
                            -111.97090056,
                            33.06771163
                        ],
                        [
                            -111.97090076,
                            33.06767555
                        ],
                        [
                            -111.97096543,
                            33.06767504
                        ]
                    ]
                ]
            },
            "properties": {
                "ha_label": "p108",
                "HA_AREA": 24.182099,
                "HARM": "Hand",
                "HADAT": "10/15/2003",
                "WBWAH": 5647.7,
                "GNDAT": "10/30/2003",
                "FFRAC": 0.3631,
                "SFRAC": 0.603,
                "TFRAC": 0.0339,
                "WFWAH": 2050.7,
                "WSWAH": 3405.6,
                "WSCWAH": 5456.3
            },
            "_id": "68c1c7b58ac5475f49015ddf",
            "haid": "68c1c7b58ac5475f49015ddf"
        },
        {
            "type": "Feature",
            "geometry": {
                "type": "Polygon",
                "coordinates": [
                    [
                        [
                            -111.97187652,
                            33.06748211
                        ],
                        [
                            -111.97187645,
                            33.06751819
                        ],
                        [
                            -111.97181114,
                            33.0675187
                        ],
                        [
                            -111.9718112,
                            33.06748262
                        ],
                        [
                            -111.97187652,
                            33.06748211
                        ]
                    ]
                ]
            },
            "properties": {
                "ha_label": "p201",
                "HA_AREA": 24.388842,
                "HARM": "Hand",
                "HADAT": "10/16/2003",
                "WBWAH": 4492.5,
                "GNDAT": "10/30/2003",
                "FFRAC": 0.3756,
                "SFRAC": 0.58,
                "TFRAC": 0.0444,
                "WFWAH": 1687.4,
                "WSWAH": 2605.8,
                "WSCWAH": 4293.2
            },
            "_id": "68c1c7b58ac5475f49015de0",
            "haid": "68c1c7b58ac5475f49015de0"
        },
        {
            "type": "Feature",
            "geometry": {
                "type": "Polygon",
                "coordinates": [
                    [
                        [
                            -111.97174641,
                            33.06748113
                        ],
                        [
                            -111.97174626,
                            33.06751721
                        ],
                        [
                            -111.97168135,
                            33.06751772
                        ],
                        [
                            -111.97168164,
                            33.06748164
                        ],
                        [
                            -111.97174641,
                            33.06748113
                        ]
                    ]
                ]
            },
            "properties": {
                "ha_label": "p202",
                "HA_AREA": 24.211692,
                "HARM": "Hand",
                "HADAT": "10/16/2003",
                "WBWAH": 4988.4,
                "GNDAT": "10/30/2003",
                "FFRAC": 0.3507,
                "SFRAC": 0.614,
                "TFRAC": 0.0353,
                "WFWAH": 1749.5,
                "WSWAH": 3062.8,
                "WSCWAH": 4812.3
            },
            "_id": "68c1c7b58ac5475f49015de1",
            "haid": "68c1c7b58ac5475f49015de1"
        },
        {
            "type": "Feature",
            "geometry": {
                "type": "Polygon",
                "coordinates": [
                    [
                        [
                            -111.97154988,
                            33.06748038
                        ],
                        [
                            -111.9716156,
                            33.06747987
                        ],
                        [
                            -111.97161545,
                            33.06751595
                        ],
                        [
                            -111.97154994,
                            33.06751645
                        ],
                        [
                            -111.97154988,
                            33.06748038
                        ]
                    ]
                ]
            },
            "properties": {
                "ha_label": "p203",
                "HA_AREA": 24.501946,
                "HARM": "Hand",
                "HADAT": "10/16/2003",
                "WBWAH": 4975.1,
                "GNDAT": "10/30/2003",
                "FFRAC": 0.357,
                "SFRAC": 0.6014,
                "TFRAC": 0.0416,
                "WFWAH": 1776.1,
                "WSWAH": 2991.9,
                "WSCWAH": 4768.1
            },
            "_id": "68c1c7b58ac5475f49015de2",
            "haid": "68c1c7b58ac5475f49015de2"
        },
        {
            "type": "Feature",
            "geometry": {
                "type": "Polygon",
                "coordinates": [
                    [
                        [
                            -111.97142055,
                            33.06747952
                        ],
                        [
                            -111.97148607,
                            33.06747901
                        ],
                        [
                            -111.97148597,
                            33.06751508
                        ],
                        [
                            -111.97142045,
                            33.0675156
                        ],
                        [
                            -111.97142055,
                            33.06747952
                        ]
                    ]
                ]
            },
            "properties": {
                "ha_label": "p204",
                "HA_AREA": 24.464976,
                "HARM": "Hand",
                "HADAT": "10/16/2003",
                "WBWAH": 5251.4,
                "GNDAT": "10/30/2003",
                "FFRAC": 0.367,
                "SFRAC": 0.6205,
                "TFRAC": 0.0124,
                "WFWAH": 1927.5,
                "WSWAH": 3258.8,
                "WSCWAH": 5186.3
            },
            "_id": "68c1c7b58ac5475f49015de3",
            "haid": "68c1c7b58ac5475f49015de3"
        },
        {
            "type": "Feature",
            "geometry": {
                "type": "Polygon",
                "coordinates": [
                    [
                        [
                            -111.97135532,
                            33.06747791
                        ],
                        [
                            -111.9713553,
                            33.06751399
                        ],
                        [
                            -111.97129003,
                            33.0675145
                        ],
                        [
                            -111.97129011,
                            33.06747842
                        ],
                        [
                            -111.97135532,
                            33.06747791
                        ]
                    ]
                ]
            },
            "properties": {
                "ha_label": "p205",
                "HA_AREA": 24.360371,
                "HARM": "Hand",
                "HADAT": "10/16/2003",
                "WBWAH": 5349.6,
                "GNDAT": "10/30/2003",
                "FFRAC": 0.3401,
                "SFRAC": 0.6095,
                "TFRAC": 0.0504,
                "WFWAH": 1819.3,
                "WSWAH": 3260.6,
                "WSCWAH": 5079.9
            },
            "_id": "68c1c7b58ac5475f49015de4",
            "haid": "68c1c7b58ac5475f49015de4"
        },
        {
            "type": "Feature",
            "geometry": {
                "type": "Polygon",
                "coordinates": [
                    [
                        [
                            -111.97115995,
                            33.06747747
                        ],
                        [
                            -111.97122546,
                            33.06747696
                        ],
                        [
                            -111.97122539,
                            33.06751304
                        ],
                        [
                            -111.97115989,
                            33.06751355
                        ],
                        [
                            -111.97115995,
                            33.06747747
                        ]
                    ]
                ]
            },
            "properties": {
                "ha_label": "p206",
                "HA_AREA": 24.461563,
                "HARM": "Hand",
                "HADAT": "10/16/2003",
                "WBWAH": 4952.5,
                "GNDAT": "10/30/2003",
                "FFRAC": 0.3506,
                "SFRAC": 0.5978,
                "TFRAC": 0.0516,
                "WFWAH": 1736.3,
                "WSWAH": 2960.7,
                "WSCWAH": 4697.0
            },
            "_id": "68c1c7b58ac5475f49015de5",
            "haid": "68c1c7b58ac5475f49015de5"
        },
        {
            "type": "Feature",
            "geometry": {
                "type": "Polygon",
                "coordinates": [
                    [
                        [
                            -111.97109532,
                            33.06747598
                        ],
                        [
                            -111.97109534,
                            33.06751206
                        ],
                        [
                            -111.97103017,
                            33.06751257
                        ],
                        [
                            -111.97103016,
                            33.06747649
                        ],
                        [
                            -111.97109532,
                            33.06747598
                        ]
                    ]
                ]
            },
            "properties": {
                "ha_label": "p207",
                "HA_AREA": 24.333005,
                "HARM": "Hand",
                "HADAT": "10/16/2003",
                "WBWAH": 4763.2,
                "GNDAT": "10/30/2003",
                "FFRAC": 0.3662,
                "SFRAC": 0.5994,
                "TFRAC": 0.0345,
                "WFWAH": 1744.2,
                "WSWAH": 2855.0,
                "WSCWAH": 4599.1
            },
            "_id": "68c1c7b58ac5475f49015de6",
            "haid": "68c1c7b58ac5475f49015de6"
        },
        {
            "type": "Feature",
            "geometry": {
                "type": "Polygon",
                "coordinates": [
                    [
                        [
                            -111.97096556,
                            33.06747491
                        ],
                        [
                            -111.97096546,
                            33.06751099
                        ],
                        [
                            -111.97090035,
                            33.0675115
                        ],
                        [
                            -111.97090047,
                            33.06747542
                        ],
                        [
                            -111.97096556,
                            33.06747491
                        ]
                    ]
                ]
            },
            "properties": {
                "ha_label": "p208",
                "HA_AREA": 24.309569,
                "HARM": "Hand",
                "HADAT": "10/16/2003",
                "WBWAH": 4336.3,
                "GNDAT": "10/30/2003",
                "FFRAC": 0.3601,
                "SFRAC": 0.5982,
                "TFRAC": 0.0417,
                "WFWAH": 1561.5,
                "WSWAH": 2594.0,
                "WSCWAH": 4155.5
            },
            "_id": "68c1c7b58ac5475f49015de7",
            "haid": "68c1c7b58ac5475f49015de7"
        },
        {
            "type": "Feature",
            "geometry": {
                "type": "Polygon",
                "coordinates": [
                    [
                        [
                            -111.97187699,
                            33.06721282
                        ],
                        [
                            -111.97187694,
                            33.0672489
                        ],
                        [
                            -111.97181186,
                            33.06724941
                        ],
                        [
                            -111.97181192,
                            33.06721333
                        ],
                        [
                            -111.97187699,
                            33.06721282
                        ]
                    ]
                ]
            },
            "properties": {
                "ha_label": "p301",
                "HA_AREA": 24.300908,
                "HARM": "Hand",
                "HADAT": "10/17/2003",
                "WBWAH": 4626.8,
                "GNDAT": "10/30/2003",
                "FFRAC": 0.3697,
                "SFRAC": 0.6046,
                "TFRAC": 0.0257,
                "WFWAH": 1710.6,
                "WSWAH": 2797.4,
                "WSCWAH": 4508.0
            },
            "_id": "68c1c7b58ac5475f49015de8",
            "haid": "68c1c7b58ac5475f49015de8"
        },
        {
            "type": "Feature",
            "geometry": {
                "type": "Polygon",
                "coordinates": [
                    [
                        [
                            -111.9717464,
                            33.06721217
                        ],
                        [
                            -111.97174632,
                            33.06724825
                        ],
                        [
                            -111.97168089,
                            33.06724876
                        ],
                        [
                            -111.97168101,
                            33.06721268
                        ],
                        [
                            -111.9717464,
                            33.06721217
                        ]
                    ]
                ]
            },
            "properties": {
                "ha_label": "p302",
                "HA_AREA": 24.42449,
                "HARM": "Hand",
                "HADAT": "10/17/2003",
                "WBWAH": 4415.2,
                "GNDAT": "10/30/2003",
                "FFRAC": 0.3702,
                "SFRAC": 0.5936,
                "TFRAC": 0.0362,
                "WFWAH": 1634.7,
                "WSWAH": 2620.9,
                "WSCWAH": 4255.6
            },
            "_id": "68c1c7b58ac5475f49015de9",
            "haid": "68c1c7b58ac5475f49015de9"
        },
        {
            "type": "Feature",
            "geometry": {
                "type": "Polygon",
                "coordinates": [
                    [
                        [
                            -111.97161612,
                            33.06721039
                        ],
                        [
                            -111.97161619,
                            33.06724647
                        ],
                        [
                            -111.97155075,
                            33.06724698
                        ],
                        [
                            -111.97155077,
                            33.0672109
                        ],
                        [
                            -111.97161612,
                            33.06721039
                        ]
                    ]
                ]
            },
            "properties": {
                "ha_label": "p303",
                "HA_AREA": 24.417231,
                "HARM": "Hand",
                "HADAT": "10/17/2003",
                "WBWAH": 5101.2,
                "GNDAT": "10/30/2003",
                "FFRAC": 0.348,
                "SFRAC": 0.6038,
                "TFRAC": 0.0483,
                "WFWAH": 1775.1,
                "WSWAH": 3079.9,
                "WSCWAH": 4855.0
            },
            "_id": "68c1c7b58ac5475f49015dea",
            "haid": "68c1c7b58ac5475f49015dea"
        },
        {
            "type": "Feature",
            "geometry": {
                "type": "Polygon",
                "coordinates": [
                    [
                        [
                            -111.97142102,
                            33.06721102
                        ],
                        [
                            -111.97148656,
                            33.06721051
                        ],
                        [
                            -111.9714865,
                            33.06724659
                        ],
                        [
                            -111.97142101,
                            33.0672471
                        ],
                        [
                            -111.97142102,
                            33.06721102
                        ]
                    ]
                ]
            },
            "properties": {
                "ha_label": "p304",
                "HA_AREA": 24.465774,
                "HARM": "Hand",
                "HADAT": "10/17/2003",
                "WBWAH": 4679.8,
                "GNDAT": "10/30/2003",
                "FFRAC": 0.3663,
                "SFRAC": 0.607,
                "TFRAC": 0.0266,
                "WFWAH": 1714.4,
                "WSWAH": 2840.7,
                "WSCWAH": 4555.1
            },
            "_id": "68c1c7b58ac5475f49015deb",
            "haid": "68c1c7b58ac5475f49015deb"
        },
        {
            "type": "Feature",
            "geometry": {
                "type": "Polygon",
                "coordinates": [
                    [
                        [
                            -111.97135584,
                            33.06720976
                        ],
                        [
                            -111.97135581,
                            33.06724583
                        ],
                        [
                            -111.97129037,
                            33.06724634
                        ],
                        [
                            -111.97129041,
                            33.06721027
                        ],
                        [
                            -111.97135584,
                            33.06720976
                        ]
                    ]
                ]
            },
            "properties": {
                "ha_label": "p305",
                "HA_AREA": 24.435206,
                "HARM": "Hand",
                "HADAT": "10/17/2003",
                "WBWAH": 4798.7,
                "GNDAT": "10/30/2003",
                "FFRAC": 0.3641,
                "SFRAC": 0.5895,
                "TFRAC": 0.0464,
                "WFWAH": 1747.3,
                "WSWAH": 2829.0,
                "WSCWAH": 4576.3
            },
            "_id": "68c1c7b58ac5475f49015dec",
            "haid": "68c1c7b58ac5475f49015dec"
        },
        {
            "type": "Feature",
            "geometry": {
                "type": "Polygon",
                "coordinates": [
                    [
                        [
                            -111.97116059,
                            33.06720931
                        ],
                        [
                            -111.97122605,
                            33.0672088
                        ],
                        [
                            -111.97122601,
                            33.06724488
                        ],
                        [
                            -111.97116055,
                            33.06724539
                        ],
                        [
                            -111.97116059,
                            33.06720931
                        ]
                    ]
                ]
            },
            "properties": {
                "ha_label": "p306",
                "HA_AREA": 24.4448,
                "HARM": "Hand",
                "HADAT": "10/17/2003",
                "WBWAH": 4404.6,
                "GNDAT": "10/30/2003",
                "FFRAC": 0.3699,
                "SFRAC": 0.6021,
                "TFRAC": 0.0279,
                "WFWAH": 1629.4,
                "WSWAH": 2652.2,
                "WSCWAH": 4281.6
            },
            "_id": "68c1c7b58ac5475f49015ded",
            "haid": "68c1c7b58ac5475f49015ded"
        },
        {
            "type": "Feature",
            "geometry": {
                "type": "Polygon",
                "coordinates": [
                    [
                        [
                            -111.97109568,
                            33.06720799
                        ],
                        [
                            -111.97109568,
                            33.06724407
                        ],
                        [
                            -111.97103042,
                            33.06724458
                        ],
                        [
                            -111.97103045,
                            33.0672085
                        ],
                        [
                            -111.97109568,
                            33.06720799
                        ]
                    ]
                ]
            },
            "properties": {
                "ha_label": "p307",
                "HA_AREA": 24.364987,
                "HARM": "Hand",
                "HADAT": "10/17/2003",
                "WBWAH": 4879.6,
                "GNDAT": "10/30/2003",
                "FFRAC": 0.3415,
                "SFRAC": 0.6047,
                "TFRAC": 0.0537,
                "WFWAH": 1666.6,
                "WSWAH": 2950.9,
                "WSCWAH": 4617.5
            },
            "_id": "68c1c7b58ac5475f49015dee",
            "haid": "68c1c7b58ac5475f49015dee"
        },
        {
            "type": "Feature",
            "geometry": {
                "type": "Polygon",
                "coordinates": [
                    [
                        [
                            -111.97090081,
                            33.06720768
                        ],
                        [
                            -111.970966,
                            33.06720717
                        ],
                        [
                            -111.97096593,
                            33.06724325
                        ],
                        [
                            -111.97090074,
                            33.06724376
                        ],
                        [
                            -111.97090081,
                            33.06720768
                        ]
                    ]
                ]
            },
            "properties": {
                "ha_label": "p308",
                "HA_AREA": 24.342083,
                "HARM": "Hand",
                "HADAT": "10/17/2003",
                "WBWAH": 4931.9,
                "GNDAT": "10/30/2003",
                "FFRAC": 0.3598,
                "SFRAC": 0.6034,
                "TFRAC": 0.0367,
                "WFWAH": 1774.7,
                "WSWAH": 2976.0,
                "WSCWAH": 4750.7
            },
            "_id": "68c1c7b58ac5475f49015def",
            "haid": "68c1c7b58ac5475f49015def"
        },
        {
            "type": "Feature",
            "geometry": {
                "type": "Polygon",
                "coordinates": [
                    [
                        [
                            -111.97187748,
                            33.06701089
                        ],
                        [
                            -111.97187739,
                            33.06704697
                        ],
                        [
                            -111.9718122,
                            33.06704748
                        ],
                        [
                            -111.97181233,
                            33.0670114
                        ],
                        [
                            -111.97187748,
                            33.06701089
                        ]
                    ]
                ]
            },
            "properties": {
                "ha_label": "p401",
                "HA_AREA": 24.33556,
                "HARM": "Hand",
                "HADAT": "10/20/2003",
                "WBWAH": 3771.4,
                "GNDAT": "10/30/2003",
                "FFRAC": 0.3281,
                "SFRAC": 0.6163,
                "TFRAC": 0.0556,
                "WFWAH": 1237.5,
                "WSWAH": 2324.3,
                "WSCWAH": 3561.8
            },
            "_id": "68c1c7b58ac5475f49015df0",
            "haid": "68c1c7b58ac5475f49015df0"
        },
        {
            "type": "Feature",
            "geometry": {
                "type": "Polygon",
                "coordinates": [
                    [
                        [
                            -111.9716814,
                            33.06701062
                        ],
                        [
                            -111.97174674,
                            33.06701011
                        ],
                        [
                            -111.9717467,
                            33.06704619
                        ],
                        [
                            -111.97168139,
                            33.0670467
                        ],
                        [
                            -111.9716814,
                            33.06701062
                        ]
                    ]
                ]
            },
            "properties": {
                "ha_label": "p402",
                "HA_AREA": 24.391731,
                "HARM": "Hand",
                "HADAT": "10/20/2003",
                "WBWAH": 4578.4,
                "GNDAT": "10/30/2003",
                "FFRAC": 0.3486,
                "SFRAC": 0.6201,
                "TFRAC": 0.0312,
                "WFWAH": 1596.1,
                "WSWAH": 2839.2,
                "WSCWAH": 4435.3
            },
            "_id": "68c1c7b58ac5475f49015df1",
            "haid": "68c1c7b58ac5475f49015df1"
        },
        {
            "type": "Feature",
            "geometry": {
                "type": "Polygon",
                "coordinates": [
                    [
                        [
                            -111.97161614,
                            33.0670095
                        ],
                        [
                            -111.97161612,
                            33.06704558
                        ],
                        [
                            -111.97155101,
                            33.06704609
                        ],
                        [
                            -111.97155105,
                            33.06701001
                        ],
                        [
                            -111.97161614,
                            33.0670095
                        ]
                    ]
                ]
            },
            "properties": {
                "ha_label": "p403",
                "HA_AREA": 24.30912,
                "HARM": "Hand",
                "HADAT": "10/20/2003",
                "WBWAH": 4325.7,
                "GNDAT": "10/30/2003",
                "FFRAC": 0.3789,
                "SFRAC": 0.5938,
                "TFRAC": 0.0273,
                "WFWAH": 1639.0,
                "WSWAH": 2568.7,
                "WSCWAH": 4207.7
            },
            "_id": "68c1c7b58ac5475f49015df2",
            "haid": "68c1c7b58ac5475f49015df2"
        },
        {
            "type": "Feature",
            "geometry": {
                "type": "Polygon",
                "coordinates": [
                    [
                        [
                            -111.97142155,
                            33.06700904
                        ],
                        [
                            -111.97148697,
                            33.06700854
                        ],
                        [
                            -111.97148688,
                            33.06704461
                        ],
                        [
                            -111.97142147,
                            33.06704512
                        ],
                        [
                            -111.97142155,
                            33.06700904
                        ]
                    ]
                ]
            },
            "properties": {
                "ha_label": "p404",
                "HA_AREA": 24.427164,
                "HARM": "Hand",
                "HADAT": "10/20/2003",
                "WBWAH": 5170.6,
                "GNDAT": "10/30/2003",
                "FFRAC": 0.3481,
                "SFRAC": 0.6012,
                "TFRAC": 0.0507,
                "WFWAH": 1799.8,
                "WSWAH": 3108.4,
                "WSCWAH": 4908.2
            },
            "_id": "68c1c7b58ac5475f49015df3",
            "haid": "68c1c7b58ac5475f49015df3"
        },
        {
            "type": "Feature",
            "geometry": {
                "type": "Polygon",
                "coordinates": [
                    [
                        [
                            -111.97135613,
                            33.0670079
                        ],
                        [
                            -111.97135613,
                            33.06704398
                        ],
                        [
                            -111.97129085,
                            33.06704449
                        ],
                        [
                            -111.97129089,
                            33.06700841
                        ],
                        [
                            -111.97135613,
                            33.0670079
                        ]
                    ]
                ]
            },
            "properties": {
                "ha_label": "p405",
                "HA_AREA": 24.369456,
                "HARM": "Hand",
                "HADAT": "10/20/2003",
                "WBWAH": 4250.9,
                "GNDAT": "10/30/2003",
                "FFRAC": 0.3728,
                "SFRAC": 0.5864,
                "TFRAC": 0.0408,
                "WFWAH": 1584.7,
                "WSWAH": 2492.6,
                "WSCWAH": 4077.3
            },
            "_id": "68c1c7b58ac5475f49015df4",
            "haid": "68c1c7b58ac5475f49015df4"
        },
        {
            "type": "Feature",
            "geometry": {
                "type": "Polygon",
                "coordinates": [
                    [
                        [
                            -111.97116099,
                            33.06700749
                        ],
                        [
                            -111.97122659,
                            33.06700698
                        ],
                        [
                            -111.97122649,
                            33.06704306
                        ],
                        [
                            -111.97116091,
                            33.06704357
                        ],
                        [
                            -111.97116099,
                            33.06700749
                        ]
                    ]
                ]
            },
            "properties": {
                "ha_label": "p406",
                "HA_AREA": 24.49272,
                "HARM": "Hand",
                "HADAT": "10/20/2003",
                "WBWAH": 5459.5,
                "GNDAT": "10/30/2003",
                "FFRAC": 0.3512,
                "SFRAC": 0.6004,
                "TFRAC": 0.0485,
                "WFWAH": 1917.2,
                "WSWAH": 3277.8,
                "WSCWAH": 5194.9
            },
            "_id": "68c1c7b58ac5475f49015df5",
            "haid": "68c1c7b58ac5475f49015df5"
        },
        {
            "type": "Feature",
            "geometry": {
                "type": "Polygon",
                "coordinates": [
                    [
                        [
                            -111.97109574,
                            33.06700639
                        ],
                        [
                            -111.97109573,
                            33.06704246
                        ],
                        [
                            -111.97103064,
                            33.06704297
                        ],
                        [
                            -111.97103066,
                            33.06700689
                        ],
                        [
                            -111.97109574,
                            33.06700639
                        ]
                    ]
                ]
            },
            "properties": {
                "ha_label": "p407",
                "HA_AREA": 24.304632,
                "HARM": "Hand",
                "HADAT": "10/20/2003",
                "WBWAH": 4906.0,
                "GNDAT": "10/30/2003"
            },
            "_id": "68c1c7b58ac5475f49015df6",
            "haid": "68c1c7b58ac5475f49015df6"
        },
        {
            "type": "Feature",
            "geometry": {
                "type": "Polygon",
                "coordinates": [
                    [
                        [
                            -111.97090111,
                            33.06700583
                        ],
                        [
                            -111.97096618,
                            33.06700533
                        ],
                        [
                            -111.97096611,
                            33.0670414
                        ],
                        [
                            -111.97090105,
                            33.06704191
                        ],
                        [
                            -111.97090111,
                            33.06700583
                        ]
                    ]
                ]
            },
            "properties": {
                "ha_label": "p408",
                "HA_AREA": 24.298146,
                "HARM": "Hand",
                "HADAT": "10/20/2003",
                "WBWAH": 4619.9,
                "GNDAT": "10/30/2003",
                "FFRAC": 0.3622,
                "SFRAC": 0.5902,
                "TFRAC": 0.0476,
                "WFWAH": 1673.5,
                "WSWAH": 2726.6,
                "WSCWAH": 4400.1
            },
            "_id": "68c1c7b58ac5475f49015df7",
            "haid": "68c1c7b58ac5475f49015df7"
        },
        {
            "type": "Feature",
            "geometry": {
                "type": "Polygon",
                "coordinates": [
                    [
                        [
                            -111.97168083,
                            33.06740452
                        ],
                        [
                            -111.97174616,
                            33.06740401
                        ],
                        [
                            -111.97174614,
                            33.06742205
                        ],
                        [
                            -111.97168085,
                            33.06742256
                        ],
                        [
                            -111.97168083,
                            33.06740452
                        ]
                    ]
                ]
            },
            "properties": {
                "ha_label": "p902",
                "HA_AREA": 12.193374,
                "HARM": "Hand",
                "HADAT": "10/20/2003",
                "WBWAH": 2237.1,
                "GNDAT": "10/30/2003",
                "FFRAC": 0.3488,
                "SFRAC": 0.5894,
                "TFRAC": 0.0618,
                "WFWAH": 780.3,
                "WSWAH": 1318.6,
                "WSCWAH": 2098.9
            },
            "_id": "68c1c7b58ac5475f49015df8",
            "haid": "68c1c7b58ac5475f49015df8"
        },
        {
            "type": "Feature",
            "geometry": {
                "type": "Polygon",
                "coordinates": [
                    [
                        [
                            -111.97148613,
                            33.06740254
                        ],
                        [
                            -111.97148611,
                            33.06742058
                        ],
                        [
                            -111.97142073,
                            33.06742108
                        ],
                        [
                            -111.97142078,
                            33.06740305
                        ],
                        [
                            -111.97148613,
                            33.06740254
                        ]
                    ]
                ]
            },
            "properties": {
                "ha_label": "p904",
                "HA_AREA": 12.204002,
                "HARM": "Hand",
                "HADAT": "10/20/2003",
                "WBWAH": 857.5,
                "GNDAT": "10/30/2003",
                "FFRAC": 0.3059,
                "SFRAC": 0.552,
                "TFRAC": 0.142,
                "WFWAH": 262.3,
                "WSWAH": 473.4,
                "WSCWAH": 735.7
            },
            "_id": "68c1c7b58ac5475f49015df9",
            "haid": "68c1c7b58ac5475f49015df9"
        },
        {
            "type": "Feature",
            "geometry": {
                "type": "Polygon",
                "coordinates": [
                    [
                        [
                            -111.97122565,
                            33.06740105
                        ],
                        [
                            -111.97122564,
                            33.06741909
                        ],
                        [
                            -111.9711602,
                            33.0674196
                        ],
                        [
                            -111.97116025,
                            33.06740156
                        ],
                        [
                            -111.97122565,
                            33.06740105
                        ]
                    ]
                ]
            },
            "properties": {
                "ha_label": "p906",
                "HA_AREA": 12.214217,
                "HARM": "Hand",
                "HADAT": "10/20/2003",
                "WBWAH": 2564.5,
                "GNDAT": "10/30/2003",
                "FFRAC": 0.3532,
                "SFRAC": 0.6118,
                "TFRAC": 0.035,
                "WFWAH": 905.8,
                "WSWAH": 1568.9,
                "WSCWAH": 2474.7
            },
            "_id": "68c1c7b58ac5475f49015dfa",
            "haid": "68c1c7b58ac5475f49015dfa"
        },
        {
            "type": "Feature",
            "geometry": {
                "type": "Polygon",
                "coordinates": [
                    [
                        [
                            -111.97090053,
                            33.06740002
                        ],
                        [
                            -111.97096564,
                            33.06739951
                        ],
                        [
                            -111.97096568,
                            33.06741755
                        ],
                        [
                            -111.97090069,
                            33.06741805
                        ],
                        [
                            -111.97090053,
                            33.06740002
                        ]
                    ]
                ]
            },
            "properties": {
                "ha_label": "p908",
                "HA_AREA": 12.145754,
                "HARM": "Hand",
                "HADAT": "10/20/2003",
                "WBWAH": 1181.4,
                "GNDAT": "10/30/2003",
                "FFRAC": 0.3285,
                "SFRAC": 0.6161,
                "TFRAC": 0.0554,
                "WFWAH": 388.1,
                "WSWAH": 727.8,
                "WSCWAH": 1115.9
            },
            "_id": "68c1c7b58ac5475f49015dfb",
            "haid": "68c1c7b58ac5475f49015dfb"
        }
    ]
}