{
    "type": "Feature",
    "geometry": {
        "type": "Polygon",
        "coordinates": [
            [
                [
                    -111.9718979,
                    33.06765313
                ],
                [
                    -111.97189762,
                    33.06783423
                ],
                [
                    -111.97178861,
                    33.06783358
                ],
                [
                    -111.97178909,
                    33.06765245
                ],
                [
                    -111.9718979,
                    33.06765313
                ]
            ]
        ]
    },
    "properties": {
        "plt_label": "p101",
        "trt_label": "FSH",
        "PLT_AREA": 204.159661,
        "CUL_NAME": "Deltapine 458 B/RR",
        "PDATE": "04/08/2003",
        "IRVAL": {
            "2003106": 141.0,
            "2003108": 76.0,
            "2003112": 66.0,
            "2003129": 82.0,
            "2003148": 63.0,
            "2003161": 85.0,
            "2003174": 113.0,
            "2003185": 123.0,
            "2003195": 122.0,
            "2003206": 125.0,
            "2003219": 120.0,
            "2003232": 107.0
        },
        "HARM": "Hand",
        "HADAT": "10/15/2003",
        "WBWAH": 4159.6,
        "GNDAT": "10/30/2002",
        "FFRAC": 0.3575,
        "SFRAC": 0.631,
        "TFRAC": 0.0114,
        "WFWAH": 1487.2,
        "WSWAH": 2624.8,
        "WSCWAH": 4112.0,
        "CHTD": {
            "2003168": 0.31,
            "2003176": 0.39,
            "2003189": 0.65,
            "2003209": 0.85,
            "2003217": 0.91,
            "2003233": 1.03,
            "2003259": 1.19,
            "2003287": 1.26
        },
        "CWID": {
            "2003168": 0.41,
            "2003176": 0.55,
            "2003189": 0.76,
            "2003209": 0.91,
            "2003217": 0.89,
            "2003233": 0.93,
            "2003259": 0.87,
            "2003287": 0.91
        },
        "tids": [
            "6442f7dd8ac54733708dafa7"
        ]
    },
    "_id": "6442e2658ac5472f1c3e41a6",
    "pid": "6442e2658ac5472f1c3e41a6"
}{
    "type": "Feature",
    "geometry": {
        "type": "Polygon",
        "coordinates": [
            [
                [
                    -111.97176753,
                    33.06765235
                ],
                [
                    -111.97176729,
                    33.06783341
                ],
                [
                    -111.97165866,
                    33.06783275
                ],
                [
                    -111.97165887,
                    33.06765167
                ],
                [
                    -111.97176753,
                    33.06765235
                ]
            ]
        ]
    },
    "properties": {
        "plt_label": "p102",
        "trt_label": "FTL",
        "PLT_AREA": 203.62279,
        "CUL_NAME": "Deltapine 458 B/RR",
        "PDATE": "04/08/2003",
        "IRVAL": {
            "2003106": 123.0,
            "2003108": 83.0,
            "2003112": 85.5,
            "2003129": 82.0,
            "2003148": 63.0,
            "2003161": 85.0,
            "2003174": 113.0,
            "2003185": 123.0,
            "2003195": 122.0,
            "2003206": 125.0,
            "2003219": 120.0,
            "2003232": 107.0
        },
        "HARM": "Hand",
        "HADAT": "10/15/2003",
        "WBWAH": 4142.1,
        "GNDAT": "10/30/2002",
        "FFRAC": 0.3603,
        "SFRAC": 0.6103,
        "TFRAC": 0.0294,
        "WFWAH": 1492.5,
        "WSWAH": 2527.8,
        "WSCWAH": 4020.3,
        "CHTD": {
            "2003168": 0.31,
            "2003176": 0.4,
            "2003189": 0.57,
            "2003209": 0.82,
            "2003217": 0.91,
            "2003233": 0.95,
            "2003259": 1.09,
            "2003287": 1.08
        },
        "CWID": {
            "2003168": 0.41,
            "2003176": 0.55,
            "2003189": 0.76,
            "2003209": 0.86,
            "2003217": 0.87,
            "2003233": 0.9,
            "2003259": 0.94,
            "2003287": 0.83
        },
        "tids": [
            "6442f7dd8ac54733708dafa8"
        ]
    },
    "_id": "6442e2658ac5472f1c3e41a7",
    "pid": "6442e2658ac5472f1c3e41a7"
}{
    "type": "Feature",
    "geometry": {
        "type": "Polygon",
        "coordinates": [
            [
                [
                    -111.97163717,
                    33.06765151
                ],
                [
                    -111.971637,
                    33.06783265
                ],
                [
                    -111.97152831,
                    33.06783197
                ],
                [
                    -111.9715285,
                    33.06765084
                ],
                [
                    -111.97163717,
                    33.06765151
                ]
            ]
        ]
    },
    "properties": {
        "plt_label": "p103",
        "trt_label": "FDH",
        "PLT_AREA": 203.750824,
        "CUL_NAME": "Deltapine 458 B/RR",
        "PDATE": "04/08/2003",
        "IRVAL": {
            "2003106": 125.0,
            "2003108": 92.0,
            "2003112": 59.7,
            "2003129": 84.0,
            "2003148": 63.0,
            "2003161": 85.0,
            "2003174": 113.0,
            "2003185": 123.0,
            "2003195": 122.0,
            "2003206": 125.0,
            "2003219": 120.0,
            "2003232": 107.0
        },
        "HARM": "Hand",
        "HADAT": "10/15/2003",
        "WBWAH": 5186.1,
        "GNDAT": "10/30/2002",
        "FFRAC": 0.3709,
        "SFRAC": 0.6103,
        "TFRAC": 0.0188,
        "WFWAH": 1923.5,
        "WSWAH": 3165.2,
        "WSCWAH": 5088.7,
        "CHTD": {
            "2003168": 0.36,
            "2003176": 0.41,
            "2003189": 0.64,
            "2003209": 0.82,
            "2003217": 0.91,
            "2003233": 1.02,
            "2003259": 1.05,
            "2003287": 1.09
        },
        "CWID": {
            "2003168": 0.65,
            "2003176": 0.72,
            "2003189": 0.86,
            "2003209": 0.99,
            "2003217": 0.99,
            "2003233": 0.98,
            "2003259": 0.82,
            "2003287": 0.89
        },
        "tids": [
            "6442f7dd8ac54733708dafa9"
        ]
    },
    "_id": "6442e2658ac5472f1c3e41a8",
    "pid": "6442e2658ac5472f1c3e41a8"
}{
    "type": "Feature",
    "geometry": {
        "type": "Polygon",
        "coordinates": [
            [
                [
                    -111.97150744,
                    33.06765073
                ],
                [
                    -111.97150703,
                    33.06783214
                ],
                [
                    -111.97139746,
                    33.0678314
                ],
                [
                    -111.97139835,
                    33.06764994
                ],
                [
                    -111.97150744,
                    33.06765073
                ]
            ]
        ]
    },
    "properties": {
        "plt_label": "p104",
        "trt_label": "NTL",
        "PLT_AREA": 205.305556,
        "CUL_NAME": "Deltapine 458 B/RR",
        "PDATE": "04/08/2003",
        "IRVAL": {
            "2003106": 141.0,
            "2003108": 80.0,
            "2003112": 71.0,
            "2003129": 82.0,
            "2003148": 63.0,
            "2003162": 83.0,
            "2003176": 116.0,
            "2003185": 109.0,
            "2003195": 125.0,
            "2003206": 128.0,
            "2003219": 122.0,
            "2003232": 106.0
        },
        "HARM": "Hand",
        "HADAT": "10/15/2003",
        "WBWAH": 4864.5,
        "GNDAT": "10/30/2002",
        "FFRAC": 0.3662,
        "SFRAC": 0.583,
        "TFRAC": 0.0508,
        "WFWAH": 1781.5,
        "WSWAH": 2835.9,
        "WSCWAH": 4617.4,
        "CHTD": {
            "2003168": 0.37,
            "2003176": 0.47,
            "2003189": 0.77,
            "2003209": 0.95,
            "2003217": 0.97,
            "2003233": 1.0,
            "2003259": 1.03,
            "2003287": 1.04
        },
        "CWID": {
            "2003168": 0.5,
            "2003176": 0.59,
            "2003189": 0.84,
            "2003209": 0.95,
            "2003217": 0.95,
            "2003233": 0.97,
            "2003259": 0.97,
            "2003287": 0.78
        },
        "tids": [
            "6442f7dd8ac54733708dafaa"
        ]
    },
    "_id": "6442e2658ac5472f1c3e41a9",
    "pid": "6442e2658ac5472f1c3e41a9"
}{
    "type": "Feature",
    "geometry": {
        "type": "Polygon",
        "coordinates": [
            [
                [
                    -111.97137696,
                    33.06764985
                ],
                [
                    -111.97137658,
                    33.06783076
                ],
                [
                    -111.97126749,
                    33.06783041
                ],
                [
                    -111.97126784,
                    33.06764918
                ],
                [
                    -111.97137696,
                    33.06764985
                ]
            ]
        ]
    },
    "properties": {
        "plt_label": "p105",
        "trt_label": "NDL",
        "PLT_AREA": 204.490688,
        "CUL_NAME": "Deltapine 458 B/RR",
        "PDATE": "04/08/2003",
        "IRVAL": {
            "2003106": 130.0,
            "2003108": 74.0,
            "2003112": 57.0,
            "2003129": 82.0,
            "2003143": 55.0,
            "2003155": 68.0,
            "2003166": 87.0,
            "2003176": 111.0,
            "2003185": 116.0,
            "2003195": 123.0,
            "2003206": 127.0,
            "2003219": 138.0,
            "2003232": 109.0
        },
        "HARM": "Hand",
        "HADAT": "10/15/2003",
        "WBWAH": 4437.4,
        "GNDAT": "10/30/2002",
        "FFRAC": 0.3903,
        "SFRAC": 0.6029,
        "TFRAC": 0.0068,
        "WFWAH": 1732.0,
        "WSWAH": 2675.4,
        "WSCWAH": 4407.4,
        "CHTD": {
            "2003168": 0.35,
            "2003176": 0.46,
            "2003189": 0.71,
            "2003209": 0.85,
            "2003217": 0.91,
            "2003233": 0.91,
            "2003259": 1.0,
            "2003287": 0.97
        },
        "CWID": {
            "2003168": 0.65,
            "2003176": 0.74,
            "2003189": 0.89,
            "2003209": 0.96,
            "2003217": 0.99,
            "2003233": 1.0,
            "2003259": 0.99,
            "2003287": 0.88
        },
        "tids": [
            "6442f7dd8ac54733708dafab"
        ]
    },
    "_id": "6442e2658ac5472f1c3e41aa",
    "pid": "6442e2658ac5472f1c3e41aa"
}{
    "type": "Feature",
    "geometry": {
        "type": "Polygon",
        "coordinates": [
            [
                [
                    -111.97124694,
                    33.06764907
                ],
                [
                    -111.97124661,
                    33.06782978
                ],
                [
                    -111.97113752,
                    33.06782983
                ],
                [
                    -111.97113795,
                    33.06764842
                ],
                [
                    -111.97124694,
                    33.06764907
                ]
            ]
        ]
    },
    "properties": {
        "plt_label": "p106",
        "trt_label": "NTH",
        "PLT_AREA": 204.345028,
        "CUL_NAME": "Deltapine 458 B/RR",
        "PDATE": "04/08/2003",
        "IRVAL": {
            "2003106": 149.0,
            "2003108": 85.0,
            "2003112": 70.0,
            "2003129": 83.0,
            "2003148": 63.0,
            "2003162": 86.0,
            "2003176": 109.0,
            "2003185": 107.0,
            "2003195": 124.0,
            "2003206": 127.0,
            "2003219": 122.0,
            "2003232": 109.0
        },
        "HARM": "Hand",
        "HADAT": "10/15/2003",
        "WBWAH": 5405.9,
        "GNDAT": "10/30/2002",
        "FFRAC": 0.3364,
        "SFRAC": 0.6046,
        "TFRAC": 0.059,
        "WFWAH": 1818.8,
        "WSWAH": 3268.3,
        "WSCWAH": 5087.1,
        "CHTD": {
            "2003168": 0.39,
            "2003176": 0.47,
            "2003189": 0.81,
            "2003209": 0.99,
            "2003217": 1.09,
            "2003233": 1.17,
            "2003259": 1.22,
            "2003287": 1.22
        },
        "CWID": {
            "2003168": 0.45,
            "2003176": 0.61,
            "2003189": 0.84,
            "2003209": 0.91,
            "2003217": 1.0,
            "2003233": 1.0,
            "2003259": 1.0,
            "2003287": 0.94
        },
        "tids": [
            "6442f7dd8ac54733708dafac"
        ]
    },
    "_id": "6442e2658ac5472f1c3e41ab",
    "pid": "6442e2658ac5472f1c3e41ab"
}{
    "type": "Feature",
    "geometry": {
        "type": "Polygon",
        "coordinates": [
            [
                [
                    -111.97111735,
                    33.06764814
                ],
                [
                    -111.9711176,
                    33.06782958
                ],
                [
                    -111.97100755,
                    33.06782884
                ],
                [
                    -111.97100843,
                    33.06764754
                ],
                [
                    -111.97111735,
                    33.06764814
                ]
            ]
        ]
    },
    "properties": {
        "plt_label": "p107",
        "trt_label": "NTL",
        "PLT_AREA": 205.528812,
        "CUL_NAME": "Deltapine 458 B/RR",
        "PDATE": "04/08/2003",
        "IRVAL": {
            "2003106": 143.0,
            "2003108": 51.0,
            "2003112": 76.0,
            "2003129": 90.0,
            "2003148": 63.0,
            "2003162": 83.0,
            "2003176": 114.0,
            "2003185": 113.0,
            "2003195": 124.0,
            "2003206": 129.0,
            "2003219": 122.0,
            "2003232": 110.0
        },
        "HARM": "Hand",
        "HADAT": "10/15/2003",
        "WBWAH": 4747.0,
        "GNDAT": "10/30/2002",
        "FFRAC": 0.3659,
        "SFRAC": 0.6092,
        "TFRAC": 0.0248,
        "WFWAH": 1737.1,
        "WSWAH": 2892.1,
        "WSCWAH": 4629.2,
        "CHTD": {
            "2003168": 0.39,
            "2003176": 0.5,
            "2003189": 0.81,
            "2003209": 0.93,
            "2003217": 1.02,
            "2003233": 1.01,
            "2003259": 1.08,
            "2003287": 1.1
        },
        "CWID": {
            "2003168": 0.48,
            "2003176": 0.59,
            "2003189": 0.81,
            "2003209": 0.91,
            "2003217": 0.9,
            "2003233": 0.92,
            "2003259": 0.91,
            "2003287": 0.71
        },
        "tids": [
            "6442f7dd8ac54733708dafad"
        ]
    },
    "_id": "6442e2658ac5472f1c3e41ac",
    "pid": "6442e2658ac5472f1c3e41ac"
}{
    "type": "Feature",
    "geometry": {
        "type": "Polygon",
        "coordinates": [
            [
                [
                    -111.97098696,
                    33.06764742
                ],
                [
                    -111.97098715,
                    33.0678282
                ],
                [
                    -111.97087805,
                    33.06782745
                ],
                [
                    -111.97087939,
                    33.06764693
                ],
                [
                    -111.97098696,
                    33.06764742
                ]
            ]
        ]
    },
    "properties": {
        "plt_label": "p108",
        "trt_label": "FTH",
        "PLT_AREA": 202.562029,
        "CUL_NAME": "Deltapine 458 B/RR",
        "PDATE": "04/08/2003",
        "IRVAL": {
            "2003106": 129.0,
            "2003108": 62.0,
            "2003112": 67.0,
            "2003129": 94.0,
            "2003148": 63.0,
            "2003161": 85.0,
            "2003174": 113.0,
            "2003185": 123.0,
            "2003195": 123.0,
            "2003206": 125.0,
            "2003219": 120.0,
            "2003232": 107.0
        },
        "HARM": "Hand",
        "HADAT": "10/15/2003",
        "WBWAH": 5647.7,
        "GNDAT": "10/30/2002",
        "FFRAC": 0.3631,
        "SFRAC": 0.603,
        "TFRAC": 0.0339,
        "WFWAH": 2050.7,
        "WSWAH": 3405.6,
        "WSCWAH": 5456.3,
        "CHTD": {
            "2003168": 0.39,
            "2003176": 0.49,
            "2003189": 0.8,
            "2003209": 0.91,
            "2003217": 0.98,
            "2003233": 1.09,
            "2003259": 1.14,
            "2003287": 1.14
        },
        "CWID": {
            "2003168": 0.48,
            "2003176": 0.58,
            "2003189": 0.86,
            "2003209": 0.92,
            "2003217": 0.95,
            "2003233": 1.0,
            "2003259": 1.0,
            "2003287": 0.76
        },
        "tids": [
            "6442f7dd8ac54733708dafae"
        ]
    },
    "_id": "6442e2658ac5472f1c3e41ad",
    "pid": "6442e2658ac5472f1c3e41ad"
}{
    "type": "Feature",
    "geometry": {
        "type": "Polygon",
        "coordinates": [
            [
                [
                    -111.97189834,
                    33.06745419
                ],
                [
                    -111.97189802,
                    33.06763527
                ],
                [
                    -111.97178913,
                    33.06763446
                ],
                [
                    -111.97178947,
                    33.06745341
                ],
                [
                    -111.97189834,
                    33.06745419
                ]
            ]
        ]
    },
    "properties": {
        "plt_label": "p201",
        "trt_label": "NDL",
        "PLT_AREA": 204.053948,
        "CUL_NAME": "Deltapine 458 B/RR",
        "PDATE": "04/08/2003",
        "IRVAL": {
            "2003106": 137.0,
            "2003108": 81.0,
            "2003112": 59.0,
            "2003129": 82.0,
            "2003143": 55.0,
            "2003155": 68.0,
            "2003166": 84.0,
            "2003176": 113.0,
            "2003185": 116.0,
            "2003195": 127.0,
            "2003206": 127.0,
            "2003219": 124.0,
            "2003232": 109.0
        },
        "HARM": "Hand",
        "HADAT": "10/16/2003",
        "WBWAH": 4492.5,
        "GNDAT": "10/30/2002",
        "FFRAC": 0.3756,
        "SFRAC": 0.58,
        "TFRAC": 0.0444,
        "WFWAH": 1687.4,
        "WSWAH": 2605.8,
        "WSCWAH": 4293.2,
        "CHTD": {
            "2003168": 0.35,
            "2003176": 0.63,
            "2003189": 0.76,
            "2003209": 0.85,
            "2003217": 0.9,
            "2003233": 0.92,
            "2003259": 1.03,
            "2003287": 1.0
        },
        "CWID": {
            "2003168": 0.67,
            "2003176": 0.7,
            "2003189": 0.89,
            "2003209": 1.02,
            "2003217": 1.01,
            "2003233": 1.0,
            "2003259": 0.99,
            "2003287": 0.89
        },
        "tids": [
            "6442f7dd8ac54733708dafaf"
        ]
    },
    "_id": "6442e2658ac5472f1c3e41ae",
    "pid": "6442e2658ac5472f1c3e41ae"
}{
    "type": "Feature",
    "geometry": {
        "type": "Polygon",
        "coordinates": [
            [
                [
                    -111.97176809,
                    33.06745314
                ],
                [
                    -111.97176757,
                    33.06763429
                ],
                [
                    -111.9716586,
                    33.06763304
                ],
                [
                    -111.9716603,
                    33.06745309
                ],
                [
                    -111.97176809,
                    33.06745314
                ]
            ]
        ]
    },
    "properties": {
        "plt_label": "p202",
        "trt_label": "NTH",
        "PLT_AREA": 202.531893,
        "CUL_NAME": "Deltapine 458 B/RR",
        "PDATE": "04/08/2003",
        "IRVAL": {
            "2003106": 135.0,
            "2003108": 85.0,
            "2003112": 66.0,
            "2003129": 88.0,
            "2003148": 64.0,
            "2003162": 84.0,
            "2003176": 116.0,
            "2003185": 102.0,
            "2003195": 125.0,
            "2003206": 129.0,
            "2003219": 122.0,
            "2003232": 107.0
        },
        "HARM": "Hand",
        "HADAT": "10/16/2003",
        "WBWAH": 4988.4,
        "GNDAT": "10/30/2002",
        "FFRAC": 0.3507,
        "SFRAC": 0.614,
        "TFRAC": 0.0353,
        "WFWAH": 1749.5,
        "WSWAH": 3062.8,
        "WSCWAH": 4812.3,
        "CHTD": {
            "2003168": 0.38,
            "2003176": 0.46,
            "2003189": 0.74,
            "2003209": 0.87,
            "2003217": 0.94,
            "2003233": 1.11,
            "2003259": 1.27,
            "2003287": 1.29
        },
        "CWID": {
            "2003168": 0.5,
            "2003176": 0.56,
            "2003189": 0.73,
            "2003209": 0.87,
            "2003217": 0.93,
            "2003233": 0.91,
            "2003259": 1.0,
            "2003287": 0.89
        },
        "tids": [
            "6442f7dd8ac54733708dafb0"
        ]
    },
    "_id": "6442e2658ac5472f1c3e41af",
    "pid": "6442e2658ac5472f1c3e41af"
}{
    "type": "Feature",
    "geometry": {
        "type": "Polygon",
        "coordinates": [
            [
                [
                    -111.97163768,
                    33.0674512
                ],
                [
                    -111.97163658,
                    33.06763303
                ],
                [
                    -111.97152854,
                    33.06763228
                ],
                [
                    -111.97152784,
                    33.06745049
                ],
                [
                    -111.97163768,
                    33.0674512
                ]
            ]
        ]
    },
    "properties": {
        "plt_label": "p203",
        "trt_label": "FTH",
        "PLT_AREA": 204.99958,
        "CUL_NAME": "Deltapine 458 B/RR",
        "PDATE": "04/08/2003",
        "IRVAL": {
            "2003106": 133.0,
            "2003108": 84.0,
            "2003112": 65.0,
            "2003129": 82.0,
            "2003148": 63.0,
            "2003161": 85.0,
            "2003174": 113.0,
            "2003185": 123.0,
            "2003195": 122.0,
            "2003206": 125.0,
            "2003219": 120.0,
            "2003232": 107.0
        },
        "HARM": "Hand",
        "HADAT": "10/16/2003",
        "WBWAH": 4975.1,
        "GNDAT": "10/30/2002",
        "FFRAC": 0.357,
        "SFRAC": 0.6014,
        "TFRAC": 0.0416,
        "WFWAH": 1776.1,
        "WSWAH": 2991.9,
        "WSCWAH": 4768.1,
        "CHTD": {
            "2003168": 0.38,
            "2003176": 0.49,
            "2003189": 0.77,
            "2003209": 0.9,
            "2003217": 0.97,
            "2003233": 1.14,
            "2003259": 1.26,
            "2003287": 1.3
        },
        "CWID": {
            "2003168": 0.52,
            "2003176": 0.58,
            "2003189": 0.77,
            "2003209": 0.91,
            "2003217": 0.92,
            "2003233": 0.99,
            "2003259": 0.95,
            "2003287": 0.84
        },
        "tids": [
            "6442f7dd8ac54733708dafb1"
        ]
    },
    "_id": "6442e2658ac5472f1c3e41b0",
    "pid": "6442e2658ac5472f1c3e41b0"
}{
    "type": "Feature",
    "geometry": {
        "type": "Polygon",
        "coordinates": [
            [
                [
                    -111.97150799,
                    33.06745065
                ],
                [
                    -111.97150748,
                    33.06763217
                ],
                [
                    -111.97139828,
                    33.06763123
                ],
                [
                    -111.97139877,
                    33.06744993
                ],
                [
                    -111.97150799,
                    33.06745065
                ]
            ]
        ]
    },
    "properties": {
        "plt_label": "p204",
        "trt_label": "NDH",
        "PLT_AREA": 205.066486,
        "CUL_NAME": "Deltapine 458 B/RR",
        "PDATE": "04/08/2003",
        "IRVAL": {
            "2003106": 145.0,
            "2003108": 73.0,
            "2003112": 66.0,
            "2003129": 82.0,
            "2003143": 55.0,
            "2003155": 68.0,
            "2003166": 88.0,
            "2003176": 116.0,
            "2003185": 116.0,
            "2003195": 123.0,
            "2003206": 127.0,
            "2003219": 124.0,
            "2003232": 109.0
        },
        "HARM": "Hand",
        "HADAT": "10/16/2003",
        "WBWAH": 5251.4,
        "GNDAT": "10/30/2002",
        "FFRAC": 0.367,
        "SFRAC": 0.6205,
        "TFRAC": 0.0124,
        "WFWAH": 1927.5,
        "WSWAH": 3258.8,
        "WSCWAH": 5186.3,
        "CHTD": {
            "2003168": 0.46,
            "2003176": 0.53,
            "2003189": 0.84,
            "2003209": 1.02,
            "2003217": 1.07,
            "2003233": 1.18,
            "2003259": 1.21,
            "2003287": 1.15
        },
        "CWID": {
            "2003168": 0.67,
            "2003176": 0.78,
            "2003189": 0.95,
            "2003209": 1.13,
            "2003217": 1.05,
            "2003233": 1.0,
            "2003259": 0.85,
            "2003287": 0.9
        },
        "tids": [
            "6442f7dd8ac54733708dafb2"
        ]
    },
    "_id": "6442e2658ac5472f1c3e41b1",
    "pid": "6442e2658ac5472f1c3e41b1"
}{
    "type": "Feature",
    "geometry": {
        "type": "Polygon",
        "coordinates": [
            [
                [
                    -111.97137704,
                    33.06744958
                ],
                [
                    -111.97137708,
                    33.06763107
                ],
                [
                    -111.9712679,
                    33.06763027
                ],
                [
                    -111.97126845,
                    33.06744885
                ],
                [
                    -111.97137704,
                    33.06744958
                ]
            ]
        ]
    },
    "properties": {
        "plt_label": "p205",
        "trt_label": "FSH",
        "PLT_AREA": 204.509806,
        "CUL_NAME": "Deltapine 458 B/RR",
        "PDATE": "04/08/2003",
        "IRVAL": {
            "2003106": 143.0,
            "2003108": 79.0,
            "2003112": 70.0,
            "2003129": 82.0,
            "2003148": 63.0,
            "2003161": 85.0,
            "2003174": 113.0,
            "2003185": 123.0,
            "2003195": 122.0,
            "2003206": 125.0,
            "2003219": 120.0,
            "2003232": 107.0
        },
        "HARM": "Hand",
        "HADAT": "10/16/2003",
        "WBWAH": 5349.6,
        "GNDAT": "10/30/2002",
        "FFRAC": 0.3401,
        "SFRAC": 0.6095,
        "TFRAC": 0.0504,
        "WFWAH": 1819.3,
        "WSWAH": 3260.6,
        "WSCWAH": 5079.9,
        "CHTD": {
            "2003168": 0.33,
            "2003176": 0.44,
            "2003189": 0.76,
            "2003209": 0.96,
            "2003217": 1.02,
            "2003233": 1.09,
            "2003259": 1.16,
            "2003287": 1.12
        },
        "CWID": {
            "2003168": 0.45,
            "2003176": 0.56,
            "2003189": 0.83,
            "2003209": 1.01,
            "2003217": 0.97,
            "2003233": 0.99,
            "2003259": 0.87,
            "2003287": 0.88
        },
        "tids": [
            "6442f7dd8ac54733708dafb3"
        ]
    },
    "_id": "6442e2658ac5472f1c3e41b2",
    "pid": "6442e2658ac5472f1c3e41b2"
}{
    "type": "Feature",
    "geometry": {
        "type": "Polygon",
        "coordinates": [
            [
                [
                    -111.97124735,
                    33.06744902
                ],
                [
                    -111.97124701,
                    33.06763012
                ],
                [
                    -111.97113787,
                    33.06762909
                ],
                [
                    -111.97113813,
                    33.0674483
                ],
                [
                    -111.97124735,
                    33.06744902
                ]
            ]
        ]
    },
    "properties": {
        "plt_label": "p206",
        "trt_label": "NSL",
        "PLT_AREA": 204.476954,
        "CUL_NAME": "Deltapine 458 B/RR",
        "PDATE": "04/08/2003",
        "IRVAL": {
            "2003106": 134.0,
            "2003108": 73.0,
            "2003112": 68.0,
            "2003129": 82.0,
            "2003149": 63.0,
            "2003166": 85.0,
            "2003182": 126.0,
            "2003194": 133.0,
            "2003204": 124.0,
            "2003216": 118.0,
            "2003227": 109.0,
            "2003240": 60.0
        },
        "HARM": "Hand",
        "HADAT": "10/16/2003",
        "WBWAH": 4952.5,
        "GNDAT": "10/30/2002",
        "FFRAC": 0.3506,
        "SFRAC": 0.5978,
        "TFRAC": 0.0516,
        "WFWAH": 1736.3,
        "WSWAH": 2960.7,
        "WSCWAH": 4697.0,
        "CHTD": {
            "2003168": 0.32,
            "2003176": 0.46,
            "2003189": 0.65,
            "2003209": 0.8,
            "2003217": 0.9,
            "2003233": 0.99,
            "2003259": 1.14,
            "2003287": 1.11
        },
        "CWID": {
            "2003168": 0.41,
            "2003176": 0.56,
            "2003189": 0.68,
            "2003209": 0.8,
            "2003217": 0.87,
            "2003233": 0.9,
            "2003259": 0.96,
            "2003287": 0.84
        },
        "tids": [
            "6442f7dd8ac54733708dafb4"
        ]
    },
    "_id": "6442e2658ac5472f1c3e41b3",
    "pid": "6442e2658ac5472f1c3e41b3"
}{
    "type": "Feature",
    "geometry": {
        "type": "Polygon",
        "coordinates": [
            [
                [
                    -111.97111702,
                    33.06744742
                ],
                [
                    -111.97111714,
                    33.06762914
                ],
                [
                    -111.97100845,
                    33.06762829
                ],
                [
                    -111.97100842,
                    33.0674467
                ],
                [
                    -111.97111702,
                    33.06744742
                ]
            ]
        ]
    },
    "properties": {
        "plt_label": "p207",
        "trt_label": "FTL",
        "PLT_AREA": 204.27731,
        "CUL_NAME": "Deltapine 458 B/RR",
        "PDATE": "04/08/2003",
        "IRVAL": {
            "2003106": 145.0,
            "2003108": 68.0,
            "2003112": 64.5,
            "2003129": 82.0,
            "2003148": 63.0,
            "2003161": 85.0,
            "2003174": 113.0,
            "2003185": 123.0,
            "2003195": 122.0,
            "2003206": 128.0,
            "2003219": 120.0,
            "2003232": 107.0
        },
        "HARM": "Hand",
        "HADAT": "10/16/2003",
        "WBWAH": 4763.2,
        "GNDAT": "10/30/2002",
        "FFRAC": 0.3662,
        "SFRAC": 0.5994,
        "TFRAC": 0.0345,
        "WFWAH": 1744.2,
        "WSWAH": 2855.0,
        "WSCWAH": 4599.1,
        "CHTD": {
            "2003168": 0.41,
            "2003176": 0.52,
            "2003189": 0.82,
            "2003209": 0.91,
            "2003217": 0.98,
            "2003233": 1.09,
            "2003259": 1.08,
            "2003287": 1.1
        },
        "CWID": {
            "2003168": 0.56,
            "2003176": 0.67,
            "2003189": 0.84,
            "2003209": 1.01,
            "2003217": 0.95,
            "2003233": 0.97,
            "2003259": 0.96,
            "2003287": 0.84
        },
        "tids": [
            "6442f7dd8ac54733708dafb5"
        ]
    },
    "_id": "6442e2658ac5472f1c3e41b4",
    "pid": "6442e2658ac5472f1c3e41b4"
}{
    "type": "Feature",
    "geometry": {
        "type": "Polygon",
        "coordinates": [
            [
                [
                    -111.97098733,
                    33.06744739
                ],
                [
                    -111.97098686,
                    33.06762807
                ],
                [
                    -111.97087823,
                    33.06762692
                ],
                [
                    -111.97087884,
                    33.06744599
                ],
                [
                    -111.97098733,
                    33.06744739
                ]
            ]
        ]
    },
    "properties": {
        "plt_label": "p208",
        "trt_label": "FSL",
        "PLT_AREA": 203.169654,
        "CUL_NAME": "Deltapine 458 B/RR",
        "PDATE": "04/08/2003",
        "IRVAL": {
            "2003106": 144.0,
            "2003108": 62.0,
            "2003112": 66.3,
            "2003129": 82.0,
            "2003148": 63.0,
            "2003161": 85.0,
            "2003174": 113.0,
            "2003185": 123.0,
            "2003195": 121.0,
            "2003206": 125.0,
            "2003219": 120.0,
            "2003232": 107.0
        },
        "HARM": "Hand",
        "HADAT": "10/16/2003",
        "WBWAH": 4336.3,
        "GNDAT": "10/30/2002",
        "FFRAC": 0.3601,
        "SFRAC": 0.5982,
        "TFRAC": 0.0417,
        "WFWAH": 1561.5,
        "WSWAH": 2594.0,
        "WSCWAH": 4155.5,
        "CHTD": {
            "2003168": 0.31,
            "2003176": 0.42,
            "2003189": 0.69,
            "2003209": 0.8,
            "2003217": 0.88,
            "2003233": 0.89,
            "2003259": 1.09,
            "2003287": 1.05
        },
        "CWID": {
            "2003168": 0.4,
            "2003176": 0.52,
            "2003189": 0.77,
            "2003209": 0.91,
            "2003217": 0.91,
            "2003233": 0.91,
            "2003259": 0.92,
            "2003287": 0.86
        },
        "tids": [
            "6442f7dd8ac54733708dafb6"
        ]
    },
    "_id": "6442e2658ac5472f1c3e41b5",
    "pid": "6442e2658ac5472f1c3e41b5"
}{
    "type": "Feature",
    "geometry": {
        "type": "Polygon",
        "coordinates": [
            [
                [
                    -111.97189871,
                    33.06718536
                ],
                [
                    -111.97189851,
                    33.06736598
                ],
                [
                    -111.97178995,
                    33.06736528
                ],
                [
                    -111.97179025,
                    33.06718443
                ],
                [
                    -111.97189871,
                    33.06718536
                ]
            ]
        ]
    },
    "properties": {
        "plt_label": "p301",
        "trt_label": "NTL",
        "PLT_AREA": 202.995797,
        "CUL_NAME": "Deltapine 458 B/RR",
        "PDATE": "04/08/2003",
        "IRVAL": {
            "2003106": 148.0,
            "2003108": 82.0,
            "2003112": 64.0,
            "2003129": 84.0,
            "2003148": 63.0,
            "2003163": 86.0,
            "2003177": 105.0,
            "2003185": 102.0,
            "2003195": 124.0,
            "2003206": 126.0,
            "2003219": 124.0,
            "2003232": 107.0
        },
        "HARM": "Hand",
        "HADAT": "10/17/2003",
        "WBWAH": 4626.8,
        "GNDAT": "10/30/2002",
        "FFRAC": 0.3697,
        "SFRAC": 0.6046,
        "TFRAC": 0.0257,
        "WFWAH": 1710.6,
        "WSWAH": 2797.4,
        "WSCWAH": 4508.0,
        "CHTD": {
            "2003168": 0.4,
            "2003176": 0.48,
            "2003189": 0.77,
            "2003209": 0.89,
            "2003217": 1.0,
            "2003233": 0.9,
            "2003259": 1.01,
            "2003287": 0.97
        },
        "CWID": {
            "2003168": 0.51,
            "2003176": 0.59,
            "2003189": 0.81,
            "2003209": 1.01,
            "2003217": 0.93,
            "2003233": 1.02,
            "2003259": 0.95,
            "2003287": 0.86
        },
        "tids": [
            "6442f7dd8ac54733708dafb7"
        ]
    },
    "_id": "6442e2658ac5472f1c3e41b6",
    "pid": "6442e2658ac5472f1c3e41b6"
}{
    "type": "Feature",
    "geometry": {
        "type": "Polygon",
        "coordinates": [
            [
                [
                    -111.97176825,
                    33.06718449
                ],
                [
                    -111.97176792,
                    33.06736533
                ],
                [
                    -111.97165864,
                    33.06736433
                ],
                [
                    -111.97165929,
                    33.06718372
                ],
                [
                    -111.97176825,
                    33.06718449
                ]
            ]
        ]
    },
    "properties": {
        "plt_label": "p302",
        "trt_label": "FTL",
        "PLT_AREA": 204.11444,
        "CUL_NAME": "Deltapine 458 B/RR",
        "PDATE": "04/08/2003",
        "IRVAL": {
            "2003106": 151.5,
            "2003108": 64.5,
            "2003112": 67.0,
            "2003129": 82.0,
            "2003148": 63.0,
            "2003161": 85.0,
            "2003174": 113.0,
            "2003185": 123.0,
            "2003195": 122.0,
            "2003206": 125.0,
            "2003219": 120.0,
            "2003232": 107.0
        },
        "HARM": "Hand",
        "HADAT": "10/17/2003",
        "WBWAH": 4415.2,
        "GNDAT": "10/30/2002",
        "FFRAC": 0.3702,
        "SFRAC": 0.5936,
        "TFRAC": 0.0362,
        "WFWAH": 1634.7,
        "WSWAH": 2620.9,
        "WSCWAH": 4255.6,
        "CHTD": {
            "2003168": 0.36,
            "2003176": 0.48,
            "2003189": 0.77,
            "2003209": 0.84,
            "2003217": 0.93,
            "2003233": 0.96,
            "2003259": 1.04,
            "2003287": 1.05
        },
        "CWID": {
            "2003168": 0.48,
            "2003176": 0.57,
            "2003189": 0.76,
            "2003209": 0.84,
            "2003217": 0.91,
            "2003233": 0.97,
            "2003259": 0.85,
            "2003287": 0.72
        },
        "tids": [
            "6442f7dd8ac54733708dafb8"
        ]
    },
    "_id": "6442e2658ac5472f1c3e41b7",
    "pid": "6442e2658ac5472f1c3e41b7"
}{
    "type": "Feature",
    "geometry": {
        "type": "Polygon",
        "coordinates": [
            [
                [
                    -111.97163782,
                    33.06718357
                ],
                [
                    -111.97163833,
                    33.06736355
                ],
                [
                    -111.97152876,
                    33.06736374
                ],
                [
                    -111.97152902,
                    33.06718309
                ],
                [
                    -111.97163782,
                    33.06718357
                ]
            ]
        ]
    },
    "properties": {
        "plt_label": "p303",
        "trt_label": "NSL",
        "PLT_AREA": 203.778845,
        "CUL_NAME": "Deltapine 458 B/RR",
        "PDATE": "04/08/2003",
        "IRVAL": {
            "2003106": 149.0,
            "2003108": 71.0,
            "2003112": 65.0,
            "2003129": 82.0,
            "2003149": 63.0,
            "2003166": 85.0,
            "2003182": 125.0,
            "2003194": 138.0,
            "2003204": 123.0,
            "2003216": 119.0,
            "2003227": 114.0,
            "2003240": 60.0
        },
        "HARM": "Hand",
        "HADAT": "10/17/2003",
        "WBWAH": 5101.2,
        "GNDAT": "10/30/2002",
        "FFRAC": 0.348,
        "SFRAC": 0.6038,
        "TFRAC": 0.0483,
        "WFWAH": 1775.1,
        "WSWAH": 3079.9,
        "WSCWAH": 4855.0,
        "CHTD": {
            "2003168": 0.34,
            "2003176": 0.5,
            "2003189": 0.66,
            "2003209": 0.85,
            "2003217": 0.92,
            "2003233": 1.03,
            "2003259": 1.03,
            "2003287": 0.99
        },
        "CWID": {
            "2003168": 0.45,
            "2003176": 0.61,
            "2003189": 0.79,
            "2003209": 0.86,
            "2003217": 0.94,
            "2003233": 0.97,
            "2003259": 0.84,
            "2003287": 0.8
        },
        "tids": [
            "6442f7dd8ac54733708dafb9"
        ]
    },
    "_id": "6442e2658ac5472f1c3e41b8",
    "pid": "6442e2658ac5472f1c3e41b8"
}{
    "type": "Feature",
    "geometry": {
        "type": "Polygon",
        "coordinates": [
            [
                [
                    -111.97150846,
                    33.06718295
                ],
                [
                    -111.97150811,
                    33.06736367
                ],
                [
                    -111.97139918,
                    33.06736298
                ],
                [
                    -111.97139915,
                    33.06718212
                ],
                [
                    -111.97150846,
                    33.06718295
                ]
            ]
        ]
    },
    "properties": {
        "plt_label": "p304",
        "trt_label": "FSL",
        "PLT_AREA": 204.202609,
        "CUL_NAME": "Deltapine 458 B/RR",
        "PDATE": "04/08/2003",
        "IRVAL": {
            "2003106": 160.0,
            "2003108": 71.0,
            "2003112": 62.0,
            "2003129": 82.0,
            "2003148": 63.0,
            "2003161": 85.0,
            "2003174": 113.0,
            "2003185": 123.0,
            "2003195": 122.0,
            "2003206": 125.0,
            "2003219": 120.0,
            "2003232": 107.0
        },
        "HARM": "Hand",
        "HADAT": "10/17/2003",
        "WBWAH": 4679.8,
        "GNDAT": "10/30/2002",
        "FFRAC": 0.3663,
        "SFRAC": 0.607,
        "TFRAC": 0.0266,
        "WFWAH": 1714.4,
        "WSWAH": 2840.7,
        "WSCWAH": 4555.1,
        "CHTD": {
            "2003168": 0.33,
            "2003176": 0.45,
            "2003189": 0.72,
            "2003209": 0.84,
            "2003217": 0.94,
            "2003233": 0.93,
            "2003259": 1.0,
            "2003287": 0.99
        },
        "CWID": {
            "2003168": 0.45,
            "2003176": 0.53,
            "2003189": 0.81,
            "2003209": 0.91,
            "2003217": 0.89,
            "2003233": 0.95,
            "2003259": 0.94,
            "2003287": 0.84
        },
        "tids": [
            "6442f7dd8ac54733708dafba"
        ]
    },
    "_id": "6442e2658ac5472f1c3e41b9",
    "pid": "6442e2658ac5472f1c3e41b9"
}{
    "type": "Feature",
    "geometry": {
        "type": "Polygon",
        "coordinates": [
            [
                [
                    -111.97137766,
                    33.06718225
                ],
                [
                    -111.97137756,
                    33.06736292
                ],
                [
                    -111.97126839,
                    33.06736223
                ],
                [
                    -111.97126862,
                    33.06718142
                ],
                [
                    -111.97137766,
                    33.06718225
                ]
            ]
        ]
    },
    "properties": {
        "plt_label": "p305",
        "trt_label": "NDH",
        "PLT_AREA": 204.117879,
        "CUL_NAME": "Deltapine 458 B/RR",
        "PDATE": "04/08/2003",
        "IRVAL": {
            "2003106": 134.0,
            "2003108": 57.0,
            "2003112": 64.0,
            "2003129": 82.0,
            "2003143": 55.0,
            "2003155": 71.0,
            "2003165": 90.0,
            "2003176": 113.0,
            "2003185": 116.0,
            "2003195": 123.0,
            "2003206": 127.0,
            "2003219": 124.0,
            "2003232": 109.0
        },
        "HARM": "Hand",
        "HADAT": "10/17/2003",
        "WBWAH": 4798.7,
        "GNDAT": "10/30/2002",
        "FFRAC": 0.3641,
        "SFRAC": 0.5895,
        "TFRAC": 0.0464,
        "WFWAH": 1747.3,
        "WSWAH": 2829.0,
        "WSCWAH": 4576.3,
        "CHTD": {
            "2003168": 0.37,
            "2003176": 0.52,
            "2003189": 0.81,
            "2003209": 0.94,
            "2003217": 1.05,
            "2003233": 1.14,
            "2003259": 1.22,
            "2003287": 1.2
        },
        "CWID": {
            "2003168": 0.7,
            "2003176": 0.77,
            "2003189": 0.96,
            "2003209": 1.07,
            "2003217": 1.01,
            "2003233": 1.0,
            "2003259": 0.92,
            "2003287": 0.92
        },
        "tids": [
            "6442f7dd8ac54733708dafbb"
        ]
    },
    "_id": "6442e2658ac5472f1c3e41ba",
    "pid": "6442e2658ac5472f1c3e41ba"
}{
    "type": "Feature",
    "geometry": {
        "type": "Polygon",
        "coordinates": [
            [
                [
                    -111.97124791,
                    33.06718115
                ],
                [
                    -111.97124768,
                    33.06736196
                ],
                [
                    -111.9711386,
                    33.06736142
                ],
                [
                    -111.97113878,
                    33.0671807
                ],
                [
                    -111.97124791,
                    33.06718115
                ]
            ]
        ]
    },
    "properties": {
        "plt_label": "p306",
        "trt_label": "FTL",
        "PLT_AREA": 204.140854,
        "CUL_NAME": "Deltapine 458 B/RR",
        "PDATE": "04/08/2003",
        "IRVAL": {
            "2003106": 133.0,
            "2003108": 69.0,
            "2003112": 59.0,
            "2003129": 82.0,
            "2003148": 63.0,
            "2003161": 85.0,
            "2003174": 113.0,
            "2003185": 123.0,
            "2003195": 122.0,
            "2003206": 125.0,
            "2003219": 120.0,
            "2003232": 107.0
        },
        "HARM": "Hand",
        "HADAT": "10/17/2003",
        "WBWAH": 4404.6,
        "GNDAT": "10/30/2002",
        "FFRAC": 0.3699,
        "SFRAC": 0.6021,
        "TFRAC": 0.0279,
        "WFWAH": 1629.4,
        "WSWAH": 2652.2,
        "WSCWAH": 4281.6,
        "CHTD": {
            "2003168": 0.39,
            "2003176": 0.48,
            "2003189": 0.74,
            "2003209": 0.88,
            "2003217": 0.94,
            "2003233": 0.93,
            "2003259": 1.0,
            "2003287": 0.98
        },
        "CWID": {
            "2003168": 0.51,
            "2003176": 0.61,
            "2003189": 0.79,
            "2003209": 0.93,
            "2003217": 0.9,
            "2003233": 0.96,
            "2003259": 0.9,
            "2003287": 0.83
        },
        "tids": [
            "6442f7dd8ac54733708dafbc"
        ]
    },
    "_id": "6442e2658ac5472f1c3e41bb",
    "pid": "6442e2658ac5472f1c3e41bb"
}{
    "type": "Feature",
    "geometry": {
        "type": "Polygon",
        "coordinates": [
            [
                [
                    -111.97111742,
                    33.06718047
                ],
                [
                    -111.97111747,
                    33.06736115
                ],
                [
                    -111.9710085,
                    33.06736058
                ],
                [
                    -111.97100872,
                    33.06717976
                ],
                [
                    -111.97111742,
                    33.06718047
                ]
            ]
        ]
    },
    "properties": {
        "plt_label": "p307",
        "trt_label": "NTH",
        "PLT_AREA": 203.606132,
        "CUL_NAME": "Deltapine 458 B/RR",
        "PDATE": "04/08/2003",
        "IRVAL": {
            "2003106": 129.0,
            "2003108": 69.0,
            "2003112": 60.0,
            "2003129": 80.0,
            "2003148": 64.0,
            "2003162": 85.0,
            "2003176": 111.0,
            "2003185": 102.0,
            "2003195": 123.0,
            "2003206": 128.0,
            "2003219": 125.0,
            "2003232": 108.0
        },
        "HARM": "Hand",
        "HADAT": "10/17/2003",
        "WBWAH": 4879.6,
        "GNDAT": "10/30/2002",
        "FFRAC": 0.3415,
        "SFRAC": 0.6047,
        "TFRAC": 0.0537,
        "WFWAH": 1666.6,
        "WSWAH": 2950.9,
        "WSCWAH": 4617.5,
        "CHTD": {
            "2003168": 0.38,
            "2003176": 0.46,
            "2003189": 0.8,
            "2003209": 0.94,
            "2003217": 0.96,
            "2003233": 1.09,
            "2003259": 1.2,
            "2003287": 1.14
        },
        "CWID": {
            "2003168": 0.51,
            "2003176": 0.59,
            "2003189": 0.83,
            "2003209": 0.99,
            "2003217": 0.98,
            "2003233": 0.99,
            "2003259": 0.95,
            "2003287": 0.89
        },
        "tids": [
            "6442f7dd8ac54733708dafbd"
        ]
    },
    "_id": "6442e2658ac5472f1c3e41bc",
    "pid": "6442e2658ac5472f1c3e41bc"
}{
    "type": "Feature",
    "geometry": {
        "type": "Polygon",
        "coordinates": [
            [
                [
                    -111.97098779,
                    33.06717959
                ],
                [
                    -111.97098742,
                    33.06736033
                ],
                [
                    -111.97087878,
                    33.06735984
                ],
                [
                    -111.97087912,
                    33.067179
                ],
                [
                    -111.97098779,
                    33.06717959
                ]
            ]
        ]
    },
    "properties": {
        "plt_label": "p308",
        "trt_label": "FDH",
        "PLT_AREA": 203.327836,
        "CUL_NAME": "Deltapine 458 B/RR",
        "PDATE": "04/08/2003",
        "IRVAL": {
            "2003106": 153.0,
            "2003108": 55.0,
            "2003112": 54.0,
            "2003129": 82.0,
            "2003148": 63.0,
            "2003161": 85.0,
            "2003174": 113.0,
            "2003185": 123.0,
            "2003195": 122.0,
            "2003206": 125.0,
            "2003219": 120.0,
            "2003232": 107.0
        },
        "HARM": "Hand",
        "HADAT": "10/17/2003",
        "WBWAH": 4931.9,
        "GNDAT": "10/30/2002",
        "FFRAC": 0.3598,
        "SFRAC": 0.6034,
        "TFRAC": 0.0367,
        "WFWAH": 1774.7,
        "WSWAH": 2976.0,
        "WSCWAH": 4750.7,
        "CHTD": {
            "2003168": 0.36,
            "2003176": 0.41,
            "2003189": 0.62,
            "2003209": 0.77,
            "2003217": 0.99,
            "2003233": 0.94,
            "2003259": 1.09,
            "2003287": 1.03
        },
        "CWID": {
            "2003168": 0.65,
            "2003176": 0.66,
            "2003189": 0.89,
            "2003209": 1.03,
            "2003217": 0.88,
            "2003233": 0.97,
            "2003259": 0.9,
            "2003287": 0.83
        },
        "tids": [
            "6442f7dd8ac54733708dafbe"
        ]
    },
    "_id": "6442e2658ac5472f1c3e41bd",
    "pid": "6442e2658ac5472f1c3e41bd"
}{
    "type": "Feature",
    "geometry": {
        "type": "Polygon",
        "coordinates": [
            [
                [
                    -111.97189927,
                    33.06698278
                ],
                [
                    -111.97189884,
                    33.06716405
                ],
                [
                    -111.97178999,
                    33.06716353
                ],
                [
                    -111.97179071,
                    33.06698206
                ],
                [
                    -111.97189927,
                    33.06698278
                ]
            ]
        ]
    },
    "properties": {
        "plt_label": "p401",
        "trt_label": "NSH",
        "PLT_AREA": 204.072623,
        "CUL_NAME": "Deltapine 458 B/RR",
        "PDATE": "04/08/2003",
        "IRVAL": {
            "2003106": 136.0,
            "2003108": 71.0,
            "2003112": 66.0,
            "2003129": 82.0,
            "2003149": 63.0,
            "2003168": 89.0,
            "2003185": 130.0,
            "2003199": 132.0,
            "2003210": 124.0,
            "2003223": 130.0,
            "2003237": 80.0
        },
        "HARM": "Hand",
        "HADAT": "10/20/2003",
        "WBWAH": 3771.4,
        "GNDAT": "10/30/2002",
        "FFRAC": 0.3281,
        "SFRAC": 0.6163,
        "TFRAC": 0.0556,
        "WFWAH": 1237.5,
        "WSWAH": 2324.3,
        "WSCWAH": 3561.8,
        "CHTD": {
            "2003168": 0.29,
            "2003176": 0.37,
            "2003189": 0.58,
            "2003209": 0.67,
            "2003217": 0.81,
            "2003233": 0.96,
            "2003259": 1.16,
            "2003287": 1.14
        },
        "CWID": {
            "2003168": 0.38,
            "2003176": 0.44,
            "2003189": 0.62,
            "2003209": 0.67,
            "2003217": 0.82,
            "2003233": 0.92,
            "2003259": 0.91,
            "2003287": 0.79
        },
        "tids": [
            "6442f7dd8ac54733708dafbf"
        ]
    },
    "_id": "6442e2658ac5472f1c3e41be",
    "pid": "6442e2658ac5472f1c3e41be"
}{
    "type": "Feature",
    "geometry": {
        "type": "Polygon",
        "coordinates": [
            [
                [
                    -111.97176857,
                    33.06698192
                ],
                [
                    -111.97176828,
                    33.06716327
                ],
                [
                    -111.97165962,
                    33.06716249
                ],
                [
                    -111.97165961,
                    33.0669813
                ],
                [
                    -111.97176857,
                    33.06698192
                ]
            ]
        ]
    },
    "properties": {
        "plt_label": "p402",
        "trt_label": "NTH",
        "PLT_AREA": 204.155775,
        "CUL_NAME": "Deltapine 458 B/RR",
        "PDATE": "04/08/2003",
        "IRVAL": {
            "2003106": 137.0,
            "2003108": 72.0,
            "2003112": 67.0,
            "2003129": 82.0,
            "2003148": 63.0,
            "2003164": 85.0,
            "2003178": 111.0,
            "2003188": 113.0,
            "2003199": 123.0,
            "2003210": 123.0,
            "2003223": 126.0,
            "2003237": 85.0
        },
        "HARM": "Hand",
        "HADAT": "10/20/2003",
        "WBWAH": 4578.4,
        "GNDAT": "10/30/2002",
        "FFRAC": 0.3486,
        "SFRAC": 0.6201,
        "TFRAC": 0.0312,
        "WFWAH": 1596.1,
        "WSWAH": 2839.2,
        "WSCWAH": 4435.3,
        "CHTD": {
            "2003168": 0.31,
            "2003176": 0.42,
            "2003189": 0.67,
            "2003209": 0.8,
            "2003217": 0.96,
            "2003233": 0.99,
            "2003259": 1.16,
            "2003287": 1.11
        },
        "CWID": {
            "2003168": 0.53,
            "2003176": 0.57,
            "2003189": 0.75,
            "2003209": 0.86,
            "2003217": 0.91,
            "2003233": 0.98,
            "2003259": 0.99,
            "2003287": 0.88
        },
        "tids": [
            "6442f7dd8ac54733708dafc0"
        ]
    },
    "_id": "6442e2658ac5472f1c3e41bf",
    "pid": "6442e2658ac5472f1c3e41bf"
}{
    "type": "Feature",
    "geometry": {
        "type": "Polygon",
        "coordinates": [
            [
                [
                    -111.97163785,
                    33.06698119
                ],
                [
                    -111.97163778,
                    33.06716266
                ],
                [
                    -111.97152915,
                    33.06716184
                ],
                [
                    -111.97152938,
                    33.06698051
                ],
                [
                    -111.97163785,
                    33.06698119
                ]
            ]
        ]
    },
    "properties": {
        "plt_label": "p403",
        "trt_label": "FDL",
        "PLT_AREA": 203.819024,
        "CUL_NAME": "Deltapine 458 B/RR",
        "PDATE": "04/08/2003",
        "IRVAL": {
            "2003106": 134.0,
            "2003108": 69.0,
            "2003112": 61.3,
            "2003129": 82.0,
            "2003148": 63.0,
            "2003161": 85.0,
            "2003174": 113.0,
            "2003185": 123.0,
            "2003195": 122.0,
            "2003206": 125.0,
            "2003219": 120.0,
            "2003232": 107.0
        },
        "HARM": "Hand",
        "HADAT": "10/20/2003",
        "WBWAH": 4325.7,
        "GNDAT": "10/30/2002",
        "FFRAC": 0.3789,
        "SFRAC": 0.5938,
        "TFRAC": 0.0273,
        "WFWAH": 1639.0,
        "WSWAH": 2568.7,
        "WSCWAH": 4207.7,
        "CHTD": {
            "2003168": 0.29,
            "2003176": 0.39,
            "2003189": 0.69,
            "2003209": 0.8,
            "2003217": 1.0,
            "2003233": 0.91,
            "2003259": 1.0,
            "2003287": 0.95
        },
        "CWID": {
            "2003168": 0.65,
            "2003176": 0.68,
            "2003189": 0.83,
            "2003209": 1.02,
            "2003217": 0.85,
            "2003233": 1.0,
            "2003259": 0.94,
            "2003287": 0.79
        },
        "tids": [
            "6442f7dd8ac54733708dafc1"
        ]
    },
    "_id": "6442e2658ac5472f1c3e41c0",
    "pid": "6442e2658ac5472f1c3e41c0"
}{
    "type": "Feature",
    "geometry": {
        "type": "Polygon",
        "coordinates": [
            [
                [
                    -111.97150884,
                    33.06698042
                ],
                [
                    -111.97150841,
                    33.06716169
                ],
                [
                    -111.97139938,
                    33.06716109
                ],
                [
                    -111.97139979,
                    33.06697976
                ],
                [
                    -111.97150884,
                    33.06698042
                ]
            ]
        ]
    },
    "properties": {
        "plt_label": "p404",
        "trt_label": "FTH",
        "PLT_AREA": 204.619541,
        "CUL_NAME": "Deltapine 458 B/RR",
        "PDATE": "04/08/2003",
        "IRVAL": {
            "2003106": 137.0,
            "2003108": 72.6,
            "2003112": 64.6,
            "2003129": 82.0,
            "2003148": 63.0,
            "2003161": 85.0,
            "2003174": 113.0,
            "2003185": 123.0,
            "2003195": 122.0,
            "2003206": 125.0,
            "2003219": 120.0,
            "2003232": 107.0
        },
        "HARM": "Hand",
        "HADAT": "10/20/2003",
        "WBWAH": 5170.6,
        "GNDAT": "10/30/2002",
        "FFRAC": 0.3481,
        "SFRAC": 0.6012,
        "TFRAC": 0.0507,
        "WFWAH": 1799.8,
        "WSWAH": 3108.4,
        "WSCWAH": 4908.2,
        "CHTD": {
            "2003168": 0.36,
            "2003176": 0.45,
            "2003189": 0.76,
            "2003209": 0.88,
            "2003217": 0.98,
            "2003233": 1.03,
            "2003259": 1.2,
            "2003287": 1.15
        },
        "CWID": {
            "2003168": 0.5,
            "2003176": 0.57,
            "2003189": 0.82,
            "2003209": 1.01,
            "2003217": 0.99,
            "2003233": 1.0,
            "2003259": 0.83,
            "2003287": 0.81
        },
        "tids": [
            "6442f7dd8ac54733708dafc2"
        ]
    },
    "_id": "6442e2658ac5472f1c3e41c1",
    "pid": "6442e2658ac5472f1c3e41c1"
}{
    "type": "Feature",
    "geometry": {
        "type": "Polygon",
        "coordinates": [
            [
                [
                    -111.97137787,
                    33.06697965
                ],
                [
                    -111.97137793,
                    33.06716106
                ],
                [
                    -111.97126889,
                    33.06716041
                ],
                [
                    -111.97126917,
                    33.06697904
                ],
                [
                    -111.97137787,
                    33.06697965
                ]
            ]
        ]
    },
    "properties": {
        "plt_label": "p405",
        "trt_label": "FDL",
        "PLT_AREA": 204.392287,
        "CUL_NAME": "Deltapine 458 B/RR",
        "PDATE": "04/08/2003",
        "IRVAL": {
            "2003106": 136.0,
            "2003108": 69.0,
            "2003112": 64.5,
            "2003129": 82.0,
            "2003148": 63.0,
            "2003161": 85.0,
            "2003174": 113.0,
            "2003185": 123.0,
            "2003195": 122.0,
            "2003206": 125.0,
            "2003219": 120.0,
            "2003232": 107.0
        },
        "HARM": "Hand",
        "HADAT": "10/20/2003",
        "WBWAH": 4250.9,
        "GNDAT": "10/30/2002",
        "FFRAC": 0.3728,
        "SFRAC": 0.5864,
        "TFRAC": 0.0408,
        "WFWAH": 1584.7,
        "WSWAH": 2492.6,
        "WSCWAH": 4077.3,
        "CHTD": {
            "2003168": 0.34,
            "2003176": 0.4,
            "2003189": 0.66,
            "2003209": 0.73,
            "2003217": 0.98,
            "2003233": 0.81,
            "2003259": 0.82,
            "2003287": 0.83
        },
        "CWID": {
            "2003168": 0.69,
            "2003176": 0.74,
            "2003189": 0.84,
            "2003209": 0.99,
            "2003217": 0.81,
            "2003233": 1.01,
            "2003259": 0.94,
            "2003287": 0.75
        },
        "tids": [
            "6442f7dd8ac54733708dafc3"
        ]
    },
    "_id": "6442e2658ac5472f1c3e41c2",
    "pid": "6442e2658ac5472f1c3e41c2"
}{
    "type": "Feature",
    "geometry": {
        "type": "Polygon",
        "coordinates": [
            [
                [
                    -111.97124854,
                    33.06697889
                ],
                [
                    -111.97124802,
                    33.06716014
                ],
                [
                    -111.97113878,
                    33.06715958
                ],
                [
                    -111.97113917,
                    33.06697827
                ],
                [
                    -111.97124854,
                    33.06697889
                ]
            ]
        ]
    },
    "properties": {
        "plt_label": "p406",
        "trt_label": "FTH",
        "PLT_AREA": 205.092754,
        "CUL_NAME": "Deltapine 458 B/RR",
        "PDATE": "04/08/2003",
        "IRVAL": {
            "2003106": 134.0,
            "2003108": 75.8,
            "2003112": 85.5,
            "2003129": 82.0,
            "2003148": 63.0,
            "2003161": 85.0,
            "2003174": 113.0,
            "2003185": 123.0,
            "2003195": 122.0,
            "2003206": 125.0,
            "2003219": 120.0,
            "2003232": 107.0
        },
        "HARM": "Hand",
        "HADAT": "10/20/2003",
        "WBWAH": 5459.5,
        "GNDAT": "10/30/2002",
        "FFRAC": 0.3512,
        "SFRAC": 0.6004,
        "TFRAC": 0.0485,
        "WFWAH": 1917.2,
        "WSWAH": 3277.8,
        "WSCWAH": 5194.9,
        "CHTD": {
            "2003168": 0.34,
            "2003176": 0.47,
            "2003189": 0.79,
            "2003209": 0.89,
            "2003217": 0.99,
            "2003233": 1.1,
            "2003259": 1.16,
            "2003287": 1.12
        },
        "CWID": {
            "2003168": 0.56,
            "2003176": 0.6,
            "2003189": 0.83,
            "2003209": 1.03,
            "2003217": 1.0,
            "2003233": 1.0,
            "2003259": 0.87,
            "2003287": 0.82
        },
        "tids": [
            "6442f7dd8ac54733708dafc4"
        ]
    },
    "_id": "6442e2658ac5472f1c3e41c3",
    "pid": "6442e2658ac5472f1c3e41c3"
}{
    "type": "Feature",
    "geometry": {
        "type": "Polygon",
        "coordinates": [
            [
                [
                    -111.97111743,
                    33.06697809
                ],
                [
                    -111.97111743,
                    33.06715955
                ],
                [
                    -111.97100884,
                    33.06715885
                ],
                [
                    -111.97100897,
                    33.06697756
                ],
                [
                    -111.97111743,
                    33.06697809
                ]
            ]
        ]
    },
    "properties": {
        "plt_label": "p407",
        "trt_label": "NSH",
        "PLT_AREA": 203.733882,
        "CUL_NAME": "Deltapine 458 B/RR",
        "PDATE": "04/08/2003",
        "IRVAL": {
            "2003106": 128.0,
            "2003108": 55.0,
            "2003112": 65.0,
            "2003129": 82.0,
            "2003149": 63.0,
            "2003168": 86.0,
            "2003185": 130.0,
            "2003197": 126.0,
            "2003207": 123.0,
            "2003220": 125.0,
            "2003235": 108.0
        },
        "HARM": "Hand",
        "HADAT": "10/20/2003",
        "WBWAH": 4906.0,
        "GNDAT": "10/30/2002",
        "FFRAC": NaN,
        "SFRAC": NaN,
        "TFRAC": NaN,
        "WFWAH": NaN,
        "WSWAH": NaN,
        "WSCWAH": NaN,
        "CHTD": {
            "2003168": 0.28,
            "2003176": 0.42,
            "2003189": 0.6,
            "2003209": 0.75,
            "2003217": 0.86,
            "2003233": 0.95,
            "2003259": 1.13,
            "2003287": 1.09
        },
        "CWID": {
            "2003168": 0.42,
            "2003176": 0.53,
            "2003189": 0.68,
            "2003209": 0.9,
            "2003217": 0.84,
            "2003233": 0.92,
            "2003259": 0.93,
            "2003287": 0.84
        },
        "tids": [
            "6442f7dd8ac54733708dafc5"
        ]
    },
    "_id": "6442e2658ac5472f1c3e41c4",
    "pid": "6442e2658ac5472f1c3e41c4"
}{
    "type": "Feature",
    "geometry": {
        "type": "Polygon",
        "coordinates": [
            [
                [
                    -111.97098793,
                    33.06697743
                ],
                [
                    -111.97098756,
                    33.06715849
                ],
                [
                    -111.97087917,
                    33.06715795
                ],
                [
                    -111.97087944,
                    33.06697674
                ],
                [
                    -111.97098793,
                    33.06697743
                ]
            ]
        ]
    },
    "properties": {
        "plt_label": "p408",
        "trt_label": "NTL",
        "PLT_AREA": 203.306611,
        "CUL_NAME": "Deltapine 458 B/RR",
        "PDATE": "04/08/2003",
        "IRVAL": {
            "2003106": 145.0,
            "2003108": 61.0,
            "2003112": 54.0,
            "2003129": 82.0,
            "2003148": 61.0,
            "2003164": 85.0,
            "2003178": 111.0,
            "2003188": 111.0,
            "2003199": 125.0,
            "2003210": 125.0,
            "2003223": 129.0,
            "2003237": 85.0
        },
        "HARM": "Hand",
        "HADAT": "10/20/2003",
        "WBWAH": 4619.9,
        "GNDAT": "10/30/2002",
        "FFRAC": 0.3622,
        "SFRAC": 0.5902,
        "TFRAC": 0.0476,
        "WFWAH": 1673.5,
        "WSWAH": 2726.6,
        "WSCWAH": 4400.1,
        "CHTD": {
            "2003168": 0.35,
            "2003176": 0.49,
            "2003189": 0.73,
            "2003209": 0.81,
            "2003217": 0.91,
            "2003233": 0.99,
            "2003259": 1.13,
            "2003287": 1.08
        },
        "CWID": {
            "2003168": 0.49,
            "2003176": 0.57,
            "2003189": 0.75,
            "2003209": 0.89,
            "2003217": 0.89,
            "2003233": 0.96,
            "2003259": 0.94,
            "2003287": 0.86
        },
        "tids": [
            "6442f7dd8ac54733708dafc6"
        ]
    },
    "_id": "6442e2658ac5472f1c3e41c5",
    "pid": "6442e2658ac5472f1c3e41c5"
}{
    "type": "Feature",
    "geometry": {
        "type": "Polygon",
        "coordinates": [
            [
                [
                    -111.97189843,
                    33.06743598
                ],
                [
                    -111.97178954,
                    33.06743558
                ],
                [
                    -111.97178982,
                    33.06739004
                ],
                [
                    -111.97189869,
                    33.06739037
                ],
                [
                    -111.97189843,
                    33.06743598
                ]
            ]
        ]
    },
    "properties": {
        "plt_label": "p901",
        "trt_label": "WS",
        "PLT_AREA": 51.362413,
        "CUL_NAME": "Deltapine 458 B/RR",
        "PDATE": "04/08/2003"
    },
    "_id": "6442e2658ac5472f1c3e41c6",
    "pid": "6442e2658ac5472f1c3e41c6"
}{
    "type": "Feature",
    "geometry": {
        "type": "Polygon",
        "coordinates": [
            [
                [
                    -111.97163729,
                    33.06743458
                ],
                [
                    -111.97152836,
                    33.06743423
                ],
                [
                    -111.97152874,
                    33.06738875
                ],
                [
                    -111.97163727,
                    33.06738953
                ],
                [
                    -111.97163729,
                    33.06743458
                ]
            ]
        ]
    },
    "properties": {
        "plt_label": "p903",
        "trt_label": "DS",
        "PLT_AREA": 50.937858,
        "CUL_NAME": "Deltapine 458 B/RR",
        "PDATE": "04/08/2003"
    },
    "_id": "6442e2658ac5472f1c3e41c7",
    "pid": "6442e2658ac5472f1c3e41c7"
}{
    "type": "Feature",
    "geometry": {
        "type": "Polygon",
        "coordinates": [
            [
                [
                    -111.97137729,
                    33.06743316
                ],
                [
                    -111.97126826,
                    33.06743254
                ],
                [
                    -111.97126833,
                    33.06738738
                ],
                [
                    -111.97137741,
                    33.06738802
                ],
                [
                    -111.97137729,
                    33.06743316
                ]
            ]
        ]
    },
    "properties": {
        "plt_label": "p905",
        "trt_label": "WS",
        "PLT_AREA": 50.969395,
        "CUL_NAME": "Deltapine 458 B/RR",
        "PDATE": "04/08/2003"
    },
    "_id": "6442e2658ac5472f1c3e41c8",
    "pid": "6442e2658ac5472f1c3e41c8"
}{
    "type": "Feature",
    "geometry": {
        "type": "Polygon",
        "coordinates": [
            [
                [
                    -111.97111718,
                    33.06743167
                ],
                [
                    -111.97100853,
                    33.0674309
                ],
                [
                    -111.97100854,
                    33.06738617
                ],
                [
                    -111.97111736,
                    33.06738677
                ],
                [
                    -111.97111718,
                    33.06743167
                ]
            ]
        ]
    },
    "properties": {
        "plt_label": "p907",
        "trt_label": "DS",
        "PLT_AREA": 50.441139,
        "CUL_NAME": "Deltapine 458 B/RR",
        "PDATE": "04/08/2003"
    },
    "_id": "6442e2658ac5472f1c3e41c9",
    "pid": "6442e2658ac5472f1c3e41c9"
}{
    "type": "Feature",
    "geometry": {
        "type": "Polygon",
        "coordinates": [
            [
                [
                    -111.97176788,
                    33.06743541
                ],
                [
                    -111.97165908,
                    33.06743482
                ],
                [
                    -111.97165903,
                    33.06738931
                ],
                [
                    -111.97176795,
                    33.06738967
                ],
                [
                    -111.97176788,
                    33.06743541
                ]
            ]
        ]
    },
    "properties": {
        "plt_label": "p902",
        "trt_label": "15-Jul",
        "PLT_AREA": 51.406468,
        "CUL_NAME": "Deltapine 458 B/RR",
        "PDATE": "04/08/2003",
        "HARM": "Hand",
        "HADAT": "10/20/2003",
        "WBWAH": 2237.1,
        "GNDAT": "10/30/2002",
        "FFRAC": 0.3488,
        "SFRAC": 0.5894,
        "TFRAC": 0.0618,
        "WFWAH": 780.3,
        "WSWAH": 1318.6,
        "WSCWAH": 2098.9,
        "CHTD": {
            "2003168": 0.35,
            "2003176": 0.43,
            "2003189": 0.62,
            "2003217": 0.83,
            "2003233": 0.74,
            "2003259": 0.76,
            "2003287": 0.81
        },
        "CWID": {
            "2003168": 0.47,
            "2003176": 0.58,
            "2003189": 0.73,
            "2003217": 0.7,
            "2003233": 0.83,
            "2003259": 0.85,
            "2003287": 0.69
        }
    },
    "_id": "6442e2658ac5472f1c3e41ca",
    "pid": "6442e2658ac5472f1c3e41ca"
}{
    "type": "Feature",
    "geometry": {
        "type": "Polygon",
        "coordinates": [
            [
                [
                    -111.97150789,
                    33.06743393
                ],
                [
                    -111.97139887,
                    33.06743331
                ],
                [
                    -111.97139903,
                    33.06738809
                ],
                [
                    -111.97150792,
                    33.06738858
                ],
                [
                    -111.97150789,
                    33.06743393
                ]
            ]
        ]
    },
    "properties": {
        "plt_label": "p904",
        "trt_label": "1-Jun",
        "PLT_AREA": 51.072626,
        "CUL_NAME": "Deltapine 458 B/RR",
        "PDATE": "04/08/2003",
        "HARM": "Hand",
        "HADAT": "10/20/2003",
        "WBWAH": 857.5,
        "GNDAT": "10/30/2002",
        "FFRAC": 0.3059,
        "SFRAC": 0.552,
        "TFRAC": 0.142,
        "WFWAH": 262.3,
        "WSWAH": 473.4,
        "WSCWAH": 735.7,
        "CHTD": {
            "2003168": 0.34,
            "2003176": 0.44,
            "2003189": 0.51,
            "2003217": 0.68,
            "2003233": 0.65,
            "2003259": 0.64,
            "2003287": 0.66
        },
        "CWID": {
            "2003168": 0.48,
            "2003176": 0.56,
            "2003189": 0.59,
            "2003217": 0.6,
            "2003233": 0.69,
            "2003259": 0.68,
            "2003287": 0.61
        }
    },
    "_id": "6442e2658ac5472f1c3e41cb",
    "pid": "6442e2658ac5472f1c3e41cb"
}{
    "type": "Feature",
    "geometry": {
        "type": "Polygon",
        "coordinates": [
            [
                [
                    -111.97124745,
                    33.06743245
                ],
                [
                    -111.97113831,
                    33.06743182
                ],
                [
                    -111.9711385,
                    33.06738703
                ],
                [
                    -111.97124745,
                    33.0673874
                ],
                [
                    -111.97124745,
                    33.06743245
                ]
            ]
        ]
    },
    "properties": {
        "plt_label": "p906",
        "trt_label": "15-Jul",
        "PLT_AREA": 50.698917,
        "CUL_NAME": "Deltapine 458 B/RR",
        "PDATE": "04/08/2003",
        "HARM": "Hand",
        "HADAT": "10/20/2003",
        "WBWAH": 2564.5,
        "GNDAT": "10/30/2002",
        "FFRAC": 0.3532,
        "SFRAC": 0.6118,
        "TFRAC": 0.035,
        "WFWAH": 905.8,
        "WSWAH": 1568.9,
        "WSCWAH": 2474.7,
        "CHTD": {
            "2003168": 0.35,
            "2003176": 0.43,
            "2003189": 0.68,
            "2003217": 0.9,
            "2003233": 0.82,
            "2003259": 0.85,
            "2003287": 0.83
        },
        "CWID": {
            "2003168": 0.45,
            "2003176": 0.56,
            "2003189": 0.76,
            "2003217": 0.81,
            "2003233": 0.88,
            "2003259": 0.87,
            "2003287": 0.8
        }
    },
    "_id": "6442e2658ac5472f1c3e41cc",
    "pid": "6442e2658ac5472f1c3e41cc"
}{
    "type": "Feature",
    "geometry": {
        "type": "Polygon",
        "coordinates": [
            [
                [
                    -111.97098734,
                    33.06743091
                ],
                [
                    -111.97087917,
                    33.06742994
                ],
                [
                    -111.97087867,
                    33.0673858
                ],
                [
                    -111.97098735,
                    33.06738633
                ],
                [
                    -111.97098734,
                    33.06743091
                ]
            ]
        ]
    },
    "properties": {
        "plt_label": "p908",
        "trt_label": "1-Jun",
        "PLT_AREA": 49.778117,
        "CUL_NAME": "Deltapine 458 B/RR",
        "PDATE": "04/08/2003",
        "HARM": "Hand",
        "HADAT": "10/20/2003",
        "WBWAH": 1181.4,
        "GNDAT": "10/30/2002",
        "FFRAC": 0.3285,
        "SFRAC": 0.6161,
        "TFRAC": 0.0554,
        "WFWAH": 388.1,
        "WSWAH": 727.8,
        "WSCWAH": 1115.9,
        "CHTD": {
            "2003168": 0.31,
            "2003176": 0.43,
            "2003189": 0.48,
            "2003217": 0.75,
            "2003233": 0.64,
            "2003259": 0.64,
            "2003287": 0.64
        },
        "CWID": {
            "2003168": 0.41,
            "2003176": 0.56,
            "2003189": 0.59,
            "2003217": 0.64,
            "2003233": 0.74,
            "2003259": 0.67,
            "2003287": 0.68
        }
    },
    "_id": "6442e2658ac5472f1c3e41cd",
    "pid": "6442e2658ac5472f1c3e41cd"
}