{
    "type": "FeatureCollection",
    "features": [
        {
            "type": "Feature",
            "geometry": {
                "type": "Point",
                "coordinates": [
                    33.0794125,
                    -111.97808346
                ]
            },
            "properties": {
                "sa_label": "p12",
                "SOIL_DATE": "04/21/2020",
                "SLPHW": {
                    "20": 7.7,
                    "60": 8.5,
                    "100": 8.6,
                    "140": 8.7,
                    "180": 8.5
                },
                "SLPHB": {
                    "20": 7.2,
                    "60": 7.2,
                    "100": 7.2,
                    "140": 7.2,
                    "180": 7.2
                },
                "SLEC": {
                    "20": 0.7,
                    "60": 1.4,
                    "100": 0.95,
                    "140": 1.0,
                    "180": 0.75
                },
                "SLOM": {
                    "20": 1.3,
                    "60": 0.9,
                    "100": 0.8,
                    "140": 0.6,
                    "180": 0.7
                },
                "SNO3": {
                    "20": 4.4,
                    "60": 10.1,
                    "100": 5.1,
                    "140": 2.2,
                    "180": 2.7
                },
                "SLPX": {
                    "20": 5.7,
                    "60": 5.1,
                    "100": 4.0,
                    "140": 3.7,
                    "180": 2.9
                },
                "SLKE": {
                    "20": 267,
                    "60": 222,
                    "100": 163,
                    "140": 94,
                    "180": 61
                },
                "SLSU": {
                    "20": 60.0,
                    "60": 106.0,
                    "100": 96.1,
                    "140": 126.0,
                    "180": 71.3
                },
                "SLZN": {
                    "20": 2.23,
                    "60": 1.58,
                    "100": 0.89,
                    "140": 0.69,
                    "180": 0.81
                },
                "SLFE": {
                    "20": 17.3,
                    "60": 14.8,
                    "100": 11.6,
                    "140": 7.4,
                    "180": 7.3
                },
                "SLMN": {
                    "20": 17.0,
                    "60": 14.6,
                    "100": 7.4,
                    "140": 4.2,
                    "180": 4.4
                },
                "SLCU": {
                    "20": 2.74,
                    "60": 2.04,
                    "100": 1.2,
                    "140": 0.55,
                    "180": 0.6
                },
                "SLCA": {
                    "20": 2551,
                    "60": 4903,
                    "100": 4764,
                    "140": 4314,
                    "180": 4338
                },
                "SLMG": {
                    "20": 214,
                    "60": 277,
                    "100": 239,
                    "140": 203,
                    "180": 191
                },
                "SLNA": {
                    "20": 400,
                    "60": 556,
                    "100": 527,
                    "140": 408,
                    "180": 277
                },
                "SLCEC": {
                    "20": 17.0,
                    "60": 29.8,
                    "100": 28.5,
                    "140": 25.3,
                    "180": 24.6
                }
            },
            "_id": "67f98c3d8ac547f4007fa229",
            "said": "67f98c3d8ac547f4007fa229"
        },
        {
            "type": "Feature",
            "geometry": {
                "type": "Point",
                "coordinates": [
                    33.07903573,
                    -111.97778131
                ]
            },
            "properties": {
                "sa_label": "p23",
                "SOIL_DATE": "04/21/2020",
                "SLPHW": {
                    "20": 8.6,
                    "60": 8.5,
                    "100": 9.0,
                    "140": 9.0,
                    "180": 9.0
                },
                "SLPHB": {
                    "20": 7.2,
                    "60": 7.2,
                    "100": 7.2,
                    "140": 7.2,
                    "180": 7.2
                },
                "SLEC": {
                    "20": 0.6,
                    "60": 0.55,
                    "100": 0.7,
                    "140": 0.65,
                    "180": 0.65
                },
                "SLOM": {
                    "20": 1.4,
                    "60": 0.9,
                    "100": 0.8,
                    "140": 1.0,
                    "180": 0.7
                },
                "SNO3": {
                    "20": 5.1,
                    "60": 4.2,
                    "100": 4.8,
                    "140": 2.6,
                    "180": 1.8
                },
                "SLPX": {
                    "20": 5.8,
                    "60": 4.2,
                    "100": 3.8,
                    "140": 3.5,
                    "180": 3.3
                },
                "SLKE": {
                    "20": 249,
                    "60": 208,
                    "100": 144,
                    "140": 111,
                    "180": 95
                },
                "SLSU": {
                    "20": 74.5,
                    "60": 92.6,
                    "100": 50.9,
                    "140": 59.6,
                    "180": 53.4
                },
                "SLZN": {
                    "20": 2.23,
                    "60": 0.96,
                    "100": 0.64,
                    "140": 1.03,
                    "180": 0.76
                },
                "SLFE": {
                    "20": 10.7,
                    "60": 7.8,
                    "100": 7.0,
                    "140": 7.0,
                    "180": 5.4
                },
                "SLMN": {
                    "20": 19.3,
                    "60": 10.3,
                    "100": 5.8,
                    "140": 4.7,
                    "180": 4.1
                },
                "SLCU": {
                    "20": 3.97,
                    "60": 2.09,
                    "100": 1.11,
                    "140": 0.86,
                    "180": 0.6
                },
                "SLCA": {
                    "20": 2336,
                    "60": 3596,
                    "100": 4154,
                    "140": 4639,
                    "180": 4523
                },
                "SLMG": {
                    "20": 211,
                    "60": 263,
                    "100": 230,
                    "140": 238,
                    "180": 211
                },
                "SLNA": {
                    "20": 321,
                    "60": 463,
                    "100": 490,
                    "140": 397,
                    "180": 298
                },
                "SLCEC": {
                    "20": 15.5,
                    "60": 22.7,
                    "100": 25.2,
                    "140": 27.2,
                    "180": 25.9
                }
            },
            "_id": "67f98c3d8ac547f4007fa22a",
            "said": "67f98c3d8ac547f4007fa22a"
        },
        {
            "type": "Feature",
            "geometry": {
                "type": "Point",
                "coordinates": [
                    33.07978473,
                    -111.97747223
                ]
            },
            "properties": {
                "sa_label": "p31",
                "SOIL_DATE": "04/21/2020",
                "SLPHW": {
                    "20": 8.5,
                    "60": 8.9,
                    "100": 8.9,
                    "140": 8.7,
                    "180": 8.5
                },
                "SLPHB": {
                    "20": 7.2,
                    "60": 7.2,
                    "100": 7.2,
                    "140": 7.2,
                    "180": 7.2
                },
                "SLEC": {
                    "20": 0.5,
                    "60": 0.9,
                    "100": 1.05,
                    "140": 1.15,
                    "180": 1.3
                },
                "SLOM": {
                    "20": 1.5,
                    "60": 1.1,
                    "100": 0.8,
                    "140": 1.0,
                    "180": 0.8
                },
                "SNO3": {
                    "20": 5.4,
                    "60": 3.9,
                    "100": 4.3,
                    "140": 4.9,
                    "180": 5.4
                },
                "SLPX": {
                    "20": 7.5,
                    "60": 5.0,
                    "100": 3.8,
                    "140": 3.5,
                    "180": 4.5
                },
                "SLKE": {
                    "20": 362,
                    "60": 277,
                    "100": 203,
                    "140": 126,
                    "180": 161
                },
                "SLSU": {
                    "20": 40.4,
                    "60": 40.8,
                    "100": 69.7,
                    "140": 168.5,
                    "180": 162.9
                },
                "SLZN": {
                    "20": 2.47,
                    "60": 1.95,
                    "100": 1.82,
                    "140": 1.07,
                    "180": 0.81
                },
                "SLFE": {
                    "20": 13.8,
                    "60": 13.6,
                    "100": 8.6,
                    "140": 6.5,
                    "180": 6.2
                },
                "SLMN": {
                    "20": 20.9,
                    "60": 17.7,
                    "100": 10.3,
                    "140": 5.7,
                    "180": 6.2
                },
                "SLCU": {
                    "20": 2.98,
                    "60": 2.43,
                    "100": 1.4,
                    "140": 0.86,
                    "180": 0.65
                },
                "SLCA": {
                    "20": 2609,
                    "60": 4084,
                    "100": 5306,
                    "140": 4695,
                    "180": 5082
                },
                "SLMG": {
                    "20": 235,
                    "60": 263,
                    "100": 262,
                    "140": 214,
                    "180": 270
                },
                "SLNA": {
                    "20": 267,
                    "60": 508,
                    "100": 468,
                    "140": 291,
                    "180": 309
                },
                "SLCEC": {
                    "20": 17.1,
                    "60": 25.5,
                    "100": 31.3,
                    "140": 26.8,
                    "180": 29.4
                }
            },
            "_id": "67f98c3d8ac547f4007fa22b",
            "said": "67f98c3d8ac547f4007fa22b"
        },
        {
            "type": "Feature",
            "geometry": {
                "type": "Point",
                "coordinates": [
                    33.07903271,
                    -111.97717271
                ]
            },
            "properties": {
                "sa_label": "p43",
                "SOIL_DATE": "04/21/2020",
                "SLPHW": {
                    "20": 8.8,
                    "60": 8.7,
                    "100": 8.9,
                    "140": 8.8,
                    "180": 8.8
                },
                "SLPHB": {
                    "20": 7.2,
                    "60": 7.2,
                    "100": 7.2,
                    "140": 7.2,
                    "180": 7.2
                },
                "SLEC": {
                    "20": 0.55,
                    "60": 1.5,
                    "100": 1.0,
                    "140": 0.75,
                    "180": 0.8
                },
                "SLOM": {
                    "20": 1.4,
                    "60": 1.0,
                    "100": 0.8,
                    "140": 0.8,
                    "180": 0.8
                },
                "SNO3": {
                    "20": 3.1,
                    "60": 6.1,
                    "100": 5.1,
                    "140": 2.2,
                    "180": 3.0
                },
                "SLPX": {
                    "20": 5.3,
                    "60": 6.2,
                    "100": 3.7,
                    "140": 3.5,
                    "180": 4.0
                },
                "SLKE": {
                    "20": 233,
                    "60": 169,
                    "100": 125,
                    "140": 76,
                    "180": 111
                },
                "SLSU": {
                    "20": 41.0,
                    "60": 128.1,
                    "100": 109.6,
                    "140": 114.6,
                    "180": 98.5
                },
                "SLZN": {
                    "20": 2.12,
                    "60": 1.33,
                    "100": 1.19,
                    "140": 0.92,
                    "180": 1.09
                },
                "SLFE": {
                    "20": 13.0,
                    "60": 9.7,
                    "100": 6.8,
                    "140": 5.2,
                    "180": 11.8
                },
                "SLMN": {
                    "20": 19.5,
                    "60": 10.2,
                    "100": 6.7,
                    "140": 3.6,
                    "180": 8.2
                },
                "SLCU": {
                    "20": 3.55,
                    "60": 2.14,
                    "100": 1.04,
                    "140": 0.59,
                    "180": 1.2
                },
                "SLCA": {
                    "20": 2291,
                    "60": 4485,
                    "100": 4733,
                    "140": 4383,
                    "180": 4351
                },
                "SLMG": {
                    "20": 209,
                    "60": 257,
                    "100": 234,
                    "140": 184,
                    "180": 224
                },
                "SLNA": {
                    "20": 348,
                    "60": 690,
                    "100": 435,
                    "140": 242,
                    "180": 267
                },
                "SLCEC": {
                    "20": 15.3,
                    "60": 28.0,
                    "100": 27.8,
                    "140": 24.7,
                    "180": 25.1
                }
            },
            "_id": "67f98c3d8ac547f4007fa22c",
            "said": "67f98c3d8ac547f4007fa22c"
        },
        {
            "type": "Feature",
            "geometry": {
                "type": "Point",
                "coordinates": [
                    33.07940645,
                    -111.97686616
                ]
            },
            "properties": {
                "sa_label": "p52",
                "SOIL_DATE": "04/21/2020",
                "SLPHW": {
                    "20": 8.5,
                    "60": 8.9,
                    "100": 8.8,
                    "140": 8.5,
                    "180": 8.4
                },
                "SLPHB": {
                    "20": 7.2,
                    "60": 7.2,
                    "100": 7.2,
                    "140": 7.2,
                    "180": 7.2
                },
                "SLEC": {
                    "20": 0.55,
                    "60": 0.55,
                    "100": 1.1,
                    "140": 1.8,
                    "180": 1.45
                },
                "SLOM": {
                    "20": 1.6,
                    "60": 1.0,
                    "100": 1.1,
                    "140": 0.9,
                    "180": 0.7
                },
                "SNO3": {
                    "20": 4.0,
                    "60": 2.4,
                    "100": 6.3,
                    "140": 5.9,
                    "180": 2.0
                },
                "SLPX": {
                    "20": 7.9,
                    "60": 4.7,
                    "100": 5.3,
                    "140": 3.4,
                    "180": 3.2
                },
                "SLKE": {
                    "20": 291,
                    "60": 231,
                    "100": 209,
                    "140": 113,
                    "180": 104
                },
                "SLSU": {
                    "20": 44.3,
                    "60": 28.7,
                    "100": 135.4,
                    "140": 302.5,
                    "180": 158.8
                },
                "SLZN": {
                    "20": 2.48,
                    "60": 2.56,
                    "100": 1.83,
                    "140": 0.85,
                    "180": 0.47
                },
                "SLFE": {
                    "20": 13.3,
                    "60": 26.3,
                    "100": 10.6,
                    "140": 5.7,
                    "180": 4.3
                },
                "SLMN": {
                    "20": 23.4,
                    "60": 22.3,
                    "100": 13.1,
                    "140": 4.4,
                    "180": 2.2
                },
                "SLCU": {
                    "20": 3.12,
                    "60": 2.41,
                    "100": 1.94,
                    "140": 0.59,
                    "180": 0.24
                },
                "SLCA": {
                    "20": 2392,
                    "60": 2432,
                    "100": 4819,
                    "140": 5086,
                    "180": 4832
                },
                "SLMG": {
                    "20": 252,
                    "60": 258,
                    "100": 305,
                    "140": 312,
                    "180": 300
                },
                "SLNA": {
                    "20": 270,
                    "60": 469,
                    "100": 559,
                    "140": 502,
                    "180": 347
                },
                "SLCEC": {
                    "20": 16.0,
                    "60": 16.9,
                    "100": 29.6,
                    "140": 30.5,
                    "180": 28.4
                }
            },
            "_id": "67f98c3d8ac547f4007fa22d",
            "said": "67f98c3d8ac547f4007fa22d"
        },
        {
            "type": "Feature",
            "geometry": {
                "type": "Point",
                "coordinates": [
                    33.07865443,
                    -111.97656664
                ]
            },
            "properties": {
                "sa_label": "p64",
                "SOIL_DATE": "04/21/2020",
                "SLPHW": {
                    "20": 8.8,
                    "60": 8.8,
                    "100": 8.4,
                    "140": 8.5,
                    "180": 8.6
                },
                "SLPHB": {
                    "20": 7.2,
                    "60": 7.2,
                    "100": 7.2,
                    "140": 7.2,
                    "180": 7.2
                },
                "SLEC": {
                    "20": 0.6,
                    "60": 1.15,
                    "100": 1.8,
                    "140": 0.9,
                    "180": 1.1
                },
                "SLOM": {
                    "20": 1.2,
                    "60": 0.8,
                    "100": 0.9,
                    "140": 0.8,
                    "180": 1.1
                },
                "SNO3": {
                    "20": 5.0,
                    "60": 7.2,
                    "100": 5.6,
                    "140": 3.2,
                    "180": 3.2
                },
                "SLPX": {
                    "20": 5.5,
                    "60": 4.6,
                    "100": 4.4,
                    "140": 3.1,
                    "180": 3.6
                },
                "SLKE": {
                    "20": 253,
                    "60": 148,
                    "100": 124,
                    "140": 76,
                    "180": 79
                },
                "SLSU": {
                    "20": 35.5,
                    "60": 132.6,
                    "100": 206.7,
                    "140": 91.5,
                    "180": 83.3
                },
                "SLZN": {
                    "20": 1.71,
                    "60": 0.59,
                    "100": 1.05,
                    "140": 0.73,
                    "180": 0.73
                },
                "SLFE": {
                    "20": 9.9,
                    "60": 5.9,
                    "100": 6.3,
                    "140": 4.0,
                    "180": 4.3
                },
                "SLMN": {
                    "20": 17.8,
                    "60": 6.2,
                    "100": 7.4,
                    "140": 3.3,
                    "180": 4.0
                },
                "SLCU": {
                    "20": 3.34,
                    "60": 1.36,
                    "100": 1.21,
                    "140": 0.38,
                    "180": 0.39
                },
                "SLCA": {
                    "20": 2749,
                    "60": 3954,
                    "100": 4797,
                    "140": 4478,
                    "180": 4568
                },
                "SLMG": {
                    "20": 242,
                    "60": 217,
                    "100": 242,
                    "140": 214,
                    "180": 215
                },
                "SLNA": {
                    "20": 425,
                    "60": 530,
                    "100": 442,
                    "140": 276,
                    "180": 231
                },
                "SLCEC": {
                    "20": 18.3,
                    "60": 24.3,
                    "100": 28.2,
                    "140": 25.6,
                    "180": 25.8
                }
            },
            "_id": "67f98c3d8ac547f4007fa22e",
            "said": "67f98c3d8ac547f4007fa22e"
        }
    ]
}