{
    "type": "Feature",
    "geometry": {
        "type": "Point",
        "coordinates": [
            33.079843,
            -111.97813488
        ]
    },
    "properties": {
        "cc_label": "11N",
        "CHTD": {
            "2020147": 0.11,
            "2020153": 0.14,
            "2020160": 0.29,
            "2020167": 0.38,
            "2020174": 0.49,
            "2020181": 0.61,
            "2020188": 0.76,
            "2020195": 0.81,
            "2020203": 0.82,
            "2020209": 0.86,
            "2020217": 0.91,
            "2020223": 0.96,
            "2020230": 0.98,
            "2020237": 1.08,
            "2020244": 1.16,
            "2020252": 1.21
        },
        "CWID": {
            "2020147": 0.09,
            "2020153": 0.16,
            "2020160": 0.29,
            "2020167": 0.33,
            "2020174": 0.44,
            "2020181": 0.5,
            "2020188": 0.55,
            "2020195": 0.6,
            "2020203": 0.73,
            "2020209": 0.74,
            "2020217": 0.78,
            "2020223": 0.83,
            "2020230": 0.89,
            "2020237": 1.02,
            "2020252": 1.02
        }
    },
    "_id": "64248e648ac54713f59a7b12",
    "ccid": "64248e648ac54713f59a7b12"
}{
    "type": "Feature",
    "geometry": {
        "type": "Point",
        "coordinates": [
            33.07967806,
            -111.97813603
        ]
    },
    "properties": {
        "cc_label": "11S",
        "CHTD": {
            "2020147": 0.16,
            "2020153": 0.21,
            "2020160": 0.33,
            "2020167": 0.48,
            "2020174": 0.58,
            "2020181": 0.64,
            "2020188": 0.74,
            "2020195": 0.8,
            "2020203": 0.84,
            "2020209": 0.84,
            "2020217": 0.88,
            "2020223": 0.93,
            "2020230": 0.99,
            "2020237": 1.13,
            "2020244": 1.22,
            "2020252": 1.27
        },
        "CWID": {
            "2020147": 0.13,
            "2020153": 0.21,
            "2020160": 0.3,
            "2020167": 0.39,
            "2020174": 0.5,
            "2020181": 0.56,
            "2020188": 0.6,
            "2020195": 0.65,
            "2020203": 0.77,
            "2020209": 0.73,
            "2020217": 0.8,
            "2020223": 0.84,
            "2020230": 0.87,
            "2020237": 1.02,
            "2020252": 1.02
        }
    },
    "_id": "64248e648ac54713f59a7b13",
    "ccid": "64248e648ac54713f59a7b13"
}{
    "type": "Feature",
    "geometry": {
        "type": "Point",
        "coordinates": [
            33.07946775,
            -111.9781375
        ]
    },
    "properties": {
        "cc_label": "12N",
        "CHTD": {
            "2020147": 0.17,
            "2020153": 0.26,
            "2020160": 0.39,
            "2020167": 0.46,
            "2020174": 0.54,
            "2020181": 0.61,
            "2020188": 0.67,
            "2020195": 0.71,
            "2020203": 0.64,
            "2020209": 0.65,
            "2020217": 0.66,
            "2020223": 0.69,
            "2020230": 0.74,
            "2020237": 0.77,
            "2020244": 0.79,
            "2020252": 0.79
        },
        "CWID": {
            "2020147": 0.15,
            "2020153": 0.25,
            "2020160": 0.32,
            "2020167": 0.4,
            "2020174": 0.48,
            "2020181": 0.53,
            "2020188": 0.55,
            "2020195": 0.57,
            "2020203": 0.57,
            "2020209": 0.59,
            "2020217": 0.61,
            "2020223": 0.62,
            "2020230": 0.65,
            "2020237": 0.72,
            "2020252": 0.71
        }
    },
    "_id": "64248e648ac54713f59a7b14",
    "ccid": "64248e648ac54713f59a7b14"
}{
    "type": "Feature",
    "geometry": {
        "type": "Point",
        "coordinates": [
            33.0793028,
            -111.97813865
        ]
    },
    "properties": {
        "cc_label": "12S",
        "CHTD": {
            "2020147": 0.12,
            "2020153": 0.18,
            "2020160": 0.29,
            "2020167": 0.36,
            "2020174": 0.46,
            "2020181": 0.58,
            "2020188": 0.65,
            "2020195": 0.68,
            "2020203": 0.65,
            "2020209": 0.61,
            "2020217": 0.64,
            "2020223": 0.69,
            "2020230": 0.72,
            "2020237": 0.78,
            "2020244": 0.81,
            "2020252": 0.83
        },
        "CWID": {
            "2020147": 0.09,
            "2020153": 0.17,
            "2020160": 0.24,
            "2020167": 0.31,
            "2020174": 0.37,
            "2020181": 0.41,
            "2020188": 0.44,
            "2020195": 0.47,
            "2020203": 0.53,
            "2020209": 0.5,
            "2020217": 0.52,
            "2020223": 0.55,
            "2020230": 0.58,
            "2020237": 0.63,
            "2020252": 0.72
        }
    },
    "_id": "64248e648ac54713f59a7b15",
    "ccid": "64248e648ac54713f59a7b15"
}{
    "type": "Feature",
    "geometry": {
        "type": "Point",
        "coordinates": [
            33.07909249,
            -111.97814012
        ]
    },
    "properties": {
        "cc_label": "13N",
        "CHTD": {
            "2020147": 0.15,
            "2020153": 0.23,
            "2020160": 0.39,
            "2020167": 0.46,
            "2020174": 0.51,
            "2020181": 0.55,
            "2020188": 0.59,
            "2020195": 0.65,
            "2020203": 0.69,
            "2020209": 0.58,
            "2020217": 0.63,
            "2020223": 0.68,
            "2020230": 0.71,
            "2020237": 0.8,
            "2020244": 0.84,
            "2020252": 0.88
        },
        "CWID": {
            "2020147": 0.15,
            "2020153": 0.23,
            "2020160": 0.32,
            "2020167": 0.38,
            "2020174": 0.48,
            "2020181": 0.53,
            "2020188": 0.55,
            "2020195": 0.57,
            "2020203": 0.58,
            "2020209": 0.52,
            "2020217": 0.54,
            "2020223": 0.53,
            "2020230": 0.54,
            "2020237": 0.61,
            "2020252": 0.73
        }
    },
    "_id": "64248e648ac54713f59a7b16",
    "ccid": "64248e648ac54713f59a7b16"
}{
    "type": "Feature",
    "geometry": {
        "type": "Point",
        "coordinates": [
            33.07892755,
            -111.97814127
        ]
    },
    "properties": {
        "cc_label": "13S",
        "CHTD": {
            "2020147": 0.15,
            "2020153": 0.22,
            "2020160": 0.31,
            "2020167": 0.44,
            "2020174": 0.53,
            "2020181": 0.58,
            "2020188": 0.61,
            "2020195": 0.69,
            "2020203": 0.76,
            "2020209": 0.73,
            "2020217": 0.75,
            "2020223": 0.79,
            "2020230": 0.82,
            "2020237": 0.89,
            "2020244": 0.91,
            "2020252": 0.96
        },
        "CWID": {
            "2020147": 0.11,
            "2020153": 0.21,
            "2020160": 0.32,
            "2020167": 0.4,
            "2020174": 0.48,
            "2020181": 0.53,
            "2020188": 0.57,
            "2020195": 0.62,
            "2020203": 0.71,
            "2020209": 0.63,
            "2020217": 0.7,
            "2020223": 0.72,
            "2020230": 0.76,
            "2020237": 0.79,
            "2020252": 0.84
        }
    },
    "_id": "64248e648ac54713f59a7b17",
    "ccid": "64248e648ac54713f59a7b17"
}{
    "type": "Feature",
    "geometry": {
        "type": "Point",
        "coordinates": [
            33.07871723,
            -111.97814273
        ]
    },
    "properties": {
        "cc_label": "14N",
        "CHTD": {
            "2020147": 0.15,
            "2020153": 0.21,
            "2020160": 0.36,
            "2020167": 0.45,
            "2020174": 0.51,
            "2020181": 0.56,
            "2020188": 0.6,
            "2020195": 0.69,
            "2020203": 0.78,
            "2020209": 0.76,
            "2020217": 0.81,
            "2020223": 0.86,
            "2020230": 0.92,
            "2020237": 1.03,
            "2020244": 1.11,
            "2020252": 1.13
        },
        "CWID": {
            "2020147": 0.12,
            "2020153": 0.21,
            "2020160": 0.28,
            "2020167": 0.36,
            "2020174": 0.46,
            "2020181": 0.52,
            "2020188": 0.55,
            "2020195": 0.61,
            "2020203": 0.74,
            "2020209": 0.66,
            "2020217": 0.72,
            "2020223": 0.75,
            "2020230": 0.79,
            "2020237": 0.86,
            "2020252": 1.02
        }
    },
    "_id": "64248e648ac54713f59a7b18",
    "ccid": "64248e648ac54713f59a7b18"
}{
    "type": "Feature",
    "geometry": {
        "type": "Point",
        "coordinates": [
            33.07855229,
            -111.97814389
        ]
    },
    "properties": {
        "cc_label": "14S",
        "CHTD": {
            "2020147": 0.14,
            "2020153": 0.19,
            "2020160": 0.33,
            "2020167": 0.48,
            "2020174": 0.55,
            "2020181": 0.57,
            "2020188": 0.62,
            "2020195": 0.73,
            "2020203": 0.8,
            "2020209": 0.75,
            "2020217": 0.8,
            "2020223": 0.82,
            "2020230": 0.86,
            "2020237": 0.91,
            "2020244": 0.98,
            "2020252": 1.02
        },
        "CWID": {
            "2020147": 0.09,
            "2020153": 0.2,
            "2020160": 0.26,
            "2020167": 0.38,
            "2020174": 0.47,
            "2020181": 0.55,
            "2020188": 0.61,
            "2020195": 0.66,
            "2020203": 0.68,
            "2020209": 0.61,
            "2020217": 0.66,
            "2020223": 0.71,
            "2020230": 0.77,
            "2020237": 0.85,
            "2020252": 0.91
        }
    },
    "_id": "64248e648ac54713f59a7b19",
    "ccid": "64248e648ac54713f59a7b19"
}{
    "type": "Feature",
    "geometry": {
        "type": "Point",
        "coordinates": [
            33.0798415,
            -111.97783011
        ]
    },
    "properties": {
        "cc_label": "21N",
        "CHTD": {
            "2020147": 0.13,
            "2020153": 0.2,
            "2020160": 0.32,
            "2020167": 0.4,
            "2020174": 0.53,
            "2020181": 0.58,
            "2020188": 0.63,
            "2020195": 0.74,
            "2020203": 0.79,
            "2020209": 0.79,
            "2020217": 0.78,
            "2020223": 0.82,
            "2020230": 0.85,
            "2020237": 0.91,
            "2020244": 0.96,
            "2020252": 0.99
        },
        "CWID": {
            "2020147": 0.1,
            "2020153": 0.19,
            "2020160": 0.29,
            "2020167": 0.37,
            "2020174": 0.49,
            "2020181": 0.58,
            "2020188": 0.62,
            "2020195": 0.67,
            "2020203": 0.73,
            "2020209": 0.68,
            "2020217": 0.7,
            "2020223": 0.74,
            "2020230": 0.78,
            "2020237": 0.89,
            "2020252": 1.02
        }
    },
    "_id": "64248e648ac54713f59a7b1a",
    "ccid": "64248e648ac54713f59a7b1a"
}{
    "type": "Feature",
    "geometry": {
        "type": "Point",
        "coordinates": [
            33.07967655,
            -111.97783126
        ]
    },
    "properties": {
        "cc_label": "21S",
        "CHTD": {
            "2020147": 0.12,
            "2020153": 0.21,
            "2020160": 0.3,
            "2020167": 0.39,
            "2020174": 0.52,
            "2020181": 0.58,
            "2020188": 0.62,
            "2020195": 0.71,
            "2020203": 0.72,
            "2020209": 0.7,
            "2020217": 0.7,
            "2020223": 0.74,
            "2020230": 0.79,
            "2020237": 0.83,
            "2020244": 0.85,
            "2020252": 0.86
        },
        "CWID": {
            "2020147": 0.09,
            "2020153": 0.19,
            "2020160": 0.27,
            "2020167": 0.35,
            "2020174": 0.47,
            "2020181": 0.49,
            "2020188": 0.54,
            "2020195": 0.56,
            "2020203": 0.64,
            "2020209": 0.62,
            "2020217": 0.65,
            "2020223": 0.69,
            "2020230": 0.72,
            "2020237": 0.76,
            "2020252": 0.85
        }
    },
    "_id": "64248e648ac54713f59a7b1b",
    "ccid": "64248e648ac54713f59a7b1b"
}{
    "type": "Feature",
    "geometry": {
        "type": "Point",
        "coordinates": [
            33.07946624,
            -111.97783273
        ]
    },
    "properties": {
        "cc_label": "22N",
        "CHTD": {
            "2020147": 0.14,
            "2020153": 0.21,
            "2020160": 0.33,
            "2020167": 0.41,
            "2020174": 0.55,
            "2020181": 0.61,
            "2020188": 0.66,
            "2020195": 0.75,
            "2020203": 0.77,
            "2020209": 0.77,
            "2020217": 0.79,
            "2020223": 0.85,
            "2020230": 0.92,
            "2020237": 1.04,
            "2020244": 1.13,
            "2020252": 1.19
        },
        "CWID": {
            "2020147": 0.1,
            "2020153": 0.19,
            "2020160": 0.31,
            "2020167": 0.38,
            "2020174": 0.47,
            "2020181": 0.53,
            "2020188": 0.58,
            "2020195": 0.64,
            "2020203": 0.71,
            "2020209": 0.68,
            "2020217": 0.76,
            "2020223": 0.83,
            "2020230": 0.88,
            "2020237": 1.02,
            "2020252": 1.02
        }
    },
    "_id": "64248e648ac54713f59a7b1c",
    "ccid": "64248e648ac54713f59a7b1c"
}{
    "type": "Feature",
    "geometry": {
        "type": "Point",
        "coordinates": [
            33.0793013,
            -111.97783388
        ]
    },
    "properties": {
        "cc_label": "22S",
        "CHTD": {
            "2020147": 0.13,
            "2020153": 0.18,
            "2020160": 0.33,
            "2020167": 0.4,
            "2020174": 0.5,
            "2020181": 0.56,
            "2020188": 0.59,
            "2020195": 0.62,
            "2020203": 0.68,
            "2020209": 0.64,
            "2020217": 0.66,
            "2020223": 0.7,
            "2020230": 0.75,
            "2020237": 0.83,
            "2020244": 0.91,
            "2020252": 0.98
        },
        "CWID": {
            "2020147": 0.11,
            "2020153": 0.17,
            "2020160": 0.29,
            "2020167": 0.36,
            "2020174": 0.47,
            "2020181": 0.5,
            "2020188": 0.53,
            "2020195": 0.52,
            "2020203": 0.56,
            "2020209": 0.53,
            "2020217": 0.55,
            "2020223": 0.59,
            "2020230": 0.66,
            "2020237": 0.87,
            "2020252": 1.02
        }
    },
    "_id": "64248e648ac54713f59a7b1d",
    "ccid": "64248e648ac54713f59a7b1d"
}{
    "type": "Feature",
    "geometry": {
        "type": "Point",
        "coordinates": [
            33.07909098,
            -111.97783535
        ]
    },
    "properties": {
        "cc_label": "23N",
        "CHTD": {
            "2020147": 0.13,
            "2020153": 0.19,
            "2020160": 0.32,
            "2020167": 0.43,
            "2020174": 0.52,
            "2020181": 0.59,
            "2020188": 0.65,
            "2020195": 0.76,
            "2020203": 0.79,
            "2020209": 0.79,
            "2020217": 0.81,
            "2020223": 0.82,
            "2020230": 0.86,
            "2020237": 0.92,
            "2020244": 0.97,
            "2020252": 1.01
        },
        "CWID": {
            "2020147": 0.08,
            "2020153": 0.19,
            "2020160": 0.29,
            "2020167": 0.36,
            "2020174": 0.44,
            "2020181": 0.53,
            "2020188": 0.6,
            "2020195": 0.69,
            "2020203": 0.66,
            "2020209": 0.61,
            "2020217": 0.65,
            "2020223": 0.69,
            "2020230": 0.73,
            "2020237": 0.83,
            "2020252": 0.93
        }
    },
    "_id": "64248e648ac54713f59a7b1e",
    "ccid": "64248e648ac54713f59a7b1e"
}{
    "type": "Feature",
    "geometry": {
        "type": "Point",
        "coordinates": [
            33.07892604,
            -111.9778365
        ]
    },
    "properties": {
        "cc_label": "23S",
        "CHTD": {
            "2020147": 0.1,
            "2020153": 0.21,
            "2020160": 0.32,
            "2020167": 0.4,
            "2020174": 0.48,
            "2020181": 0.54,
            "2020188": 0.61,
            "2020195": 0.64,
            "2020203": 0.65,
            "2020209": 0.62,
            "2020217": 0.63,
            "2020223": 0.64,
            "2020230": 0.67,
            "2020237": 0.7,
            "2020244": 0.69,
            "2020252": 0.74
        },
        "CWID": {
            "2020147": 0.06,
            "2020153": 0.22,
            "2020160": 0.27,
            "2020167": 0.35,
            "2020174": 0.43,
            "2020181": 0.44,
            "2020188": 0.45,
            "2020195": 0.46,
            "2020203": 0.52,
            "2020209": 0.48,
            "2020217": 0.5,
            "2020223": 0.51,
            "2020230": 0.55,
            "2020237": 0.62,
            "2020252": 0.72
        }
    },
    "_id": "64248e648ac54713f59a7b1f",
    "ccid": "64248e648ac54713f59a7b1f"
}{
    "type": "Feature",
    "geometry": {
        "type": "Point",
        "coordinates": [
            33.07871572,
            -111.97783797
        ]
    },
    "properties": {
        "cc_label": "24N",
        "CHTD": {
            "2020147": 0.13,
            "2020153": 0.17,
            "2020160": 0.31,
            "2020167": 0.39,
            "2020174": 0.48,
            "2020181": 0.53,
            "2020188": 0.57,
            "2020195": 0.68,
            "2020203": 0.74,
            "2020209": 0.68,
            "2020217": 0.73,
            "2020223": 0.74,
            "2020230": 0.77,
            "2020237": 0.84,
            "2020244": 0.9,
            "2020252": 0.93
        },
        "CWID": {
            "2020147": 0.11,
            "2020153": 0.14,
            "2020160": 0.27,
            "2020167": 0.33,
            "2020174": 0.43,
            "2020181": 0.49,
            "2020188": 0.55,
            "2020195": 0.54,
            "2020203": 0.61,
            "2020209": 0.59,
            "2020217": 0.6,
            "2020223": 0.64,
            "2020230": 0.68,
            "2020237": 0.76,
            "2020252": 0.88
        }
    },
    "_id": "64248e648ac54713f59a7b20",
    "ccid": "64248e648ac54713f59a7b20"
}{
    "type": "Feature",
    "geometry": {
        "type": "Point",
        "coordinates": [
            33.07855078,
            -111.97783912
        ]
    },
    "properties": {
        "cc_label": "24S",
        "CHTD": {
            "2020147": 0.12,
            "2020153": 0.17,
            "2020160": 0.26,
            "2020167": 0.35,
            "2020174": 0.44,
            "2020181": 0.48,
            "2020188": 0.5,
            "2020195": 0.54,
            "2020203": 0.53,
            "2020209": 0.51,
            "2020217": 0.53,
            "2020223": 0.56,
            "2020230": 0.6,
            "2020237": 0.71,
            "2020244": 0.79,
            "2020252": 0.84
        },
        "CWID": {
            "2020147": 0.08,
            "2020153": 0.16,
            "2020160": 0.23,
            "2020167": 0.3,
            "2020174": 0.38,
            "2020181": 0.4,
            "2020188": 0.42,
            "2020195": 0.42,
            "2020203": 0.48,
            "2020209": 0.43,
            "2020217": 0.45,
            "2020223": 0.46,
            "2020230": 0.44,
            "2020237": 0.59,
            "2020252": 0.78
        }
    },
    "_id": "64248e648ac54713f59a7b21",
    "ccid": "64248e648ac54713f59a7b21"
}{
    "type": "Feature",
    "geometry": {
        "type": "Point",
        "coordinates": [
            33.07983998,
            -111.97752627
        ]
    },
    "properties": {
        "cc_label": "31N",
        "CHTD": {
            "2020147": 0.13,
            "2020153": 0.2,
            "2020160": 0.28,
            "2020167": 0.38,
            "2020174": 0.53,
            "2020181": 0.62,
            "2020188": 0.69,
            "2020195": 0.78,
            "2020203": 0.78,
            "2020209": 0.79,
            "2020217": 0.8,
            "2020223": 0.82,
            "2020230": 0.86,
            "2020237": 0.94,
            "2020244": 1.0,
            "2020252": 1.04
        },
        "CWID": {
            "2020147": 0.11,
            "2020153": 0.21,
            "2020160": 0.27,
            "2020167": 0.4,
            "2020174": 0.46,
            "2020181": 0.54,
            "2020188": 0.61,
            "2020195": 0.64,
            "2020203": 0.68,
            "2020209": 0.68,
            "2020217": 0.71,
            "2020223": 0.77,
            "2020230": 0.83,
            "2020237": 0.92,
            "2020252": 1.02
        }
    },
    "_id": "64248e648ac54713f59a7b22",
    "ccid": "64248e648ac54713f59a7b22"
}{
    "type": "Feature",
    "geometry": {
        "type": "Point",
        "coordinates": [
            33.07967504,
            -111.97752742
        ]
    },
    "properties": {
        "cc_label": "31S",
        "CHTD": {
            "2020147": 0.16,
            "2020153": 0.2,
            "2020160": 0.34,
            "2020167": 0.42,
            "2020174": 0.57,
            "2020181": 0.6,
            "2020188": 0.65,
            "2020195": 0.71,
            "2020203": 0.75,
            "2020209": 0.72,
            "2020217": 0.75,
            "2020223": 0.78,
            "2020230": 0.82,
            "2020237": 0.89,
            "2020244": 0.96,
            "2020252": 0.99
        },
        "CWID": {
            "2020147": 0.13,
            "2020153": 0.21,
            "2020160": 0.3,
            "2020167": 0.37,
            "2020174": 0.51,
            "2020181": 0.59,
            "2020188": 0.63,
            "2020195": 0.66,
            "2020203": 0.68,
            "2020209": 0.62,
            "2020217": 0.64,
            "2020223": 0.69,
            "2020230": 0.73,
            "2020237": 0.82,
            "2020252": 0.94
        }
    },
    "_id": "64248e648ac54713f59a7b23",
    "ccid": "64248e648ac54713f59a7b23"
}{
    "type": "Feature",
    "geometry": {
        "type": "Point",
        "coordinates": [
            33.07946473,
            -111.97752889
        ]
    },
    "properties": {
        "cc_label": "32N",
        "CHTD": {
            "2020147": 0.13,
            "2020153": 0.17,
            "2020160": 0.32,
            "2020167": 0.4,
            "2020174": 0.54,
            "2020181": 0.59,
            "2020188": 0.7,
            "2020195": 0.8,
            "2020203": 0.82,
            "2020209": 0.84,
            "2020217": 0.86,
            "2020223": 0.9,
            "2020230": 0.95,
            "2020237": 1.06,
            "2020244": 1.16,
            "2020252": 1.2
        },
        "CWID": {
            "2020147": 0.11,
            "2020153": 0.18,
            "2020160": 0.27,
            "2020167": 0.33,
            "2020174": 0.47,
            "2020181": 0.55,
            "2020188": 0.64,
            "2020195": 0.67,
            "2020203": 0.75,
            "2020209": 0.68,
            "2020217": 0.73,
            "2020223": 0.82,
            "2020230": 0.96,
            "2020237": 1.02,
            "2020252": 1.02
        }
    },
    "_id": "64248e648ac54713f59a7b24",
    "ccid": "64248e648ac54713f59a7b24"
}{
    "type": "Feature",
    "geometry": {
        "type": "Point",
        "coordinates": [
            33.07929978,
            -111.97753004
        ]
    },
    "properties": {
        "cc_label": "32S",
        "CHTD": {
            "2020147": 0.13,
            "2020153": 0.18,
            "2020160": 0.31,
            "2020167": 0.38,
            "2020174": 0.52,
            "2020181": 0.6,
            "2020188": 0.72,
            "2020195": 0.8,
            "2020203": 0.77,
            "2020209": 0.75,
            "2020217": 0.78,
            "2020223": 0.83,
            "2020230": 0.89,
            "2020237": 1.03,
            "2020244": 1.12,
            "2020252": 1.16
        },
        "CWID": {
            "2020147": 0.11,
            "2020153": 0.18,
            "2020160": 0.28,
            "2020167": 0.32,
            "2020174": 0.47,
            "2020181": 0.56,
            "2020188": 0.61,
            "2020195": 0.66,
            "2020203": 0.7,
            "2020209": 0.67,
            "2020217": 0.71,
            "2020223": 0.73,
            "2020230": 0.75,
            "2020237": 0.84,
            "2020252": 1.02
        }
    },
    "_id": "64248e648ac54713f59a7b25",
    "ccid": "64248e648ac54713f59a7b25"
}{
    "type": "Feature",
    "geometry": {
        "type": "Point",
        "coordinates": [
            33.07908947,
            -111.97753151
        ]
    },
    "properties": {
        "cc_label": "33N",
        "CHTD": {
            "2020147": 0.15,
            "2020153": 0.21,
            "2020160": 0.34,
            "2020167": 0.39,
            "2020174": 0.54,
            "2020181": 0.59,
            "2020188": 0.65,
            "2020195": 0.71,
            "2020203": 0.76,
            "2020209": 0.71,
            "2020217": 0.75,
            "2020223": 0.8,
            "2020230": 0.86,
            "2020237": 0.96,
            "2020244": 1.07,
            "2020252": 1.11
        },
        "CWID": {
            "2020147": 0.12,
            "2020153": 0.2,
            "2020160": 0.29,
            "2020167": 0.35,
            "2020174": 0.45,
            "2020181": 0.49,
            "2020188": 0.5,
            "2020195": 0.55,
            "2020203": 0.64,
            "2020209": 0.63,
            "2020217": 0.67,
            "2020223": 0.73,
            "2020230": 0.8,
            "2020237": 0.88,
            "2020252": 1.02
        }
    },
    "_id": "64248e648ac54713f59a7b26",
    "ccid": "64248e648ac54713f59a7b26"
}{
    "type": "Feature",
    "geometry": {
        "type": "Point",
        "coordinates": [
            33.07892453,
            -111.97753266
        ]
    },
    "properties": {
        "cc_label": "33S",
        "CHTD": {
            "2020147": 0.13,
            "2020153": 0.19,
            "2020160": 0.28,
            "2020167": 0.35,
            "2020174": 0.51,
            "2020181": 0.57,
            "2020188": 0.63,
            "2020195": 0.7,
            "2020203": 0.76,
            "2020209": 0.79,
            "2020217": 0.81,
            "2020223": 0.86,
            "2020230": 0.9,
            "2020237": 1.03,
            "2020244": 1.15,
            "2020252": 1.23
        },
        "CWID": {
            "2020147": 0.1,
            "2020153": 0.18,
            "2020160": 0.25,
            "2020167": 0.4,
            "2020174": 0.47,
            "2020181": 0.52,
            "2020188": 0.58,
            "2020195": 0.6,
            "2020203": 0.69,
            "2020209": 0.62,
            "2020217": 0.67,
            "2020223": 0.71,
            "2020230": 0.78,
            "2020237": 1.02,
            "2020252": 1.02
        }
    },
    "_id": "64248e648ac54713f59a7b27",
    "ccid": "64248e648ac54713f59a7b27"
}{
    "type": "Feature",
    "geometry": {
        "type": "Point",
        "coordinates": [
            33.07871421,
            -111.97753413
        ]
    },
    "properties": {
        "cc_label": "34N",
        "CHTD": {
            "2020147": 0.14,
            "2020153": 0.17,
            "2020160": 0.29,
            "2020167": 0.34,
            "2020174": 0.47,
            "2020181": 0.54,
            "2020188": 0.59,
            "2020195": 0.64,
            "2020203": 0.65,
            "2020209": 0.67,
            "2020217": 0.68,
            "2020223": 0.71,
            "2020230": 0.76,
            "2020237": 0.84,
            "2020244": 0.93,
            "2020252": 0.98
        },
        "CWID": {
            "2020147": 0.1,
            "2020153": 0.14,
            "2020160": 0.25,
            "2020167": 0.31,
            "2020174": 0.39,
            "2020181": 0.42,
            "2020188": 0.44,
            "2020195": 0.47,
            "2020203": 0.56,
            "2020209": 0.53,
            "2020217": 0.59,
            "2020223": 0.64,
            "2020230": 0.73,
            "2020237": 0.97,
            "2020252": 0.99
        }
    },
    "_id": "64248e648ac54713f59a7b28",
    "ccid": "64248e648ac54713f59a7b28"
}{
    "type": "Feature",
    "geometry": {
        "type": "Point",
        "coordinates": [
            33.07854927,
            -111.97753529
        ]
    },
    "properties": {
        "cc_label": "34S",
        "CHTD": {
            "2020147": 0.1,
            "2020153": 0.15,
            "2020160": 0.28,
            "2020167": 0.37,
            "2020174": 0.5,
            "2020181": 0.59,
            "2020188": 0.68,
            "2020195": 0.78,
            "2020203": 0.78,
            "2020209": 0.8,
            "2020217": 0.82,
            "2020223": 0.85,
            "2020230": 0.92,
            "2020237": 1.0,
            "2020244": 1.07,
            "2020252": 1.11
        },
        "CWID": {
            "2020147": 0.1,
            "2020153": 0.17,
            "2020160": 0.23,
            "2020167": 0.32,
            "2020174": 0.4,
            "2020181": 0.49,
            "2020188": 0.58,
            "2020195": 0.69,
            "2020203": 0.73,
            "2020209": 0.64,
            "2020217": 0.71,
            "2020223": 0.79,
            "2020230": 0.87,
            "2020237": 1.02,
            "2020252": 1.02
        }
    },
    "_id": "64248e648ac54713f59a7b29",
    "ccid": "64248e648ac54713f59a7b29"
}{
    "type": "Feature",
    "geometry": {
        "type": "Point",
        "coordinates": [
            33.07983847,
            -111.9772215
        ]
    },
    "properties": {
        "cc_label": "41N",
        "CHTD": {
            "2020147": 0.16,
            "2020153": 0.22,
            "2020160": 0.33,
            "2020167": 0.43,
            "2020174": 0.56,
            "2020181": 0.69,
            "2020188": 0.76,
            "2020195": 0.82,
            "2020203": 0.85,
            "2020209": 0.85,
            "2020217": 0.86,
            "2020223": 0.88,
            "2020230": 0.91,
            "2020237": 0.96,
            "2020244": 1.02,
            "2020252": 1.08
        },
        "CWID": {
            "2020147": 0.12,
            "2020153": 0.23,
            "2020160": 0.28,
            "2020167": 0.35,
            "2020174": 0.5,
            "2020181": 0.57,
            "2020188": 0.61,
            "2020195": 0.65,
            "2020203": 0.72,
            "2020209": 0.67,
            "2020217": 0.72,
            "2020223": 0.77,
            "2020230": 0.84,
            "2020237": 0.95,
            "2020252": 1.02
        }
    },
    "_id": "64248e648ac54713f59a7b2a",
    "ccid": "64248e648ac54713f59a7b2a"
}{
    "type": "Feature",
    "geometry": {
        "type": "Point",
        "coordinates": [
            33.07967353,
            -111.97722265
        ]
    },
    "properties": {
        "cc_label": "41S",
        "CHTD": {
            "2020147": 0.14,
            "2020153": 0.23,
            "2020160": 0.36,
            "2020167": 0.46,
            "2020174": 0.57,
            "2020181": 0.69,
            "2020188": 0.75,
            "2020195": 0.79,
            "2020203": 0.77,
            "2020209": 0.75,
            "2020217": 0.77,
            "2020223": 0.8,
            "2020230": 0.82,
            "2020237": 0.89,
            "2020244": 0.98,
            "2020252": 1.05
        },
        "CWID": {
            "2020147": 0.12,
            "2020153": 0.22,
            "2020160": 0.33,
            "2020167": 0.4,
            "2020174": 0.48,
            "2020181": 0.55,
            "2020188": 0.62,
            "2020195": 0.68,
            "2020203": 0.73,
            "2020209": 0.65,
            "2020217": 0.7,
            "2020223": 0.76,
            "2020230": 0.81,
            "2020237": 0.92,
            "2020252": 1.02
        }
    },
    "_id": "64248e648ac54713f59a7b2b",
    "ccid": "64248e648ac54713f59a7b2b"
}{
    "type": "Feature",
    "geometry": {
        "type": "Point",
        "coordinates": [
            33.07946322,
            -111.97722412
        ]
    },
    "properties": {
        "cc_label": "42N",
        "CHTD": {
            "2020147": 0.14,
            "2020153": 0.2,
            "2020160": 0.31,
            "2020167": 0.37,
            "2020174": 0.52,
            "2020181": 0.6,
            "2020188": 0.73,
            "2020195": 0.81,
            "2020203": 0.84,
            "2020209": 0.82,
            "2020217": 0.85,
            "2020223": 0.87,
            "2020230": 0.93,
            "2020237": 1.18,
            "2020244": 1.24,
            "2020252": 1.29
        },
        "CWID": {
            "2020147": 0.11,
            "2020153": 0.19,
            "2020160": 0.27,
            "2020167": 0.3,
            "2020174": 0.47,
            "2020181": 0.57,
            "2020188": 0.67,
            "2020195": 0.7,
            "2020203": 0.72,
            "2020209": 0.69,
            "2020217": 0.74,
            "2020223": 0.8,
            "2020230": 0.89,
            "2020237": 1.02,
            "2020252": 1.02
        }
    },
    "_id": "64248e648ac54713f59a7b2c",
    "ccid": "64248e648ac54713f59a7b2c"
}{
    "type": "Feature",
    "geometry": {
        "type": "Point",
        "coordinates": [
            33.07929827,
            -111.97722528
        ]
    },
    "properties": {
        "cc_label": "42S",
        "CHTD": {
            "2020147": 0.14,
            "2020153": 0.2,
            "2020160": 0.3,
            "2020167": 0.42,
            "2020174": 0.55,
            "2020181": 0.62,
            "2020188": 0.76,
            "2020195": 0.87,
            "2020203": 0.88,
            "2020209": 0.85,
            "2020217": 0.87,
            "2020223": 0.92,
            "2020230": 0.99,
            "2020237": 1.09,
            "2020244": 1.18,
            "2020252": 1.23
        },
        "CWID": {
            "2020147": 0.1,
            "2020153": 0.19,
            "2020160": 0.27,
            "2020167": 0.35,
            "2020174": 0.48,
            "2020181": 0.58,
            "2020188": 0.66,
            "2020195": 0.72,
            "2020203": 0.79,
            "2020209": 0.79,
            "2020217": 0.86,
            "2020223": 0.95,
            "2020230": 1.02,
            "2020237": 1.02,
            "2020252": 1.02
        }
    },
    "_id": "64248e648ac54713f59a7b2d",
    "ccid": "64248e648ac54713f59a7b2d"
}{
    "type": "Feature",
    "geometry": {
        "type": "Point",
        "coordinates": [
            33.07908796,
            -111.97722675
        ]
    },
    "properties": {
        "cc_label": "43N",
        "CHTD": {
            "2020147": 0.15,
            "2020153": 0.22,
            "2020160": 0.32,
            "2020167": 0.45,
            "2020174": 0.5,
            "2020181": 0.54,
            "2020188": 0.56,
            "2020195": 0.58,
            "2020203": 0.64,
            "2020209": 0.66,
            "2020217": 0.64,
            "2020223": 0.71,
            "2020230": 0.79,
            "2020237": 0.88,
            "2020244": 0.95,
            "2020252": 0.97
        },
        "CWID": {
            "2020147": 0.11,
            "2020153": 0.18,
            "2020160": 0.28,
            "2020167": 0.37,
            "2020174": 0.41,
            "2020181": 0.43,
            "2020188": 0.45,
            "2020195": 0.45,
            "2020203": 0.56,
            "2020209": 0.55,
            "2020217": 0.59,
            "2020223": 0.63,
            "2020230": 0.7,
            "2020237": 0.87,
            "2020252": 1.02
        }
    },
    "_id": "64248e648ac54713f59a7b2e",
    "ccid": "64248e648ac54713f59a7b2e"
}{
    "type": "Feature",
    "geometry": {
        "type": "Point",
        "coordinates": [
            33.07892302,
            -111.9772279
        ]
    },
    "properties": {
        "cc_label": "43S",
        "CHTD": {
            "2020147": 0.16,
            "2020153": 0.23,
            "2020160": 0.32,
            "2020167": 0.4,
            "2020174": 0.48,
            "2020181": 0.52,
            "2020188": 0.57,
            "2020195": 0.62,
            "2020203": 0.65,
            "2020209": 0.64,
            "2020217": 0.69,
            "2020223": 0.73,
            "2020230": 0.78,
            "2020237": 0.83,
            "2020244": 0.87,
            "2020252": 0.89
        },
        "CWID": {
            "2020147": 0.12,
            "2020153": 0.2,
            "2020160": 0.27,
            "2020167": 0.34,
            "2020174": 0.41,
            "2020181": 0.43,
            "2020188": 0.46,
            "2020195": 0.47,
            "2020203": 0.59,
            "2020209": 0.58,
            "2020217": 0.6,
            "2020223": 0.66,
            "2020230": 0.71,
            "2020237": 0.85,
            "2020252": 1.02
        }
    },
    "_id": "64248e648ac54713f59a7b2f",
    "ccid": "64248e648ac54713f59a7b2f"
}{
    "type": "Feature",
    "geometry": {
        "type": "Point",
        "coordinates": [
            33.0787127,
            -111.97722937
        ]
    },
    "properties": {
        "cc_label": "44N",
        "CHTD": {
            "2020147": 0.16,
            "2020153": 0.2,
            "2020160": 0.31,
            "2020167": 0.38,
            "2020174": 0.43,
            "2020181": 0.49,
            "2020188": 0.54,
            "2020195": 0.6,
            "2020203": 0.6,
            "2020209": 0.58,
            "2020217": 0.63,
            "2020223": 0.65,
            "2020230": 0.71,
            "2020237": 0.74,
            "2020244": 0.8,
            "2020252": 0.84
        },
        "CWID": {
            "2020147": 0.12,
            "2020153": 0.18,
            "2020160": 0.27,
            "2020167": 0.3,
            "2020174": 0.38,
            "2020181": 0.45,
            "2020188": 0.47,
            "2020195": 0.46,
            "2020203": 0.51,
            "2020209": 0.53,
            "2020217": 0.56,
            "2020223": 0.61,
            "2020230": 0.66,
            "2020237": 0.76,
            "2020252": 0.84
        }
    },
    "_id": "64248e648ac54713f59a7b30",
    "ccid": "64248e648ac54713f59a7b30"
}{
    "type": "Feature",
    "geometry": {
        "type": "Point",
        "coordinates": [
            33.07854776,
            -111.97723052
        ]
    },
    "properties": {
        "cc_label": "44S",
        "CHTD": {
            "2020147": 0.13,
            "2020153": 0.19,
            "2020160": 0.3,
            "2020167": 0.41,
            "2020174": 0.56,
            "2020181": 0.59,
            "2020188": 0.62,
            "2020195": 0.65,
            "2020203": 0.66,
            "2020209": 0.65,
            "2020217": 0.65,
            "2020223": 0.67,
            "2020230": 0.7,
            "2020237": 0.76,
            "2020244": 0.82,
            "2020252": 0.86
        },
        "CWID": {
            "2020147": 0.11,
            "2020153": 0.21,
            "2020160": 0.28,
            "2020167": 0.35,
            "2020174": 0.43,
            "2020181": 0.48,
            "2020188": 0.51,
            "2020195": 0.53,
            "2020203": 0.57,
            "2020209": 0.6,
            "2020217": 0.62,
            "2020223": 0.64,
            "2020230": 0.65,
            "2020237": 0.78,
            "2020252": 0.85
        }
    },
    "_id": "64248e648ac54713f59a7b31",
    "ccid": "64248e648ac54713f59a7b31"
}{
    "type": "Feature",
    "geometry": {
        "type": "Point",
        "coordinates": [
            33.07983696,
            -111.97691757
        ]
    },
    "properties": {
        "cc_label": "51N",
        "CHTD": {
            "2020147": 0.16,
            "2020153": 0.24,
            "2020160": 0.34,
            "2020167": 0.44,
            "2020174": 0.55,
            "2020181": 0.61,
            "2020188": 0.68,
            "2020195": 0.76,
            "2020203": 0.74,
            "2020209": 0.75,
            "2020217": 0.77,
            "2020223": 0.82,
            "2020230": 0.85,
            "2020237": 0.93,
            "2020244": 1.0,
            "2020252": 1.05
        },
        "CWID": {
            "2020147": 0.12,
            "2020153": 0.22,
            "2020160": 0.32,
            "2020167": 0.4,
            "2020174": 0.47,
            "2020181": 0.53,
            "2020188": 0.58,
            "2020195": 0.64,
            "2020203": 0.69,
            "2020209": 0.64,
            "2020217": 0.69,
            "2020223": 0.75,
            "2020230": 0.81,
            "2020237": 0.9,
            "2020252": 1.02
        }
    },
    "_id": "64248e648ac54713f59a7b32",
    "ccid": "64248e648ac54713f59a7b32"
}{
    "type": "Feature",
    "geometry": {
        "type": "Point",
        "coordinates": [
            33.07967202,
            -111.97691872
        ]
    },
    "properties": {
        "cc_label": "51S",
        "CHTD": {
            "2020147": 0.13,
            "2020153": 0.2,
            "2020160": 0.35,
            "2020167": 0.45,
            "2020174": 0.56,
            "2020181": 0.68,
            "2020188": 0.8,
            "2020195": 0.91,
            "2020203": 0.89,
            "2020209": 0.95,
            "2020217": 0.92,
            "2020223": 0.96,
            "2020230": 0.99,
            "2020237": 1.13,
            "2020244": 1.2,
            "2020252": 1.26
        },
        "CWID": {
            "2020147": 0.11,
            "2020153": 0.18,
            "2020160": 0.3,
            "2020167": 0.4,
            "2020174": 0.5,
            "2020181": 0.61,
            "2020188": 0.74,
            "2020195": 0.84,
            "2020203": 0.88,
            "2020209": 0.89,
            "2020217": 0.92,
            "2020223": 0.98,
            "2020230": 1.02,
            "2020237": 1.02,
            "2020252": 1.02
        }
    },
    "_id": "64248e648ac54713f59a7b33",
    "ccid": "64248e648ac54713f59a7b33"
}{
    "type": "Feature",
    "geometry": {
        "type": "Point",
        "coordinates": [
            33.0794617,
            -111.97692019
        ]
    },
    "properties": {
        "cc_label": "52N",
        "CHTD": {
            "2020147": 0.14,
            "2020153": 0.2,
            "2020160": 0.33,
            "2020167": 0.47,
            "2020174": 0.6,
            "2020181": 0.7,
            "2020188": 0.78,
            "2020195": 0.88,
            "2020203": 0.91,
            "2020209": 0.94,
            "2020217": 0.91,
            "2020223": 0.93,
            "2020230": 0.98,
            "2020237": 1.08,
            "2020244": 1.18,
            "2020252": 1.24
        },
        "CWID": {
            "2020147": 0.1,
            "2020153": 0.21,
            "2020160": 0.29,
            "2020167": 0.41,
            "2020174": 0.55,
            "2020181": 0.61,
            "2020188": 0.68,
            "2020195": 0.76,
            "2020203": 0.86,
            "2020209": 1.02,
            "2020217": 1.02,
            "2020223": 1.02,
            "2020230": 1.02,
            "2020237": 1.02,
            "2020252": 1.02
        }
    },
    "_id": "64248e648ac54713f59a7b34",
    "ccid": "64248e648ac54713f59a7b34"
}{
    "type": "Feature",
    "geometry": {
        "type": "Point",
        "coordinates": [
            33.07929676,
            -111.97692135
        ]
    },
    "properties": {
        "cc_label": "52S",
        "CHTD": {
            "2020147": 0.14,
            "2020153": 0.21,
            "2020160": 0.33,
            "2020167": 0.43,
            "2020174": 0.53,
            "2020181": 0.59,
            "2020188": 0.65,
            "2020195": 0.72,
            "2020203": 0.78,
            "2020209": 0.75,
            "2020217": 0.75,
            "2020223": 0.78,
            "2020230": 0.83,
            "2020237": 0.89,
            "2020244": 0.95,
            "2020252": 1.0
        },
        "CWID": {
            "2020147": 0.12,
            "2020153": 0.2,
            "2020160": 0.33,
            "2020167": 0.37,
            "2020174": 0.46,
            "2020181": 0.51,
            "2020188": 0.59,
            "2020195": 0.65,
            "2020203": 0.7,
            "2020209": 0.67,
            "2020217": 0.69,
            "2020223": 0.73,
            "2020230": 0.78,
            "2020237": 1.02,
            "2020252": 1.02
        }
    },
    "_id": "64248e648ac54713f59a7b35",
    "ccid": "64248e648ac54713f59a7b35"
}{
    "type": "Feature",
    "geometry": {
        "type": "Point",
        "coordinates": [
            33.07908645,
            -111.97692282
        ]
    },
    "properties": {
        "cc_label": "53N",
        "CHTD": {
            "2020147": 0.12,
            "2020153": 0.19,
            "2020160": 0.3,
            "2020167": 0.44,
            "2020174": 0.53,
            "2020181": 0.59,
            "2020188": 0.63,
            "2020195": 0.7,
            "2020203": 0.76,
            "2020209": 0.78,
            "2020217": 0.8,
            "2020223": 0.79,
            "2020230": 0.81,
            "2020237": 0.86,
            "2020244": 0.92,
            "2020252": 0.93
        },
        "CWID": {
            "2020147": 0.09,
            "2020153": 0.18,
            "2020160": 0.29,
            "2020167": 0.42,
            "2020174": 0.49,
            "2020181": 0.54,
            "2020188": 0.57,
            "2020195": 0.58,
            "2020203": 0.64,
            "2020209": 0.68,
            "2020217": 0.7,
            "2020223": 0.71,
            "2020230": 0.73,
            "2020237": 0.84,
            "2020252": 1.0
        }
    },
    "_id": "64248e648ac54713f59a7b36",
    "ccid": "64248e648ac54713f59a7b36"
}{
    "type": "Feature",
    "geometry": {
        "type": "Point",
        "coordinates": [
            33.07892151,
            -111.97692397
        ]
    },
    "properties": {
        "cc_label": "53S",
        "CHTD": {
            "2020147": 0.15,
            "2020153": 0.24,
            "2020160": 0.37,
            "2020167": 0.47,
            "2020174": 0.58,
            "2020181": 0.61,
            "2020188": 0.72,
            "2020195": 0.81,
            "2020203": 0.81,
            "2020209": 0.79,
            "2020217": 0.77,
            "2020223": 0.78,
            "2020230": 0.79,
            "2020237": 0.85,
            "2020244": 0.93,
            "2020252": 0.97
        },
        "CWID": {
            "2020147": 0.12,
            "2020153": 0.23,
            "2020160": 0.32,
            "2020167": 0.42,
            "2020174": 0.49,
            "2020181": 0.58,
            "2020188": 0.64,
            "2020195": 0.72,
            "2020203": 0.65,
            "2020209": 0.64,
            "2020217": 0.69,
            "2020223": 0.72,
            "2020230": 0.74,
            "2020237": 0.82,
            "2020252": 0.91
        }
    },
    "_id": "64248e648ac54713f59a7b37",
    "ccid": "64248e648ac54713f59a7b37"
}{
    "type": "Feature",
    "geometry": {
        "type": "Point",
        "coordinates": [
            33.07871119,
            -111.97692544
        ]
    },
    "properties": {
        "cc_label": "54N",
        "CHTD": {
            "2020147": 0.12,
            "2020153": 0.2,
            "2020160": 0.29,
            "2020167": 0.37,
            "2020174": 0.44,
            "2020181": 0.5,
            "2020188": 0.57,
            "2020195": 0.66,
            "2020203": 0.7,
            "2020209": 0.69,
            "2020217": 0.71,
            "2020223": 0.73,
            "2020230": 0.76,
            "2020237": 0.81,
            "2020244": 0.84,
            "2020252": 0.86
        },
        "CWID": {
            "2020147": 0.09,
            "2020153": 0.2,
            "2020160": 0.28,
            "2020167": 0.33,
            "2020174": 0.38,
            "2020181": 0.43,
            "2020188": 0.49,
            "2020195": 0.55,
            "2020203": 0.58,
            "2020209": 0.61,
            "2020217": 0.6,
            "2020223": 0.62,
            "2020230": 0.62,
            "2020237": 0.73,
            "2020252": 0.87
        }
    },
    "_id": "64248e648ac54713f59a7b38",
    "ccid": "64248e648ac54713f59a7b38"
}{
    "type": "Feature",
    "geometry": {
        "type": "Point",
        "coordinates": [
            33.07854625,
            -111.97692659
        ]
    },
    "properties": {
        "cc_label": "54S",
        "CHTD": {
            "2020147": 0.13,
            "2020153": 0.16,
            "2020160": 0.29,
            "2020167": 0.4,
            "2020174": 0.51,
            "2020181": 0.54,
            "2020188": 0.59,
            "2020195": 0.63,
            "2020203": 0.63,
            "2020209": 0.66,
            "2020217": 0.67,
            "2020223": 0.7,
            "2020230": 0.7,
            "2020237": 0.74,
            "2020244": 0.8,
            "2020252": 0.84
        },
        "CWID": {
            "2020147": 0.1,
            "2020153": 0.19,
            "2020160": 0.26,
            "2020167": 0.35,
            "2020174": 0.42,
            "2020181": 0.47,
            "2020188": 0.49,
            "2020195": 0.52,
            "2020203": 0.52,
            "2020209": 0.51,
            "2020217": 0.52,
            "2020223": 0.52,
            "2020230": 0.54,
            "2020237": 0.65,
            "2020252": 0.72
        }
    },
    "_id": "64248e648ac54713f59a7b39",
    "ccid": "64248e648ac54713f59a7b39"
}{
    "type": "Feature",
    "geometry": {
        "type": "Point",
        "coordinates": [
            33.07983545,
            -111.9766128
        ]
    },
    "properties": {
        "cc_label": "61N",
        "CHTD": {
            "2020147": 0.14,
            "2020153": 0.21,
            "2020160": 0.31,
            "2020167": 0.46,
            "2020174": 0.55,
            "2020181": 0.69,
            "2020188": 0.75,
            "2020195": 0.77,
            "2020203": 0.78,
            "2020209": 0.78,
            "2020217": 0.79,
            "2020223": 0.81,
            "2020230": 0.83,
            "2020237": 0.84,
            "2020244": 0.91,
            "2020252": 0.97
        },
        "CWID": {
            "2020147": 0.09,
            "2020153": 0.19,
            "2020160": 0.26,
            "2020167": 0.39,
            "2020174": 0.44,
            "2020181": 0.52,
            "2020188": 0.59,
            "2020195": 0.66,
            "2020203": 0.63,
            "2020209": 0.62,
            "2020217": 0.64,
            "2020223": 0.69,
            "2020230": 0.72,
            "2020237": 0.84,
            "2020252": 0.92
        }
    },
    "_id": "64248e648ac54713f59a7b3a",
    "ccid": "64248e648ac54713f59a7b3a"
}{
    "type": "Feature",
    "geometry": {
        "type": "Point",
        "coordinates": [
            33.07967051,
            -111.97661396
        ]
    },
    "properties": {
        "cc_label": "61S",
        "CHTD": {
            "2020147": 0.14,
            "2020153": 0.2,
            "2020160": 0.31,
            "2020167": 0.48,
            "2020174": 0.56,
            "2020181": 0.66,
            "2020188": 0.72,
            "2020195": 0.79,
            "2020203": 0.77,
            "2020209": 0.81,
            "2020217": 0.8,
            "2020223": 0.82,
            "2020230": 0.82,
            "2020237": 0.85,
            "2020244": 0.94,
            "2020252": 1.02
        },
        "CWID": {
            "2020147": 0.1,
            "2020153": 0.19,
            "2020160": 0.27,
            "2020167": 0.4,
            "2020174": 0.46,
            "2020181": 0.53,
            "2020188": 0.62,
            "2020195": 0.7,
            "2020203": 0.7,
            "2020209": 0.74,
            "2020217": 0.77,
            "2020223": 0.81,
            "2020230": 0.85,
            "2020237": 1.02,
            "2020252": 1.02
        }
    },
    "_id": "64248e648ac54713f59a7b3b",
    "ccid": "64248e648ac54713f59a7b3b"
}{
    "type": "Feature",
    "geometry": {
        "type": "Point",
        "coordinates": [
            33.07946019,
            -111.97661543
        ]
    },
    "properties": {
        "cc_label": "62N",
        "CHTD": {
            "2020147": 0.13,
            "2020153": 0.22,
            "2020160": 0.35,
            "2020167": 0.43,
            "2020174": 0.52,
            "2020181": 0.59,
            "2020188": 0.64,
            "2020195": 0.67,
            "2020203": 0.68,
            "2020209": 0.68,
            "2020217": 0.7,
            "2020223": 0.73,
            "2020230": 0.74,
            "2020237": 0.76,
            "2020244": 0.81,
            "2020252": 0.88
        },
        "CWID": {
            "2020147": 0.09,
            "2020153": 0.22,
            "2020160": 0.31,
            "2020167": 0.34,
            "2020174": 0.45,
            "2020181": 0.51,
            "2020188": 0.56,
            "2020195": 0.58,
            "2020203": 0.64,
            "2020209": 0.65,
            "2020217": 0.67,
            "2020223": 0.71,
            "2020230": 0.74,
            "2020237": 0.86,
            "2020252": 0.97
        }
    },
    "_id": "64248e648ac54713f59a7b3c",
    "ccid": "64248e648ac54713f59a7b3c"
}{
    "type": "Feature",
    "geometry": {
        "type": "Point",
        "coordinates": [
            33.07929525,
            -111.97661658
        ]
    },
    "properties": {
        "cc_label": "62S",
        "CHTD": {
            "2020147": 0.14,
            "2020153": 0.22,
            "2020160": 0.35,
            "2020167": 0.45,
            "2020174": 0.55,
            "2020181": 0.58,
            "2020188": 0.64,
            "2020195": 0.7,
            "2020203": 0.72,
            "2020209": 0.69,
            "2020217": 0.72,
            "2020223": 0.74,
            "2020230": 0.75,
            "2020237": 0.78,
            "2020244": 0.82,
            "2020252": 0.89
        },
        "CWID": {
            "2020147": 0.1,
            "2020153": 0.22,
            "2020160": 0.28,
            "2020167": 0.37,
            "2020174": 0.46,
            "2020181": 0.51,
            "2020188": 0.55,
            "2020195": 0.57,
            "2020203": 0.62,
            "2020209": 0.59,
            "2020217": 0.61,
            "2020223": 0.63,
            "2020230": 0.66,
            "2020237": 0.8,
            "2020252": 0.88
        }
    },
    "_id": "64248e648ac54713f59a7b3d",
    "ccid": "64248e648ac54713f59a7b3d"
}{
    "type": "Feature",
    "geometry": {
        "type": "Point",
        "coordinates": [
            33.07908494,
            -111.97661805
        ]
    },
    "properties": {
        "cc_label": "63N",
        "CHTD": {
            "2020147": 0.1,
            "2020153": 0.16,
            "2020160": 0.3,
            "2020167": 0.38,
            "2020174": 0.48,
            "2020181": 0.57,
            "2020188": 0.64,
            "2020195": 0.73,
            "2020203": 0.75,
            "2020209": 0.76,
            "2020217": 0.79,
            "2020223": 0.84,
            "2020230": 0.88,
            "2020237": 0.94,
            "2020244": 0.97,
            "2020252": 0.97
        },
        "CWID": {
            "2020147": 0.06,
            "2020153": 0.14,
            "2020160": 0.26,
            "2020167": 0.34,
            "2020174": 0.41,
            "2020181": 0.49,
            "2020188": 0.56,
            "2020195": 0.63,
            "2020203": 0.65,
            "2020209": 0.65,
            "2020217": 0.71,
            "2020223": 0.79,
            "2020230": 0.87,
            "2020237": 0.97,
            "2020252": 1.02
        }
    },
    "_id": "64248e648ac54713f59a7b3e",
    "ccid": "64248e648ac54713f59a7b3e"
}{
    "type": "Feature",
    "geometry": {
        "type": "Point",
        "coordinates": [
            33.07891999,
            -111.97661921
        ]
    },
    "properties": {
        "cc_label": "63S",
        "CHTD": {
            "2020147": 0.12,
            "2020153": 0.18,
            "2020160": 0.29,
            "2020167": 0.37,
            "2020174": 0.47,
            "2020181": 0.53,
            "2020188": 0.57,
            "2020195": 0.63,
            "2020203": 0.71,
            "2020209": 0.64,
            "2020217": 0.7,
            "2020223": 0.71,
            "2020230": 0.72,
            "2020237": 0.76,
            "2020244": 0.81,
            "2020252": 0.87
        },
        "CWID": {
            "2020147": 0.1,
            "2020153": 0.16,
            "2020160": 0.28,
            "2020167": 0.33,
            "2020174": 0.43,
            "2020181": 0.48,
            "2020188": 0.51,
            "2020195": 0.54,
            "2020203": 0.58,
            "2020209": 0.55,
            "2020217": 0.6,
            "2020223": 0.65,
            "2020230": 0.72,
            "2020237": 0.79,
            "2020252": 0.82
        }
    },
    "_id": "64248e648ac54713f59a7b3f",
    "ccid": "64248e648ac54713f59a7b3f"
}{
    "type": "Feature",
    "geometry": {
        "type": "Point",
        "coordinates": [
            33.07870968,
            -111.97662068
        ]
    },
    "properties": {
        "cc_label": "64N",
        "CHTD": {
            "2020147": 0.15,
            "2020153": 0.17,
            "2020160": 0.32,
            "2020167": 0.4,
            "2020174": 0.43,
            "2020181": 0.47,
            "2020188": 0.51,
            "2020195": 0.55,
            "2020203": 0.58,
            "2020209": 0.59,
            "2020217": 0.57,
            "2020223": 0.6,
            "2020230": 0.62,
            "2020237": 0.67,
            "2020244": 0.76,
            "2020252": 0.82
        },
        "CWID": {
            "2020147": 0.13,
            "2020153": 0.17,
            "2020160": 0.28,
            "2020167": 0.35,
            "2020174": 0.36,
            "2020181": 0.36,
            "2020188": 0.38,
            "2020195": 0.39,
            "2020203": 0.51,
            "2020209": 0.46,
            "2020217": 0.52,
            "2020223": 0.54,
            "2020230": 0.58,
            "2020237": 0.64,
            "2020252": 0.71
        }
    },
    "_id": "64248e648ac54713f59a7b40",
    "ccid": "64248e648ac54713f59a7b40"
}{
    "type": "Feature",
    "geometry": {
        "type": "Point",
        "coordinates": [
            33.07854474,
            -111.97662183
        ]
    },
    "properties": {
        "cc_label": "64S",
        "CHTD": {
            "2020147": 0.11,
            "2020153": 0.17,
            "2020160": 0.29,
            "2020167": 0.39,
            "2020174": 0.48,
            "2020181": 0.51,
            "2020188": 0.54,
            "2020195": 0.58,
            "2020203": 0.62,
            "2020209": 0.65,
            "2020217": 0.66,
            "2020223": 0.68,
            "2020230": 0.71,
            "2020237": 0.76,
            "2020244": 0.82,
            "2020252": 0.85
        },
        "CWID": {
            "2020147": 0.07,
            "2020153": 0.18,
            "2020160": 0.24,
            "2020167": 0.36,
            "2020174": 0.42,
            "2020181": 0.45,
            "2020188": 0.47,
            "2020195": 0.43,
            "2020203": 0.51,
            "2020209": 0.52,
            "2020217": 0.53,
            "2020223": 0.55,
            "2020230": 0.57,
            "2020237": 0.67,
            "2020252": 0.73
        }
    },
    "_id": "64248e648ac54713f59a7b41",
    "ccid": "64248e648ac54713f59a7b41"
}