{
    "type": "Feature",
    "geometry": {
        "type": "Polygon",
        "coordinates": [
            [
                [
                    -111.97796789,
                    33.07959476
                ],
                [
                    -111.97825089,
                    33.07959616
                ],
                [
                    -111.97824859,
                    33.07992604
                ],
                [
                    -111.97796559,
                    33.07992464
                ],
                [
                    -111.97796789,
                    33.07959476
                ]
            ]
        ]
    },
    "properties": {
        "plt_label": "p11",
        "trt_label": "MDL",
        "PLT_AREA": 966.191616,
        "HARM": "Hand",
        "HADAT": "10/22/2020",
        "WBWAH": 3986.2,
        "GNDAT": "10/30/2020",
        "FFRAC": 0.3765,
        "SFRAC": 0.3642,
        "TFRAC": 0.2593,
        "FWCAG": 3.64,
        "SWCAG": 3.69,
        "WFWAH": 1501.0,
        "WSWAH": 1451.8,
        "WSCWAH": 2952.8,
        "DFWAH": 1446.3,
        "DSWAH": 1398.1,
        "DSCWAH": 2844.4,
        "QLDAT": "11/19/2020",
        "FBMIC": 43.0,
        "FBLTH": 1.078,
        "FBUNI": 79.8,
        "FBSTR": 28.2,
        "FBELO": 5.9,
        "FBCRD": 80.5,
        "FBCLB": 8.2,
        "FBTCT": 6.0,
        "FBTAR": 0.08,
        "FBSFI": 11.3,
        "haids": [
            "642486668ac5470f56883bf0",
            "642486668ac5470f56883bf1"
        ]
    },
    "_id": "64246dc78ac5470a33c9fe15",
    "pid": "64246dc78ac5470a33c9fe15"
}{
    "type": "Feature",
    "geometry": {
        "type": "Polygon",
        "coordinates": [
            [
                [
                    -111.97797051,
                    33.0792195
                ],
                [
                    -111.97825351,
                    33.0792209
                ],
                [
                    -111.97825121,
                    33.07955078
                ],
                [
                    -111.97796821,
                    33.07954938
                ],
                [
                    -111.97797051,
                    33.0792195
                ]
            ]
        ]
    },
    "properties": {
        "plt_label": "p12",
        "trt_label": "UAS",
        "PLT_AREA": 966.191616,
        "HARM": "Hand",
        "HADAT": "10/22/2020",
        "WBWAH": 2349.9,
        "GNDAT": "10/30/2020",
        "FFRAC": 0.3455,
        "SFRAC": 0.2199,
        "TFRAC": 0.4346,
        "FWCAG": 3.62,
        "SWCAG": 3.73,
        "WFWAH": 812.0,
        "WSWAH": 516.7,
        "WSCWAH": 1328.7,
        "DFWAH": 782.6,
        "DSWAH": 497.4,
        "DSCWAH": 1280.1,
        "QLDAT": "11/19/2020",
        "FBMIC": 41.4,
        "FBLTH": 1.013,
        "FBUNI": 78.0,
        "FBSTR": 24.8,
        "FBELO": 5.8,
        "FBCRD": 80.7,
        "FBCLB": 8.8,
        "FBTCT": 17.0,
        "FBTAR": 0.45,
        "FBSFI": 15.4,
        "haids": [
            "642486668ac5470f56883bf2",
            "642486668ac5470f56883bf3"
        ]
    },
    "_id": "64246dc78ac5470a33c9fe16",
    "pid": "64246dc78ac5470a33c9fe16"
}{
    "type": "Feature",
    "geometry": {
        "type": "Polygon",
        "coordinates": [
            [
                [
                    -111.97797313,
                    33.07884424
                ],
                [
                    -111.97825613,
                    33.07884564
                ],
                [
                    -111.97825383,
                    33.07917552
                ],
                [
                    -111.97797083,
                    33.07917413
                ],
                [
                    -111.97797313,
                    33.07884424
                ]
            ]
        ]
    },
    "properties": {
        "plt_label": "p13",
        "trt_label": "UAS",
        "PLT_AREA": 966.191616,
        "HARM": "Hand",
        "HADAT": "10/22/2020",
        "WBWAH": 1968.5,
        "GNDAT": "10/30/2020",
        "FFRAC": 0.325,
        "SFRAC": 0.2125,
        "TFRAC": 0.4625,
        "FWCAG": 5.55,
        "SWCAG": 3.82,
        "WFWAH": 639.8,
        "WSWAH": 418.3,
        "WSCWAH": 1058.1,
        "DFWAH": 604.2,
        "DSWAH": 402.3,
        "DSCWAH": 1006.6,
        "QLDAT": "11/19/2020",
        "FBMIC": 37.1,
        "FBLTH": 1.02,
        "FBUNI": 78.6,
        "FBSTR": 25.5,
        "FBELO": 5.8,
        "FBCRD": 79.8,
        "FBCLB": 9.1,
        "FBTCT": 8.0,
        "FBTAR": 0.12,
        "FBSFI": 14.5,
        "haids": [
            "642486668ac5470f56883bf4",
            "642486668ac5470f56883bf5"
        ]
    },
    "_id": "64246dc78ac5470a33c9fe17",
    "pid": "64246dc78ac5470a33c9fe17"
}{
    "type": "Feature",
    "geometry": {
        "type": "Polygon",
        "coordinates": [
            [
                [
                    -111.97797575,
                    33.07846898
                ],
                [
                    -111.97825875,
                    33.07847038
                ],
                [
                    -111.97825645,
                    33.07880027
                ],
                [
                    -111.97797345,
                    33.07879887
                ],
                [
                    -111.97797575,
                    33.07846898
                ]
            ]
        ]
    },
    "properties": {
        "plt_label": "p14",
        "trt_label": "MDL",
        "PLT_AREA": 966.191616,
        "HARM": "Hand",
        "HADAT": "10/22/2020",
        "WBWAH": 3518.7,
        "GNDAT": "10/30/2020",
        "FFRAC": 0.3636,
        "SFRAC": 0.3566,
        "TFRAC": 0.2797,
        "FWCAG": 3.29,
        "SWCAG": 3.75,
        "WFWAH": 1279.5,
        "WSWAH": 1254.9,
        "WSCWAH": 2534.4,
        "DFWAH": 1237.4,
        "DSWAH": 1207.9,
        "DSCWAH": 2445.3,
        "QLDAT": "11/19/2020",
        "FBMIC": 42.7,
        "FBLTH": 1.052,
        "FBUNI": 79.0,
        "FBSTR": 27.0,
        "FBELO": 6.0,
        "FBCRD": 81.8,
        "FBCLB": 8.6,
        "FBTCT": 8.0,
        "FBTAR": 0.08,
        "FBSFI": 13.0,
        "haids": [
            "642486668ac5470f56883bf6",
            "642486668ac5470f56883bf7"
        ]
    },
    "_id": "64246dc78ac5470a33c9fe18",
    "pid": "64246dc78ac5470a33c9fe18"
}{
    "type": "Feature",
    "geometry": {
        "type": "Polygon",
        "coordinates": [
            [
                [
                    -111.97766313,
                    33.07959325
                ],
                [
                    -111.97794613,
                    33.07959465
                ],
                [
                    -111.97794382,
                    33.07992453
                ],
                [
                    -111.97766082,
                    33.07992313
                ],
                [
                    -111.97766313,
                    33.07959325
                ]
            ]
        ]
    },
    "properties": {
        "plt_label": "p21",
        "trt_label": "VRI",
        "PLT_AREA": 966.191616,
        "HARM": "Hand",
        "HADAT": "10/22/2020",
        "WBWAH": 3764.8,
        "GNDAT": "10/30/2020",
        "FFRAC": 0.3595,
        "SFRAC": 0.366,
        "TFRAC": 0.2745,
        "FWCAG": 4.6,
        "SWCAG": 3.83,
        "WFWAH": 1353.3,
        "WSWAH": 1378.0,
        "WSCWAH": 2731.3,
        "DFWAH": 1291.1,
        "DSWAH": 1325.1,
        "DSCWAH": 2616.3,
        "QLDAT": "11/19/2020",
        "FBMIC": 42.4,
        "FBLTH": 1.041,
        "FBUNI": 78.8,
        "FBSTR": 26.2,
        "FBELO": 6.0,
        "FBCRD": 81.4,
        "FBCLB": 8.6,
        "FBTCT": 11.0,
        "FBTAR": 0.3,
        "FBSFI": 13.8,
        "haids": [
            "642486668ac5470f56883bf8",
            "642486668ac5470f56883bf9"
        ]
    },
    "_id": "64246dc78ac5470a33c9fe19",
    "pid": "64246dc78ac5470a33c9fe19"
}{
    "type": "Feature",
    "geometry": {
        "type": "Polygon",
        "coordinates": [
            [
                [
                    -111.97766575,
                    33.07921799
                ],
                [
                    -111.97794874,
                    33.07921939
                ],
                [
                    -111.97794644,
                    33.07954927
                ],
                [
                    -111.97766344,
                    33.07954787
                ],
                [
                    -111.97766575,
                    33.07921799
                ]
            ]
        ]
    },
    "properties": {
        "plt_label": "p22",
        "trt_label": "SOL",
        "PLT_AREA": 966.191616,
        "HARM": "Hand",
        "HADAT": "10/22/2020",
        "WBWAH": 4503.0,
        "GNDAT": "10/30/2020",
        "FFRAC": 0.3743,
        "SFRAC": 0.3989,
        "TFRAC": 0.2268,
        "FWCAG": 3.54,
        "SWCAG": 4.08,
        "WFWAH": 1685.5,
        "WSWAH": 1796.3,
        "WSCWAH": 3481.8,
        "DFWAH": 1625.8,
        "DSWAH": 1723.0,
        "DSCWAH": 3348.9,
        "QLDAT": "11/19/2020",
        "FBMIC": 42.0,
        "FBLTH": 1.084,
        "FBUNI": 79.0,
        "FBSTR": 27.6,
        "FBELO": 6.0,
        "FBCRD": 82.1,
        "FBCLB": 8.7,
        "FBTCT": 8.0,
        "FBTAR": 0.11,
        "FBSFI": 12.6,
        "haids": [
            "642486668ac5470f56883bfa",
            "642486668ac5470f56883bfb"
        ]
    },
    "_id": "64246dc78ac5470a33c9fe1a",
    "pid": "64246dc78ac5470a33c9fe1a"
}{
    "type": "Feature",
    "geometry": {
        "type": "Polygon",
        "coordinates": [
            [
                [
                    -111.97766837,
                    33.07884273
                ],
                [
                    -111.97795136,
                    33.07884413
                ],
                [
                    -111.97794906,
                    33.07917402
                ],
                [
                    -111.97766606,
                    33.07917262
                ],
                [
                    -111.97766837,
                    33.07884273
                ]
            ]
        ]
    },
    "properties": {
        "plt_label": "p23",
        "trt_label": "VRI",
        "PLT_AREA": 966.191616,
        "HARM": "Hand",
        "HADAT": "10/22/2020",
        "WBWAH": 3026.6,
        "GNDAT": "10/30/2020",
        "FFRAC": 0.3415,
        "SFRAC": 0.3171,
        "TFRAC": 0.3415,
        "FWCAG": 3.41,
        "SWCAG": 3.73,
        "WFWAH": 1033.5,
        "WSWAH": 959.6,
        "WSCWAH": 1993.1,
        "DFWAH": 998.3,
        "DSWAH": 923.9,
        "DSCWAH": 1922.1,
        "QLDAT": "11/19/2020",
        "FBMIC": 38.6,
        "FBLTH": 1.056,
        "FBUNI": 78.1,
        "FBSTR": 26.4,
        "FBELO": 6.0,
        "FBCRD": 82.1,
        "FBCLB": 8.8,
        "FBTCT": 8.0,
        "FBTAR": 0.13,
        "FBSFI": 13.8,
        "haids": [
            "642486668ac5470f56883bfc",
            "642486668ac5470f56883bfd"
        ]
    },
    "_id": "64246dc78ac5470a33c9fe1b",
    "pid": "64246dc78ac5470a33c9fe1b"
}{
    "type": "Feature",
    "geometry": {
        "type": "Polygon",
        "coordinates": [
            [
                [
                    -111.97767099,
                    33.07846747
                ],
                [
                    -111.97795398,
                    33.07846887
                ],
                [
                    -111.97795168,
                    33.07879876
                ],
                [
                    -111.97766868,
                    33.07879736
                ],
                [
                    -111.97767099,
                    33.07846747
                ]
            ]
        ]
    },
    "properties": {
        "plt_label": "p24",
        "trt_label": "SOL",
        "PLT_AREA": 966.191616,
        "HARM": "Hand",
        "HADAT": "10/22/2020",
        "WBWAH": 3297.2,
        "GNDAT": "10/30/2020",
        "FFRAC": 0.3582,
        "SFRAC": 0.3358,
        "TFRAC": 0.306,
        "FWCAG": 3.33,
        "SWCAG": 3.79,
        "WFWAH": 1181.1,
        "WSWAH": 1107.3,
        "WSCWAH": 2288.4,
        "DFWAH": 1141.8,
        "DSWAH": 1065.3,
        "DSCWAH": 2207.0,
        "QLDAT": "11/19/2020",
        "FBMIC": 41.2,
        "FBLTH": 1.04,
        "FBUNI": 77.8,
        "FBSTR": 25.9,
        "FBELO": 6.1,
        "FBCRD": 81.6,
        "FBCLB": 8.8,
        "FBTCT": 10.0,
        "FBTAR": 0.17,
        "FBSFI": 15.4,
        "haids": [
            "642486668ac5470f56883bfe",
            "642486668ac5470f56883bff"
        ]
    },
    "_id": "64246dc78ac5470a33c9fe1c",
    "pid": "64246dc78ac5470a33c9fe1c"
}{
    "type": "Feature",
    "geometry": {
        "type": "Polygon",
        "coordinates": [
            [
                [
                    -111.97735929,
                    33.07959173
                ],
                [
                    -111.97764229,
                    33.07959313
                ],
                [
                    -111.97763998,
                    33.07992302
                ],
                [
                    -111.97735698,
                    33.07992162
                ],
                [
                    -111.97735929,
                    33.07959173
                ]
            ]
        ]
    },
    "properties": {
        "plt_label": "p31",
        "trt_label": "VRI",
        "PLT_AREA": 966.191616,
        "HARM": "Hand",
        "HADAT": "10/22/2020",
        "WBWAH": 3457.2,
        "GNDAT": "10/30/2020",
        "FFRAC": 0.3488,
        "SFRAC": 0.3559,
        "TFRAC": 0.2954,
        "FWCAG": 3.12,
        "SWCAG": 3.96,
        "WFWAH": 1205.7,
        "WSWAH": 1230.3,
        "WSCWAH": 2436.0,
        "DFWAH": 1168.1,
        "DSWAH": 1181.6,
        "DSCWAH": 2349.7,
        "QLDAT": "11/19/2020",
        "FBMIC": 40.8,
        "FBLTH": 1.051,
        "FBUNI": 79.1,
        "FBSTR": 27.0,
        "FBELO": 6.0,
        "FBCRD": 80.0,
        "FBCLB": 8.6,
        "FBTCT": 6.0,
        "FBTAR": 0.09,
        "FBSFI": 13.2,
        "haids": [
            "642486668ac5470f56883c00",
            "642486668ac5470f56883c01"
        ]
    },
    "_id": "64246dc78ac5470a33c9fe1d",
    "pid": "64246dc78ac5470a33c9fe1d"
}{
    "type": "Feature",
    "geometry": {
        "type": "Polygon",
        "coordinates": [
            [
                [
                    -111.97736191,
                    33.07921648
                ],
                [
                    -111.97764491,
                    33.07921788
                ],
                [
                    -111.9776426,
                    33.07954776
                ],
                [
                    -111.9773596,
                    33.07954636
                ],
                [
                    -111.97736191,
                    33.07921648
                ]
            ]
        ]
    },
    "properties": {
        "plt_label": "p32",
        "trt_label": "SOL",
        "PLT_AREA": 966.191616,
        "HARM": "Hand",
        "HADAT": "10/22/2020",
        "WBWAH": 4478.3,
        "GNDAT": "10/30/2020",
        "FFRAC": 0.3681,
        "SFRAC": 0.4121,
        "TFRAC": 0.2198,
        "FWCAG": 3.06,
        "SWCAG": 3.85,
        "WFWAH": 1648.6,
        "WSWAH": 1845.5,
        "WSCWAH": 3494.1,
        "DFWAH": 1598.1,
        "DSWAH": 1774.4,
        "DSCWAH": 3372.5,
        "QLDAT": "11/19/2020",
        "FBMIC": 41.0,
        "FBLTH": 1.095,
        "FBUNI": 79.6,
        "FBSTR": 28.1,
        "FBELO": 6.0,
        "FBCRD": 83.0,
        "FBCLB": 8.8,
        "FBTCT": 5.0,
        "FBTAR": 0.14,
        "FBSFI": 10.6,
        "haids": [
            "642486668ac5470f56883c02",
            "642486668ac5470f56883c03"
        ]
    },
    "_id": "64246dc78ac5470a33c9fe1e",
    "pid": "64246dc78ac5470a33c9fe1e"
}{
    "type": "Feature",
    "geometry": {
        "type": "Polygon",
        "coordinates": [
            [
                [
                    -111.97736453,
                    33.07884122
                ],
                [
                    -111.97764753,
                    33.07884262
                ],
                [
                    -111.97764522,
                    33.07917251
                ],
                [
                    -111.97736223,
                    33.07917111
                ],
                [
                    -111.97736453,
                    33.07884122
                ]
            ]
        ]
    },
    "properties": {
        "plt_label": "p33",
        "trt_label": "MDL",
        "PLT_AREA": 966.191616,
        "HARM": "Hand",
        "HADAT": "10/22/2020",
        "WBWAH": 3494.1,
        "GNDAT": "10/30/2020",
        "FFRAC": 0.3521,
        "SFRAC": 0.3521,
        "TFRAC": 0.2958,
        "FWCAG": 2.5,
        "SWCAG": 3.89,
        "WFWAH": 1230.3,
        "WSWAH": 1230.3,
        "WSCWAH": 2460.6,
        "DFWAH": 1199.6,
        "DSWAH": 1182.4,
        "DSCWAH": 2382.0,
        "QLDAT": "11/19/2020",
        "FBMIC": 39.2,
        "FBLTH": 1.045,
        "FBUNI": 78.8,
        "FBSTR": 27.0,
        "FBELO": 6.0,
        "FBCRD": 81.8,
        "FBCLB": 8.3,
        "FBTCT": 10.0,
        "FBTAR": 0.1,
        "FBSFI": 13.6,
        "haids": [
            "642486668ac5470f56883c04",
            "642486668ac5470f56883c05"
        ]
    },
    "_id": "64246dc78ac5470a33c9fe1f",
    "pid": "64246dc78ac5470a33c9fe1f"
}{
    "type": "Feature",
    "geometry": {
        "type": "Polygon",
        "coordinates": [
            [
                [
                    -111.97736715,
                    33.07846596
                ],
                [
                    -111.97765015,
                    33.07846737
                ],
                [
                    -111.97764784,
                    33.07879725
                ],
                [
                    -111.97736485,
                    33.07879585
                ],
                [
                    -111.97736715,
                    33.07846596
                ]
            ]
        ]
    },
    "properties": {
        "plt_label": "p34",
        "trt_label": "SOL",
        "PLT_AREA": 966.191616,
        "HARM": "Hand",
        "HADAT": "10/22/2020",
        "WBWAH": 3641.7,
        "GNDAT": "10/30/2020",
        "FFRAC": 0.3311,
        "SFRAC": 0.3716,
        "TFRAC": 0.2973,
        "FWCAG": 3.1,
        "SWCAG": 3.98,
        "WFWAH": 1205.7,
        "WSWAH": 1353.3,
        "WSCWAH": 2559.1,
        "DFWAH": 1168.4,
        "DSWAH": 1299.4,
        "DSCWAH": 2467.8,
        "QLDAT": "11/19/2020",
        "FBMIC": 40.0,
        "FBLTH": 1.087,
        "FBUNI": 79.1,
        "FBSTR": 27.4,
        "FBELO": 6.0,
        "FBCRD": 82.4,
        "FBCLB": 8.5,
        "FBTCT": 7.0,
        "FBTAR": 0.07,
        "FBSFI": 11.6,
        "haids": [
            "642486668ac5470f56883c06",
            "642486668ac5470f56883c07"
        ]
    },
    "_id": "64246dc78ac5470a33c9fe20",
    "pid": "64246dc78ac5470a33c9fe20"
}{
    "type": "Feature",
    "geometry": {
        "type": "Polygon",
        "coordinates": [
            [
                [
                    -111.97705452,
                    33.07959022
                ],
                [
                    -111.97733752,
                    33.07959163
                ],
                [
                    -111.97733521,
                    33.07992151
                ],
                [
                    -111.97705221,
                    33.07992011
                ],
                [
                    -111.97705452,
                    33.07959022
                ]
            ]
        ]
    },
    "properties": {
        "plt_label": "p41",
        "trt_label": "UAS",
        "PLT_AREA": 966.191616,
        "HARM": "Hand",
        "HADAT": "10/23/2019",
        "WBWAH": 2940.5,
        "GNDAT": "10/30/2020",
        "FFRAC": 0.3598,
        "SFRAC": 0.3013,
        "TFRAC": 0.3389,
        "FWCAG": 2.95,
        "SWCAG": 3.57,
        "WFWAH": 1058.1,
        "WSWAH": 885.8,
        "WSCWAH": 1943.9,
        "DFWAH": 1026.8,
        "DSWAH": 854.2,
        "DSCWAH": 1881.0,
        "QLDAT": "11/19/2020",
        "FBMIC": 39.5,
        "FBLTH": 0.992,
        "FBUNI": 76.7,
        "FBSTR": 24.2,
        "FBELO": 6.2,
        "FBCRD": 80.7,
        "FBCLB": 8.8,
        "FBTCT": 10.0,
        "FBTAR": 0.12,
        "FBSFI": 18.8,
        "haids": [
            "642486668ac5470f56883c08",
            "642486668ac5470f56883c09"
        ]
    },
    "_id": "64246dc78ac5470a33c9fe21",
    "pid": "64246dc78ac5470a33c9fe21"
}{
    "type": "Feature",
    "geometry": {
        "type": "Polygon",
        "coordinates": [
            [
                [
                    -111.97705714,
                    33.07921497
                ],
                [
                    -111.97734014,
                    33.07921637
                ],
                [
                    -111.97733784,
                    33.07954625
                ],
                [
                    -111.97705484,
                    33.07954485
                ],
                [
                    -111.97705714,
                    33.07921497
                ]
            ]
        ]
    },
    "properties": {
        "plt_label": "p42",
        "trt_label": "MDL",
        "PLT_AREA": 966.191616,
        "HARM": "Hand",
        "HADAT": "10/23/2019",
        "WBWAH": 4096.9,
        "GNDAT": "10/30/2020",
        "FFRAC": 0.3784,
        "SFRAC": 0.3844,
        "TFRAC": 0.2372,
        "FWCAG": 2.96,
        "SWCAG": 3.95,
        "WFWAH": 1550.2,
        "WSWAH": 1574.8,
        "WSCWAH": 3125.0,
        "DFWAH": 1504.3,
        "DSWAH": 1512.6,
        "DSCWAH": 3016.9,
        "QLDAT": "11/19/2020",
        "FBMIC": 44.1,
        "FBLTH": 1.066,
        "FBUNI": 78.8,
        "FBSTR": 27.3,
        "FBELO": 6.0,
        "FBCRD": 82.2,
        "FBCLB": 8.5,
        "FBTCT": 6.0,
        "FBTAR": 0.12,
        "FBSFI": 12.9,
        "haids": [
            "642486668ac5470f56883c0a",
            "642486668ac5470f56883c0b"
        ]
    },
    "_id": "64246dc78ac5470a33c9fe22",
    "pid": "64246dc78ac5470a33c9fe22"
}{
    "type": "Feature",
    "geometry": {
        "type": "Polygon",
        "coordinates": [
            [
                [
                    -111.97705977,
                    33.07883971
                ],
                [
                    -111.97734276,
                    33.07884111
                ],
                [
                    -111.97734046,
                    33.079171
                ],
                [
                    -111.97705746,
                    33.0791696
                ],
                [
                    -111.97705977,
                    33.07883971
                ]
            ]
        ]
    },
    "properties": {
        "plt_label": "p43",
        "trt_label": "UAS",
        "PLT_AREA": 966.191616,
        "HARM": "Hand",
        "HADAT": "10/23/2019",
        "WBWAH": 3592.5,
        "GNDAT": "10/30/2020",
        "FFRAC": 0.363,
        "SFRAC": 0.3836,
        "TFRAC": 0.2534,
        "FWCAG": 2.88,
        "SWCAG": 3.56,
        "WFWAH": 1304.1,
        "WSWAH": 1378.0,
        "WSCWAH": 2682.1,
        "DFWAH": 1266.6,
        "DSWAH": 1328.9,
        "DSCWAH": 2595.5,
        "QLDAT": "11/19/2020",
        "FBMIC": 38.0,
        "FBLTH": 1.066,
        "FBUNI": 78.2,
        "FBSTR": 27.6,
        "FBELO": 6.0,
        "FBCRD": 82.6,
        "FBCLB": 8.7,
        "FBTCT": 10.0,
        "FBTAR": 0.15,
        "FBSFI": 13.0,
        "haids": [
            "642486668ac5470f56883c0c",
            "642486668ac5470f56883c0d"
        ]
    },
    "_id": "64246dc78ac5470a33c9fe23",
    "pid": "64246dc78ac5470a33c9fe23"
}{
    "type": "Feature",
    "geometry": {
        "type": "Polygon",
        "coordinates": [
            [
                [
                    -111.97706239,
                    33.07846445
                ],
                [
                    -111.97734538,
                    33.07846586
                ],
                [
                    -111.97734308,
                    33.07879574
                ],
                [
                    -111.97706008,
                    33.07879434
                ],
                [
                    -111.97706239,
                    33.07846445
                ]
            ]
        ]
    },
    "properties": {
        "plt_label": "p44",
        "trt_label": "VRI",
        "PLT_AREA": 966.191616,
        "HARM": "Hand",
        "HADAT": "10/23/2019",
        "WBWAH": 2362.2,
        "GNDAT": "10/30/2020",
        "FFRAC": 0.3125,
        "SFRAC": 0.25,
        "TFRAC": 0.4375,
        "FWCAG": 3.29,
        "SWCAG": 3.88,
        "WFWAH": 738.2,
        "WSWAH": 590.6,
        "WSCWAH": 1328.7,
        "DFWAH": 713.9,
        "DSWAH": 567.7,
        "DSCWAH": 1281.5,
        "QLDAT": "11/19/2020",
        "FBMIC": 38.0,
        "FBLTH": 1.002,
        "FBUNI": 76.4,
        "FBSTR": 24.6,
        "FBELO": 6.2,
        "FBCRD": 81.4,
        "FBCLB": 9.0,
        "FBTCT": 6.0,
        "FBTAR": 0.16,
        "FBSFI": 18.0,
        "haids": [
            "642486668ac5470f56883c0e",
            "642486668ac5470f56883c0f"
        ]
    },
    "_id": "64246dc78ac5470a33c9fe24",
    "pid": "64246dc78ac5470a33c9fe24"
}{
    "type": "Feature",
    "geometry": {
        "type": "Polygon",
        "coordinates": [
            [
                [
                    -111.97675059,
                    33.07958871
                ],
                [
                    -111.97703359,
                    33.07959011
                ],
                [
                    -111.97703128,
                    33.07992
                ],
                [
                    -111.97674828,
                    33.07991859
                ],
                [
                    -111.97675059,
                    33.07958871
                ]
            ]
        ]
    },
    "properties": {
        "plt_label": "p51",
        "trt_label": "SOL",
        "PLT_AREA": 966.191616,
        "HARM": "Hand",
        "HADAT": "10/23/2019",
        "WBWAH": 4773.6,
        "GNDAT": "10/30/2020",
        "FFRAC": 0.3763,
        "SFRAC": 0.4124,
        "TFRAC": 0.2113,
        "FWCAG": 2.82,
        "SWCAG": 3.7,
        "WFWAH": 1796.3,
        "WSWAH": 1968.5,
        "WSCWAH": 3764.8,
        "DFWAH": 1745.6,
        "DSWAH": 1895.8,
        "DSCWAH": 3641.3,
        "QLDAT": "11/19/2020",
        "FBMIC": 42.6,
        "FBLTH": 1.059,
        "FBUNI": 78.3,
        "FBSTR": 26.8,
        "FBELO": 6.0,
        "FBCRD": 81.7,
        "FBCLB": 8.5,
        "FBTCT": 8.0,
        "FBTAR": 0.12,
        "FBSFI": 13.6,
        "haids": [
            "642486668ac5470f56883c10",
            "642486668ac5470f56883c11"
        ]
    },
    "_id": "64246dc78ac5470a33c9fe25",
    "pid": "64246dc78ac5470a33c9fe25"
}{
    "type": "Feature",
    "geometry": {
        "type": "Polygon",
        "coordinates": [
            [
                [
                    -111.97675321,
                    33.07921345
                ],
                [
                    -111.97703621,
                    33.07921486
                ],
                [
                    -111.97703391,
                    33.07954474
                ],
                [
                    -111.97675091,
                    33.07954334
                ],
                [
                    -111.97675321,
                    33.07921345
                ]
            ]
        ]
    },
    "properties": {
        "plt_label": "p52",
        "trt_label": "MDL",
        "PLT_AREA": 966.191616,
        "HARM": "Hand",
        "HADAT": "10/23/2019",
        "WBWAH": 4761.3,
        "GNDAT": "10/30/2020",
        "FFRAC": 0.3721,
        "SFRAC": 0.4186,
        "TFRAC": 0.2093,
        "FWCAG": 3.43,
        "SWCAG": 3.98,
        "WFWAH": 1771.7,
        "WSWAH": 1993.1,
        "WSCWAH": 3764.8,
        "DFWAH": 1710.9,
        "DSWAH": 1913.8,
        "DSCWAH": 3624.7,
        "QLDAT": "11/19/2020",
        "FBMIC": 43.1,
        "FBLTH": 1.078,
        "FBUNI": 79.2,
        "FBSTR": 27.2,
        "FBELO": 6.1,
        "FBCRD": 82.6,
        "FBCLB": 8.2,
        "FBTCT": 6.0,
        "FBTAR": 0.1,
        "FBSFI": 12.7,
        "haids": [
            "642486668ac5470f56883c12",
            "642486668ac5470f56883c13"
        ]
    },
    "_id": "64246dc78ac5470a33c9fe26",
    "pid": "64246dc78ac5470a33c9fe26"
}{
    "type": "Feature",
    "geometry": {
        "type": "Polygon",
        "coordinates": [
            [
                [
                    -111.97675584,
                    33.0788382
                ],
                [
                    -111.97703883,
                    33.0788396
                ],
                [
                    -111.97703653,
                    33.07916949
                ],
                [
                    -111.97675353,
                    33.07916808
                ],
                [
                    -111.97675584,
                    33.0788382
                ]
            ]
        ]
    },
    "properties": {
        "plt_label": "p53",
        "trt_label": "VRI",
        "PLT_AREA": 966.191616,
        "HARM": "Hand",
        "HADAT": "10/23/2019",
        "WBWAH": 3137.3,
        "GNDAT": "10/30/2020",
        "FFRAC": 0.3529,
        "SFRAC": 0.3137,
        "TFRAC": 0.3333,
        "FWCAG": 2.72,
        "SWCAG": 3.55,
        "WFWAH": 1107.3,
        "WSWAH": 984.3,
        "WSCWAH": 2091.5,
        "DFWAH": 1077.1,
        "DSWAH": 949.3,
        "DSCWAH": 2026.4,
        "QLDAT": "11/19/2020",
        "FBMIC": 41.2,
        "FBLTH": 1.04,
        "FBUNI": 77.9,
        "FBSTR": 26.3,
        "FBELO": 5.8,
        "FBCRD": 82.1,
        "FBCLB": 8.8,
        "FBTCT": 6.0,
        "FBTAR": 0.3,
        "FBSFI": 14.5,
        "haids": [
            "642486668ac5470f56883c14",
            "642486668ac5470f56883c15"
        ]
    },
    "_id": "64246dc78ac5470a33c9fe27",
    "pid": "64246dc78ac5470a33c9fe27"
}{
    "type": "Feature",
    "geometry": {
        "type": "Polygon",
        "coordinates": [
            [
                [
                    -111.97675846,
                    33.07846294
                ],
                [
                    -111.97704146,
                    33.07846435
                ],
                [
                    -111.97703915,
                    33.07879423
                ],
                [
                    -111.97675616,
                    33.07879283
                ],
                [
                    -111.97675846,
                    33.07846294
                ]
            ]
        ]
    },
    "properties": {
        "plt_label": "p54",
        "trt_label": "UAS",
        "PLT_AREA": 966.191616,
        "HARM": "Hand",
        "HADAT": "10/23/2019",
        "WBWAH": 2620.6,
        "GNDAT": "10/30/2020",
        "FFRAC": 0.3474,
        "SFRAC": 0.3005,
        "TFRAC": 0.3521,
        "FWCAG": 2.69,
        "SWCAG": 3.83,
        "WFWAH": 910.4,
        "WSWAH": 787.4,
        "WSCWAH": 1697.8,
        "DFWAH": 885.9,
        "DSWAH": 757.2,
        "DSCWAH": 1643.1,
        "QLDAT": "11/19/2020",
        "FBMIC": 38.1,
        "FBLTH": 1.01,
        "FBUNI": 76.8,
        "FBSTR": 25.2,
        "FBELO": 6.0,
        "FBCRD": 81.0,
        "FBCLB": 8.8,
        "FBTCT": 6.0,
        "FBTAR": 0.11,
        "FBSFI": 16.2,
        "haids": [
            "642486668ac5470f56883c16",
            "642486668ac5470f56883c17"
        ]
    },
    "_id": "64246dc78ac5470a33c9fe28",
    "pid": "64246dc78ac5470a33c9fe28"
}{
    "type": "Feature",
    "geometry": {
        "type": "Polygon",
        "coordinates": [
            [
                [
                    -111.97644582,
                    33.0795872
                ],
                [
                    -111.97672882,
                    33.0795886
                ],
                [
                    -111.97672651,
                    33.07991849
                ],
                [
                    -111.97644351,
                    33.07991708
                ],
                [
                    -111.97644582,
                    33.0795872
                ]
            ]
        ]
    },
    "properties": {
        "plt_label": "p61",
        "trt_label": "VRI",
        "PLT_AREA": 966.191616,
        "HARM": "Hand",
        "HADAT": "10/23/2019",
        "WBWAH": 2915.8,
        "GNDAT": "10/30/2020",
        "FFRAC": 0.346,
        "SFRAC": 0.3038,
        "TFRAC": 0.3502,
        "FWCAG": 2.65,
        "SWCAG": 3.81,
        "WFWAH": 1008.9,
        "WSWAH": 885.8,
        "WSCWAH": 1894.7,
        "DFWAH": 982.1,
        "DSWAH": 852.1,
        "DSCWAH": 1834.2,
        "QLDAT": "11/19/2020",
        "FBMIC": 39.9,
        "FBLTH": 1.034,
        "FBUNI": 78.8,
        "FBSTR": 26.1,
        "FBELO": 6.0,
        "FBCRD": 81.2,
        "FBCLB": 8.6,
        "FBTCT": 16.0,
        "FBTAR": 0.36,
        "FBSFI": 13.6,
        "haids": [
            "642486668ac5470f56883c18",
            "642486668ac5470f56883c19"
        ]
    },
    "_id": "64246dc78ac5470a33c9fe29",
    "pid": "64246dc78ac5470a33c9fe29"
}{
    "type": "Feature",
    "geometry": {
        "type": "Polygon",
        "coordinates": [
            [
                [
                    -111.97644845,
                    33.07921194
                ],
                [
                    -111.97673144,
                    33.07921335
                ],
                [
                    -111.97672914,
                    33.07954323
                ],
                [
                    -111.97644614,
                    33.07954183
                ],
                [
                    -111.97644845,
                    33.07921194
                ]
            ]
        ]
    },
    "properties": {
        "plt_label": "p62",
        "trt_label": "UAS",
        "PLT_AREA": 966.191616,
        "HARM": "Hand",
        "HADAT": "10/23/2019",
        "WBWAH": 2989.7,
        "GNDAT": "10/30/2020",
        "FFRAC": 0.3539,
        "SFRAC": 0.3128,
        "TFRAC": 0.3333,
        "FWCAG": 2.92,
        "SWCAG": 3.98,
        "WFWAH": 1058.1,
        "WSWAH": 935.0,
        "WSCWAH": 1993.1,
        "DFWAH": 1027.2,
        "DSWAH": 897.9,
        "DSCWAH": 1925.0,
        "QLDAT": "11/19/2020",
        "FBMIC": 40.0,
        "FBLTH": 1.014,
        "FBUNI": 77.4,
        "FBSTR": 25.1,
        "FBELO": 6.0,
        "FBCRD": 80.8,
        "FBCLB": 9.0,
        "FBTCT": 12.0,
        "FBTAR": 0.3,
        "FBSFI": 16.5,
        "haids": [
            "642486668ac5470f56883c1a",
            "642486668ac5470f56883c1b"
        ]
    },
    "_id": "64246dc78ac5470a33c9fe2a",
    "pid": "64246dc78ac5470a33c9fe2a"
}{
    "type": "Feature",
    "geometry": {
        "type": "Polygon",
        "coordinates": [
            [
                [
                    -111.97645107,
                    33.07883669
                ],
                [
                    -111.97673407,
                    33.07883809
                ],
                [
                    -111.97673176,
                    33.07916798
                ],
                [
                    -111.97644876,
                    33.07916657
                ],
                [
                    -111.97645107,
                    33.07883669
                ]
            ]
        ]
    },
    "properties": {
        "plt_label": "p63",
        "trt_label": "SOL",
        "PLT_AREA": 966.191616,
        "HARM": "Hand",
        "HADAT": "10/23/2019",
        "WBWAH": 3801.7,
        "GNDAT": "10/30/2020",
        "FFRAC": 0.3689,
        "SFRAC": 0.3754,
        "TFRAC": 0.2557,
        "FWCAG": 2.48,
        "SWCAG": 3.82,
        "WFWAH": 1402.6,
        "WSWAH": 1427.2,
        "WSCWAH": 2829.7,
        "DFWAH": 1367.8,
        "DSWAH": 1372.6,
        "DSCWAH": 2740.4,
        "QLDAT": "11/19/2020",
        "FBMIC": 41.3,
        "FBLTH": 1.058,
        "FBUNI": 78.8,
        "FBSTR": 26.7,
        "FBELO": 6.0,
        "FBCRD": 83.0,
        "FBCLB": 8.4,
        "FBTCT": 6.0,
        "FBTAR": 0.12,
        "FBSFI": 12.9,
        "haids": [
            "642486668ac5470f56883c1c",
            "642486668ac5470f56883c1d"
        ]
    },
    "_id": "64246dc78ac5470a33c9fe2b",
    "pid": "64246dc78ac5470a33c9fe2b"
}{
    "type": "Feature",
    "geometry": {
        "type": "Polygon",
        "coordinates": [
            [
                [
                    -111.9764537,
                    33.07846143
                ],
                [
                    -111.97673669,
                    33.07846284
                ],
                [
                    -111.97673439,
                    33.07879272
                ],
                [
                    -111.97645139,
                    33.07879132
                ],
                [
                    -111.9764537,
                    33.07846143
                ]
            ]
        ]
    },
    "properties": {
        "plt_label": "p64",
        "trt_label": "MDL",
        "PLT_AREA": 966.191616,
        "HARM": "Hand",
        "HADAT": "10/23/2019",
        "WBWAH": 3051.2,
        "GNDAT": "10/30/2020",
        "FFRAC": 0.3468,
        "SFRAC": 0.3468,
        "TFRAC": 0.3065,
        "FWCAG": 2.79,
        "SWCAG": 3.51,
        "WFWAH": 1058.1,
        "WSWAH": 1058.1,
        "WSCWAH": 2116.1,
        "DFWAH": 1028.5,
        "DSWAH": 1020.9,
        "DSCWAH": 2049.5,
        "QLDAT": "11/19/2020",
        "FBMIC": 39.4,
        "FBLTH": 1.043,
        "FBUNI": 77.8,
        "FBSTR": 26.1,
        "FBELO": 6.1,
        "FBCRD": 81.4,
        "FBCLB": 8.8,
        "FBTCT": 8.0,
        "FBTAR": 0.12,
        "FBSFI": 14.2,
        "haids": [
            "642486668ac5470f56883c1e",
            "642486668ac5470f56883c1f"
        ]
    },
    "_id": "64246dc78ac5470a33c9fe2c",
    "pid": "64246dc78ac5470a33c9fe2c"
}