{
    "type": "Feature",
    "geometry": {
        "type": "Polygon",
        "coordinates": [
            [
                [
                    -111.97815165,
                    33.07977894
                ],
                [
                    -111.97817342,
                    33.07977905
                ],
                [
                    -111.97817329,
                    33.07979738
                ],
                [
                    -111.97815153,
                    33.07979727
                ],
                [
                    -111.97815165,
                    33.07977894
                ]
            ]
        ]
    },
    "properties": {
        "ha_label": "p11W",
        "HA_AREA": 4.129024,
        "HARM": "Hand",
        "HADAT": "10/22/2020",
        "WBWAH": 3912.4,
        "GNDAT": "10/30/2020",
        "FFRAC": 0.3774,
        "SFRAC": 0.3522,
        "TFRAC": 0.2704,
        "FWCAG": 3.5,
        "SWCAG": 3.78,
        "WFWAH": 1476.4,
        "WSWAH": 1378.0,
        "WSCWAH": 2854.3,
        "DFWAH": 1424.7,
        "DSWAH": 1325.8,
        "DSCWAH": 2750.5,
        "QLDAT": "11/19/2020",
        "FBMIC": 43.9,
        "FBLTH": 1.082,
        "FBUNI": 80.3,
        "FBSTR": 27.9,
        "FBELO": 5.9,
        "FBCRD": 79.7,
        "FBCLB": 7.8,
        "FBCGR": "31-1",
        "FBTCT": 7.0,
        "FBTAR": 0.1,
        "FBSFI": 10.5
    },
    "_id": "642486668ac5470f56883bf0",
    "haid": "642486668ac5470f56883bf0"
}{
    "type": "Feature",
    "geometry": {
        "type": "Polygon",
        "coordinates": [
            [
                [
                    -111.97804319,
                    33.07972342
                ],
                [
                    -111.97806496,
                    33.07972353
                ],
                [
                    -111.97806483,
                    33.07974186
                ],
                [
                    -111.97804306,
                    33.07974175
                ],
                [
                    -111.97804319,
                    33.07972342
                ]
            ]
        ]
    },
    "properties": {
        "ha_label": "p11E",
        "HA_AREA": 4.129024,
        "HARM": "Hand",
        "HADAT": "10/22/2020",
        "WBWAH": 4060.0,
        "GNDAT": "10/30/2020",
        "FFRAC": 0.3758,
        "SFRAC": 0.3758,
        "TFRAC": 0.2485,
        "FWCAG": 3.75,
        "SWCAG": 3.61,
        "WFWAH": 1525.6,
        "WSWAH": 1525.6,
        "WSCWAH": 3051.2,
        "DFWAH": 1468.4,
        "DSWAH": 1470.6,
        "DSCWAH": 2939.0,
        "QLDAT": "11/19/2020",
        "FBMIC": 42.0,
        "FBLTH": 1.075,
        "FBUNI": 79.4,
        "FBSTR": 28.6,
        "FBELO": 5.9,
        "FBCRD": 81.3,
        "FBCLB": 8.7,
        "FBCGR": "21-1",
        "FBTCT": 6.0,
        "FBTAR": 0.07,
        "FBSFI": 12.1
    },
    "_id": "642486668ac5470f56883bf1",
    "haid": "642486668ac5470f56883bf1"
}{
    "type": "Feature",
    "geometry": {
        "type": "Polygon",
        "coordinates": [
            [
                [
                    -111.97815427,
                    33.07940368
                ],
                [
                    -111.97817604,
                    33.07940379
                ],
                [
                    -111.97817591,
                    33.07942212
                ],
                [
                    -111.97815414,
                    33.07942201
                ],
                [
                    -111.97815427,
                    33.07940368
                ]
            ]
        ]
    },
    "properties": {
        "ha_label": "p12W",
        "HA_AREA": 4.129024,
        "HARM": "Hand",
        "HADAT": "10/22/2020",
        "WBWAH": 2977.4,
        "GNDAT": "10/30/2020",
        "FFRAC": 0.3636,
        "SFRAC": 0.281,
        "TFRAC": 0.3554,
        "FWCAG": 3.48,
        "SWCAG": 3.71,
        "WFWAH": 1082.7,
        "WSWAH": 836.6,
        "WSCWAH": 1919.3,
        "DFWAH": 1045.0,
        "DSWAH": 805.6,
        "DSCWAH": 1850.6,
        "QLDAT": "11/19/2020",
        "FBMIC": 40.4,
        "FBLTH": 1.036,
        "FBUNI": 79.7,
        "FBSTR": 26.6,
        "FBELO": 5.6,
        "FBCRD": 80.7,
        "FBCLB": 8.5,
        "FBCGR": "21-1",
        "FBTCT": 16.0,
        "FBTAR": 0.64,
        "FBSFI": 12.2
    },
    "_id": "642486668ac5470f56883bf2",
    "haid": "642486668ac5470f56883bf2"
}{
    "type": "Feature",
    "geometry": {
        "type": "Polygon",
        "coordinates": [
            [
                [
                    -111.97804581,
                    33.07934816
                ],
                [
                    -111.97806758,
                    33.07934827
                ],
                [
                    -111.97806745,
                    33.0793666
                ],
                [
                    -111.97804568,
                    33.07936649
                ],
                [
                    -111.97804581,
                    33.07934816
                ]
            ]
        ]
    },
    "properties": {
        "ha_label": "p12E",
        "HA_AREA": 4.129024,
        "HARM": "Hand",
        "HADAT": "10/22/2020",
        "WBWAH": 1722.4,
        "GNDAT": "10/30/2020",
        "FFRAC": 0.3143,
        "SFRAC": 0.1143,
        "TFRAC": 0.5714,
        "FWCAG": 3.83,
        "SWCAG": 3.76,
        "WFWAH": 541.3,
        "WSWAH": 196.9,
        "WSCWAH": 738.2,
        "DFWAH": 520.6,
        "DSWAH": 189.5,
        "DSCWAH": 710.1,
        "QLDAT": "11/19/2020",
        "FBMIC": 42.4,
        "FBLTH": 0.99,
        "FBUNI": 76.2,
        "FBSTR": 23.1,
        "FBELO": 6.0,
        "FBCRD": 80.7,
        "FBCLB": 9.1,
        "FBCGR": "11-2",
        "FBTCT": 18.0,
        "FBTAR": 0.26,
        "FBSFI": 18.7
    },
    "_id": "642486668ac5470f56883bf3",
    "haid": "642486668ac5470f56883bf3"
}{
    "type": "Feature",
    "geometry": {
        "type": "Polygon",
        "coordinates": [
            [
                [
                    -111.97815689,
                    33.07902842
                ],
                [
                    -111.97817866,
                    33.07902853
                ],
                [
                    -111.97817853,
                    33.07904686
                ],
                [
                    -111.97815676,
                    33.07904675
                ],
                [
                    -111.97815689,
                    33.07902842
                ]
            ]
        ]
    },
    "properties": {
        "ha_label": "p13W",
        "HA_AREA": 4.129024,
        "HARM": "Hand",
        "HADAT": "10/22/2020",
        "WBWAH": 1845.5,
        "GNDAT": "10/30/2020",
        "FFRAC": 0.32,
        "SFRAC": 0.16,
        "TFRAC": 0.52,
        "FWCAG": 3.41,
        "SWCAG": 3.9,
        "WFWAH": 590.6,
        "WSWAH": 295.3,
        "WSCWAH": 885.8,
        "DFWAH": 570.4,
        "DSWAH": 283.8,
        "DSCWAH": 854.2,
        "QLDAT": "11/19/2020",
        "FBMIC": 38.8,
        "FBLTH": 1.029,
        "FBUNI": 78.6,
        "FBSTR": 25.8,
        "FBELO": 5.8,
        "FBCRD": 80.8,
        "FBCLB": 9.2,
        "FBCGR": "11-1",
        "FBTCT": 11.0,
        "FBTAR": 0.19,
        "FBSFI": 14.5
    },
    "_id": "642486668ac5470f56883bf4",
    "haid": "642486668ac5470f56883bf4"
}{
    "type": "Feature",
    "geometry": {
        "type": "Polygon",
        "coordinates": [
            [
                [
                    -111.97804843,
                    33.07897291
                ],
                [
                    -111.9780702,
                    33.07897301
                ],
                [
                    -111.97807007,
                    33.07899134
                ],
                [
                    -111.9780483,
                    33.07899123
                ],
                [
                    -111.97804843,
                    33.07897291
                ]
            ]
        ]
    },
    "properties": {
        "ha_label": "p13E",
        "HA_AREA": 4.129024,
        "HARM": "Hand",
        "HADAT": "10/22/2020",
        "WBWAH": 2091.5,
        "GNDAT": "10/30/2020",
        "FFRAC": 0.3294,
        "SFRAC": 0.2588,
        "TFRAC": 0.4118,
        "FWCAG": 8.02,
        "SWCAG": 3.73,
        "WFWAH": 689.0,
        "WSWAH": 541.3,
        "WSCWAH": 1230.3,
        "DFWAH": 633.7,
        "DSWAH": 521.2,
        "DSCWAH": 1154.9,
        "QLDAT": "11/19/2020",
        "FBMIC": 35.4,
        "FBLTH": 1.011,
        "FBUNI": 78.6,
        "FBSTR": 25.1,
        "FBELO": 5.9,
        "FBCRD": 78.9,
        "FBCLB": 9.0,
        "FBCGR": "21-1",
        "FBTCT": 6.0,
        "FBTAR": 0.06,
        "FBSFI": 14.5
    },
    "_id": "642486668ac5470f56883bf5",
    "haid": "642486668ac5470f56883bf5"
}{
    "type": "Feature",
    "geometry": {
        "type": "Polygon",
        "coordinates": [
            [
                [
                    -111.97815951,
                    33.07865317
                ],
                [
                    -111.97818128,
                    33.07865327
                ],
                [
                    -111.97818115,
                    33.0786716
                ],
                [
                    -111.97815938,
                    33.07867149
                ],
                [
                    -111.97815951,
                    33.07865317
                ]
            ]
        ]
    },
    "properties": {
        "ha_label": "p14W",
        "HA_AREA": 4.129024,
        "HARM": "Hand",
        "HADAT": "10/22/2020",
        "WBWAH": 4133.9,
        "GNDAT": "10/30/2020",
        "FFRAC": 0.369,
        "SFRAC": 0.381,
        "TFRAC": 0.25,
        "FWCAG": 3.27,
        "SWCAG": 3.77,
        "WFWAH": 1525.6,
        "WSWAH": 1574.8,
        "WSCWAH": 3100.4,
        "DFWAH": 1475.7,
        "DSWAH": 1515.4,
        "DSCWAH": 2991.1,
        "QLDAT": "11/19/2020",
        "FBMIC": 45.2,
        "FBLTH": 1.085,
        "FBUNI": 79.8,
        "FBSTR": 27.8,
        "FBELO": 5.9,
        "FBCRD": 82.1,
        "FBCLB": 8.5,
        "FBCGR": "11-2",
        "FBTCT": 4.0,
        "FBTAR": 0.04,
        "FBSFI": 10.8
    },
    "_id": "642486668ac5470f56883bf6",
    "haid": "642486668ac5470f56883bf6"
}{
    "type": "Feature",
    "geometry": {
        "type": "Polygon",
        "coordinates": [
            [
                [
                    -111.97805105,
                    33.07859765
                ],
                [
                    -111.97807282,
                    33.07859775
                ],
                [
                    -111.97807269,
                    33.07861608
                ],
                [
                    -111.97805092,
                    33.07861597
                ],
                [
                    -111.97805105,
                    33.07859765
                ]
            ]
        ]
    },
    "properties": {
        "ha_label": "p14E",
        "HA_AREA": 4.129024,
        "HARM": "Hand",
        "HADAT": "10/22/2020",
        "WBWAH": 2903.5,
        "GNDAT": "10/30/2020",
        "FFRAC": 0.3559,
        "SFRAC": 0.322,
        "TFRAC": 0.322,
        "FWCAG": 3.31,
        "SWCAG": 3.72,
        "WFWAH": 1033.5,
        "WSWAH": 935.0,
        "WSCWAH": 1968.5,
        "DFWAH": 999.2,
        "DSWAH": 900.2,
        "DSCWAH": 1899.5,
        "QLDAT": "11/19/2020",
        "FBMIC": 40.2,
        "FBLTH": 1.02,
        "FBUNI": 78.3,
        "FBSTR": 26.2,
        "FBELO": 6.0,
        "FBCRD": 81.4,
        "FBCLB": 8.6,
        "FBCGR": "21-1",
        "FBTCT": 12.0,
        "FBTAR": 0.12,
        "FBSFI": 15.3
    },
    "_id": "642486668ac5470f56883bf7",
    "haid": "642486668ac5470f56883bf7"
}{
    "type": "Feature",
    "geometry": {
        "type": "Polygon",
        "coordinates": [
            [
                [
                    -111.97784688,
                    33.07977743
                ],
                [
                    -111.97786865,
                    33.07977754
                ],
                [
                    -111.97786853,
                    33.07979587
                ],
                [
                    -111.97784676,
                    33.07979576
                ],
                [
                    -111.97784688,
                    33.07977743
                ]
            ]
        ]
    },
    "properties": {
        "ha_label": "p21W",
        "HA_AREA": 4.129024,
        "HARM": "Hand",
        "HADAT": "10/22/2020",
        "WBWAH": 3887.8,
        "GNDAT": "10/30/2020",
        "FFRAC": 0.3797,
        "SFRAC": 0.3797,
        "TFRAC": 0.2405,
        "FWCAG": 2.5,
        "SWCAG": 3.86,
        "WFWAH": 1476.4,
        "WSWAH": 1476.4,
        "WSCWAH": 2952.8,
        "DFWAH": 1439.5,
        "DSWAH": 1419.3,
        "DSCWAH": 2858.8,
        "QLDAT": "11/19/2020",
        "FBMIC": 41.3,
        "FBLTH": 1.056,
        "FBUNI": 79.2,
        "FBSTR": 26.5,
        "FBELO": 6.1,
        "FBCRD": 81.5,
        "FBCLB": 8.7,
        "FBCGR": "11-1",
        "FBTCT": 11.0,
        "FBTAR": 0.21,
        "FBSFI": 12.9
    },
    "_id": "642486668ac5470f56883bf8",
    "haid": "642486668ac5470f56883bf8"
}{
    "type": "Feature",
    "geometry": {
        "type": "Polygon",
        "coordinates": [
            [
                [
                    -111.97773842,
                    33.07972191
                ],
                [
                    -111.97776019,
                    33.07972202
                ],
                [
                    -111.97776006,
                    33.07974035
                ],
                [
                    -111.97773829,
                    33.07974024
                ],
                [
                    -111.97773842,
                    33.07972191
                ]
            ]
        ]
    },
    "properties": {
        "ha_label": "p21E",
        "HA_AREA": 4.129024,
        "HARM": "Hand",
        "HADAT": "10/22/2020",
        "WBWAH": 3641.7,
        "GNDAT": "10/30/2020",
        "FFRAC": 0.3378,
        "SFRAC": 0.3514,
        "TFRAC": 0.3108,
        "FWCAG": 6.68,
        "SWCAG": 3.8,
        "WFWAH": 1230.3,
        "WSWAH": 1279.5,
        "WSCWAH": 2509.8,
        "DFWAH": 1148.1,
        "DSWAH": 1230.9,
        "DSCWAH": 2379.0,
        "QLDAT": "11/19/2020",
        "FBMIC": 43.5,
        "FBLTH": 1.026,
        "FBUNI": 78.4,
        "FBSTR": 25.8,
        "FBELO": 5.9,
        "FBCRD": 81.3,
        "FBCLB": 8.5,
        "FBCGR": "21-1",
        "FBTCT": 11.0,
        "FBTAR": 0.38,
        "FBSFI": 14.7
    },
    "_id": "642486668ac5470f56883bf9",
    "haid": "642486668ac5470f56883bf9"
}{
    "type": "Feature",
    "geometry": {
        "type": "Polygon",
        "coordinates": [
            [
                [
                    -111.9778495,
                    33.07940217
                ],
                [
                    -111.97787127,
                    33.07940228
                ],
                [
                    -111.97787115,
                    33.07942061
                ],
                [
                    -111.97784938,
                    33.0794205
                ],
                [
                    -111.9778495,
                    33.07940217
                ]
            ]
        ]
    },
    "properties": {
        "ha_label": "p22W",
        "HA_AREA": 4.129024,
        "HARM": "Hand",
        "HADAT": "10/22/2020",
        "WBWAH": 4699.8,
        "GNDAT": "10/30/2020",
        "FFRAC": 0.3822,
        "SFRAC": 0.4084,
        "TFRAC": 0.2094,
        "FWCAG": 3.57,
        "SWCAG": 4.1,
        "WFWAH": 1796.3,
        "WSWAH": 1919.3,
        "WSCWAH": 3715.6,
        "DFWAH": 1732.1,
        "DSWAH": 1840.6,
        "DSCWAH": 3572.7,
        "QLDAT": "11/19/2020",
        "FBMIC": 40.5,
        "FBLTH": 1.084,
        "FBUNI": 79.6,
        "FBSTR": 27.7,
        "FBELO": 6.0,
        "FBCRD": 83.1,
        "FBCLB": 8.8,
        "FBCGR": "11-1",
        "FBTCT": 14.0,
        "FBTAR": 0.17,
        "FBSFI": 12.2
    },
    "_id": "642486668ac5470f56883bfa",
    "haid": "642486668ac5470f56883bfa"
}{
    "type": "Feature",
    "geometry": {
        "type": "Polygon",
        "coordinates": [
            [
                [
                    -111.97774104,
                    33.07934665
                ],
                [
                    -111.97776281,
                    33.07934676
                ],
                [
                    -111.97776268,
                    33.07936509
                ],
                [
                    -111.97774091,
                    33.07936498
                ],
                [
                    -111.97774104,
                    33.07934665
                ]
            ]
        ]
    },
    "properties": {
        "ha_label": "p22E",
        "HA_AREA": 4.129024,
        "HARM": "Hand",
        "HADAT": "10/22/2020",
        "WBWAH": 4306.1,
        "GNDAT": "10/30/2020",
        "FFRAC": 0.3657,
        "SFRAC": 0.3886,
        "TFRAC": 0.2457,
        "FWCAG": 3.5,
        "SWCAG": 4.06,
        "WFWAH": 1574.8,
        "WSWAH": 1673.2,
        "WSCWAH": 3248.0,
        "DFWAH": 1519.7,
        "DSWAH": 1605.4,
        "DSCWAH": 3125.0,
        "QLDAT": "11/19/2020",
        "FBMIC": 43.5,
        "FBLTH": 1.085,
        "FBUNI": 78.4,
        "FBSTR": 27.5,
        "FBELO": 6.1,
        "FBCRD": 81.1,
        "FBCLB": 8.6,
        "FBCGR": "21-1",
        "FBTCT": 2.0,
        "FBTAR": 0.04,
        "FBSFI": 13.1
    },
    "_id": "642486668ac5470f56883bfb",
    "haid": "642486668ac5470f56883bfb"
}{
    "type": "Feature",
    "geometry": {
        "type": "Polygon",
        "coordinates": [
            [
                [
                    -111.97785212,
                    33.07902692
                ],
                [
                    -111.97787389,
                    33.07902702
                ],
                [
                    -111.97787377,
                    33.07904535
                ],
                [
                    -111.977852,
                    33.07904524
                ],
                [
                    -111.97785212,
                    33.07902692
                ]
            ]
        ]
    },
    "properties": {
        "ha_label": "p23W",
        "HA_AREA": 4.129024,
        "HARM": "Hand",
        "HADAT": "10/22/2020",
        "WBWAH": 3272.6,
        "GNDAT": "10/30/2020",
        "FFRAC": 0.3609,
        "SFRAC": 0.3459,
        "TFRAC": 0.2932,
        "FWCAG": 3.43,
        "SWCAG": 3.73,
        "WFWAH": 1181.1,
        "WSWAH": 1131.9,
        "WSCWAH": 2313.0,
        "DFWAH": 1140.6,
        "DSWAH": 1089.7,
        "DSCWAH": 2230.3,
        "QLDAT": "11/19/2020",
        "FBMIC": 39.2,
        "FBLTH": 1.046,
        "FBUNI": 77.8,
        "FBSTR": 26.3,
        "FBELO": 5.9,
        "FBCRD": 81.7,
        "FBCLB": 8.7,
        "FBCGR": "11-1",
        "FBTCT": 9.0,
        "FBTAR": 0.15,
        "FBSFI": 14.9
    },
    "_id": "642486668ac5470f56883bfc",
    "haid": "642486668ac5470f56883bfc"
}{
    "type": "Feature",
    "geometry": {
        "type": "Polygon",
        "coordinates": [
            [
                [
                    -111.97774366,
                    33.0789714
                ],
                [
                    -111.97776543,
                    33.0789715
                ],
                [
                    -111.9777653,
                    33.07898983
                ],
                [
                    -111.97774354,
                    33.07898972
                ],
                [
                    -111.97774366,
                    33.0789714
                ]
            ]
        ]
    },
    "properties": {
        "ha_label": "p23E",
        "HA_AREA": 4.129024,
        "HARM": "Hand",
        "HADAT": "10/22/2020",
        "WBWAH": 2780.5,
        "GNDAT": "10/30/2020",
        "FFRAC": 0.3186,
        "SFRAC": 0.2832,
        "TFRAC": 0.3982,
        "FWCAG": 3.38,
        "SWCAG": 3.73,
        "WFWAH": 885.8,
        "WSWAH": 787.4,
        "WSCWAH": 1673.2,
        "DFWAH": 855.9,
        "DSWAH": 758.1,
        "DSCWAH": 1613.9,
        "QLDAT": "11/19/2020",
        "FBMIC": 37.9,
        "FBLTH": 1.067,
        "FBUNI": 78.4,
        "FBSTR": 26.4,
        "FBELO": 6.1,
        "FBCRD": 82.5,
        "FBCLB": 8.9,
        "FBCGR": "11-1",
        "FBTCT": 6.0,
        "FBTAR": 0.11,
        "FBSFI": 12.7
    },
    "_id": "642486668ac5470f56883bfd",
    "haid": "642486668ac5470f56883bfd"
}{
    "type": "Feature",
    "geometry": {
        "type": "Polygon",
        "coordinates": [
            [
                [
                    -111.97785474,
                    33.07865166
                ],
                [
                    -111.97787651,
                    33.07865177
                ],
                [
                    -111.97787638,
                    33.07867009
                ],
                [
                    -111.97785462,
                    33.07866998
                ],
                [
                    -111.97785474,
                    33.07865166
                ]
            ]
        ]
    },
    "properties": {
        "ha_label": "p24W",
        "HA_AREA": 4.129024,
        "HARM": "Hand",
        "HADAT": "10/22/2020",
        "WBWAH": 3174.2,
        "GNDAT": "10/30/2020",
        "FFRAC": 0.3566,
        "SFRAC": 0.3256,
        "TFRAC": 0.3178,
        "FWCAG": 3.33,
        "SWCAG": 3.75,
        "WFWAH": 1131.9,
        "WSWAH": 1033.5,
        "WSCWAH": 2165.4,
        "DFWAH": 1094.3,
        "DSWAH": 994.7,
        "DSCWAH": 2089.0,
        "QLDAT": "11/19/2020",
        "FBMIC": 42.2,
        "FBLTH": 0.999,
        "FBUNI": 76.5,
        "FBSTR": 24.5,
        "FBELO": 6.2,
        "FBCRD": 81.1,
        "FBCLB": 8.9,
        "FBCGR": "11-2",
        "FBTCT": 12.0,
        "FBTAR": 0.2,
        "FBSFI": 18.5
    },
    "_id": "642486668ac5470f56883bfe",
    "haid": "642486668ac5470f56883bfe"
}{
    "type": "Feature",
    "geometry": {
        "type": "Polygon",
        "coordinates": [
            [
                [
                    -111.97774628,
                    33.07859614
                ],
                [
                    -111.97776805,
                    33.07859625
                ],
                [
                    -111.97776792,
                    33.07861457
                ],
                [
                    -111.97774616,
                    33.07861446
                ],
                [
                    -111.97774628,
                    33.07859614
                ]
            ]
        ]
    },
    "properties": {
        "ha_label": "p24E",
        "HA_AREA": 4.129024,
        "HARM": "Hand",
        "HADAT": "10/22/2020",
        "WBWAH": 3420.3,
        "GNDAT": "10/30/2020",
        "FFRAC": 0.3597,
        "SFRAC": 0.3453,
        "TFRAC": 0.295,
        "FWCAG": 3.34,
        "SWCAG": 3.83,
        "WFWAH": 1230.3,
        "WSWAH": 1181.1,
        "WSCWAH": 2411.4,
        "DFWAH": 1189.3,
        "DSWAH": 1135.9,
        "DSCWAH": 2325.1,
        "QLDAT": "11/19/2020",
        "FBMIC": 40.3,
        "FBLTH": 1.082,
        "FBUNI": 79.1,
        "FBSTR": 27.3,
        "FBELO": 6.0,
        "FBCRD": 82.0,
        "FBCLB": 8.6,
        "FBCGR": "11-2",
        "FBTCT": 8.0,
        "FBTAR": 0.14,
        "FBSFI": 12.3
    },
    "_id": "642486668ac5470f56883bff",
    "haid": "642486668ac5470f56883bff"
}{
    "type": "Feature",
    "geometry": {
        "type": "Polygon",
        "coordinates": [
            [
                [
                    -111.97754305,
                    33.07977592
                ],
                [
                    -111.97756481,
                    33.07977603
                ],
                [
                    -111.97756469,
                    33.07979435
                ],
                [
                    -111.97754292,
                    33.07979425
                ],
                [
                    -111.97754305,
                    33.07977592
                ]
            ]
        ]
    },
    "properties": {
        "ha_label": "p31W",
        "HA_AREA": 4.129024,
        "HARM": "Hand",
        "HADAT": "10/22/2020",
        "WBWAH": 3592.5,
        "GNDAT": "10/30/2020",
        "FFRAC": 0.3425,
        "SFRAC": 0.3699,
        "TFRAC": 0.2877,
        "FWCAG": 2.98,
        "SWCAG": 3.92,
        "WFWAH": 1230.3,
        "WSWAH": 1328.7,
        "WSCWAH": 2559.1,
        "DFWAH": 1193.6,
        "DSWAH": 1276.6,
        "DSCWAH": 2470.2,
        "QLDAT": "11/19/2020",
        "FBMIC": 40.3,
        "FBLTH": 1.051,
        "FBUNI": 79.1,
        "FBSTR": 27.1,
        "FBELO": 6.0,
        "FBCRD": 82.7,
        "FBCLB": 8.9,
        "FBCGR": "11-1",
        "FBTCT": 6.0,
        "FBTAR": 0.12,
        "FBSFI": 13.0
    },
    "_id": "642486668ac5470f56883c00",
    "haid": "642486668ac5470f56883c00"
}{
    "type": "Feature",
    "geometry": {
        "type": "Polygon",
        "coordinates": [
            [
                [
                    -111.97743458,
                    33.0797204
                ],
                [
                    -111.97745635,
                    33.07972051
                ],
                [
                    -111.97745622,
                    33.07973883
                ],
                [
                    -111.97743446,
                    33.07973873
                ],
                [
                    -111.97743458,
                    33.0797204
                ]
            ]
        ]
    },
    "properties": {
        "ha_label": "p31E",
        "HA_AREA": 4.129024,
        "HARM": "Hand",
        "HADAT": "10/22/2020",
        "WBWAH": 3321.9,
        "GNDAT": "10/30/2020",
        "FFRAC": 0.3556,
        "SFRAC": 0.3407,
        "TFRAC": 0.3037,
        "FWCAG": 3.31,
        "SWCAG": 3.99,
        "WFWAH": 1181.1,
        "WSWAH": 1131.9,
        "WSCWAH": 2313.0,
        "DFWAH": 1142.0,
        "DSWAH": 1086.7,
        "DSCWAH": 2228.7,
        "QLDAT": "11/19/2020",
        "FBMIC": 41.2,
        "FBLTH": 1.052,
        "FBUNI": 79.1,
        "FBSTR": 26.8,
        "FBELO": 6.0,
        "FBCRD": 77.3,
        "FBCLB": 8.3,
        "FBCGR": "31-2",
        "FBTCT": 7.0,
        "FBTAR": 0.06,
        "FBSFI": 13.5
    },
    "_id": "642486668ac5470f56883c01",
    "haid": "642486668ac5470f56883c01"
}{
    "type": "Feature",
    "geometry": {
        "type": "Polygon",
        "coordinates": [
            [
                [
                    -111.97754567,
                    33.07940066
                ],
                [
                    -111.97756744,
                    33.07940077
                ],
                [
                    -111.97756731,
                    33.0794191
                ],
                [
                    -111.97754554,
                    33.07941899
                ],
                [
                    -111.97754567,
                    33.07940066
                ]
            ]
        ]
    },
    "properties": {
        "ha_label": "p32W",
        "HA_AREA": 4.129024,
        "HARM": "Hand",
        "HADAT": "10/22/2020",
        "WBWAH": 4773.6,
        "GNDAT": "10/30/2020",
        "FFRAC": 0.3711,
        "SFRAC": 0.4227,
        "TFRAC": 0.2062,
        "FWCAG": 3.0,
        "SWCAG": 3.84,
        "WFWAH": 1771.7,
        "WSWAH": 2017.7,
        "WSCWAH": 3789.4,
        "DFWAH": 1718.4,
        "DSWAH": 1940.3,
        "DSCWAH": 3658.8,
        "QLDAT": "11/19/2020",
        "FBMIC": 41.7,
        "FBLTH": 1.124,
        "FBUNI": 80.2,
        "FBSTR": 28.2,
        "FBELO": 6.0,
        "FBCRD": 83.0,
        "FBCLB": 8.8,
        "FBCGR": "11-1",
        "FBTCT": 6.0,
        "FBTAR": 0.09,
        "FBSFI": 10.1
    },
    "_id": "642486668ac5470f56883c02",
    "haid": "642486668ac5470f56883c02"
}{
    "type": "Feature",
    "geometry": {
        "type": "Polygon",
        "coordinates": [
            [
                [
                    -111.9774372,
                    33.07934514
                ],
                [
                    -111.97745897,
                    33.07934525
                ],
                [
                    -111.97745885,
                    33.07936358
                ],
                [
                    -111.97743708,
                    33.07936347
                ],
                [
                    -111.9774372,
                    33.07934514
                ]
            ]
        ]
    },
    "properties": {
        "ha_label": "p32E",
        "HA_AREA": 4.129024,
        "HARM": "Hand",
        "HADAT": "10/22/2020",
        "WBWAH": 4183.1,
        "GNDAT": "10/30/2020",
        "FFRAC": 0.3647,
        "SFRAC": 0.4,
        "TFRAC": 0.2353,
        "FWCAG": 3.13,
        "SWCAG": 3.88,
        "WFWAH": 1525.6,
        "WSWAH": 1673.2,
        "WSCWAH": 3198.8,
        "DFWAH": 1477.8,
        "DSWAH": 1608.4,
        "DSCWAH": 3086.2,
        "QLDAT": "11/19/2020",
        "FBMIC": 40.4,
        "FBLTH": 1.066,
        "FBUNI": 79.1,
        "FBSTR": 28.0,
        "FBELO": 6.0,
        "FBCRD": 83.0,
        "FBCLB": 8.8,
        "FBCGR": "11-1",
        "FBTCT": 4.0,
        "FBTAR": 0.18,
        "FBSFI": 11.2
    },
    "_id": "642486668ac5470f56883c03",
    "haid": "642486668ac5470f56883c03"
}{
    "type": "Feature",
    "geometry": {
        "type": "Polygon",
        "coordinates": [
            [
                [
                    -111.97754829,
                    33.07902541
                ],
                [
                    -111.97757006,
                    33.07902551
                ],
                [
                    -111.97756993,
                    33.07904384
                ],
                [
                    -111.97754816,
                    33.07904373
                ],
                [
                    -111.97754829,
                    33.07902541
                ]
            ]
        ]
    },
    "properties": {
        "ha_label": "p33W",
        "HA_AREA": 4.129024,
        "HARM": "Hand",
        "HADAT": "10/22/2020",
        "WBWAH": 3371.1,
        "GNDAT": "10/30/2020",
        "FFRAC": 0.3358,
        "SFRAC": 0.3358,
        "TFRAC": 0.3285,
        "FWCAG": 3.35,
        "SWCAG": 3.92,
        "WFWAH": 1131.9,
        "WSWAH": 1131.9,
        "WSCWAH": 2263.8,
        "DFWAH": 1094.0,
        "DSWAH": 1087.5,
        "DSCWAH": 2181.5,
        "QLDAT": "11/19/2020",
        "FBMIC": 36.8,
        "FBLTH": 1.037,
        "FBUNI": 79.2,
        "FBSTR": 26.9,
        "FBELO": 6.0,
        "FBCRD": 81.8,
        "FBCLB": 8.5,
        "FBCGR": "11-2",
        "FBTCT": 10.0,
        "FBTAR": 0.11,
        "FBSFI": 13.3
    },
    "_id": "642486668ac5470f56883c04",
    "haid": "642486668ac5470f56883c04"
}{
    "type": "Feature",
    "geometry": {
        "type": "Polygon",
        "coordinates": [
            [
                [
                    -111.97743983,
                    33.07896989
                ],
                [
                    -111.9774616,
                    33.07896999
                ],
                [
                    -111.97746147,
                    33.07898832
                ],
                [
                    -111.9774397,
                    33.07898821
                ],
                [
                    -111.97743983,
                    33.07896989
                ]
            ]
        ]
    },
    "properties": {
        "ha_label": "p33E",
        "HA_AREA": 4.129024,
        "HARM": "Hand",
        "HADAT": "10/22/2020",
        "WBWAH": 3617.1,
        "GNDAT": "10/30/2020",
        "FFRAC": 0.3673,
        "SFRAC": 0.3673,
        "TFRAC": 0.2653,
        "FWCAG": 1.85,
        "SWCAG": 3.86,
        "WFWAH": 1328.7,
        "WSWAH": 1328.7,
        "WSCWAH": 2657.5,
        "DFWAH": 1304.1,
        "DSWAH": 1277.4,
        "DSCWAH": 2581.6,
        "QLDAT": "11/19/2020",
        "FBMIC": 41.5,
        "FBLTH": 1.053,
        "FBUNI": 78.5,
        "FBSTR": 27.2,
        "FBELO": 6.1,
        "FBCRD": 81.7,
        "FBCLB": 8.1,
        "FBCGR": "21-1",
        "FBTCT": 10.0,
        "FBTAR": 0.08,
        "FBSFI": 13.8
    },
    "_id": "642486668ac5470f56883c05",
    "haid": "642486668ac5470f56883c05"
}{
    "type": "Feature",
    "geometry": {
        "type": "Polygon",
        "coordinates": [
            [
                [
                    -111.97755091,
                    33.07865015
                ],
                [
                    -111.97757268,
                    33.07865026
                ],
                [
                    -111.97757255,
                    33.07866858
                ],
                [
                    -111.97755078,
                    33.07866848
                ],
                [
                    -111.97755091,
                    33.07865015
                ]
            ]
        ]
    },
    "properties": {
        "ha_label": "p34W",
        "HA_AREA": 4.129024,
        "HARM": "Hand",
        "HADAT": "10/22/2020",
        "WBWAH": 4084.6,
        "GNDAT": "10/30/2020",
        "FFRAC": 0.3373,
        "SFRAC": 0.3855,
        "TFRAC": 0.2771,
        "FWCAG": 2.99,
        "SWCAG": 3.92,
        "WFWAH": 1378.0,
        "WSWAH": 1574.8,
        "WSCWAH": 2952.8,
        "DFWAH": 1336.7,
        "DSWAH": 1513.1,
        "DSCWAH": 2849.8,
        "QLDAT": "11/19/2020",
        "FBMIC": 41.9,
        "FBLTH": 1.12,
        "FBUNI": 80.3,
        "FBSTR": 28.7,
        "FBELO": 5.9,
        "FBCRD": 82.7,
        "FBCLB": 8.4,
        "FBCGR": "11-1",
        "FBTCT": 11.0,
        "FBTAR": 0.1,
        "FBSFI": 9.5
    },
    "_id": "642486668ac5470f56883c06",
    "haid": "642486668ac5470f56883c06"
}{
    "type": "Feature",
    "geometry": {
        "type": "Polygon",
        "coordinates": [
            [
                [
                    -111.97744245,
                    33.07859463
                ],
                [
                    -111.97746422,
                    33.07859474
                ],
                [
                    -111.97746409,
                    33.07861306
                ],
                [
                    -111.97744232,
                    33.07861296
                ],
                [
                    -111.97744245,
                    33.07859463
                ]
            ]
        ]
    },
    "properties": {
        "ha_label": "p34E",
        "HA_AREA": 4.129024,
        "HARM": "Hand",
        "HADAT": "10/22/2020",
        "WBWAH": 3198.8,
        "GNDAT": "10/30/2020",
        "FFRAC": 0.3231,
        "SFRAC": 0.3538,
        "TFRAC": 0.3231,
        "FWCAG": 3.21,
        "SWCAG": 4.04,
        "WFWAH": 1033.5,
        "WSWAH": 1131.9,
        "WSCWAH": 2165.4,
        "DFWAH": 1000.3,
        "DSWAH": 1086.2,
        "DSCWAH": 2086.5,
        "QLDAT": "11/19/2020",
        "FBMIC": 38.1,
        "FBLTH": 1.054,
        "FBUNI": 77.9,
        "FBSTR": 26.2,
        "FBELO": 6.1,
        "FBCRD": 82.1,
        "FBCLB": 8.6,
        "FBCGR": "11-2",
        "FBTCT": 3.0,
        "FBTAR": 0.04,
        "FBSFI": 13.8
    },
    "_id": "642486668ac5470f56883c07",
    "haid": "642486668ac5470f56883c07"
}{
    "type": "Feature",
    "geometry": {
        "type": "Polygon",
        "coordinates": [
            [
                [
                    -111.97723828,
                    33.07977441
                ],
                [
                    -111.97726005,
                    33.07977452
                ],
                [
                    -111.97725992,
                    33.07979284
                ],
                [
                    -111.97723815,
                    33.07979274
                ],
                [
                    -111.97723828,
                    33.07977441
                ]
            ]
        ]
    },
    "properties": {
        "ha_label": "p41W",
        "HA_AREA": 4.129024,
        "HARM": "Hand",
        "HADAT": "10/23/2019",
        "WBWAH": 2854.3,
        "GNDAT": "10/30/2020",
        "FFRAC": 0.3621,
        "SFRAC": 0.2759,
        "TFRAC": 0.3621,
        "FWCAG": 2.69,
        "SWCAG": 3.59,
        "WFWAH": 1033.5,
        "WSWAH": 787.4,
        "WSCWAH": 1820.9,
        "DFWAH": 1005.7,
        "DSWAH": 759.2,
        "DSCWAH": 1764.9,
        "QLDAT": "11/19/2020",
        "FBMIC": 41.2,
        "FBLTH": 1.014,
        "FBUNI": 77.9,
        "FBSTR": 25.2,
        "FBELO": 6.1,
        "FBCRD": 81.4,
        "FBCLB": 9.0,
        "FBCGR": "11-2",
        "FBTCT": 4.0,
        "FBTAR": 0.05,
        "FBSFI": 17.8
    },
    "_id": "642486668ac5470f56883c08",
    "haid": "642486668ac5470f56883c08"
}{
    "type": "Feature",
    "geometry": {
        "type": "Polygon",
        "coordinates": [
            [
                [
                    -111.97712981,
                    33.07971889
                ],
                [
                    -111.97715158,
                    33.079719
                ],
                [
                    -111.97715146,
                    33.07973732
                ],
                [
                    -111.97712969,
                    33.07973722
                ],
                [
                    -111.97712981,
                    33.07971889
                ]
            ]
        ]
    },
    "properties": {
        "ha_label": "p41E",
        "HA_AREA": 4.129024,
        "HARM": "Hand",
        "HADAT": "10/23/2019",
        "WBWAH": 3026.6,
        "GNDAT": "10/30/2020",
        "FFRAC": 0.3577,
        "SFRAC": 0.3252,
        "TFRAC": 0.3171,
        "FWCAG": 3.1,
        "SWCAG": 3.54,
        "WFWAH": 1082.7,
        "WSWAH": 984.3,
        "WSCWAH": 2066.9,
        "DFWAH": 1049.1,
        "DSWAH": 949.4,
        "DSCWAH": 1998.5,
        "QLDAT": "11/19/2020",
        "FBMIC": 37.8,
        "FBLTH": 0.97,
        "FBUNI": 75.5,
        "FBSTR": 23.2,
        "FBELO": 6.3,
        "FBCRD": 80.0,
        "FBCLB": 8.7,
        "FBCGR": "21-1",
        "FBTCT": 15.0,
        "FBTAR": 0.2,
        "FBSFI": 19.7
    },
    "_id": "642486668ac5470f56883c09",
    "haid": "642486668ac5470f56883c09"
}{
    "type": "Feature",
    "geometry": {
        "type": "Polygon",
        "coordinates": [
            [
                [
                    -111.9772409,
                    33.07939915
                ],
                [
                    -111.97726267,
                    33.07939926
                ],
                [
                    -111.97726254,
                    33.07941759
                ],
                [
                    -111.97724077,
                    33.07941748
                ],
                [
                    -111.9772409,
                    33.07939915
                ]
            ]
        ]
    },
    "properties": {
        "ha_label": "p42W",
        "HA_AREA": 4.129024,
        "HARM": "Hand",
        "HADAT": "10/23/2019",
        "WBWAH": 4183.1,
        "GNDAT": "10/30/2020",
        "FFRAC": 0.3647,
        "SFRAC": 0.3765,
        "TFRAC": 0.2588,
        "FWCAG": 2.94,
        "SWCAG": 4.12,
        "WFWAH": 1525.6,
        "WSWAH": 1574.8,
        "WSCWAH": 3100.4,
        "DFWAH": 1480.7,
        "DSWAH": 1510.0,
        "DSCWAH": 2990.7,
        "QLDAT": "11/19/2020",
        "FBMIC": 44.0,
        "FBLTH": 1.067,
        "FBUNI": 78.1,
        "FBSTR": 27.3,
        "FBELO": 6.0,
        "FBCRD": 82.6,
        "FBCLB": 8.6,
        "FBCGR": "11-1",
        "FBTCT": 6.0,
        "FBTAR": 0.06,
        "FBSFI": 13.5
    },
    "_id": "642486668ac5470f56883c0a",
    "haid": "642486668ac5470f56883c0a"
}{
    "type": "Feature",
    "geometry": {
        "type": "Polygon",
        "coordinates": [
            [
                [
                    -111.97713244,
                    33.07934363
                ],
                [
                    -111.97715421,
                    33.07934374
                ],
                [
                    -111.97715408,
                    33.07936207
                ],
                [
                    -111.97713231,
                    33.07936196
                ],
                [
                    -111.97713244,
                    33.07934363
                ]
            ]
        ]
    },
    "properties": {
        "ha_label": "p42E",
        "HA_AREA": 4.129024,
        "HARM": "Hand",
        "HADAT": "10/23/2019",
        "WBWAH": 4010.8,
        "GNDAT": "10/30/2020",
        "FFRAC": 0.3926,
        "SFRAC": 0.3926,
        "TFRAC": 0.2147,
        "FWCAG": 2.98,
        "SWCAG": 3.8,
        "WFWAH": 1574.8,
        "WSWAH": 1574.8,
        "WSCWAH": 3149.6,
        "DFWAH": 1527.9,
        "DSWAH": 1515.0,
        "DSCWAH": 3042.9,
        "QLDAT": "11/19/2020",
        "FBMIC": 44.2,
        "FBLTH": 1.065,
        "FBUNI": 79.5,
        "FBSTR": 27.3,
        "FBELO": 5.9,
        "FBCRD": 81.9,
        "FBCLB": 8.4,
        "FBCGR": "11-2",
        "FBTCT": 7.0,
        "FBTAR": 0.17,
        "FBSFI": 12.3
    },
    "_id": "642486668ac5470f56883c0b",
    "haid": "642486668ac5470f56883c0b"
}{
    "type": "Feature",
    "geometry": {
        "type": "Polygon",
        "coordinates": [
            [
                [
                    -111.97724352,
                    33.0790239
                ],
                [
                    -111.97726529,
                    33.079024
                ],
                [
                    -111.97726516,
                    33.07904233
                ],
                [
                    -111.97724339,
                    33.07904222
                ],
                [
                    -111.97724352,
                    33.0790239
                ]
            ]
        ]
    },
    "properties": {
        "ha_label": "p43W",
        "HA_AREA": 4.129024,
        "HARM": "Hand",
        "HADAT": "10/23/2019",
        "WBWAH": 3174.2,
        "GNDAT": "10/30/2020",
        "FFRAC": 0.3721,
        "SFRAC": 0.3721,
        "TFRAC": 0.2558,
        "FWCAG": 2.83,
        "SWCAG": 3.66,
        "WFWAH": 1181.1,
        "WSWAH": 1181.1,
        "WSCWAH": 2362.2,
        "DFWAH": 1147.7,
        "DSWAH": 1137.9,
        "DSCWAH": 2285.6,
        "QLDAT": "11/19/2020",
        "FBMIC": 37.9,
        "FBLTH": 1.062,
        "FBUNI": 77.8,
        "FBSTR": 27.2,
        "FBELO": 6.0,
        "FBCRD": 83.3,
        "FBCLB": 8.8,
        "FBCGR": "11-1",
        "FBTCT": 5.0,
        "FBTAR": 0.09,
        "FBSFI": 13.3
    },
    "_id": "642486668ac5470f56883c0c",
    "haid": "642486668ac5470f56883c0c"
}{
    "type": "Feature",
    "geometry": {
        "type": "Polygon",
        "coordinates": [
            [
                [
                    -111.97713506,
                    33.07896838
                ],
                [
                    -111.97715683,
                    33.07896848
                ],
                [
                    -111.9771567,
                    33.07898681
                ],
                [
                    -111.97713493,
                    33.0789867
                ],
                [
                    -111.97713506,
                    33.07896838
                ]
            ]
        ]
    },
    "properties": {
        "ha_label": "p43E",
        "HA_AREA": 4.129024,
        "HARM": "Hand",
        "HADAT": "10/23/2019",
        "WBWAH": 4010.8,
        "GNDAT": "10/30/2020",
        "FFRAC": 0.3558,
        "SFRAC": 0.3926,
        "TFRAC": 0.2515,
        "FWCAG": 2.94,
        "SWCAG": 3.47,
        "WFWAH": 1427.2,
        "WSWAH": 1574.8,
        "WSCWAH": 3002.0,
        "DFWAH": 1385.2,
        "DSWAH": 1520.2,
        "DSCWAH": 2905.4,
        "QLDAT": "11/19/2020",
        "FBMIC": 38.2,
        "FBLTH": 1.07,
        "FBUNI": 78.6,
        "FBSTR": 28.0,
        "FBELO": 5.9,
        "FBCRD": 82.0,
        "FBCLB": 8.6,
        "FBCGR": "11-2",
        "FBTCT": 15.0,
        "FBTAR": 0.21,
        "FBSFI": 12.8
    },
    "_id": "642486668ac5470f56883c0d",
    "haid": "642486668ac5470f56883c0d"
}{
    "type": "Feature",
    "geometry": {
        "type": "Polygon",
        "coordinates": [
            [
                [
                    -111.97724614,
                    33.07864864
                ],
                [
                    -111.97726791,
                    33.07864875
                ],
                [
                    -111.97726778,
                    33.07866707
                ],
                [
                    -111.97724602,
                    33.07866697
                ],
                [
                    -111.97724614,
                    33.07864864
                ]
            ]
        ]
    },
    "properties": {
        "ha_label": "p44W",
        "HA_AREA": 4.129024,
        "HARM": "Hand",
        "HADAT": "10/23/2019",
        "WBWAH": 2263.8,
        "GNDAT": "10/30/2020",
        "FFRAC": 0.3261,
        "SFRAC": 0.2391,
        "TFRAC": 0.4348,
        "FWCAG": 3.27,
        "SWCAG": 3.85,
        "WFWAH": 738.2,
        "WSWAH": 541.3,
        "WSCWAH": 1279.5,
        "DFWAH": 714.1,
        "DSWAH": 520.5,
        "DSCWAH": 1234.6,
        "QLDAT": "11/19/2020",
        "FBMIC": 38.0,
        "FBLTH": 1.015,
        "FBUNI": 76.7,
        "FBSTR": 24.7,
        "FBELO": 6.3,
        "FBCRD": 81.4,
        "FBCLB": 8.9,
        "FBCGR": "11-2",
        "FBTCT": 7.0,
        "FBTAR": 0.21,
        "FBSFI": 17.9
    },
    "_id": "642486668ac5470f56883c0e",
    "haid": "642486668ac5470f56883c0e"
}{
    "type": "Feature",
    "geometry": {
        "type": "Polygon",
        "coordinates": [
            [
                [
                    -111.97713768,
                    33.07859312
                ],
                [
                    -111.97715945,
                    33.07859323
                ],
                [
                    -111.97715932,
                    33.07861155
                ],
                [
                    -111.97713756,
                    33.07861145
                ],
                [
                    -111.97713768,
                    33.07859312
                ]
            ]
        ]
    },
    "properties": {
        "ha_label": "p44E",
        "HA_AREA": 4.129024,
        "HARM": "Hand",
        "HADAT": "10/23/2019",
        "WBWAH": 2460.6,
        "GNDAT": "10/30/2020",
        "FFRAC": 0.3,
        "SFRAC": 0.26,
        "TFRAC": 0.44,
        "FWCAG": 3.33,
        "SWCAG": 3.9,
        "WFWAH": 738.2,
        "WSWAH": 639.8,
        "WSCWAH": 1378.0,
        "DFWAH": 713.6,
        "DSWAH": 614.8,
        "DSCWAH": 1328.5,
        "QLDAT": "11/19/2020",
        "FBMIC": 38.1,
        "FBLTH": 0.99,
        "FBUNI": 76.1,
        "FBSTR": 24.5,
        "FBELO": 6.2,
        "FBCRD": 81.3,
        "FBCLB": 9.1,
        "FBCGR": "11-2",
        "FBTCT": 5.0,
        "FBTAR": 0.11,
        "FBSFI": 18.1
    },
    "_id": "642486668ac5470f56883c0f",
    "haid": "642486668ac5470f56883c0f"
}{
    "type": "Feature",
    "geometry": {
        "type": "Polygon",
        "coordinates": [
            [
                [
                    -111.97693435,
                    33.0797729
                ],
                [
                    -111.97695612,
                    33.079773
                ],
                [
                    -111.97695599,
                    33.07979133
                ],
                [
                    -111.97693422,
                    33.07979122
                ],
                [
                    -111.97693435,
                    33.0797729
                ]
            ]
        ]
    },
    "properties": {
        "ha_label": "p51W",
        "HA_AREA": 4.129024,
        "HARM": "Hand",
        "HADAT": "10/23/2019",
        "WBWAH": 4921.3,
        "GNDAT": "10/30/2020",
        "FFRAC": 0.37,
        "SFRAC": 0.42,
        "TFRAC": 0.21,
        "FWCAG": 2.77,
        "SWCAG": 3.78,
        "WFWAH": 1820.9,
        "WSWAH": 2066.9,
        "WSCWAH": 3887.8,
        "DFWAH": 1770.3,
        "DSWAH": 1988.7,
        "DSCWAH": 3759.1,
        "QLDAT": "11/19/2020",
        "FBMIC": 41.8,
        "FBLTH": 1.042,
        "FBUNI": 77.8,
        "FBSTR": 25.3,
        "FBELO": 6.1,
        "FBCRD": 81.3,
        "FBCLB": 8.8,
        "FBCGR": "11-2",
        "FBTCT": 6.0,
        "FBTAR": 0.08,
        "FBSFI": 14.5
    },
    "_id": "642486668ac5470f56883c10",
    "haid": "642486668ac5470f56883c10"
}{
    "type": "Feature",
    "geometry": {
        "type": "Polygon",
        "coordinates": [
            [
                [
                    -111.97682588,
                    33.07971737
                ],
                [
                    -111.97684765,
                    33.07971748
                ],
                [
                    -111.97684753,
                    33.07973581
                ],
                [
                    -111.97682576,
                    33.0797357
                ],
                [
                    -111.97682588,
                    33.07971737
                ]
            ]
        ]
    },
    "properties": {
        "ha_label": "p51E",
        "HA_AREA": 4.129024,
        "HARM": "Hand",
        "HADAT": "10/23/2019",
        "WBWAH": 4626.0,
        "GNDAT": "10/30/2020",
        "FFRAC": 0.383,
        "SFRAC": 0.4043,
        "TFRAC": 0.2128,
        "FWCAG": 2.86,
        "SWCAG": 3.58,
        "WFWAH": 1771.7,
        "WSWAH": 1870.1,
        "WSCWAH": 3641.7,
        "DFWAH": 1720.9,
        "DSWAH": 1803.1,
        "DSCWAH": 3524.0,
        "QLDAT": "11/19/2020",
        "FBMIC": 43.4,
        "FBLTH": 1.076,
        "FBUNI": 78.8,
        "FBSTR": 28.2,
        "FBELO": 5.9,
        "FBCRD": 82.1,
        "FBCLB": 8.2,
        "FBCGR": "21-1",
        "FBTCT": 10.0,
        "FBTAR": 0.17,
        "FBSFI": 12.7
    },
    "_id": "642486668ac5470f56883c11",
    "haid": "642486668ac5470f56883c11"
}{
    "type": "Feature",
    "geometry": {
        "type": "Polygon",
        "coordinates": [
            [
                [
                    -111.97693697,
                    33.07939764
                ],
                [
                    -111.97695874,
                    33.07939775
                ],
                [
                    -111.97695861,
                    33.07941608
                ],
                [
                    -111.97693684,
                    33.07941597
                ],
                [
                    -111.97693697,
                    33.07939764
                ]
            ]
        ]
    },
    "properties": {
        "ha_label": "p52W",
        "HA_AREA": 4.129024,
        "HARM": "Hand",
        "HADAT": "10/23/2019",
        "WBWAH": 4379.9,
        "GNDAT": "10/30/2020",
        "FFRAC": 0.382,
        "SFRAC": 0.427,
        "TFRAC": 0.191,
        "FWCAG": 2.6,
        "SWCAG": 3.95,
        "WFWAH": 1673.2,
        "WSWAH": 1870.1,
        "WSCWAH": 3543.3,
        "DFWAH": 1629.8,
        "DSWAH": 1796.2,
        "DSCWAH": 3426.0,
        "QLDAT": "11/19/2020",
        "FBMIC": 45.6,
        "FBLTH": 1.061,
        "FBUNI": 78.0,
        "FBSTR": 26.5,
        "FBELO": 6.1,
        "FBCRD": 82.6,
        "FBCLB": 8.6,
        "FBCGR": "11-1",
        "FBTCT": 4.0,
        "FBTAR": 0.06,
        "FBSFI": 14.1
    },
    "_id": "642486668ac5470f56883c12",
    "haid": "642486668ac5470f56883c12"
}{
    "type": "Feature",
    "geometry": {
        "type": "Polygon",
        "coordinates": [
            [
                [
                    -111.97682851,
                    33.07934212
                ],
                [
                    -111.97685028,
                    33.07934223
                ],
                [
                    -111.97685015,
                    33.07936055
                ],
                [
                    -111.97682838,
                    33.07936045
                ],
                [
                    -111.97682851,
                    33.07934212
                ]
            ]
        ]
    },
    "properties": {
        "ha_label": "p52E",
        "HA_AREA": 4.129024,
        "HARM": "Hand",
        "HADAT": "10/23/2019",
        "WBWAH": 5142.7,
        "GNDAT": "10/30/2020",
        "FFRAC": 0.3636,
        "SFRAC": 0.4115,
        "TFRAC": 0.2249,
        "FWCAG": 4.36,
        "SWCAG": 4.01,
        "WFWAH": 1870.1,
        "WSWAH": 2116.1,
        "WSCWAH": 3986.2,
        "DFWAH": 1788.5,
        "DSWAH": 2031.3,
        "DSCWAH": 3819.8,
        "QLDAT": "11/19/2020",
        "FBMIC": 40.6,
        "FBLTH": 1.094,
        "FBUNI": 80.4,
        "FBSTR": 27.8,
        "FBELO": 6.1,
        "FBCRD": 82.7,
        "FBCLB": 7.8,
        "FBCGR": "21-1",
        "FBTCT": 7.0,
        "FBTAR": 0.13,
        "FBSFI": 11.3
    },
    "_id": "642486668ac5470f56883c13",
    "haid": "642486668ac5470f56883c13"
}{
    "type": "Feature",
    "geometry": {
        "type": "Polygon",
        "coordinates": [
            [
                [
                    -111.97693959,
                    33.07902239
                ],
                [
                    -111.97696136,
                    33.07902249
                ],
                [
                    -111.97696123,
                    33.07904082
                ],
                [
                    -111.97693947,
                    33.07904071
                ],
                [
                    -111.97693959,
                    33.07902239
                ]
            ]
        ]
    },
    "properties": {
        "ha_label": "p53W",
        "HA_AREA": 4.129024,
        "HARM": "Hand",
        "HADAT": "10/23/2019",
        "WBWAH": 3272.6,
        "GNDAT": "10/30/2020",
        "FFRAC": 0.3459,
        "SFRAC": 0.3158,
        "TFRAC": 0.3383,
        "FWCAG": 2.84,
        "SWCAG": 3.62,
        "WFWAH": 1131.9,
        "WSWAH": 1033.5,
        "WSCWAH": 2165.4,
        "DFWAH": 1099.7,
        "DSWAH": 996.0,
        "DSCWAH": 2095.8,
        "QLDAT": "11/19/2020",
        "FBMIC": 40.7,
        "FBLTH": 1.029,
        "FBUNI": 77.4,
        "FBSTR": 26.5,
        "FBELO": 5.9,
        "FBCRD": 81.6,
        "FBCLB": 9.0,
        "FBCGR": "11-1",
        "FBTCT": 11.0,
        "FBTAR": 0.56,
        "FBSFI": 15.9
    },
    "_id": "642486668ac5470f56883c14",
    "haid": "642486668ac5470f56883c14"
}{
    "type": "Feature",
    "geometry": {
        "type": "Polygon",
        "coordinates": [
            [
                [
                    -111.97683113,
                    33.07896687
                ],
                [
                    -111.9768529,
                    33.07896697
                ],
                [
                    -111.97685277,
                    33.0789853
                ],
                [
                    -111.976831,
                    33.07898519
                ],
                [
                    -111.97683113,
                    33.07896687
                ]
            ]
        ]
    },
    "properties": {
        "ha_label": "p53E",
        "HA_AREA": 4.129024,
        "HARM": "Hand",
        "HADAT": "10/23/2019",
        "WBWAH": 3002.0,
        "GNDAT": "10/30/2020",
        "FFRAC": 0.3607,
        "SFRAC": 0.3115,
        "TFRAC": 0.3279,
        "FWCAG": 2.63,
        "SWCAG": 3.48,
        "WFWAH": 1082.7,
        "WSWAH": 935.0,
        "WSCWAH": 2017.7,
        "DFWAH": 1054.2,
        "DSWAH": 902.5,
        "DSCWAH": 1956.8,
        "QLDAT": "11/19/2020",
        "FBMIC": 41.8,
        "FBLTH": 1.051,
        "FBUNI": 78.4,
        "FBSTR": 26.1,
        "FBELO": 5.8,
        "FBCRD": 82.6,
        "FBCLB": 8.7,
        "FBCGR": "11-1",
        "FBTCT": 1.0,
        "FBTAR": 0.03,
        "FBSFI": 13.1
    },
    "_id": "642486668ac5470f56883c15",
    "haid": "642486668ac5470f56883c15"
}{
    "type": "Feature",
    "geometry": {
        "type": "Polygon",
        "coordinates": [
            [
                [
                    -111.97694222,
                    33.07864713
                ],
                [
                    -111.97696399,
                    33.07864724
                ],
                [
                    -111.97696386,
                    33.07866557
                ],
                [
                    -111.97694209,
                    33.07866546
                ],
                [
                    -111.97694222,
                    33.07864713
                ]
            ]
        ]
    },
    "properties": {
        "ha_label": "p54W",
        "HA_AREA": 4.129024,
        "HARM": "Hand",
        "HADAT": "10/23/2019",
        "WBWAH": 2780.5,
        "GNDAT": "10/30/2020",
        "FFRAC": 0.354,
        "SFRAC": 0.2832,
        "TFRAC": 0.3628,
        "FWCAG": 2.66,
        "SWCAG": 3.95,
        "WFWAH": 984.3,
        "WSWAH": 787.4,
        "WSCWAH": 1771.7,
        "DFWAH": 958.1,
        "DSWAH": 756.3,
        "DSCWAH": 1714.4,
        "QLDAT": "11/19/2020",
        "FBMIC": 38.2,
        "FBLTH": 1.029,
        "FBUNI": 77.1,
        "FBSTR": 25.6,
        "FBELO": 6.1,
        "FBCRD": 80.5,
        "FBCLB": 8.5,
        "FBCGR": "21-1",
        "FBTCT": 5.0,
        "FBTAR": 0.1,
        "FBSFI": 15.5
    },
    "_id": "642486668ac5470f56883c16",
    "haid": "642486668ac5470f56883c16"
}{
    "type": "Feature",
    "geometry": {
        "type": "Polygon",
        "coordinates": [
            [
                [
                    -111.97683376,
                    33.07859161
                ],
                [
                    -111.97685553,
                    33.07859172
                ],
                [
                    -111.9768554,
                    33.07861005
                ],
                [
                    -111.97683363,
                    33.07860994
                ],
                [
                    -111.97683376,
                    33.07859161
                ]
            ]
        ]
    },
    "properties": {
        "ha_label": "p54E",
        "HA_AREA": 4.129024,
        "HARM": "Hand",
        "HADAT": "10/23/2019",
        "WBWAH": 2460.6,
        "GNDAT": "10/30/2020",
        "FFRAC": 0.34,
        "SFRAC": 0.32,
        "TFRAC": 0.34,
        "FWCAG": 2.72,
        "SWCAG": 3.72,
        "WFWAH": 836.6,
        "WSWAH": 787.4,
        "WSCWAH": 1624.0,
        "DFWAH": 813.8,
        "DSWAH": 758.1,
        "DSCWAH": 1571.9,
        "QLDAT": "11/19/2020",
        "FBMIC": 38.0,
        "FBLTH": 0.99,
        "FBUNI": 76.6,
        "FBSTR": 24.7,
        "FBELO": 5.9,
        "FBCRD": 81.6,
        "FBCLB": 9.0,
        "FBCGR": "11-1",
        "FBTCT": 8.0,
        "FBTAR": 0.12,
        "FBSFI": 16.9
    },
    "_id": "642486668ac5470f56883c17",
    "haid": "642486668ac5470f56883c17"
}{
    "type": "Feature",
    "geometry": {
        "type": "Polygon",
        "coordinates": [
            [
                [
                    -111.97662958,
                    33.07977138
                ],
                [
                    -111.97665135,
                    33.07977149
                ],
                [
                    -111.97665122,
                    33.07978982
                ],
                [
                    -111.97662945,
                    33.07978971
                ],
                [
                    -111.97662958,
                    33.07977138
                ]
            ]
        ]
    },
    "properties": {
        "ha_label": "p61W",
        "HA_AREA": 4.129024,
        "HARM": "Hand",
        "HADAT": "10/23/2019",
        "WBWAH": 2977.4,
        "GNDAT": "10/30/2020",
        "FFRAC": 0.3306,
        "SFRAC": 0.2975,
        "TFRAC": 0.3719,
        "FWCAG": 2.85,
        "SWCAG": 3.95,
        "WFWAH": 984.3,
        "WSWAH": 885.8,
        "WSCWAH": 1870.1,
        "DFWAH": 956.2,
        "DSWAH": 850.9,
        "DSCWAH": 1807.1,
        "QLDAT": "11/19/2020",
        "FBMIC": 35.9,
        "FBLTH": 1.027,
        "FBUNI": 78.4,
        "FBSTR": 25.4,
        "FBELO": 6.2,
        "FBCRD": 80.9,
        "FBCLB": 8.6,
        "FBCGR": "21-1",
        "FBTCT": 21.0,
        "FBTAR": 0.51,
        "FBSFI": 14.2
    },
    "_id": "642486668ac5470f56883c18",
    "haid": "642486668ac5470f56883c18"
}{
    "type": "Feature",
    "geometry": {
        "type": "Polygon",
        "coordinates": [
            [
                [
                    -111.97652112,
                    33.07971586
                ],
                [
                    -111.97654288,
                    33.07971597
                ],
                [
                    -111.97654276,
                    33.0797343
                ],
                [
                    -111.97652099,
                    33.07973419
                ],
                [
                    -111.97652112,
                    33.07971586
                ]
            ]
        ]
    },
    "properties": {
        "ha_label": "p61E",
        "HA_AREA": 4.129024,
        "HARM": "Hand",
        "HADAT": "10/23/2019",
        "WBWAH": 2854.3,
        "GNDAT": "10/30/2020",
        "FFRAC": 0.3621,
        "SFRAC": 0.3103,
        "TFRAC": 0.3276,
        "FWCAG": 2.5,
        "SWCAG": 3.72,
        "WFWAH": 1033.5,
        "WSWAH": 885.8,
        "WSCWAH": 1919.3,
        "DFWAH": 1007.6,
        "DSWAH": 852.8,
        "DSCWAH": 1860.5,
        "QLDAT": "11/19/2020",
        "FBMIC": 43.9,
        "FBLTH": 1.04,
        "FBUNI": 79.1,
        "FBSTR": 26.8,
        "FBELO": 5.8,
        "FBCRD": 81.5,
        "FBCLB": 8.6,
        "FBCGR": "11-2",
        "FBTCT": 12.0,
        "FBTAR": 0.21,
        "FBSFI": 13.0
    },
    "_id": "642486668ac5470f56883c19",
    "haid": "642486668ac5470f56883c19"
}{
    "type": "Feature",
    "geometry": {
        "type": "Polygon",
        "coordinates": [
            [
                [
                    -111.9766322,
                    33.07939613
                ],
                [
                    -111.97665397,
                    33.07939624
                ],
                [
                    -111.97665384,
                    33.07941456
                ],
                [
                    -111.97663207,
                    33.07941446
                ],
                [
                    -111.9766322,
                    33.07939613
                ]
            ]
        ]
    },
    "properties": {
        "ha_label": "p62W",
        "HA_AREA": 4.129024,
        "HARM": "Hand",
        "HADAT": "10/23/2019",
        "WBWAH": 3346.5,
        "GNDAT": "10/30/2020",
        "FFRAC": 0.3676,
        "SFRAC": 0.3235,
        "TFRAC": 0.3088,
        "FWCAG": 2.92,
        "SWCAG": 3.99,
        "WFWAH": 1230.3,
        "WSWAH": 1082.7,
        "WSCWAH": 2313.0,
        "DFWAH": 1194.3,
        "DSWAH": 1039.4,
        "DSCWAH": 2233.8,
        "QLDAT": "11/19/2020",
        "FBMIC": 41.6,
        "FBLTH": 0.999,
        "FBUNI": 77.3,
        "FBSTR": 25.0,
        "FBELO": 6.1,
        "FBCRD": 80.4,
        "FBCLB": 9.1,
        "FBCGR": "21-1",
        "FBTCT": 18.0,
        "FBTAR": 0.54,
        "FBSFI": 17.7
    },
    "_id": "642486668ac5470f56883c1a",
    "haid": "642486668ac5470f56883c1a"
}{
    "type": "Feature",
    "geometry": {
        "type": "Polygon",
        "coordinates": [
            [
                [
                    -111.97652374,
                    33.07934061
                ],
                [
                    -111.97654551,
                    33.07934072
                ],
                [
                    -111.97654538,
                    33.07935904
                ],
                [
                    -111.97652361,
                    33.07935894
                ],
                [
                    -111.97652374,
                    33.07934061
                ]
            ]
        ]
    },
    "properties": {
        "ha_label": "p62E",
        "HA_AREA": 4.129024,
        "HARM": "Hand",
        "HADAT": "10/23/2019",
        "WBWAH": 2632.9,
        "GNDAT": "10/30/2020",
        "FFRAC": 0.3364,
        "SFRAC": 0.2991,
        "TFRAC": 0.3645,
        "FWCAG": 2.92,
        "SWCAG": 3.96,
        "WFWAH": 885.8,
        "WSWAH": 787.4,
        "WSCWAH": 1673.2,
        "DFWAH": 860.0,
        "DSWAH": 756.2,
        "DSCWAH": 1616.2,
        "QLDAT": "11/19/2020",
        "FBMIC": 38.4,
        "FBLTH": 1.029,
        "FBUNI": 77.6,
        "FBSTR": 25.2,
        "FBELO": 6.0,
        "FBCRD": 81.1,
        "FBCLB": 8.8,
        "FBCGR": "11-2",
        "FBTCT": 5.0,
        "FBTAR": 0.05,
        "FBSFI": 15.3
    },
    "_id": "642486668ac5470f56883c1b",
    "haid": "642486668ac5470f56883c1b"
}{
    "type": "Feature",
    "geometry": {
        "type": "Polygon",
        "coordinates": [
            [
                [
                    -111.97663483,
                    33.07902087
                ],
                [
                    -111.9766566,
                    33.07902098
                ],
                [
                    -111.97665647,
                    33.07903931
                ],
                [
                    -111.9766347,
                    33.0790392
                ],
                [
                    -111.97663483,
                    33.07902087
                ]
            ]
        ]
    },
    "properties": {
        "ha_label": "p63W",
        "HA_AREA": 4.129024,
        "HARM": "Hand",
        "HADAT": "10/23/2019",
        "WBWAH": 2977.4,
        "GNDAT": "10/30/2020",
        "FFRAC": 0.3636,
        "SFRAC": 0.3306,
        "TFRAC": 0.3058,
        "FWCAG": 2.46,
        "SWCAG": 3.78,
        "WFWAH": 1082.7,
        "WSWAH": 984.3,
        "WSCWAH": 2066.9,
        "DFWAH": 1056.0,
        "DSWAH": 947.0,
        "DSCWAH": 2003.0,
        "QLDAT": "11/19/2020",
        "FBMIC": 40.0,
        "FBLTH": 1.058,
        "FBUNI": 78.5,
        "FBSTR": 26.7,
        "FBELO": 5.9,
        "FBCRD": 83.3,
        "FBCLB": 8.8,
        "FBCGR": "11-1",
        "FBTCT": 6.0,
        "FBTAR": 0.1,
        "FBSFI": 13.4
    },
    "_id": "642486668ac5470f56883c1c",
    "haid": "642486668ac5470f56883c1c"
}{
    "type": "Feature",
    "geometry": {
        "type": "Polygon",
        "coordinates": [
            [
                [
                    -111.97652637,
                    33.07896535
                ],
                [
                    -111.97654814,
                    33.07896546
                ],
                [
                    -111.97654801,
                    33.07898379
                ],
                [
                    -111.97652624,
                    33.07898368
                ],
                [
                    -111.97652637,
                    33.07896535
                ]
            ]
        ]
    },
    "properties": {
        "ha_label": "p63E",
        "HA_AREA": 4.129024,
        "HARM": "Hand",
        "HADAT": "10/23/2019",
        "WBWAH": 4626.0,
        "GNDAT": "10/30/2020",
        "FFRAC": 0.3723,
        "SFRAC": 0.4043,
        "TFRAC": 0.2234,
        "FWCAG": 2.5,
        "SWCAG": 3.86,
        "WFWAH": 1722.4,
        "WSWAH": 1870.1,
        "WSCWAH": 3592.5,
        "DFWAH": 1679.5,
        "DSWAH": 1797.9,
        "DSCWAH": 3477.4,
        "QLDAT": "11/19/2020",
        "FBMIC": 42.7,
        "FBLTH": 1.059,
        "FBUNI": 79.2,
        "FBSTR": 26.7,
        "FBELO": 6.0,
        "FBCRD": 82.7,
        "FBCLB": 8.1,
        "FBCGR": "11-2",
        "FBTCT": 7.0,
        "FBTAR": 0.13,
        "FBSFI": 12.4
    },
    "_id": "642486668ac5470f56883c1d",
    "haid": "642486668ac5470f56883c1d"
}{
    "type": "Feature",
    "geometry": {
        "type": "Polygon",
        "coordinates": [
            [
                [
                    -111.97663745,
                    33.07864562
                ],
                [
                    -111.97665922,
                    33.07864573
                ],
                [
                    -111.97665909,
                    33.07866405
                ],
                [
                    -111.97663732,
                    33.07866395
                ],
                [
                    -111.97663745,
                    33.07864562
                ]
            ]
        ]
    },
    "properties": {
        "ha_label": "p64W",
        "HA_AREA": 4.129024,
        "HARM": "Hand",
        "HADAT": "10/23/2019",
        "WBWAH": 3198.8,
        "GNDAT": "10/30/2020",
        "FFRAC": 0.3692,
        "SFRAC": 0.3538,
        "TFRAC": 0.2769,
        "FWCAG": 2.75,
        "SWCAG": 3.62,
        "WFWAH": 1181.1,
        "WSWAH": 1131.9,
        "WSCWAH": 2313.0,
        "DFWAH": 1148.6,
        "DSWAH": 1090.9,
        "DSCWAH": 2239.6,
        "QLDAT": "11/19/2020",
        "FBMIC": 38.5,
        "FBLTH": 1.036,
        "FBUNI": 78.6,
        "FBSTR": 26.7,
        "FBELO": 6.1,
        "FBCRD": 81.4,
        "FBCLB": 8.7,
        "FBCGR": "21-1",
        "FBTCT": 8.0,
        "FBTAR": 0.12,
        "FBSFI": 15.0
    },
    "_id": "642486668ac5470f56883c1e",
    "haid": "642486668ac5470f56883c1e"
}{
    "type": "Feature",
    "geometry": {
        "type": "Polygon",
        "coordinates": [
            [
                [
                    -111.97652899,
                    33.0785901
                ],
                [
                    -111.97655076,
                    33.07859021
                ],
                [
                    -111.97655063,
                    33.07860853
                ],
                [
                    -111.97652886,
                    33.07860843
                ],
                [
                    -111.97652899,
                    33.0785901
                ]
            ]
        ]
    },
    "properties": {
        "ha_label": "p64E",
        "HA_AREA": 4.129024,
        "HARM": "Hand",
        "HADAT": "10/23/2019",
        "WBWAH": 2903.5,
        "GNDAT": "10/30/2020",
        "FFRAC": 0.322,
        "SFRAC": 0.339,
        "TFRAC": 0.339,
        "FWCAG": 2.82,
        "SWCAG": 3.4,
        "WFWAH": 935.0,
        "WSWAH": 984.3,
        "WSCWAH": 1919.3,
        "DFWAH": 908.7,
        "DSWAH": 950.8,
        "DSCWAH": 1859.5,
        "QLDAT": "11/19/2020",
        "FBMIC": 40.4,
        "FBLTH": 1.05,
        "FBUNI": 77.0,
        "FBSTR": 25.5,
        "FBELO": 6.1,
        "FBCRD": 81.5,
        "FBCLB": 8.8,
        "FBCGR": "11-1",
        "FBTCT": 7.0,
        "FBTAR": 0.12,
        "FBSFI": 13.3
    },
    "_id": "642486668ac5470f56883c1f",
    "haid": "642486668ac5470f56883c1f"
}