{
    "type": "Feature",
    "geometry": {
        "type": "Polygon",
        "coordinates": [
            [
                [
                    -111.97851081,
                    33.07978575
                ],
                [
                    -111.97853258,
                    33.07978586
                ],
                [
                    -111.97853195,
                    33.07987605
                ],
                [
                    -111.97851018,
                    33.07987594
                ],
                [
                    -111.97851081,
                    33.07978575
                ]
            ]
        ]
    },
    "properties": {
        "ha_label": "p1-1-W",
        "HA_AREA": 20.320001,
        "HARM": "Machine",
        "HADAT": "11/13/2023",
        "WBWAH": 663.8,
        "BWCAH": 2.83,
        "DBWAH": 645.0,
        "GNDAT": "11/14/2023",
        "FFRAC": 0.3056,
        "SFRAC": 0.4338,
        "TFRAC": 0.2606,
        "WFWAH": 202.9,
        "WSWAH": 287.9,
        "WSCWAH": 490.8,
        "DFWAH": 197.1,
        "DSWAH": 279.8,
        "DSCWAH": 476.9,
        "QLDAT": "01/04/2024",
        "FBMIC": 36.1,
        "FBLTH": 1.059,
        "FBUNI": 80.0,
        "FBSTR": 26.0,
        "FBELO": 4.7,
        "FBCRD": 76.1,
        "FBCLB": 9.0,
        "FBCGR": "31-3",
        "FBTCT": 26.0,
        "FBTAR": 0.49,
        "FBSFI": 12.3
    },
    "_id": "641e24fe8ac547e9ddeb1d64",
    "haid": "641e24fe8ac547e9ddeb1d64"
}{
    "type": "Feature",
    "geometry": {
        "type": "Polygon",
        "coordinates": [
            [
                [
                    -111.9784455,
                    33.07978543
                ],
                [
                    -111.97846727,
                    33.07978553
                ],
                [
                    -111.97846664,
                    33.07987573
                ],
                [
                    -111.97844487,
                    33.07987562
                ],
                [
                    -111.9784455,
                    33.07978543
                ]
            ]
        ]
    },
    "properties": {
        "ha_label": "p1-1-E",
        "HA_AREA": 20.320001,
        "HARM": "Machine",
        "HADAT": "11/13/2023",
        "WBWAH": 1392.1,
        "BWCAH": 5.04,
        "DBWAH": 1321.9,
        "GNDAT": "11/14/2023",
        "FFRAC": 0.3706,
        "SFRAC": 0.5122,
        "TFRAC": 0.1172,
        "WFWAH": 515.9,
        "WSWAH": 713.0,
        "WSCWAH": 1229.0,
        "DFWAH": 489.9,
        "DSWAH": 677.1,
        "DSCWAH": 1167.0,
        "QLDAT": "01/04/2024",
        "FBMIC": 43.8,
        "FBLTH": 1.057,
        "FBUNI": 81.7,
        "FBSTR": 27.7,
        "FBELO": 4.7,
        "FBCRD": 78.5,
        "FBCLB": 8.8,
        "FBCGR": "21-2",
        "FBTCT": 20.0,
        "FBTAR": 0.32,
        "FBSFI": 11.3
    },
    "_id": "641e24fe8ac547e9ddeb1d6c",
    "haid": "641e24fe8ac547e9ddeb1d6c"
}{
    "type": "Feature",
    "geometry": {
        "type": "Polygon",
        "coordinates": [
            [
                [
                    -111.97851207,
                    33.07960537
                ],
                [
                    -111.97853384,
                    33.07960547
                ],
                [
                    -111.97853321,
                    33.07969567
                ],
                [
                    -111.97851144,
                    33.07969556
                ],
                [
                    -111.97851207,
                    33.07960537
                ]
            ]
        ]
    },
    "properties": {
        "ha_label": "p1-2-W",
        "HA_AREA": 20.320001,
        "HARM": "Machine",
        "HADAT": "11/13/2023",
        "WBWAH": 1333.5,
        "BWCAH": 5.33,
        "DBWAH": 1262.4,
        "GNDAT": "11/14/2023",
        "FFRAC": 0.3201,
        "SFRAC": 0.4558,
        "TFRAC": 0.2242,
        "WFWAH": 426.8,
        "WSWAH": 607.8,
        "WSCWAH": 1034.6,
        "DFWAH": 404.1,
        "DSWAH": 575.4,
        "DSCWAH": 979.4,
        "QLDAT": "01/04/2024",
        "FBMIC": 36.3,
        "FBLTH": 1.115,
        "FBUNI": 81.4,
        "FBSTR": 29.7,
        "FBELO": 4.7,
        "FBCRD": 78.5,
        "FBCLB": 9.0,
        "FBCGR": "21-1",
        "FBTCT": 16.0,
        "FBTAR": 0.11,
        "FBSFI": 9.2
    },
    "_id": "641e24fe8ac547e9ddeb1d65",
    "haid": "641e24fe8ac547e9ddeb1d65"
}{
    "type": "Feature",
    "geometry": {
        "type": "Polygon",
        "coordinates": [
            [
                [
                    -111.97844676,
                    33.07960504
                ],
                [
                    -111.97846853,
                    33.07960515
                ],
                [
                    -111.9784679,
                    33.07969534
                ],
                [
                    -111.97844613,
                    33.07969524
                ],
                [
                    -111.97844676,
                    33.07960504
                ]
            ]
        ]
    },
    "properties": {
        "ha_label": "p1-2-E",
        "HA_AREA": 20.319996,
        "HARM": "Machine",
        "HADAT": "11/13/2023",
        "WBWAH": 1034.9,
        "BWCAH": 4.33,
        "DBWAH": 990.2,
        "GNDAT": "11/14/2023",
        "FFRAC": 0.3638,
        "SFRAC": 0.4709,
        "TFRAC": 0.1653,
        "WFWAH": 376.5,
        "WSWAH": 487.4,
        "WSCWAH": 863.9,
        "DFWAH": 360.2,
        "DSWAH": 466.3,
        "DSCWAH": 826.5,
        "QLDAT": "01/04/2024",
        "FBMIC": 45.4,
        "FBLTH": 1.137,
        "FBUNI": 82.3,
        "FBSTR": 31.2,
        "FBELO": 5.1,
        "FBCRD": 80.7,
        "FBCLB": 8.9,
        "FBCGR": "11-2",
        "FBTCT": 9.0,
        "FBTAR": 0.13,
        "FBSFI": 8.1
    },
    "_id": "641e24fe8ac547e9ddeb1d6d",
    "haid": "641e24fe8ac547e9ddeb1d6d"
}{
    "type": "Feature",
    "geometry": {
        "type": "Polygon",
        "coordinates": [
            [
                [
                    -111.97851333,
                    33.07942498
                ],
                [
                    -111.9785351,
                    33.07942509
                ],
                [
                    -111.97853447,
                    33.07951528
                ],
                [
                    -111.9785127,
                    33.07951517
                ],
                [
                    -111.97851333,
                    33.07942498
                ]
            ]
        ]
    },
    "properties": {
        "ha_label": "p1-3-W",
        "HA_AREA": 20.320001,
        "HARM": "Machine",
        "HADAT": "11/13/2023",
        "WBWAH": 1333.5,
        "BWCAH": 4.54,
        "DBWAH": 1272.9,
        "GNDAT": "11/14/2023",
        "FFRAC": 0.3085,
        "SFRAC": 0.4889,
        "TFRAC": 0.2026,
        "WFWAH": 411.4,
        "WSWAH": 651.9,
        "WSCWAH": 1063.3,
        "DFWAH": 392.7,
        "DSWAH": 622.3,
        "DSCWAH": 1015.0,
        "QLDAT": "01/04/2024",
        "FBMIC": 40.2,
        "FBLTH": 1.083,
        "FBUNI": 80.3,
        "FBSTR": 27.0,
        "FBELO": 5.0,
        "FBCRD": 78.9,
        "FBCLB": 9.0,
        "FBCGR": "21-1",
        "FBTCT": 10.0,
        "FBTAR": 0.16,
        "FBSFI": 12.3
    },
    "_id": "641e24fe8ac547e9ddeb1d66",
    "haid": "641e24fe8ac547e9ddeb1d66"
}{
    "type": "Feature",
    "geometry": {
        "type": "Polygon",
        "coordinates": [
            [
                [
                    -111.97844802,
                    33.07942466
                ],
                [
                    -111.97846979,
                    33.07942477
                ],
                [
                    -111.97846916,
                    33.07951496
                ],
                [
                    -111.97844739,
                    33.07951485
                ],
                [
                    -111.97844802,
                    33.07942466
                ]
            ]
        ]
    },
    "properties": {
        "ha_label": "p1-3-E",
        "HA_AREA": 20.320001,
        "HARM": "Machine",
        "HADAT": "11/13/2023",
        "WBWAH": 3155.6,
        "BWCAH": 2.32,
        "DBWAH": 3082.4,
        "GNDAT": "11/14/2023",
        "FFRAC": 0.3584,
        "SFRAC": 0.4718,
        "TFRAC": 0.1697,
        "WFWAH": 1131.0,
        "WSWAH": 1488.9,
        "WSCWAH": 2619.9,
        "DFWAH": 1104.8,
        "DSWAH": 1454.4,
        "DSCWAH": 2559.2,
        "QLDAT": "01/04/2024",
        "FBMIC": 47.3,
        "FBLTH": 1.136,
        "FBUNI": 82.4,
        "FBSTR": 29.3,
        "FBELO": 5.1,
        "FBCRD": 80.3,
        "FBCLB": 8.7,
        "FBCGR": "21-1",
        "FBTCT": 9.0,
        "FBTAR": 0.15,
        "FBSFI": 9.0
    },
    "_id": "641e24fe8ac547e9ddeb1d6e",
    "haid": "641e24fe8ac547e9ddeb1d6e"
}{
    "type": "Feature",
    "geometry": {
        "type": "Polygon",
        "coordinates": [
            [
                [
                    -111.97851458,
                    33.0792446
                ],
                [
                    -111.97853635,
                    33.07924471
                ],
                [
                    -111.97853572,
                    33.0793349
                ],
                [
                    -111.97851396,
                    33.07933479
                ],
                [
                    -111.97851458,
                    33.0792446
                ]
            ]
        ]
    },
    "properties": {
        "ha_label": "p1-4-W",
        "HA_AREA": 20.319999,
        "HARM": "Machine",
        "HADAT": "11/13/2023",
        "WBWAH": 1221.9,
        "BWCAH": 4.75,
        "DBWAH": 1163.9,
        "GNDAT": "11/14/2023",
        "FFRAC": 0.3198,
        "SFRAC": 0.4579,
        "TFRAC": 0.2223,
        "WFWAH": 390.8,
        "WSWAH": 559.4,
        "WSCWAH": 950.2,
        "DFWAH": 372.2,
        "DSWAH": 532.9,
        "DSCWAH": 905.1,
        "QLDAT": "01/04/2024",
        "FBMIC": 39.8,
        "FBLTH": 1.032,
        "FBUNI": 79.5,
        "FBSTR": 27.3,
        "FBELO": 4.9,
        "FBCRD": 78.9,
        "FBCLB": 9.0,
        "FBCGR": "21-1",
        "FBTCT": 12.0,
        "FBTAR": 0.18,
        "FBSFI": 14.6
    },
    "_id": "641e24fe8ac547e9ddeb1d67",
    "haid": "641e24fe8ac547e9ddeb1d67"
}{
    "type": "Feature",
    "geometry": {
        "type": "Polygon",
        "coordinates": [
            [
                [
                    -111.97844928,
                    33.07924428
                ],
                [
                    -111.97847105,
                    33.07924438
                ],
                [
                    -111.97847042,
                    33.07933458
                ],
                [
                    -111.97844865,
                    33.07933447
                ],
                [
                    -111.97844928,
                    33.07924428
                ]
            ]
        ]
    },
    "properties": {
        "ha_label": "p1-4-E",
        "HA_AREA": 20.320001,
        "HARM": "Machine",
        "HADAT": "11/13/2023",
        "WBWAH": 1682.3,
        "BWCAH": 4.44,
        "DBWAH": 1607.6,
        "GNDAT": "11/14/2023",
        "FFRAC": 0.3613,
        "SFRAC": 0.4556,
        "TFRAC": 0.1831,
        "WFWAH": 607.8,
        "WSWAH": 766.5,
        "WSCWAH": 1374.3,
        "DFWAH": 580.8,
        "DSWAH": 732.4,
        "DSCWAH": 1313.3,
        "QLDAT": "01/04/2024",
        "FBMIC": 49.0,
        "FBLTH": 1.085,
        "FBUNI": 81.5,
        "FBSTR": 29.4,
        "FBELO": 4.8,
        "FBCRD": 77.7,
        "FBCLB": 8.4,
        "FBCGR": "31-1",
        "FBTCT": 16.0,
        "FBTAR": 0.18,
        "FBSFI": 10.5
    },
    "_id": "641e24fe8ac547e9ddeb1d6f",
    "haid": "641e24fe8ac547e9ddeb1d6f"
}{
    "type": "Feature",
    "geometry": {
        "type": "Polygon",
        "coordinates": [
            [
                [
                    -111.97851584,
                    33.07906422
                ],
                [
                    -111.97853761,
                    33.07906432
                ],
                [
                    -111.97853698,
                    33.07915452
                ],
                [
                    -111.97851521,
                    33.07915441
                ],
                [
                    -111.97851584,
                    33.07906422
                ]
            ]
        ]
    },
    "properties": {
        "ha_label": "p1-5-W",
        "HA_AREA": 20.320001,
        "HARM": "Machine",
        "HADAT": "11/13/2023",
        "WBWAH": 820.1,
        "BWCAH": 2.44,
        "DBWAH": 800.0,
        "GNDAT": "11/14/2023",
        "FFRAC": 0.3209,
        "SFRAC": 0.4365,
        "TFRAC": 0.2425,
        "WFWAH": 263.2,
        "WSWAH": 358.0,
        "WSCWAH": 621.2,
        "DFWAH": 256.8,
        "DSWAH": 349.3,
        "DSCWAH": 606.0,
        "QLDAT": "01/04/2024",
        "FBMIC": 40.8,
        "FBLTH": 1.005,
        "FBUNI": 79.6,
        "FBSTR": 26.2,
        "FBELO": 4.7,
        "FBCRD": 78.2,
        "FBCLB": 9.1,
        "FBCGR": "21-2",
        "FBTCT": 25.0,
        "FBTAR": 0.36,
        "FBSFI": 15.5
    },
    "_id": "641e24fe8ac547e9ddeb1d68",
    "haid": "641e24fe8ac547e9ddeb1d68"
}{
    "type": "Feature",
    "geometry": {
        "type": "Polygon",
        "coordinates": [
            [
                [
                    -111.97845053,
                    33.07906389
                ],
                [
                    -111.9784723,
                    33.079064
                ],
                [
                    -111.97847167,
                    33.07915419
                ],
                [
                    -111.97844991,
                    33.07915408
                ],
                [
                    -111.97845053,
                    33.07906389
                ]
            ]
        ]
    },
    "properties": {
        "ha_label": "p1-5-E",
        "HA_AREA": 20.320001,
        "HARM": "Machine",
        "HADAT": "11/13/2023",
        "WBWAH": 1191.2,
        "BWCAH": 4.79,
        "DBWAH": 1134.2,
        "GNDAT": "11/14/2023",
        "FFRAC": 0.363,
        "SFRAC": 0.4657,
        "TFRAC": 0.1713,
        "WFWAH": 432.4,
        "WSWAH": 554.8,
        "WSCWAH": 987.2,
        "DFWAH": 411.7,
        "DSWAH": 528.2,
        "DSCWAH": 939.9,
        "QLDAT": "01/04/2024",
        "FBMIC": 44.3,
        "FBLTH": 1.066,
        "FBUNI": 81.5,
        "FBSTR": 27.0,
        "FBELO": 4.8,
        "FBCRD": 78.1,
        "FBCLB": 8.8,
        "FBCGR": "31-1",
        "FBTCT": 21.0,
        "FBTAR": 0.45,
        "FBSFI": 10.6
    },
    "_id": "641e24fe8ac547e9ddeb1d70",
    "haid": "641e24fe8ac547e9ddeb1d70"
}{
    "type": "Feature",
    "geometry": {
        "type": "Polygon",
        "coordinates": [
            [
                [
                    -111.9785171,
                    33.07888383
                ],
                [
                    -111.97853887,
                    33.07888394
                ],
                [
                    -111.97853824,
                    33.07897413
                ],
                [
                    -111.97851647,
                    33.07897402
                ],
                [
                    -111.9785171,
                    33.07888383
                ]
            ]
        ]
    },
    "properties": {
        "ha_label": "p1-6-W",
        "HA_AREA": 20.319996,
        "HARM": "Machine",
        "HADAT": "11/13/2023",
        "WBWAH": 1199.6,
        "BWCAH": 4.93,
        "DBWAH": 1140.4,
        "GNDAT": "11/14/2023",
        "FFRAC": 0.3215,
        "SFRAC": 0.4701,
        "TFRAC": 0.2084,
        "WFWAH": 385.6,
        "WSWAH": 563.9,
        "WSCWAH": 949.6,
        "DFWAH": 366.6,
        "DSWAH": 536.1,
        "DSCWAH": 902.7,
        "QLDAT": "01/04/2024",
        "FBMIC": 39.9,
        "FBLTH": 1.098,
        "FBUNI": 80.6,
        "FBSTR": 27.9,
        "FBELO": 5.0,
        "FBCRD": 79.0,
        "FBCLB": 9.1,
        "FBCGR": "21-1",
        "FBTCT": 17.0,
        "FBTAR": 0.32,
        "FBSFI": 11.2
    },
    "_id": "641e24fe8ac547e9ddeb1d69",
    "haid": "641e24fe8ac547e9ddeb1d69"
}{
    "type": "Feature",
    "geometry": {
        "type": "Polygon",
        "coordinates": [
            [
                [
                    -111.97845179,
                    33.07888351
                ],
                [
                    -111.97847356,
                    33.07888362
                ],
                [
                    -111.97847293,
                    33.07897381
                ],
                [
                    -111.97845116,
                    33.0789737
                ],
                [
                    -111.97845179,
                    33.07888351
                ]
            ]
        ]
    },
    "properties": {
        "ha_label": "p1-6-E",
        "HA_AREA": 20.320001,
        "HARM": "Machine",
        "HADAT": "11/13/2023",
        "WBWAH": 2151.0,
        "BWCAH": 4.91,
        "DBWAH": 2045.3,
        "GNDAT": "11/14/2023",
        "FFRAC": 0.3519,
        "SFRAC": 0.4824,
        "TFRAC": 0.1657,
        "WFWAH": 756.9,
        "WSWAH": 1037.7,
        "WSCWAH": 1794.6,
        "DFWAH": 719.7,
        "DSWAH": 986.7,
        "DSCWAH": 1706.4,
        "QLDAT": "01/04/2024",
        "FBMIC": 46.0,
        "FBLTH": 1.142,
        "FBUNI": 81.6,
        "FBSTR": 30.0,
        "FBELO": 5.0,
        "FBCRD": 80.3,
        "FBCLB": 9.0,
        "FBCGR": "21-1",
        "FBTCT": 7.0,
        "FBTAR": 0.1,
        "FBSFI": 9.0
    },
    "_id": "641e24fe8ac547e9ddeb1d71",
    "haid": "641e24fe8ac547e9ddeb1d71"
}{
    "type": "Feature",
    "geometry": {
        "type": "Polygon",
        "coordinates": [
            [
                [
                    -111.97851836,
                    33.07870345
                ],
                [
                    -111.97854013,
                    33.07870356
                ],
                [
                    -111.9785395,
                    33.07879375
                ],
                [
                    -111.97851773,
                    33.07879364
                ],
                [
                    -111.97851836,
                    33.07870345
                ]
            ]
        ]
    },
    "properties": {
        "ha_label": "p1-7-W",
        "HA_AREA": 20.320001,
        "HARM": "Machine",
        "HADAT": "11/13/2023",
        "WBWAH": 1512.1,
        "BWCAH": 2.22,
        "DBWAH": 1478.5,
        "GNDAT": "11/14/2023",
        "FFRAC": 0.3251,
        "SFRAC": 0.4833,
        "TFRAC": 0.1916,
        "WFWAH": 491.6,
        "WSWAH": 730.7,
        "WSCWAH": 1222.3,
        "DFWAH": 480.7,
        "DSWAH": 714.5,
        "DSCWAH": 1195.2,
        "QLDAT": "01/04/2024",
        "FBMIC": 37.5,
        "FBLTH": 1.149,
        "FBUNI": 81.9,
        "FBSTR": 30.0,
        "FBELO": 5.1,
        "FBCRD": 78.7,
        "FBCLB": 8.8,
        "FBCGR": "21-2",
        "FBTCT": 11.0,
        "FBTAR": 0.11,
        "FBSFI": 9.5
    },
    "_id": "641e24fe8ac547e9ddeb1d6a",
    "haid": "641e24fe8ac547e9ddeb1d6a"
}{
    "type": "Feature",
    "geometry": {
        "type": "Polygon",
        "coordinates": [
            [
                [
                    -111.97845305,
                    33.07870313
                ],
                [
                    -111.97847482,
                    33.07870323
                ],
                [
                    -111.97847419,
                    33.07879342
                ],
                [
                    -111.97845242,
                    33.07879332
                ],
                [
                    -111.97845305,
                    33.07870313
                ]
            ]
        ]
    },
    "properties": {
        "ha_label": "p1-7-E",
        "HA_AREA": 20.320001,
        "HARM": "Machine",
        "HADAT": "11/13/2023",
        "WBWAH": 2820.7,
        "BWCAH": 3.94,
        "DBWAH": 2709.7,
        "GNDAT": "11/14/2023",
        "FFRAC": 0.3564,
        "SFRAC": 0.4728,
        "TFRAC": 0.1708,
        "WFWAH": 1005.3,
        "WSWAH": 1333.6,
        "WSCWAH": 2338.9,
        "DFWAH": 965.7,
        "DSWAH": 1281.1,
        "DSCWAH": 2246.9,
        "QLDAT": "01/04/2024",
        "FBMIC": 42.6,
        "FBLTH": 1.164,
        "FBUNI": 82.5,
        "FBSTR": 30.7,
        "FBELO": 5.5,
        "FBCRD": 81.2,
        "FBCLB": 9.3,
        "FBCGR": "11-1",
        "FBTCT": 11.0,
        "FBTAR": 0.13,
        "FBSFI": 7.9
    },
    "_id": "641e24fe8ac547e9ddeb1d72",
    "haid": "641e24fe8ac547e9ddeb1d72"
}{
    "type": "Feature",
    "geometry": {
        "type": "Polygon",
        "coordinates": [
            [
                [
                    -111.97851962,
                    33.07852306
                ],
                [
                    -111.97854138,
                    33.07852317
                ],
                [
                    -111.97854076,
                    33.07861336
                ],
                [
                    -111.97851899,
                    33.07861326
                ],
                [
                    -111.97851962,
                    33.07852306
                ]
            ]
        ]
    },
    "properties": {
        "ha_label": "p1-8-W",
        "HA_AREA": 20.320001,
        "HARM": "Machine",
        "HADAT": "11/13/2023",
        "WBWAH": 462.9,
        "BWCAH": 5.11,
        "DBWAH": 439.3,
        "GNDAT": "11/14/2023",
        "FFRAC": 0.3095,
        "SFRAC": 0.465,
        "TFRAC": 0.2255,
        "WFWAH": 143.3,
        "WSWAH": 215.3,
        "WSCWAH": 358.5,
        "DFWAH": 135.9,
        "DSWAH": 204.3,
        "DSCWAH": 340.2,
        "QLDAT": "01/04/2024",
        "FBMIC": 39.1,
        "FBLTH": 1.056,
        "FBUNI": 79.7,
        "FBSTR": 26.8,
        "FBELO": 5.0,
        "FBCRD": 77.1,
        "FBCLB": 9.1,
        "FBCGR": "31-3",
        "FBTCT": 21.0,
        "FBTAR": 0.44,
        "FBSFI": 12.0
    },
    "_id": "641e24fe8ac547e9ddeb1d6b",
    "haid": "641e24fe8ac547e9ddeb1d6b"
}{
    "type": "Feature",
    "geometry": {
        "type": "Polygon",
        "coordinates": [
            [
                [
                    -111.97845431,
                    33.07852274
                ],
                [
                    -111.97847608,
                    33.07852285
                ],
                [
                    -111.97847545,
                    33.07861304
                ],
                [
                    -111.97845368,
                    33.07861293
                ],
                [
                    -111.97845431,
                    33.07852274
                ]
            ]
        ]
    },
    "properties": {
        "ha_label": "p1-8-E",
        "HA_AREA": 20.319995,
        "HARM": "Machine",
        "HADAT": "11/13/2023",
        "WBWAH": 923.3,
        "BWCAH": 4.41,
        "DBWAH": 882.6,
        "GNDAT": "11/14/2023",
        "FFRAC": 0.3239,
        "SFRAC": 0.4579,
        "TFRAC": 0.2182,
        "WFWAH": 299.1,
        "WSWAH": 422.8,
        "WSCWAH": 721.8,
        "DFWAH": 285.9,
        "DSWAH": 404.1,
        "DSCWAH": 690.0,
        "QLDAT": "01/04/2024",
        "FBMIC": 43.2,
        "FBLTH": 1.107,
        "FBUNI": 81.4,
        "FBSTR": 29.9,
        "FBELO": 4.8,
        "FBCRD": 78.2,
        "FBCLB": 9.1,
        "FBCGR": "21-2",
        "FBTCT": 25.0,
        "FBTAR": 0.31,
        "FBSFI": 9.4
    },
    "_id": "641e24fe8ac547e9ddeb1d73",
    "haid": "641e24fe8ac547e9ddeb1d73"
}{
    "type": "Feature",
    "geometry": {
        "type": "Polygon",
        "coordinates": [
            [
                [
                    -111.97835843,
                    33.079785
                ],
                [
                    -111.9783802,
                    33.0797851
                ],
                [
                    -111.97837957,
                    33.0798753
                ],
                [
                    -111.9783578,
                    33.07987519
                ],
                [
                    -111.97835843,
                    33.079785
                ]
            ]
        ]
    },
    "properties": {
        "ha_label": "p2-1-W",
        "HA_AREA": 20.320001,
        "HARM": "Machine",
        "HADAT": "11/13/2023",
        "WBWAH": 1839.9,
        "BWCAH": 4.98,
        "DBWAH": 1748.4,
        "GNDAT": "11/14/2023",
        "FFRAC": 0.3417,
        "SFRAC": 0.4407,
        "TFRAC": 0.2176,
        "WFWAH": 628.7,
        "WSWAH": 810.9,
        "WSCWAH": 1439.6,
        "DFWAH": 597.4,
        "DSWAH": 770.6,
        "DSCWAH": 1367.9,
        "QLDAT": "01/04/2024",
        "FBMIC": 47.4,
        "FBLTH": 1.099,
        "FBUNI": 81.8,
        "FBSTR": 30.2,
        "FBELO": 4.6,
        "FBCRD": 78.5,
        "FBCLB": 8.5,
        "FBCGR": "21-2",
        "FBTCT": 13.0,
        "FBTAR": 0.21,
        "FBSFI": 9.9
    },
    "_id": "641e24fe8ac547e9ddeb1d74",
    "haid": "641e24fe8ac547e9ddeb1d74"
}{
    "type": "Feature",
    "geometry": {
        "type": "Polygon",
        "coordinates": [
            [
                [
                    -111.97829312,
                    33.07978467
                ],
                [
                    -111.97831489,
                    33.07978478
                ],
                [
                    -111.97831426,
                    33.07987497
                ],
                [
                    -111.97829249,
                    33.07987487
                ],
                [
                    -111.97829312,
                    33.07978467
                ]
            ]
        ]
    },
    "properties": {
        "ha_label": "p2-1-E",
        "HA_AREA": 20.319997,
        "HARM": "Machine",
        "HADAT": "11/13/2023",
        "WBWAH": 1195.4,
        "BWCAH": 3.87,
        "DBWAH": 1149.1,
        "GNDAT": "11/14/2023",
        "FFRAC": 0.3628,
        "SFRAC": 0.4535,
        "TFRAC": 0.1836,
        "WFWAH": 433.7,
        "WSWAH": 542.1,
        "WSCWAH": 975.8,
        "DFWAH": 416.9,
        "DSWAH": 521.1,
        "DSCWAH": 938.0,
        "QLDAT": "01/04/2024",
        "FBMIC": 47.5,
        "FBLTH": 1.067,
        "FBUNI": 80.7,
        "FBSTR": 27.7,
        "FBELO": 4.8,
        "FBCRD": 76.8,
        "FBCLB": 8.8,
        "FBCGR": "31-1",
        "FBTCT": 22.0,
        "FBTAR": 0.54,
        "FBSFI": 10.9
    },
    "_id": "641e24fe8ac547e9ddeb1d7c",
    "haid": "641e24fe8ac547e9ddeb1d7c"
}{
    "type": "Feature",
    "geometry": {
        "type": "Polygon",
        "coordinates": [
            [
                [
                    -111.97835968,
                    33.07960461
                ],
                [
                    -111.97838145,
                    33.07960472
                ],
                [
                    -111.97838082,
                    33.07969491
                ],
                [
                    -111.97835905,
                    33.0796948
                ],
                [
                    -111.97835968,
                    33.07960461
                ]
            ]
        ]
    },
    "properties": {
        "ha_label": "p2-2-W",
        "HA_AREA": 20.32,
        "HARM": "Machine",
        "HADAT": "11/13/2023",
        "WBWAH": 2331.0,
        "BWCAH": 4.58,
        "DBWAH": 2224.2,
        "GNDAT": "11/14/2023",
        "FFRAC": 0.3533,
        "SFRAC": 0.4709,
        "TFRAC": 0.1759,
        "WFWAH": 823.4,
        "WSWAH": 1097.6,
        "WSCWAH": 1921.0,
        "DFWAH": 785.7,
        "DSWAH": 1047.3,
        "DSCWAH": 1833.0,
        "QLDAT": "01/04/2024",
        "FBMIC": 45.3,
        "FBLTH": 1.097,
        "FBUNI": 80.5,
        "FBSTR": 29.9,
        "FBELO": 4.9,
        "FBCRD": 79.6,
        "FBCLB": 8.5,
        "FBCGR": "21-1",
        "FBTCT": 9.0,
        "FBTAR": 0.14,
        "FBSFI": 10.9
    },
    "_id": "641e24fe8ac547e9ddeb1d75",
    "haid": "641e24fe8ac547e9ddeb1d75"
}{
    "type": "Feature",
    "geometry": {
        "type": "Polygon",
        "coordinates": [
            [
                [
                    -111.97829438,
                    33.07960429
                ],
                [
                    -111.97831615,
                    33.0796044
                ],
                [
                    -111.97831552,
                    33.07969459
                ],
                [
                    -111.97829375,
                    33.07969448
                ],
                [
                    -111.97829438,
                    33.07960429
                ]
            ]
        ]
    },
    "properties": {
        "ha_label": "p2-2-E",
        "HA_AREA": 20.320002,
        "HARM": "Machine",
        "HADAT": "11/13/2023",
        "WBWAH": 2043.6,
        "BWCAH": 3.8,
        "DBWAH": 1966.0,
        "GNDAT": "11/14/2023",
        "FFRAC": 0.3534,
        "SFRAC": 0.4782,
        "TFRAC": 0.1684,
        "WFWAH": 722.2,
        "WSWAH": 977.3,
        "WSCWAH": 1699.5,
        "DFWAH": 694.8,
        "DSWAH": 940.2,
        "DSCWAH": 1634.9,
        "QLDAT": "01/04/2024",
        "FBMIC": 45.3,
        "FBLTH": 1.107,
        "FBUNI": 80.8,
        "FBSTR": 29.6,
        "FBELO": 4.9,
        "FBCRD": 79.6,
        "FBCLB": 9.1,
        "FBCGR": "21-1",
        "FBTCT": 16.0,
        "FBTAR": 0.19,
        "FBSFI": 9.9
    },
    "_id": "641e24fe8ac547e9ddeb1d7d",
    "haid": "641e24fe8ac547e9ddeb1d7d"
}{
    "type": "Feature",
    "geometry": {
        "type": "Polygon",
        "coordinates": [
            [
                [
                    -111.97836094,
                    33.07942423
                ],
                [
                    -111.97838271,
                    33.07942434
                ],
                [
                    -111.97838208,
                    33.07951453
                ],
                [
                    -111.97836031,
                    33.07951442
                ],
                [
                    -111.97836094,
                    33.07942423
                ]
            ]
        ]
    },
    "properties": {
        "ha_label": "p2-3-W",
        "HA_AREA": 20.320001,
        "HARM": "Machine",
        "HADAT": "11/13/2023",
        "WBWAH": 1839.9,
        "BWCAH": 3.91,
        "DBWAH": 1768.0,
        "GNDAT": "11/14/2023",
        "FFRAC": 0.3575,
        "SFRAC": 0.4556,
        "TFRAC": 0.1869,
        "WFWAH": 657.7,
        "WSWAH": 838.3,
        "WSCWAH": 1496.0,
        "DFWAH": 632.0,
        "DSWAH": 805.5,
        "DSCWAH": 1437.5,
        "QLDAT": "01/04/2024",
        "FBMIC": 48.4,
        "FBLTH": 1.071,
        "FBUNI": 81.3,
        "FBSTR": 28.8,
        "FBELO": 4.7,
        "FBCRD": 78.4,
        "FBCLB": 8.4,
        "FBCGR": "31-1",
        "FBTCT": 20.0,
        "FBTAR": 0.37,
        "FBSFI": 10.3
    },
    "_id": "641e24fe8ac547e9ddeb1d76",
    "haid": "641e24fe8ac547e9ddeb1d76"
}{
    "type": "Feature",
    "geometry": {
        "type": "Polygon",
        "coordinates": [
            [
                [
                    -111.97829564,
                    33.07942391
                ],
                [
                    -111.9783174,
                    33.07942401
                ],
                [
                    -111.97831677,
                    33.07951421
                ],
                [
                    -111.97829501,
                    33.0795141
                ],
                [
                    -111.97829564,
                    33.07942391
                ]
            ]
        ]
    },
    "properties": {
        "ha_label": "p2-3-E",
        "HA_AREA": 20.319997,
        "HARM": "Machine",
        "HADAT": "11/13/2023",
        "WBWAH": 1240.0,
        "BWCAH": 4.08,
        "DBWAH": 1189.4,
        "GNDAT": "11/14/2023",
        "FFRAC": 0.3762,
        "SFRAC": 0.4507,
        "TFRAC": 0.1731,
        "WFWAH": 466.5,
        "WSWAH": 558.9,
        "WSCWAH": 1025.4,
        "DFWAH": 447.5,
        "DSWAH": 536.1,
        "DSCWAH": 983.5,
        "QLDAT": "01/04/2024",
        "FBMIC": 47.7,
        "FBLTH": 1.066,
        "FBUNI": 80.5,
        "FBSTR": 28.3,
        "FBELO": 4.9,
        "FBCRD": 78.3,
        "FBCLB": 8.8,
        "FBCGR": "31-1",
        "FBTCT": 11.0,
        "FBTAR": 0.29,
        "FBSFI": 10.9
    },
    "_id": "641e24fe8ac547e9ddeb1d7e",
    "haid": "641e24fe8ac547e9ddeb1d7e"
}{
    "type": "Feature",
    "geometry": {
        "type": "Polygon",
        "coordinates": [
            [
                [
                    -111.9783622,
                    33.07924385
                ],
                [
                    -111.97838397,
                    33.07924395
                ],
                [
                    -111.97838334,
                    33.07933414
                ],
                [
                    -111.97836157,
                    33.07933404
                ],
                [
                    -111.9783622,
                    33.07924385
                ]
            ]
        ]
    },
    "properties": {
        "ha_label": "p2-4-W",
        "HA_AREA": 20.320001,
        "HARM": "Machine",
        "HADAT": "11/13/2023",
        "WBWAH": 3625.7,
        "BWCAH": 4.63,
        "DBWAH": 3458.0,
        "GNDAT": "11/14/2023",
        "FFRAC": 0.361,
        "SFRAC": 0.4789,
        "TFRAC": 0.1601,
        "WFWAH": 1309.0,
        "WSWAH": 1736.2,
        "WSCWAH": 3045.2,
        "DFWAH": 1248.4,
        "DSWAH": 1655.9,
        "DSCWAH": 2904.3,
        "QLDAT": "01/04/2024",
        "FBMIC": 45.9,
        "FBLTH": 1.158,
        "FBUNI": 81.4,
        "FBSTR": 29.5,
        "FBELO": 5.2,
        "FBCRD": 80.2,
        "FBCLB": 8.6,
        "FBCGR": "21-1",
        "FBTCT": 9.0,
        "FBTAR": 0.1,
        "FBSFI": 8.9
    },
    "_id": "641e24fe8ac547e9ddeb1d77",
    "haid": "641e24fe8ac547e9ddeb1d77"
}{
    "type": "Feature",
    "geometry": {
        "type": "Polygon",
        "coordinates": [
            [
                [
                    -111.97829689,
                    33.07924352
                ],
                [
                    -111.97831866,
                    33.07924363
                ],
                [
                    -111.97831803,
                    33.07933382
                ],
                [
                    -111.97829626,
                    33.07933371
                ],
                [
                    -111.97829689,
                    33.07924352
                ]
            ]
        ]
    },
    "properties": {
        "ha_label": "p2-4-E",
        "HA_AREA": 20.320002,
        "HARM": "Machine",
        "HADAT": "11/13/2023",
        "WBWAH": 3226.7,
        "BWCAH": 4.27,
        "DBWAH": 3088.8,
        "GNDAT": "11/14/2023",
        "FFRAC": 0.3682,
        "SFRAC": 0.4916,
        "TFRAC": 0.1402,
        "WFWAH": 1188.0,
        "WSWAH": 1586.3,
        "WSCWAH": 2774.4,
        "DFWAH": 1137.2,
        "DSWAH": 1518.5,
        "DSCWAH": 2655.8,
        "QLDAT": "01/04/2024",
        "FBMIC": 43.8,
        "FBLTH": 1.151,
        "FBUNI": 82.0,
        "FBSTR": 30.1,
        "FBELO": 5.2,
        "FBCRD": 81.1,
        "FBCLB": 9.2,
        "FBCGR": "11-1",
        "FBTCT": 17.0,
        "FBTAR": 0.11,
        "FBSFI": 9.1
    },
    "_id": "641e24fe8ac547e9ddeb1d7f",
    "haid": "641e24fe8ac547e9ddeb1d7f"
}{
    "type": "Feature",
    "geometry": {
        "type": "Polygon",
        "coordinates": [
            [
                [
                    -111.97836346,
                    33.07906346
                ],
                [
                    -111.97838523,
                    33.07906357
                ],
                [
                    -111.9783846,
                    33.07915376
                ],
                [
                    -111.97836283,
                    33.07915365
                ],
                [
                    -111.97836346,
                    33.07906346
                ]
            ]
        ]
    },
    "properties": {
        "ha_label": "p2-5-W",
        "HA_AREA": 20.319996,
        "HARM": "Machine",
        "HADAT": "11/13/2023",
        "WBWAH": 1973.9,
        "BWCAH": 4.06,
        "DBWAH": 1893.7,
        "GNDAT": "11/14/2023",
        "FFRAC": 0.3485,
        "SFRAC": 0.4468,
        "TFRAC": 0.2048,
        "WFWAH": 687.8,
        "WSWAH": 881.8,
        "WSCWAH": 1569.7,
        "DFWAH": 659.9,
        "DSWAH": 846.0,
        "DSCWAH": 1505.9,
        "QLDAT": "01/04/2024",
        "FBMIC": 49.6,
        "FBLTH": 1.111,
        "FBUNI": 82.6,
        "FBSTR": 30.5,
        "FBELO": 4.9,
        "FBCRD": 79.8,
        "FBCLB": 8.4,
        "FBCGR": "21-2",
        "FBTCT": 13.0,
        "FBTAR": 0.2,
        "FBSFI": 9.0
    },
    "_id": "641e24fe8ac547e9ddeb1d78",
    "haid": "641e24fe8ac547e9ddeb1d78"
}{
    "type": "Feature",
    "geometry": {
        "type": "Polygon",
        "coordinates": [
            [
                [
                    -111.97829815,
                    33.07906314
                ],
                [
                    -111.97831992,
                    33.07906325
                ],
                [
                    -111.97831929,
                    33.07915344
                ],
                [
                    -111.97829752,
                    33.07915333
                ],
                [
                    -111.97829815,
                    33.07906314
                ]
            ]
        ]
    },
    "properties": {
        "ha_label": "p2-5-E",
        "HA_AREA": 20.320001,
        "HARM": "Machine",
        "HADAT": "11/13/2023",
        "WBWAH": 1485.6,
        "BWCAH": 3.99,
        "DBWAH": 1426.3,
        "GNDAT": "11/14/2023",
        "FFRAC": 0.3551,
        "SFRAC": 0.4725,
        "TFRAC": 0.1724,
        "WFWAH": 527.5,
        "WSWAH": 701.9,
        "WSCWAH": 1229.4,
        "DFWAH": 506.4,
        "DSWAH": 674.0,
        "DSCWAH": 1180.4,
        "QLDAT": "01/04/2024",
        "FBMIC": 49.7,
        "FBLTH": 1.109,
        "FBUNI": 82.9,
        "FBSTR": 31.1,
        "FBELO": 4.6,
        "FBCRD": 78.1,
        "FBCLB": 8.7,
        "FBCGR": "31-1",
        "FBTCT": 15.0,
        "FBTAR": 0.37,
        "FBSFI": 8.0
    },
    "_id": "641e24fe8ac547e9ddeb1d80",
    "haid": "641e24fe8ac547e9ddeb1d80"
}{
    "type": "Feature",
    "geometry": {
        "type": "Polygon",
        "coordinates": [
            [
                [
                    -111.97836472,
                    33.07888308
                ],
                [
                    -111.97838649,
                    33.07888319
                ],
                [
                    -111.97838586,
                    33.07897338
                ],
                [
                    -111.97836409,
                    33.07897327
                ],
                [
                    -111.97836472,
                    33.07888308
                ]
            ]
        ]
    },
    "properties": {
        "ha_label": "p2-6-W",
        "HA_AREA": 20.320001,
        "HARM": "Machine",
        "HADAT": "11/13/2023",
        "WBWAH": 3134.6,
        "BWCAH": 4.3,
        "DBWAH": 2999.8,
        "GNDAT": "11/14/2023",
        "FFRAC": 0.349,
        "SFRAC": 0.4737,
        "TFRAC": 0.1773,
        "WFWAH": 1094.0,
        "WSWAH": 1484.8,
        "WSCWAH": 2578.7,
        "DFWAH": 1046.9,
        "DSWAH": 1420.9,
        "DSCWAH": 2467.8,
        "QLDAT": "01/04/2024",
        "FBMIC": 45.2,
        "FBLTH": 1.152,
        "FBUNI": 81.3,
        "FBSTR": 28.4,
        "FBELO": 5.3,
        "FBCRD": 80.6,
        "FBCLB": 9.0,
        "FBCGR": "11-2",
        "FBTCT": 8.0,
        "FBTAR": 0.15,
        "FBSFI": 9.5
    },
    "_id": "641e24fe8ac547e9ddeb1d79",
    "haid": "641e24fe8ac547e9ddeb1d79"
}{
    "type": "Feature",
    "geometry": {
        "type": "Polygon",
        "coordinates": [
            [
                [
                    -111.97829941,
                    33.07888276
                ],
                [
                    -111.97832118,
                    33.07888286
                ],
                [
                    -111.97832055,
                    33.07897305
                ],
                [
                    -111.97829878,
                    33.07897295
                ],
                [
                    -111.97829941,
                    33.07888276
                ]
            ]
        ]
    },
    "properties": {
        "ha_label": "p2-6-E",
        "HA_AREA": 20.320002,
        "HARM": "Machine",
        "HADAT": "11/13/2023",
        "WBWAH": 2847.2,
        "BWCAH": 4.26,
        "DBWAH": 2726.0,
        "GNDAT": "11/14/2023",
        "FFRAC": 0.3656,
        "SFRAC": 0.4857,
        "TFRAC": 0.1487,
        "WFWAH": 1040.9,
        "WSWAH": 1383.0,
        "WSCWAH": 2423.8,
        "DFWAH": 996.5,
        "DSWAH": 1324.1,
        "DSCWAH": 2320.6,
        "QLDAT": "01/04/2024",
        "FBMIC": 43.6,
        "FBLTH": 1.125,
        "FBUNI": 82.0,
        "FBSTR": 30.7,
        "FBELO": 5.1,
        "FBCRD": 80.7,
        "FBCLB": 9.1,
        "FBCGR": "11-2",
        "FBTCT": 10.0,
        "FBTAR": 0.08,
        "FBSFI": 9.4
    },
    "_id": "641e24fe8ac547e9ddeb1d81",
    "haid": "641e24fe8ac547e9ddeb1d81"
}{
    "type": "Feature",
    "geometry": {
        "type": "Polygon",
        "coordinates": [
            [
                [
                    -111.97836598,
                    33.07870269
                ],
                [
                    -111.97838774,
                    33.0787028
                ],
                [
                    -111.97838712,
                    33.07879299
                ],
                [
                    -111.97836535,
                    33.07879289
                ],
                [
                    -111.97836598,
                    33.07870269
                ]
            ]
        ]
    },
    "properties": {
        "ha_label": "p2-7-W",
        "HA_AREA": 20.320001,
        "HARM": "Machine",
        "HADAT": "11/13/2023",
        "WBWAH": 4139.1,
        "BWCAH": 4.14,
        "DBWAH": 3967.9,
        "GNDAT": "11/14/2023",
        "FFRAC": 0.3561,
        "SFRAC": 0.4766,
        "TFRAC": 0.1673,
        "WFWAH": 1474.0,
        "WSWAH": 1972.8,
        "WSCWAH": 3446.8,
        "DFWAH": 1413.0,
        "DSWAH": 1891.2,
        "DSCWAH": 3304.2,
        "QLDAT": "01/04/2024",
        "FBMIC": 44.2,
        "FBLTH": 1.169,
        "FBUNI": 82.1,
        "FBSTR": 30.7,
        "FBELO": 5.3,
        "FBCRD": 80.6,
        "FBCLB": 8.8,
        "FBCGR": "11-2",
        "FBTCT": 8.0,
        "FBTAR": 0.12,
        "FBSFI": 8.2
    },
    "_id": "641e24fe8ac547e9ddeb1d7a",
    "haid": "641e24fe8ac547e9ddeb1d7a"
}{
    "type": "Feature",
    "geometry": {
        "type": "Polygon",
        "coordinates": [
            [
                [
                    -111.97830067,
                    33.07870237
                ],
                [
                    -111.97832244,
                    33.07870248
                ],
                [
                    -111.97832181,
                    33.07879267
                ],
                [
                    -111.97830004,
                    33.07879256
                ],
                [
                    -111.97830067,
                    33.07870237
                ]
            ]
        ]
    },
    "properties": {
        "ha_label": "p2-7-E",
        "HA_AREA": 20.319997,
        "HARM": "Machine",
        "HADAT": "11/13/2023",
        "WBWAH": 1865.0,
        "BWCAH": 4.14,
        "DBWAH": 1787.8,
        "GNDAT": "11/14/2023",
        "FFRAC": 0.3412,
        "SFRAC": 0.4876,
        "TFRAC": 0.1712,
        "WFWAH": 636.3,
        "WSWAH": 909.5,
        "WSCWAH": 1545.8,
        "DFWAH": 610.0,
        "DSWAH": 871.8,
        "DSCWAH": 1481.8,
        "QLDAT": "01/04/2024",
        "FBMIC": 44.1,
        "FBLTH": 1.107,
        "FBUNI": 81.8,
        "FBSTR": 30.1,
        "FBELO": 5.1,
        "FBCRD": 79.8,
        "FBCLB": 9.0,
        "FBCGR": "21-1",
        "FBTCT": 14.0,
        "FBTAR": 0.31,
        "FBSFI": 10.0
    },
    "_id": "641e24fe8ac547e9ddeb1d82",
    "haid": "641e24fe8ac547e9ddeb1d82"
}{
    "type": "Feature",
    "geometry": {
        "type": "Polygon",
        "coordinates": [
            [
                [
                    -111.97836723,
                    33.07852231
                ],
                [
                    -111.978389,
                    33.07852242
                ],
                [
                    -111.97838837,
                    33.07861261
                ],
                [
                    -111.9783666,
                    33.0786125
                ],
                [
                    -111.97836723,
                    33.07852231
                ]
            ]
        ]
    },
    "properties": {
        "ha_label": "p2-8-W",
        "HA_AREA": 20.320001,
        "HARM": "Machine",
        "HADAT": "11/13/2023",
        "WBWAH": 1147.9,
        "BWCAH": 4.44,
        "DBWAH": 1097.0,
        "GNDAT": "11/14/2023",
        "FFRAC": 0.3411,
        "SFRAC": 0.4263,
        "TFRAC": 0.2326,
        "WFWAH": 391.5,
        "WSWAH": 489.4,
        "WSCWAH": 880.9,
        "DFWAH": 374.1,
        "DSWAH": 467.7,
        "DSCWAH": 841.8,
        "QLDAT": "01/04/2024",
        "FBMIC": 45.4,
        "FBLTH": 1.087,
        "FBUNI": 81.7,
        "FBSTR": 28.6,
        "FBELO": 4.7,
        "FBCRD": 78.3,
        "FBCLB": 8.9,
        "FBCGR": "21-2",
        "FBTCT": 8.0,
        "FBTAR": 0.08,
        "FBSFI": 9.5
    },
    "_id": "641e24fe8ac547e9ddeb1d7b",
    "haid": "641e24fe8ac547e9ddeb1d7b"
}{
    "type": "Feature",
    "geometry": {
        "type": "Polygon",
        "coordinates": [
            [
                [
                    -111.97830193,
                    33.07852199
                ],
                [
                    -111.9783237,
                    33.0785221
                ],
                [
                    -111.97832307,
                    33.07861229
                ],
                [
                    -111.9783013,
                    33.07861218
                ],
                [
                    -111.97830193,
                    33.07852199
                ]
            ]
        ]
    },
    "properties": {
        "ha_label": "p2-8-E",
        "HA_AREA": 20.320002,
        "HARM": "Machine",
        "HADAT": "11/13/2023",
        "WBWAH": 682.0,
        "BWCAH": 3.96,
        "DBWAH": 654.9,
        "GNDAT": "11/14/2023",
        "FFRAC": 0.3307,
        "SFRAC": 0.4617,
        "TFRAC": 0.2076,
        "WFWAH": 225.5,
        "WSWAH": 314.9,
        "WSCWAH": 540.4,
        "DFWAH": 216.6,
        "DSWAH": 302.4,
        "DSCWAH": 519.0,
        "QLDAT": "01/04/2024",
        "FBMIC": 46.7,
        "FBLTH": 1.07,
        "FBUNI": 81.0,
        "FBSTR": 28.3,
        "FBELO": 5.1,
        "FBCRD": 77.2,
        "FBCLB": 9.4,
        "FBCGR": "21-4",
        "FBTCT": 26.0,
        "FBTAR": 0.23,
        "FBSFI": 10.6
    },
    "_id": "641e24fe8ac547e9ddeb1d83",
    "haid": "641e24fe8ac547e9ddeb1d83"
}