{
    "type": "FeatureCollection",
    "features": [
        {
            "type": "Feature",
            "geometry": {
                "type": "Polygon",
                "coordinates": [
                    [
                        [
                            -111.97842373,
                            33.07978532
                        ],
                        [
                            -111.97855435,
                            33.07978597
                        ],
                        [
                            -111.97855372,
                            33.07987616
                        ],
                        [
                            -111.9784231,
                            33.07987551
                        ],
                        [
                            -111.97842373,
                            33.07978532
                        ]
                    ]
                ]
            },
            "properties": {
                "plt_label": "p1-1",
                "trt_label": "IR040",
                "PLT_AREA": 121.919997,
                "CUL_NAME": "NexGen 3195 B3XF",
                "PDATE": "04/24/2023",
                "PLYR": 2023,
                "PLDAY": 114,
                "IROP": "IR004",
                "IRVAL": {
                    "2023111": 20.4,
                    "2023115": 20.4,
                    "2023116": 10.2,
                    "2023118": 25.5,
                    "2023121": 20.4,
                    "2023123": 20.4,
                    "2023125": 20.4,
                    "2023128": 20.4,
                    "2023130": 10.2,
                    "2023132": 20.4,
                    "2023136": 20.4,
                    "2023139": 20.4,
                    "2023144": 20.4,
                    "2023146": 25.3,
                    "2023151": 20.4,
                    "2023153": 20.4,
                    "2023158": 25.3,
                    "2023160": 22.8,
                    "2023164": 26.0,
                    "2023167": 30.6,
                    "2023171": 25.6,
                    "2023173": 20.4,
                    "2023174": 20.4,
                    "2023178": 38.7,
                    "2023181": 34.6,
                    "2023186": 37.1,
                    "2023188": 37.1,
                    "2023192": 44.5,
                    "2023195": 17.8,
                    "2023199": 44.9,
                    "2023202": 18.1,
                    "2023206": 19.5,
                    "2023209": 18.3,
                    "2023213": 16.3,
                    "2023216": 16.2,
                    "2023220": 12.2,
                    "2023223": 16.3,
                    "2023227": 12.2,
                    "2023230": 16.3,
                    "2023234": 12.2,
                    "2023237": 16.3,
                    "2023241": 12.2,
                    "2023249": 12.2,
                    "2023251": 14.2
                },
                "FEAMN": {
                    "2023158": 51.9,
                    "2023178": 51.9,
                    "2023199": 51.9
                },
                "FRCOV": {
                    "2023115": 0.0,
                    "2023172": 0.165,
                    "2023180": 0.341,
                    "2023184": 0.403,
                    "2023194": 0.516,
                    "2023201": 0.599,
                    "2023209": 0.601
                },
                "HARM": "Machine",
                "HADAT": "11/13/2023",
                "WBWAH": 1027.9,
                "BWCAH": 4.22,
                "DBWAH": 984.6,
                "GNDAT": "11/14/2023",
                "FFRAC": 0.349,
                "SFRAC": 0.4861,
                "TFRAC": 0.1648,
                "WFWAH": 358.8,
                "WSWAH": 499.7,
                "WSCWAH": 858.5,
                "DFWAH": 343.6,
                "DSWAH": 478.6,
                "DSCWAH": 822.3,
                "QLDAT": "01/04/2024",
                "FBMIC": 40.0,
                "FBLTH": 1.058,
                "FBUNI": 80.8,
                "FBSTR": 26.8,
                "FBELO": 4.7,
                "FBCRD": 77.3,
                "FBCLB": 8.9,
                "FBTCT": 23.0,
                "FBTAR": 0.4,
                "FBSFI": 11.8,
                "haids": [
                    "641e24fe8ac547e9ddeb1d64",
                    "641e24fe8ac547e9ddeb1d6c"
                ],
                "tids": [
                    "643deab48ac54781d1540da0"
                ]
            },
            "_id": "641e1e7e8ac547e72d8d65b5",
            "pid": "641e1e7e8ac547e72d8d65b5"
        },
        {
            "type": "Feature",
            "geometry": {
                "type": "Polygon",
                "coordinates": [
                    [
                        [
                            -111.97842499,
                            33.07960494
                        ],
                        [
                            -111.97855561,
                            33.07960558
                        ],
                        [
                            -111.97855498,
                            33.07969577
                        ],
                        [
                            -111.97842436,
                            33.07969513
                        ],
                        [
                            -111.97842499,
                            33.07960494
                        ]
                    ]
                ]
            },
            "properties": {
                "plt_label": "p1-2",
                "trt_label": "IR100",
                "PLT_AREA": 121.920002,
                "CUL_NAME": "NexGen 3195 B3XF",
                "PDATE": "04/24/2023",
                "PLYR": 2023,
                "PLDAY": 114,
                "IROP": "IR004",
                "IRVAL": {
                    "2023111": 20.4,
                    "2023115": 20.4,
                    "2023116": 10.2,
                    "2023118": 25.5,
                    "2023121": 20.4,
                    "2023123": 20.4,
                    "2023125": 20.4,
                    "2023128": 20.4,
                    "2023130": 10.2,
                    "2023132": 20.4,
                    "2023136": 20.4,
                    "2023139": 20.4,
                    "2023144": 20.4,
                    "2023146": 25.3,
                    "2023151": 20.4,
                    "2023153": 20.4,
                    "2023158": 25.3,
                    "2023160": 22.8,
                    "2023164": 26.0,
                    "2023167": 30.6,
                    "2023171": 25.6,
                    "2023173": 20.4,
                    "2023174": 20.4,
                    "2023178": 38.7,
                    "2023181": 34.6,
                    "2023186": 37.1,
                    "2023188": 37.1,
                    "2023192": 44.5,
                    "2023195": 44.5,
                    "2023199": 44.9,
                    "2023202": 45.2,
                    "2023206": 48.7,
                    "2023209": 45.8,
                    "2023213": 40.8,
                    "2023216": 40.6,
                    "2023220": 30.6,
                    "2023223": 40.8,
                    "2023227": 30.6,
                    "2023230": 40.8,
                    "2023234": 30.6,
                    "2023237": 40.8,
                    "2023241": 30.6,
                    "2023249": 30.6,
                    "2023251": 35.6
                },
                "FEAMN": {
                    "2023158": 51.9,
                    "2023178": 51.9,
                    "2023199": 51.9
                },
                "FRCOV": {
                    "2023115": 0.0,
                    "2023172": 0.111,
                    "2023180": 0.269,
                    "2023184": 0.32,
                    "2023194": 0.451,
                    "2023201": 0.564,
                    "2023209": 0.623
                },
                "HARM": "Machine",
                "HADAT": "11/13/2023",
                "WBWAH": 1184.2,
                "BWCAH": 4.86,
                "DBWAH": 1126.7,
                "GNDAT": "11/14/2023",
                "FFRAC": 0.3517,
                "SFRAC": 0.4667,
                "TFRAC": 0.1816,
                "WFWAH": 416.5,
                "WSWAH": 552.7,
                "WSCWAH": 969.1,
                "DFWAH": 396.2,
                "DSWAH": 525.9,
                "DSCWAH": 922.1,
                "QLDAT": "01/04/2024",
                "FBMIC": 40.8,
                "FBLTH": 1.126,
                "FBUNI": 81.8,
                "FBSTR": 30.4,
                "FBELO": 4.9,
                "FBCRD": 79.6,
                "FBCLB": 9.0,
                "FBTCT": 12.0,
                "FBTAR": 0.12,
                "FBSFI": 8.6,
                "haids": [
                    "641e24fe8ac547e9ddeb1d65",
                    "641e24fe8ac547e9ddeb1d6d"
                ],
                "tids": [
                    "643deab48ac54781d1540da1"
                ]
            },
            "_id": "641e1e7e8ac547e72d8d65b4",
            "pid": "641e1e7e8ac547e72d8d65b4"
        },
        {
            "type": "Feature",
            "geometry": {
                "type": "Polygon",
                "coordinates": [
                    [
                        [
                            -111.97842625,
                            33.07942455
                        ],
                        [
                            -111.97855686,
                            33.0794252
                        ],
                        [
                            -111.97855624,
                            33.07951539
                        ],
                        [
                            -111.97842562,
                            33.07951474
                        ],
                        [
                            -111.97842625,
                            33.07942455
                        ]
                    ]
                ]
            },
            "properties": {
                "plt_label": "p1-3",
                "trt_label": "IR080",
                "PLT_AREA": 121.920002,
                "CUL_NAME": "NexGen 3195 B3XF",
                "PDATE": "04/24/2023",
                "PLYR": 2023,
                "PLDAY": 114,
                "IROP": "IR004",
                "IRVAL": {
                    "2023111": 20.4,
                    "2023115": 20.4,
                    "2023116": 10.2,
                    "2023118": 25.5,
                    "2023121": 20.4,
                    "2023123": 20.4,
                    "2023125": 20.4,
                    "2023128": 20.4,
                    "2023130": 10.2,
                    "2023132": 20.4,
                    "2023136": 20.4,
                    "2023139": 20.4,
                    "2023144": 20.4,
                    "2023146": 25.3,
                    "2023151": 20.4,
                    "2023153": 20.4,
                    "2023158": 25.3,
                    "2023160": 22.8,
                    "2023164": 26.0,
                    "2023167": 30.6,
                    "2023171": 25.6,
                    "2023173": 20.4,
                    "2023174": 20.4,
                    "2023178": 38.7,
                    "2023181": 34.6,
                    "2023186": 37.1,
                    "2023188": 37.1,
                    "2023192": 44.5,
                    "2023195": 35.6,
                    "2023199": 44.9,
                    "2023202": 36.1,
                    "2023206": 39.0,
                    "2023209": 36.7,
                    "2023213": 32.6,
                    "2023216": 32.5,
                    "2023220": 24.5,
                    "2023223": 32.6,
                    "2023227": 24.5,
                    "2023230": 32.6,
                    "2023234": 24.5,
                    "2023237": 32.6,
                    "2023241": 24.5,
                    "2023249": 24.5,
                    "2023251": 28.5
                },
                "FEAMN": {
                    "2023158": 51.9,
                    "2023178": 51.9,
                    "2023199": 51.9
                },
                "FRCOV": {
                    "2023115": 0.0,
                    "2023172": 0.099,
                    "2023180": 0.264,
                    "2023184": 0.324,
                    "2023194": 0.461,
                    "2023201": 0.574,
                    "2023209": 0.629
                },
                "HARM": "Machine",
                "HADAT": "11/13/2023",
                "WBWAH": 2244.5,
                "BWCAH": 3.28,
                "DBWAH": 2170.9,
                "GNDAT": "11/14/2023",
                "FFRAC": 0.3443,
                "SFRAC": 0.4766,
                "TFRAC": 0.179,
                "WFWAH": 772.9,
                "WSWAH": 1069.8,
                "WSCWAH": 1842.7,
                "DFWAH": 747.5,
                "DSWAH": 1034.7,
                "DSCWAH": 1782.3,
                "QLDAT": "01/04/2024",
                "FBMIC": 43.8,
                "FBLTH": 1.11,
                "FBUNI": 81.4,
                "FBSTR": 28.2,
                "FBELO": 5.0,
                "FBCRD": 79.6,
                "FBCLB": 8.8,
                "FBTCT": 10.0,
                "FBTAR": 0.16,
                "FBSFI": 10.6,
                "haids": [
                    "641e24fe8ac547e9ddeb1d66",
                    "641e24fe8ac547e9ddeb1d6e"
                ],
                "tids": [
                    "643deab48ac54781d1540da2"
                ]
            },
            "_id": "641e1e7e8ac547e72d8d65b3",
            "pid": "641e1e7e8ac547e72d8d65b3"
        },
        {
            "type": "Feature",
            "geometry": {
                "type": "Polygon",
                "coordinates": [
                    [
                        [
                            -111.97842751,
                            33.07924417
                        ],
                        [
                            -111.97855812,
                            33.07924482
                        ],
                        [
                            -111.97855749,
                            33.07933501
                        ],
                        [
                            -111.97842688,
                            33.07933436
                        ],
                        [
                            -111.97842751,
                            33.07924417
                        ]
                    ]
                ]
            },
            "properties": {
                "plt_label": "p1-4",
                "trt_label": "IR060",
                "PLT_AREA": 121.919991,
                "CUL_NAME": "NexGen 3195 B3XF",
                "PDATE": "04/24/2023",
                "PLYR": 2023,
                "PLDAY": 114,
                "IROP": "IR004",
                "IRVAL": {
                    "2023111": 20.4,
                    "2023115": 20.4,
                    "2023116": 10.2,
                    "2023118": 25.5,
                    "2023121": 20.4,
                    "2023123": 20.4,
                    "2023125": 20.4,
                    "2023128": 20.4,
                    "2023130": 10.2,
                    "2023132": 20.4,
                    "2023136": 20.4,
                    "2023139": 20.4,
                    "2023144": 20.4,
                    "2023146": 25.3,
                    "2023151": 20.4,
                    "2023153": 20.4,
                    "2023158": 25.3,
                    "2023160": 22.8,
                    "2023164": 26.0,
                    "2023167": 30.6,
                    "2023171": 25.6,
                    "2023173": 20.4,
                    "2023174": 20.4,
                    "2023178": 38.7,
                    "2023181": 34.6,
                    "2023186": 37.1,
                    "2023188": 37.1,
                    "2023192": 44.5,
                    "2023195": 26.7,
                    "2023199": 44.9,
                    "2023202": 27.1,
                    "2023206": 29.2,
                    "2023209": 27.5,
                    "2023213": 24.5,
                    "2023216": 24.4,
                    "2023220": 18.4,
                    "2023223": 24.5,
                    "2023227": 18.4,
                    "2023230": 24.5,
                    "2023234": 18.4,
                    "2023237": 24.5,
                    "2023241": 18.4,
                    "2023249": 18.4,
                    "2023251": 21.4
                },
                "FEAMN": {
                    "2023158": 51.9,
                    "2023178": 51.9,
                    "2023199": 51.9
                },
                "FRCOV": {
                    "2023115": 0.0,
                    "2023172": 0.1,
                    "2023180": 0.279,
                    "2023184": 0.333,
                    "2023194": 0.445,
                    "2023201": 0.551,
                    "2023209": 0.572
                },
                "HARM": "Machine",
                "HADAT": "11/13/2023",
                "WBWAH": 1452.1,
                "BWCAH": 4.6,
                "DBWAH": 1385.3,
                "GNDAT": "11/14/2023",
                "FFRAC": 0.3434,
                "SFRAC": 0.4566,
                "TFRAC": 0.2,
                "WFWAH": 498.6,
                "WSWAH": 663.0,
                "WSCWAH": 1161.6,
                "DFWAH": 475.7,
                "DSWAH": 632.5,
                "DSCWAH": 1108.2,
                "QLDAT": "01/04/2024",
                "FBMIC": 44.4,
                "FBLTH": 1.058,
                "FBUNI": 80.5,
                "FBSTR": 28.4,
                "FBELO": 4.8,
                "FBCRD": 78.3,
                "FBCLB": 8.7,
                "FBTCT": 14.0,
                "FBTAR": 0.18,
                "FBSFI": 12.6,
                "haids": [
                    "641e24fe8ac547e9ddeb1d67",
                    "641e24fe8ac547e9ddeb1d6f"
                ],
                "tids": [
                    "643deab48ac54781d1540da3"
                ]
            },
            "_id": "641e1e7e8ac547e72d8d65b2",
            "pid": "641e1e7e8ac547e72d8d65b2"
        },
        {
            "type": "Feature",
            "geometry": {
                "type": "Polygon",
                "coordinates": [
                    [
                        [
                            -111.97842877,
                            33.07906378
                        ],
                        [
                            -111.97855938,
                            33.07906443
                        ],
                        [
                            -111.97855875,
                            33.07915462
                        ],
                        [
                            -111.97842814,
                            33.07915398
                        ],
                        [
                            -111.97842877,
                            33.07906378
                        ]
                    ]
                ]
            },
            "properties": {
                "plt_label": "p1-5",
                "trt_label": "IR040",
                "PLT_AREA": 121.920003,
                "CUL_NAME": "NexGen 3195 B3XF",
                "PDATE": "04/24/2023",
                "PLYR": 2023,
                "PLDAY": 114,
                "IROP": "IR004",
                "IRVAL": {
                    "2023111": 20.4,
                    "2023115": 20.4,
                    "2023116": 10.2,
                    "2023118": 25.5,
                    "2023121": 20.4,
                    "2023123": 20.4,
                    "2023125": 20.4,
                    "2023128": 20.4,
                    "2023130": 10.2,
                    "2023132": 20.4,
                    "2023136": 20.4,
                    "2023139": 20.4,
                    "2023144": 20.4,
                    "2023146": 25.3,
                    "2023151": 20.4,
                    "2023153": 20.4,
                    "2023158": 25.3,
                    "2023160": 22.8,
                    "2023164": 26.0,
                    "2023167": 30.6,
                    "2023171": 25.6,
                    "2023173": 20.4,
                    "2023174": 20.4,
                    "2023178": 38.7,
                    "2023181": 34.6,
                    "2023186": 37.1,
                    "2023188": 37.1,
                    "2023192": 44.5,
                    "2023195": 17.8,
                    "2023199": 44.9,
                    "2023202": 18.1,
                    "2023206": 19.5,
                    "2023209": 18.3,
                    "2023213": 16.3,
                    "2023216": 16.2,
                    "2023220": 12.2,
                    "2023223": 16.3,
                    "2023227": 12.2,
                    "2023230": 16.3,
                    "2023234": 12.2,
                    "2023237": 16.3,
                    "2023241": 12.2,
                    "2023249": 12.2,
                    "2023251": 14.2
                },
                "FEAMN": {
                    "2023158": 51.9,
                    "2023178": 51.9,
                    "2023199": 51.9
                },
                "FRCOV": {
                    "2023115": 0.0,
                    "2023172": 0.118,
                    "2023180": 0.294,
                    "2023184": 0.363,
                    "2023194": 0.493,
                    "2023201": 0.597,
                    "2023209": 0.626
                },
                "HARM": "Machine",
                "HADAT": "11/13/2023",
                "WBWAH": 1005.6,
                "BWCAH": 3.76,
                "DBWAH": 967.9,
                "GNDAT": "11/14/2023",
                "FFRAC": 0.3454,
                "SFRAC": 0.4535,
                "TFRAC": 0.201,
                "WFWAH": 347.4,
                "WSWAH": 456.1,
                "WSCWAH": 803.5,
                "DFWAH": 334.3,
                "DSWAH": 439.0,
                "DSCWAH": 773.3,
                "QLDAT": "01/04/2024",
                "FBMIC": 42.6,
                "FBLTH": 1.035,
                "FBUNI": 80.6,
                "FBSTR": 26.6,
                "FBELO": 4.8,
                "FBCRD": 78.2,
                "FBCLB": 9.0,
                "FBTCT": 23.0,
                "FBTAR": 0.4,
                "FBSFI": 13.0,
                "haids": [
                    "641e24fe8ac547e9ddeb1d68",
                    "641e24fe8ac547e9ddeb1d70"
                ],
                "tids": [
                    "643deab48ac54781d1540da4"
                ]
            },
            "_id": "641e1e7e8ac547e72d8d65b1",
            "pid": "641e1e7e8ac547e72d8d65b1"
        },
        {
            "type": "Feature",
            "geometry": {
                "type": "Polygon",
                "coordinates": [
                    [
                        [
                            -111.97843002,
                            33.0788834
                        ],
                        [
                            -111.97856064,
                            33.07888405
                        ],
                        [
                            -111.97856001,
                            33.07897424
                        ],
                        [
                            -111.97842939,
                            33.07897359
                        ],
                        [
                            -111.97843002,
                            33.0788834
                        ]
                    ]
                ]
            },
            "properties": {
                "plt_label": "p1-6",
                "trt_label": "IR080",
                "PLT_AREA": 121.920003,
                "CUL_NAME": "NexGen 3195 B3XF",
                "PDATE": "04/24/2023",
                "PLYR": 2023,
                "PLDAY": 114,
                "IROP": "IR004",
                "IRVAL": {
                    "2023111": 20.4,
                    "2023115": 20.4,
                    "2023116": 10.2,
                    "2023118": 25.5,
                    "2023121": 20.4,
                    "2023123": 20.4,
                    "2023125": 20.4,
                    "2023128": 20.4,
                    "2023130": 10.2,
                    "2023132": 20.4,
                    "2023136": 20.4,
                    "2023139": 20.4,
                    "2023144": 20.4,
                    "2023146": 25.3,
                    "2023151": 20.4,
                    "2023153": 20.4,
                    "2023158": 25.3,
                    "2023160": 22.8,
                    "2023164": 26.0,
                    "2023167": 30.6,
                    "2023171": 25.6,
                    "2023173": 20.4,
                    "2023174": 20.4,
                    "2023178": 38.7,
                    "2023181": 34.6,
                    "2023186": 37.1,
                    "2023188": 37.1,
                    "2023192": 44.5,
                    "2023195": 35.6,
                    "2023199": 44.9,
                    "2023202": 36.1,
                    "2023206": 39.0,
                    "2023209": 36.7,
                    "2023213": 32.6,
                    "2023216": 32.5,
                    "2023220": 24.5,
                    "2023223": 32.6,
                    "2023227": 24.5,
                    "2023230": 32.6,
                    "2023234": 24.5,
                    "2023237": 32.6,
                    "2023241": 24.5,
                    "2023249": 24.5,
                    "2023251": 28.5
                },
                "FEAMN": {
                    "2023158": 51.9,
                    "2023178": 51.9,
                    "2023199": 51.9
                },
                "FRCOV": {
                    "2023115": 0.0,
                    "2023172": 0.07,
                    "2023180": 0.23,
                    "2023184": 0.287,
                    "2023194": 0.397,
                    "2023201": 0.5,
                    "2023209": 0.565
                },
                "HARM": "Machine",
                "HADAT": "11/13/2023",
                "WBWAH": 1675.3,
                "BWCAH": 4.92,
                "DBWAH": 1592.8,
                "GNDAT": "11/14/2023",
                "FFRAC": 0.3412,
                "SFRAC": 0.4781,
                "TFRAC": 0.1808,
                "WFWAH": 571.5,
                "WSWAH": 800.9,
                "WSCWAH": 1372.5,
                "DFWAH": 543.4,
                "DSWAH": 761.5,
                "DSCWAH": 1304.9,
                "QLDAT": "01/04/2024",
                "FBMIC": 43.0,
                "FBLTH": 1.12,
                "FBUNI": 81.1,
                "FBSTR": 29.0,
                "FBELO": 5.0,
                "FBCRD": 79.6,
                "FBCLB": 9.0,
                "FBTCT": 12.0,
                "FBTAR": 0.21,
                "FBSFI": 10.1,
                "haids": [
                    "641e24fe8ac547e9ddeb1d69",
                    "641e24fe8ac547e9ddeb1d71"
                ],
                "tids": [
                    "643deab48ac54781d1540da5"
                ]
            },
            "_id": "641e1e7e8ac547e72d8d65b0",
            "pid": "641e1e7e8ac547e72d8d65b0"
        },
        {
            "type": "Feature",
            "geometry": {
                "type": "Polygon",
                "coordinates": [
                    [
                        [
                            -111.97843128,
                            33.07870302
                        ],
                        [
                            -111.9785619,
                            33.07870366
                        ],
                        [
                            -111.97856127,
                            33.07879386
                        ],
                        [
                            -111.97843065,
                            33.07879321
                        ],
                        [
                            -111.97843128,
                            33.07870302
                        ]
                    ]
                ]
            },
            "properties": {
                "plt_label": "p1-7",
                "trt_label": "IR100",
                "PLT_AREA": 121.920003,
                "CUL_NAME": "NexGen 3195 B3XF",
                "PDATE": "04/24/2023",
                "PLYR": 2023,
                "PLDAY": 114,
                "IROP": "IR004",
                "IRVAL": {
                    "2023111": 20.4,
                    "2023115": 20.4,
                    "2023116": 10.2,
                    "2023118": 25.5,
                    "2023121": 20.4,
                    "2023123": 20.4,
                    "2023125": 20.4,
                    "2023128": 20.4,
                    "2023130": 10.2,
                    "2023132": 20.4,
                    "2023136": 20.4,
                    "2023139": 20.4,
                    "2023144": 20.4,
                    "2023146": 25.3,
                    "2023151": 20.4,
                    "2023153": 20.4,
                    "2023158": 25.3,
                    "2023160": 22.8,
                    "2023164": 26.0,
                    "2023167": 30.6,
                    "2023171": 25.6,
                    "2023173": 20.4,
                    "2023174": 20.4,
                    "2023178": 38.7,
                    "2023181": 34.6,
                    "2023186": 37.1,
                    "2023188": 37.1,
                    "2023192": 44.5,
                    "2023195": 44.5,
                    "2023199": 44.9,
                    "2023202": 45.2,
                    "2023206": 48.7,
                    "2023209": 45.8,
                    "2023213": 40.8,
                    "2023216": 40.6,
                    "2023220": 30.6,
                    "2023223": 40.8,
                    "2023227": 30.6,
                    "2023230": 40.8,
                    "2023234": 30.6,
                    "2023237": 40.8,
                    "2023241": 30.6,
                    "2023249": 30.6,
                    "2023251": 35.6
                },
                "FEAMN": {
                    "2023158": 51.9,
                    "2023178": 51.9,
                    "2023199": 51.9
                },
                "FRCOV": {
                    "2023115": 0.0,
                    "2023172": 0.066,
                    "2023180": 0.204,
                    "2023184": 0.259,
                    "2023194": 0.392,
                    "2023201": 0.519,
                    "2023209": 0.622
                },
                "HARM": "Machine",
                "HADAT": "11/13/2023",
                "WBWAH": 2166.4,
                "BWCAH": 3.08,
                "DBWAH": 2099.6,
                "GNDAT": "11/14/2023",
                "FFRAC": 0.3456,
                "SFRAC": 0.4764,
                "TFRAC": 0.178,
                "WFWAH": 748.7,
                "WSWAH": 1032.1,
                "WSCWAH": 1780.8,
                "DFWAH": 725.6,
                "DSWAH": 1000.3,
                "DSCWAH": 1725.9,
                "QLDAT": "01/04/2024",
                "FBMIC": 40.0,
                "FBLTH": 1.156,
                "FBUNI": 82.2,
                "FBSTR": 30.4,
                "FBELO": 5.3,
                "FBCRD": 80.0,
                "FBCLB": 9.0,
                "FBTCT": 11.0,
                "FBTAR": 0.12,
                "FBSFI": 8.7,
                "haids": [
                    "641e24fe8ac547e9ddeb1d6a",
                    "641e24fe8ac547e9ddeb1d72"
                ],
                "tids": [
                    "643deab48ac54781d1540da6"
                ]
            },
            "_id": "641e1e7e8ac547e72d8d65af",
            "pid": "641e1e7e8ac547e72d8d65af"
        },
        {
            "type": "Feature",
            "geometry": {
                "type": "Polygon",
                "coordinates": [
                    [
                        [
                            -111.97843254,
                            33.07852263
                        ],
                        [
                            -111.97856315,
                            33.07852328
                        ],
                        [
                            -111.97856252,
                            33.07861347
                        ],
                        [
                            -111.97843191,
                            33.07861283
                        ],
                        [
                            -111.97843254,
                            33.07852263
                        ]
                    ]
                ]
            },
            "properties": {
                "plt_label": "p1-8",
                "trt_label": "IR060",
                "PLT_AREA": 121.920002,
                "CUL_NAME": "NexGen 3195 B3XF",
                "PDATE": "04/24/2023",
                "PLYR": 2023,
                "PLDAY": 114,
                "IROP": "IR004",
                "IRVAL": {
                    "2023111": 20.4,
                    "2023115": 20.4,
                    "2023116": 10.2,
                    "2023118": 25.5,
                    "2023121": 20.4,
                    "2023123": 20.4,
                    "2023125": 20.4,
                    "2023128": 20.4,
                    "2023130": 10.2,
                    "2023132": 20.4,
                    "2023136": 20.4,
                    "2023139": 20.4,
                    "2023144": 20.4,
                    "2023146": 25.3,
                    "2023151": 20.4,
                    "2023153": 20.4,
                    "2023158": 25.3,
                    "2023160": 22.8,
                    "2023164": 26.0,
                    "2023167": 30.6,
                    "2023171": 25.6,
                    "2023173": 20.4,
                    "2023174": 20.4,
                    "2023178": 38.7,
                    "2023181": 34.6,
                    "2023186": 37.1,
                    "2023188": 37.1,
                    "2023192": 44.5,
                    "2023195": 26.7,
                    "2023199": 44.9,
                    "2023202": 27.1,
                    "2023206": 29.2,
                    "2023209": 27.5,
                    "2023213": 24.5,
                    "2023216": 24.4,
                    "2023220": 18.4,
                    "2023223": 24.5,
                    "2023227": 18.4,
                    "2023230": 24.5,
                    "2023234": 18.4,
                    "2023237": 24.5,
                    "2023241": 18.4,
                    "2023249": 18.4,
                    "2023251": 21.4
                },
                "FEAMN": {
                    "2023158": 51.9,
                    "2023178": 51.9,
                    "2023199": 51.9
                },
                "FRCOV": {
                    "2023115": 0.0,
                    "2023172": 0.07,
                    "2023180": 0.203,
                    "2023184": 0.251,
                    "2023194": 0.34,
                    "2023201": 0.424,
                    "2023209": 0.433
                },
                "HARM": "Machine",
                "HADAT": "11/13/2023",
                "WBWAH": 693.1,
                "BWCAH": 4.72,
                "DBWAH": 660.4,
                "GNDAT": "11/14/2023",
                "FFRAC": 0.3194,
                "SFRAC": 0.4601,
                "TFRAC": 0.2205,
                "WFWAH": 221.4,
                "WSWAH": 318.9,
                "WSCWAH": 540.3,
                "DFWAH": 211.0,
                "DSWAH": 303.9,
                "DSCWAH": 514.8,
                "QLDAT": "01/04/2024",
                "FBMIC": 41.2,
                "FBLTH": 1.082,
                "FBUNI": 80.6,
                "FBSTR": 28.4,
                "FBELO": 4.9,
                "FBCRD": 77.6,
                "FBCLB": 9.1,
                "FBTCT": 23.0,
                "FBTAR": 0.38,
                "FBSFI": 10.7,
                "haids": [
                    "641e24fe8ac547e9ddeb1d6b",
                    "641e24fe8ac547e9ddeb1d73"
                ],
                "tids": [
                    "643deab48ac54781d1540da7"
                ]
            },
            "_id": "641e1e7e8ac547e72d8d65ae",
            "pid": "641e1e7e8ac547e72d8d65ae"
        },
        {
            "type": "Feature",
            "geometry": {
                "type": "Polygon",
                "coordinates": [
                    [
                        [
                            -111.97827135,
                            33.07978457
                        ],
                        [
                            -111.97840196,
                            33.07978521
                        ],
                        [
                            -111.97840134,
                            33.0798754
                        ],
                        [
                            -111.97827072,
                            33.07987476
                        ],
                        [
                            -111.97827135,
                            33.07978457
                        ]
                    ]
                ]
            },
            "properties": {
                "plt_label": "p2-1",
                "trt_label": "IR060",
                "PLT_AREA": 121.920002,
                "CUL_NAME": "NexGen 3195 B3XF",
                "PDATE": "04/24/2023",
                "PLYR": 2023,
                "PLDAY": 114,
                "IROP": "IR004",
                "IRVAL": {
                    "2023111": 20.4,
                    "2023115": 20.4,
                    "2023116": 10.2,
                    "2023118": 25.5,
                    "2023121": 20.4,
                    "2023123": 20.4,
                    "2023125": 20.4,
                    "2023128": 20.4,
                    "2023130": 10.2,
                    "2023132": 20.4,
                    "2023136": 20.4,
                    "2023139": 20.4,
                    "2023144": 20.4,
                    "2023146": 25.3,
                    "2023151": 20.4,
                    "2023153": 20.4,
                    "2023158": 25.3,
                    "2023160": 22.8,
                    "2023164": 26.0,
                    "2023167": 30.6,
                    "2023171": 25.6,
                    "2023173": 20.4,
                    "2023174": 20.4,
                    "2023178": 38.7,
                    "2023181": 34.6,
                    "2023186": 37.1,
                    "2023188": 37.1,
                    "2023192": 44.5,
                    "2023195": 26.7,
                    "2023199": 44.9,
                    "2023202": 27.1,
                    "2023206": 29.2,
                    "2023209": 27.5,
                    "2023213": 24.5,
                    "2023216": 24.4,
                    "2023220": 18.4,
                    "2023223": 24.5,
                    "2023227": 18.4,
                    "2023230": 24.5,
                    "2023234": 18.4,
                    "2023237": 24.5,
                    "2023241": 18.4,
                    "2023249": 18.4,
                    "2023251": 21.4
                },
                "FEAMN": {
                    "2023158": 51.9,
                    "2023178": 51.9,
                    "2023199": 51.9
                },
                "FRCOV": {
                    "2023115": 0.0,
                    "2023172": 0.139,
                    "2023180": 0.311,
                    "2023184": 0.354,
                    "2023194": 0.481,
                    "2023201": 0.54,
                    "2023209": 0.63
                },
                "HARM": "Machine",
                "HADAT": "11/13/2023",
                "WBWAH": 1517.6,
                "BWCAH": 4.38,
                "DBWAH": 1451.2,
                "GNDAT": "11/14/2023",
                "FFRAC": 0.3495,
                "SFRAC": 0.4455,
                "TFRAC": 0.205,
                "WFWAH": 530.5,
                "WSWAH": 676.1,
                "WSCWAH": 1206.6,
                "DFWAH": 507.2,
                "DSWAH": 646.5,
                "DSCWAH": 1153.7,
                "QLDAT": "01/04/2024",
                "FBMIC": 47.4,
                "FBLTH": 1.083,
                "FBUNI": 81.2,
                "FBSTR": 29.0,
                "FBELO": 4.7,
                "FBCRD": 77.6,
                "FBCLB": 8.6,
                "FBTCT": 18.0,
                "FBTAR": 0.38,
                "FBSFI": 10.4,
                "haids": [
                    "641e24fe8ac547e9ddeb1d74",
                    "641e24fe8ac547e9ddeb1d7c"
                ],
                "tids": [
                    "643deab48ac54781d1540da8"
                ]
            },
            "_id": "641e1e7e8ac547e72d8d65bd",
            "pid": "641e1e7e8ac547e72d8d65bd"
        },
        {
            "type": "Feature",
            "geometry": {
                "type": "Polygon",
                "coordinates": [
                    [
                        [
                            -111.97827261,
                            33.07960418
                        ],
                        [
                            -111.97840322,
                            33.07960483
                        ],
                        [
                            -111.97840259,
                            33.07969502
                        ],
                        [
                            -111.97827198,
                            33.07969437
                        ],
                        [
                            -111.97827261,
                            33.07960418
                        ]
                    ]
                ]
            },
            "properties": {
                "plt_label": "p2-2",
                "trt_label": "IR080",
                "PLT_AREA": 121.920002,
                "CUL_NAME": "NexGen 3195 B3XF",
                "PDATE": "04/24/2023",
                "PLYR": 2023,
                "PLDAY": 114,
                "IROP": "IR004",
                "IRVAL": {
                    "2023111": 20.4,
                    "2023115": 20.4,
                    "2023116": 10.2,
                    "2023118": 25.5,
                    "2023121": 20.4,
                    "2023123": 20.4,
                    "2023125": 20.4,
                    "2023128": 20.4,
                    "2023130": 10.2,
                    "2023132": 20.4,
                    "2023136": 20.4,
                    "2023139": 20.4,
                    "2023144": 20.4,
                    "2023146": 25.3,
                    "2023151": 20.4,
                    "2023153": 20.4,
                    "2023158": 25.3,
                    "2023160": 22.8,
                    "2023164": 26.0,
                    "2023167": 30.6,
                    "2023171": 25.6,
                    "2023173": 20.4,
                    "2023174": 20.4,
                    "2023178": 38.7,
                    "2023181": 34.6,
                    "2023186": 37.1,
                    "2023188": 37.1,
                    "2023192": 44.5,
                    "2023195": 35.6,
                    "2023199": 44.9,
                    "2023202": 36.1,
                    "2023206": 39.0,
                    "2023209": 36.7,
                    "2023213": 32.6,
                    "2023216": 32.5,
                    "2023220": 24.5,
                    "2023223": 32.6,
                    "2023227": 24.5,
                    "2023230": 32.6,
                    "2023234": 24.5,
                    "2023237": 32.6,
                    "2023241": 24.5,
                    "2023249": 24.5,
                    "2023251": 28.5
                },
                "FEAMN": {
                    "2023158": 51.9,
                    "2023178": 51.9,
                    "2023199": 51.9
                },
                "FRCOV": {
                    "2023115": 0.0,
                    "2023172": 0.164,
                    "2023180": 0.339,
                    "2023184": 0.411,
                    "2023194": 0.553,
                    "2023201": 0.653,
                    "2023209": 0.728
                },
                "HARM": "Machine",
                "HADAT": "11/13/2023",
                "WBWAH": 2187.3,
                "BWCAH": 4.22,
                "DBWAH": 2095.1,
                "GNDAT": "11/14/2023",
                "FFRAC": 0.3533,
                "SFRAC": 0.4742,
                "TFRAC": 0.1724,
                "WFWAH": 772.8,
                "WSWAH": 1037.3,
                "WSCWAH": 1810.1,
                "DFWAH": 740.2,
                "DSWAH": 993.6,
                "DSCWAH": 1733.8,
                "QLDAT": "01/04/2024",
                "FBMIC": 45.3,
                "FBLTH": 1.102,
                "FBUNI": 80.6,
                "FBSTR": 29.8,
                "FBELO": 4.9,
                "FBCRD": 79.6,
                "FBCLB": 8.8,
                "FBTCT": 12.0,
                "FBTAR": 0.16,
                "FBSFI": 10.4,
                "haids": [
                    "641e24fe8ac547e9ddeb1d75",
                    "641e24fe8ac547e9ddeb1d7d"
                ],
                "tids": [
                    "643deab48ac54781d1540da9"
                ]
            },
            "_id": "641e1e7e8ac547e72d8d65bc",
            "pid": "641e1e7e8ac547e72d8d65bc"
        },
        {
            "type": "Feature",
            "geometry": {
                "type": "Polygon",
                "coordinates": [
                    [
                        [
                            -111.97827387,
                            33.0794238
                        ],
                        [
                            -111.97840448,
                            33.07942444
                        ],
                        [
                            -111.97840385,
                            33.07951464
                        ],
                        [
                            -111.97827324,
                            33.07951399
                        ],
                        [
                            -111.97827387,
                            33.0794238
                        ]
                    ]
                ]
            },
            "properties": {
                "plt_label": "p2-3",
                "trt_label": "IR040",
                "PLT_AREA": 121.919996,
                "CUL_NAME": "NexGen 3195 B3XF",
                "PDATE": "04/24/2023",
                "PLYR": 2023,
                "PLDAY": 114,
                "IROP": "IR004",
                "IRVAL": {
                    "2023111": 20.4,
                    "2023115": 20.4,
                    "2023116": 10.2,
                    "2023118": 25.5,
                    "2023121": 20.4,
                    "2023123": 20.4,
                    "2023125": 20.4,
                    "2023128": 20.4,
                    "2023130": 10.2,
                    "2023132": 20.4,
                    "2023136": 20.4,
                    "2023139": 20.4,
                    "2023144": 20.4,
                    "2023146": 25.3,
                    "2023151": 20.4,
                    "2023153": 20.4,
                    "2023158": 25.3,
                    "2023160": 22.8,
                    "2023164": 26.0,
                    "2023167": 30.6,
                    "2023171": 25.6,
                    "2023173": 20.4,
                    "2023174": 20.4,
                    "2023178": 38.7,
                    "2023181": 34.6,
                    "2023186": 37.1,
                    "2023188": 37.1,
                    "2023192": 44.5,
                    "2023195": 17.8,
                    "2023199": 44.9,
                    "2023202": 18.1,
                    "2023206": 19.5,
                    "2023209": 18.3,
                    "2023213": 16.3,
                    "2023216": 16.2,
                    "2023220": 12.2,
                    "2023223": 16.3,
                    "2023227": 12.2,
                    "2023230": 16.3,
                    "2023234": 12.2,
                    "2023237": 16.3,
                    "2023241": 12.2,
                    "2023249": 12.2,
                    "2023251": 14.2
                },
                "FEAMN": {
                    "2023158": 51.9,
                    "2023178": 51.9,
                    "2023199": 51.9
                },
                "FRCOV": {
                    "2023115": 0.0,
                    "2023172": 0.181,
                    "2023180": 0.361,
                    "2023184": 0.429,
                    "2023194": 0.575,
                    "2023201": 0.665,
                    "2023209": 0.698
                },
                "HARM": "Machine",
                "HADAT": "11/13/2023",
                "WBWAH": 1540.0,
                "BWCAH": 3.99,
                "DBWAH": 1478.5,
                "GNDAT": "11/14/2023",
                "FFRAC": 0.3647,
                "SFRAC": 0.4537,
                "TFRAC": 0.1816,
                "WFWAH": 561.6,
                "WSWAH": 698.7,
                "WSCWAH": 1260.3,
                "DFWAH": 539.2,
                "DSWAH": 670.8,
                "DSCWAH": 1210.0,
                "QLDAT": "01/04/2024",
                "FBMIC": 48.0,
                "FBLTH": 1.068,
                "FBUNI": 80.9,
                "FBSTR": 28.6,
                "FBELO": 4.8,
                "FBCRD": 78.4,
                "FBCLB": 8.6,
                "FBTCT": 16.0,
                "FBTAR": 0.33,
                "FBSFI": 10.6,
                "haids": [
                    "641e24fe8ac547e9ddeb1d76",
                    "641e24fe8ac547e9ddeb1d7e"
                ],
                "tids": [
                    "643deab48ac54781d1540daa"
                ]
            },
            "_id": "641e1e7e8ac547e72d8d65bb",
            "pid": "641e1e7e8ac547e72d8d65bb"
        },
        {
            "type": "Feature",
            "geometry": {
                "type": "Polygon",
                "coordinates": [
                    [
                        [
                            -111.97827512,
                            33.07924341
                        ],
                        [
                            -111.97840574,
                            33.07924406
                        ],
                        [
                            -111.97840511,
                            33.07933425
                        ],
                        [
                            -111.9782745,
                            33.07933361
                        ],
                        [
                            -111.97827512,
                            33.07924341
                        ]
                    ]
                ]
            },
            "properties": {
                "plt_label": "p2-4",
                "trt_label": "IR100",
                "PLT_AREA": 121.920002,
                "CUL_NAME": "NexGen 3195 B3XF",
                "PDATE": "04/24/2023",
                "PLYR": 2023,
                "PLDAY": 114,
                "IROP": "IR004",
                "IRVAL": {
                    "2023111": 20.4,
                    "2023115": 20.4,
                    "2023116": 10.2,
                    "2023118": 25.5,
                    "2023121": 20.4,
                    "2023123": 20.4,
                    "2023125": 20.4,
                    "2023128": 20.4,
                    "2023130": 10.2,
                    "2023132": 20.4,
                    "2023136": 20.4,
                    "2023139": 20.4,
                    "2023144": 20.4,
                    "2023146": 25.3,
                    "2023151": 20.4,
                    "2023153": 20.4,
                    "2023158": 25.3,
                    "2023160": 22.8,
                    "2023164": 26.0,
                    "2023167": 30.6,
                    "2023171": 25.6,
                    "2023173": 20.4,
                    "2023174": 20.4,
                    "2023178": 38.7,
                    "2023181": 34.6,
                    "2023186": 37.1,
                    "2023188": 37.1,
                    "2023192": 44.5,
                    "2023195": 44.5,
                    "2023199": 44.9,
                    "2023202": 45.2,
                    "2023206": 48.7,
                    "2023209": 45.8,
                    "2023213": 40.8,
                    "2023216": 40.6,
                    "2023220": 30.6,
                    "2023223": 40.8,
                    "2023227": 30.6,
                    "2023230": 40.8,
                    "2023234": 30.6,
                    "2023237": 40.8,
                    "2023241": 30.6,
                    "2023249": 30.6,
                    "2023251": 35.6
                },
                "FEAMN": {
                    "2023158": 51.9,
                    "2023178": 51.9,
                    "2023199": 51.9
                },
                "FRCOV": {
                    "2023115": 0.0,
                    "2023172": 0.115,
                    "2023180": 0.282,
                    "2023184": 0.354,
                    "2023194": 0.516,
                    "2023201": 0.656,
                    "2023209": 0.746
                },
                "HARM": "Machine",
                "HADAT": "11/13/2023",
                "WBWAH": 3426.2,
                "BWCAH": 4.43,
                "DBWAH": 3274.3,
                "GNDAT": "11/14/2023",
                "FFRAC": 0.3644,
                "SFRAC": 0.4848,
                "TFRAC": 0.1508,
                "WFWAH": 1248.4,
                "WSWAH": 1661.1,
                "WSCWAH": 2909.6,
                "DFWAH": 1193.1,
                "DSWAH": 1587.5,
                "DSCWAH": 2780.5,
                "QLDAT": "01/04/2024",
                "FBMIC": 44.8,
                "FBLTH": 1.154,
                "FBUNI": 81.7,
                "FBSTR": 29.8,
                "FBELO": 5.2,
                "FBCRD": 80.6,
                "FBCLB": 8.9,
                "FBTCT": 13.0,
                "FBTAR": 0.11,
                "FBSFI": 9.0,
                "haids": [
                    "641e24fe8ac547e9ddeb1d77",
                    "641e24fe8ac547e9ddeb1d7f"
                ],
                "tids": [
                    "643deab48ac54781d1540dab"
                ]
            },
            "_id": "641e1e7e8ac547e72d8d65ba",
            "pid": "641e1e7e8ac547e72d8d65ba"
        },
        {
            "type": "Feature",
            "geometry": {
                "type": "Polygon",
                "coordinates": [
                    [
                        [
                            -111.97827638,
                            33.07906303
                        ],
                        [
                            -111.978407,
                            33.07906368
                        ],
                        [
                            -111.97840637,
                            33.07915387
                        ],
                        [
                            -111.97827575,
                            33.07915322
                        ],
                        [
                            -111.97827638,
                            33.07906303
                        ]
                    ]
                ]
            },
            "properties": {
                "plt_label": "p2-5",
                "trt_label": "IR060",
                "PLT_AREA": 121.920002,
                "CUL_NAME": "NexGen 3195 B3XF",
                "PDATE": "04/24/2023",
                "PLYR": 2023,
                "PLDAY": 114,
                "IROP": "IR004",
                "IRVAL": {
                    "2023111": 20.4,
                    "2023115": 20.4,
                    "2023116": 10.2,
                    "2023118": 25.5,
                    "2023121": 20.4,
                    "2023123": 20.4,
                    "2023125": 20.4,
                    "2023128": 20.4,
                    "2023130": 10.2,
                    "2023132": 20.4,
                    "2023136": 20.4,
                    "2023139": 20.4,
                    "2023144": 20.4,
                    "2023146": 25.3,
                    "2023151": 20.4,
                    "2023153": 20.4,
                    "2023158": 25.3,
                    "2023160": 22.8,
                    "2023164": 26.0,
                    "2023167": 30.6,
                    "2023171": 25.6,
                    "2023173": 20.4,
                    "2023174": 20.4,
                    "2023178": 38.7,
                    "2023181": 34.6,
                    "2023186": 37.1,
                    "2023188": 37.1,
                    "2023192": 44.5,
                    "2023195": 26.7,
                    "2023199": 44.9,
                    "2023202": 27.1,
                    "2023206": 29.2,
                    "2023209": 27.5,
                    "2023213": 24.5,
                    "2023216": 24.4,
                    "2023220": 18.4,
                    "2023223": 24.5,
                    "2023227": 18.4,
                    "2023230": 24.5,
                    "2023234": 18.4,
                    "2023237": 24.5,
                    "2023241": 18.4,
                    "2023249": 18.4,
                    "2023251": 21.4
                },
                "FEAMN": {
                    "2023158": 51.9,
                    "2023178": 51.9,
                    "2023199": 51.9
                },
                "FRCOV": {
                    "2023115": 0.0,
                    "2023172": 0.117,
                    "2023180": 0.283,
                    "2023184": 0.359,
                    "2023194": 0.503,
                    "2023201": 0.611,
                    "2023209": 0.684
                },
                "HARM": "Machine",
                "HADAT": "11/13/2023",
                "WBWAH": 1729.7,
                "BWCAH": 4.03,
                "DBWAH": 1659.9,
                "GNDAT": "11/14/2023",
                "FFRAC": 0.3512,
                "SFRAC": 0.4575,
                "TFRAC": 0.1912,
                "WFWAH": 607.5,
                "WSWAH": 791.4,
                "WSCWAH": 1398.9,
                "DFWAH": 583.0,
                "DSWAH": 759.5,
                "DSCWAH": 1342.5,
                "QLDAT": "01/04/2024",
                "FBMIC": 49.6,
                "FBLTH": 1.11,
                "FBUNI": 82.8,
                "FBSTR": 30.8,
                "FBELO": 4.8,
                "FBCRD": 78.9,
                "FBCLB": 8.6,
                "FBTCT": 14.0,
                "FBTAR": 0.29,
                "FBSFI": 8.5,
                "haids": [
                    "641e24fe8ac547e9ddeb1d78",
                    "641e24fe8ac547e9ddeb1d80"
                ],
                "tids": [
                    "643deab48ac54781d1540dac"
                ]
            },
            "_id": "641e1e7e8ac547e72d8d65b9",
            "pid": "641e1e7e8ac547e72d8d65b9"
        },
        {
            "type": "Feature",
            "geometry": {
                "type": "Polygon",
                "coordinates": [
                    [
                        [
                            -111.97827764,
                            33.07888265
                        ],
                        [
                            -111.97840826,
                            33.07888329
                        ],
                        [
                            -111.97840763,
                            33.07897349
                        ],
                        [
                            -111.97827701,
                            33.07897284
                        ],
                        [
                            -111.97827764,
                            33.07888265
                        ]
                    ]
                ]
            },
            "properties": {
                "plt_label": "p2-6",
                "trt_label": "IR100",
                "PLT_AREA": 121.920002,
                "CUL_NAME": "NexGen 3195 B3XF",
                "PDATE": "04/24/2023",
                "PLYR": 2023,
                "PLDAY": 114,
                "IROP": "IR004",
                "IRVAL": {
                    "2023111": 20.4,
                    "2023115": 20.4,
                    "2023116": 10.2,
                    "2023118": 25.5,
                    "2023121": 20.4,
                    "2023123": 20.4,
                    "2023125": 20.4,
                    "2023128": 20.4,
                    "2023130": 10.2,
                    "2023132": 20.4,
                    "2023136": 20.4,
                    "2023139": 20.4,
                    "2023144": 20.4,
                    "2023146": 25.3,
                    "2023151": 20.4,
                    "2023153": 20.4,
                    "2023158": 25.3,
                    "2023160": 22.8,
                    "2023164": 26.0,
                    "2023167": 30.6,
                    "2023171": 25.6,
                    "2023173": 20.4,
                    "2023174": 20.4,
                    "2023178": 38.7,
                    "2023181": 34.6,
                    "2023186": 37.1,
                    "2023188": 37.1,
                    "2023192": 44.5,
                    "2023195": 44.5,
                    "2023199": 44.9,
                    "2023202": 45.2,
                    "2023206": 48.7,
                    "2023209": 45.8,
                    "2023213": 40.8,
                    "2023216": 40.6,
                    "2023220": 30.6,
                    "2023223": 40.8,
                    "2023227": 30.6,
                    "2023230": 40.8,
                    "2023234": 30.6,
                    "2023237": 40.8,
                    "2023241": 30.6,
                    "2023249": 30.6,
                    "2023251": 35.6
                },
                "FEAMN": {
                    "2023158": 51.9,
                    "2023178": 51.9,
                    "2023199": 51.9
                },
                "FRCOV": {
                    "2023115": 0.0,
                    "2023172": 0.093,
                    "2023180": 0.269,
                    "2023184": 0.324,
                    "2023194": 0.479,
                    "2023201": 0.608,
                    "2023209": 0.706
                },
                "HARM": "Machine",
                "HADAT": "11/13/2023",
                "WBWAH": 2990.9,
                "BWCAH": 4.28,
                "DBWAH": 2862.8,
                "GNDAT": "11/14/2023",
                "FFRAC": 0.3568,
                "SFRAC": 0.4794,
                "TFRAC": 0.1638,
                "WFWAH": 1067.2,
                "WSWAH": 1433.8,
                "WSCWAH": 2501.0,
                "DFWAH": 1021.5,
                "DSWAH": 1372.3,
                "DSCWAH": 2393.9,
                "QLDAT": "01/04/2024",
                "FBMIC": 44.4,
                "FBLTH": 1.138,
                "FBUNI": 81.6,
                "FBSTR": 29.6,
                "FBELO": 5.2,
                "FBCRD": 80.6,
                "FBCLB": 9.0,
                "FBTCT": 9.0,
                "FBTAR": 0.12,
                "FBSFI": 9.4,
                "haids": [
                    "641e24fe8ac547e9ddeb1d79",
                    "641e24fe8ac547e9ddeb1d81"
                ],
                "tids": [
                    "643deab48ac54781d1540dad"
                ]
            },
            "_id": "641e1e7e8ac547e72d8d65b8",
            "pid": "641e1e7e8ac547e72d8d65b8"
        },
        {
            "type": "Feature",
            "geometry": {
                "type": "Polygon",
                "coordinates": [
                    [
                        [
                            -111.9782789,
                            33.07870226
                        ],
                        [
                            -111.97840951,
                            33.07870291
                        ],
                        [
                            -111.97840888,
                            33.0787931
                        ],
                        [
                            -111.97827827,
                            33.07879246
                        ],
                        [
                            -111.9782789,
                            33.07870226
                        ]
                    ]
                ]
            },
            "properties": {
                "plt_label": "p2-7",
                "trt_label": "IR080",
                "PLT_AREA": 121.920002,
                "CUL_NAME": "NexGen 3195 B3XF",
                "PDATE": "04/24/2023",
                "PLYR": 2023,
                "PLDAY": 114,
                "IROP": "IR004",
                "IRVAL": {
                    "2023111": 20.4,
                    "2023115": 20.4,
                    "2023116": 10.2,
                    "2023118": 25.5,
                    "2023121": 20.4,
                    "2023123": 20.4,
                    "2023125": 20.4,
                    "2023128": 20.4,
                    "2023130": 10.2,
                    "2023132": 20.4,
                    "2023136": 20.4,
                    "2023139": 20.4,
                    "2023144": 20.4,
                    "2023146": 25.3,
                    "2023151": 20.4,
                    "2023153": 20.4,
                    "2023158": 25.3,
                    "2023160": 22.8,
                    "2023164": 26.0,
                    "2023167": 30.6,
                    "2023171": 25.6,
                    "2023173": 20.4,
                    "2023174": 20.4,
                    "2023178": 38.7,
                    "2023181": 34.6,
                    "2023186": 37.1,
                    "2023188": 37.1,
                    "2023192": 44.5,
                    "2023195": 35.6,
                    "2023199": 44.9,
                    "2023202": 36.1,
                    "2023206": 39.0,
                    "2023209": 36.7,
                    "2023213": 32.6,
                    "2023216": 32.5,
                    "2023220": 24.5,
                    "2023223": 32.6,
                    "2023227": 24.5,
                    "2023230": 32.6,
                    "2023234": 24.5,
                    "2023237": 32.6,
                    "2023241": 24.5,
                    "2023249": 24.5,
                    "2023251": 28.5
                },
                "FEAMN": {
                    "2023158": 51.9,
                    "2023178": 51.9,
                    "2023199": 51.9
                },
                "FRCOV": {
                    "2023115": 0.0,
                    "2023172": 0.098,
                    "2023180": 0.252,
                    "2023184": 0.315,
                    "2023194": 0.483,
                    "2023201": 0.612,
                    "2023209": 0.71
                },
                "HARM": "Machine",
                "HADAT": "11/13/2023",
                "WBWAH": 3002.1,
                "BWCAH": 4.14,
                "DBWAH": 2877.8,
                "GNDAT": "11/14/2023",
                "FFRAC": 0.3517,
                "SFRAC": 0.4798,
                "TFRAC": 0.1684,
                "WFWAH": 1056.0,
                "WSWAH": 1440.6,
                "WSCWAH": 2496.5,
                "DFWAH": 1012.3,
                "DSWAH": 1380.9,
                "DSCWAH": 2393.2,
                "QLDAT": "01/04/2024",
                "FBMIC": 44.2,
                "FBLTH": 1.138,
                "FBUNI": 81.9,
                "FBSTR": 30.4,
                "FBELO": 5.2,
                "FBCRD": 80.2,
                "FBCLB": 8.9,
                "FBTCT": 11.0,
                "FBTAR": 0.22,
                "FBSFI": 9.1,
                "haids": [
                    "641e24fe8ac547e9ddeb1d7a",
                    "641e24fe8ac547e9ddeb1d82"
                ],
                "tids": [
                    "643deab48ac54781d1540dae"
                ]
            },
            "_id": "641e1e7e8ac547e72d8d65b7",
            "pid": "641e1e7e8ac547e72d8d65b7"
        },
        {
            "type": "Feature",
            "geometry": {
                "type": "Polygon",
                "coordinates": [
                    [
                        [
                            -111.97828016,
                            33.07852188
                        ],
                        [
                            -111.97841077,
                            33.07852253
                        ],
                        [
                            -111.97841014,
                            33.07861272
                        ],
                        [
                            -111.97827953,
                            33.07861207
                        ],
                        [
                            -111.97828016,
                            33.07852188
                        ]
                    ]
                ]
            },
            "properties": {
                "plt_label": "p2-8",
                "trt_label": "IR040",
                "PLT_AREA": 121.919996,
                "CUL_NAME": "NexGen 3195 B3XF",
                "PDATE": "04/24/2023",
                "PLYR": 2023,
                "PLDAY": 114,
                "IROP": "IR004",
                "IRVAL": {
                    "2023111": 20.4,
                    "2023115": 20.4,
                    "2023116": 10.2,
                    "2023118": 25.5,
                    "2023121": 20.4,
                    "2023123": 20.4,
                    "2023125": 20.4,
                    "2023128": 20.4,
                    "2023130": 10.2,
                    "2023132": 20.4,
                    "2023136": 20.4,
                    "2023139": 20.4,
                    "2023144": 20.4,
                    "2023146": 25.3,
                    "2023151": 20.4,
                    "2023153": 20.4,
                    "2023158": 25.3,
                    "2023160": 22.8,
                    "2023164": 26.0,
                    "2023167": 30.6,
                    "2023171": 25.6,
                    "2023173": 20.4,
                    "2023174": 20.4,
                    "2023178": 38.7,
                    "2023181": 34.6,
                    "2023186": 37.1,
                    "2023188": 37.1,
                    "2023192": 44.5,
                    "2023195": 17.8,
                    "2023199": 44.9,
                    "2023202": 18.1,
                    "2023206": 19.5,
                    "2023209": 18.3,
                    "2023213": 16.3,
                    "2023216": 16.2,
                    "2023220": 12.2,
                    "2023223": 16.3,
                    "2023227": 12.2,
                    "2023230": 16.3,
                    "2023234": 12.2,
                    "2023237": 16.3,
                    "2023241": 12.2,
                    "2023249": 12.2,
                    "2023251": 14.2
                },
                "FEAMN": {
                    "2023158": 51.9,
                    "2023178": 51.9,
                    "2023199": 51.9
                },
                "FRCOV": {
                    "2023115": 0.0,
                    "2023172": 0.067,
                    "2023180": 0.208,
                    "2023184": 0.269,
                    "2023194": 0.405,
                    "2023201": 0.493,
                    "2023209": 0.511
                },
                "HARM": "Machine",
                "HADAT": "11/13/2023",
                "WBWAH": 914.9,
                "BWCAH": 4.27,
                "DBWAH": 875.8,
                "GNDAT": "11/14/2023",
                "FFRAC": 0.3376,
                "SFRAC": 0.4382,
                "TFRAC": 0.2242,
                "WFWAH": 308.9,
                "WSWAH": 400.9,
                "WSCWAH": 709.8,
                "DFWAH": 295.7,
                "DSWAH": 383.8,
                "DSCWAH": 679.5,
                "QLDAT": "01/04/2024",
                "FBMIC": 46.0,
                "FBLTH": 1.078,
                "FBUNI": 81.4,
                "FBSTR": 28.4,
                "FBELO": 4.9,
                "FBCRD": 77.8,
                "FBCLB": 9.2,
                "FBTCT": 17.0,
                "FBTAR": 0.16,
                "FBSFI": 10.0,
                "haids": [
                    "641e24fe8ac547e9ddeb1d7b",
                    "641e24fe8ac547e9ddeb1d83"
                ],
                "tids": [
                    "643deab48ac54781d1540daf"
                ]
            },
            "_id": "641e1e7e8ac547e72d8d65b6",
            "pid": "641e1e7e8ac547e72d8d65b6"
        }
    ]
}