{
    "type": "FeatureCollection",
    "features": [
        {
            "type": "Feature",
            "geometry": {
                "type": "Point",
                "coordinates": [
                    33.0796606,
                    -111.97817938
                ]
            },
            "properties": {
                "sa_label": "N1",
                "SOIL_DATE": "03/01/2016",
                "SNO3": {
                    "15": 0.9,
                    "45": 1.3,
                    "75": 1.7,
                    "105": 2.0
                }
            },
            "_id": "683f26688ac54759b719fcf8",
            "said": "683f26688ac54759b719fcf8"
        },
        {
            "type": "Feature",
            "geometry": {
                "type": "Point",
                "coordinates": [
                    33.07965909,
                    -111.9778747
                ]
            },
            "properties": {
                "sa_label": "N3",
                "SOIL_DATE": "03/01/2016",
                "SNO3": {
                    "15": 1.2,
                    "45": 5.6,
                    "75": 0.8,
                    "105": 1.2
                }
            },
            "_id": "683f26688ac54759b719fcf9",
            "said": "683f26688ac54759b719fcf9"
        },
        {
            "type": "Feature",
            "geometry": {
                "type": "Point",
                "coordinates": [
                    33.07965758,
                    -111.9775711
                ]
            },
            "properties": {
                "sa_label": "N5",
                "SOIL_DATE": "03/01/2016",
                "SNO3": {
                    "15": 3.5,
                    "45": 5.7,
                    "75": 2.4,
                    "105": 2.3
                }
            },
            "_id": "683f26688ac54759b719fcfa",
            "said": "683f26688ac54759b719fcfa"
        },
        {
            "type": "Feature",
            "geometry": {
                "type": "Point",
                "coordinates": [
                    33.07965607,
                    -111.97726632
                ]
            },
            "properties": {
                "sa_label": "N7",
                "SOIL_DATE": "03/01/2016",
                "SNO3": {
                    "15": 10.0,
                    "45": 2.6,
                    "75": 0.9,
                    "105": 0.5
                }
            },
            "_id": "683f26688ac54759b719fcfb",
            "said": "683f26688ac54759b719fcfb"
        },
        {
            "type": "Feature",
            "geometry": {
                "type": "Point",
                "coordinates": [
                    33.07965456,
                    -111.97696229
                ]
            },
            "properties": {
                "sa_label": "N9",
                "SOIL_DATE": "03/01/2016",
                "SNO3": {
                    "15": 4.6,
                    "45": 8.5,
                    "75": 4.9,
                    "105": 3.0
                }
            },
            "_id": "683f26688ac54759b719fcfc",
            "said": "683f26688ac54759b719fcfc"
        },
        {
            "type": "Feature",
            "geometry": {
                "type": "Point",
                "coordinates": [
                    33.07965305,
                    -111.9766577
                ]
            },
            "properties": {
                "sa_label": "N11",
                "SOIL_DATE": "03/01/2016",
                "SNO3": {
                    "15": 19.2,
                    "45": 22.2,
                    "75": 14.0,
                    "105": 1.7
                }
            },
            "_id": "683f26688ac54759b719fcfd",
            "said": "683f26688ac54759b719fcfd"
        },
        {
            "type": "Feature",
            "geometry": {
                "type": "Point",
                "coordinates": [
                    33.07964935,
                    -111.9759149
                ]
            },
            "properties": {
                "sa_label": "N13",
                "SOIL_DATE": "03/01/2016",
                "SNO3": {
                    "15": 5.0,
                    "45": 4.2,
                    "75": 1.4,
                    "105": 1.4
                }
            },
            "_id": "683f26688ac54759b719fcfe",
            "said": "683f26688ac54759b719fcfe"
        },
        {
            "type": "Feature",
            "geometry": {
                "type": "Point",
                "coordinates": [
                    33.07964782,
                    -111.97560703
                ]
            },
            "properties": {
                "sa_label": "N15",
                "SOIL_DATE": "03/01/2016",
                "SNO3": {
                    "15": 14.9,
                    "45": 3.2,
                    "75": 0.7,
                    "105": 1.6
                }
            },
            "_id": "683f26688ac54759b719fcff",
            "said": "683f26688ac54759b719fcff"
        },
        {
            "type": "Feature",
            "geometry": {
                "type": "Point",
                "coordinates": [
                    33.07929901,
                    -111.97802985
                ]
            },
            "properties": {
                "sa_label": "N18",
                "SOIL_DATE": "03/01/2016",
                "SNO3": {
                    "15": 5.9,
                    "45": 0.5,
                    "75": 0.2,
                    "105": 0.2
                }
            },
            "_id": "683f26688ac54759b719fd00",
            "said": "683f26688ac54759b719fd00"
        },
        {
            "type": "Feature",
            "geometry": {
                "type": "Point",
                "coordinates": [
                    33.0792975,
                    -111.97772497
                ]
            },
            "properties": {
                "sa_label": "N20",
                "SOIL_DATE": "03/01/2016",
                "SNO3": {
                    "15": 0.5,
                    "45": 0.3,
                    "75": 0.7,
                    "105": 1.4
                }
            },
            "_id": "683f26688ac54759b719fd01",
            "said": "683f26688ac54759b719fd01"
        },
        {
            "type": "Feature",
            "geometry": {
                "type": "Point",
                "coordinates": [
                    33.07929599,
                    -111.97742118
                ]
            },
            "properties": {
                "sa_label": "N22",
                "SOIL_DATE": "03/01/2016",
                "SNO3": {
                    "15": 6.7,
                    "45": 5.4,
                    "75": 0.8,
                    "105": 0.7
                }
            },
            "_id": "683f26688ac54759b719fd02",
            "said": "683f26688ac54759b719fd02"
        },
        {
            "type": "Feature",
            "geometry": {
                "type": "Point",
                "coordinates": [
                    33.07929448,
                    -111.97711645
                ]
            },
            "properties": {
                "sa_label": "N24",
                "SOIL_DATE": "03/01/2016",
                "SNO3": {
                    "15": 2.5,
                    "45": 8.7,
                    "75": 2.5,
                    "105": 1.8
                }
            },
            "_id": "683f26688ac54759b719fd03",
            "said": "683f26688ac54759b719fd03"
        },
        {
            "type": "Feature",
            "geometry": {
                "type": "Point",
                "coordinates": [
                    33.07929297,
                    -111.97681246
                ]
            },
            "properties": {
                "sa_label": "N26",
                "SOIL_DATE": "03/01/2016",
                "SNO3": {
                    "15": 1.7,
                    "45": 2.6,
                    "75": 1.2,
                    "105": 2.2
                }
            },
            "_id": "683f26688ac54759b719fd04",
            "said": "683f26688ac54759b719fd04"
        },
        {
            "type": "Feature",
            "geometry": {
                "type": "Point",
                "coordinates": [
                    33.07929146,
                    -111.97650764
                ]
            },
            "properties": {
                "sa_label": "N28",
                "SOIL_DATE": "03/01/2016",
                "SNO3": {
                    "15": 2.0,
                    "45": 4.4,
                    "75": 2.3,
                    "105": 2.1
                }
            },
            "_id": "683f26688ac54759b719fd05",
            "said": "683f26688ac54759b719fd05"
        },
        {
            "type": "Feature",
            "geometry": {
                "type": "Point",
                "coordinates": [
                    33.07928775,
                    -111.97576206
                ]
            },
            "properties": {
                "sa_label": "N30",
                "SOIL_DATE": "03/01/2016",
                "SNO3": {
                    "15": 0.3,
                    "45": 1.2,
                    "75": 3.1,
                    "105": 5.3
                }
            },
            "_id": "683f26688ac54759b719fd06",
            "said": "683f26688ac54759b719fd06"
        },
        {
            "type": "Feature",
            "geometry": {
                "type": "Point",
                "coordinates": [
                    33.07928623,
                    -111.97545724
                ]
            },
            "properties": {
                "sa_label": "N32",
                "SOIL_DATE": "03/01/2016",
                "SNO3": {
                    "15": 2.8,
                    "45": 4.9,
                    "75": 3.4,
                    "105": 4.0
                }
            },
            "_id": "683f26688ac54759b719fd07",
            "said": "683f26688ac54759b719fd07"
        },
        {
            "type": "Feature",
            "geometry": {
                "type": "Point",
                "coordinates": [
                    33.07893893,
                    -111.9781848
                ]
            },
            "properties": {
                "sa_label": "N33",
                "SOIL_DATE": "03/01/2016",
                "SNO3": {
                    "15": 5.7,
                    "45": 2.0,
                    "75": 0.3,
                    "105": 0.9
                }
            },
            "_id": "683f26688ac54759b719fd08",
            "said": "683f26688ac54759b719fd08"
        },
        {
            "type": "Feature",
            "geometry": {
                "type": "Point",
                "coordinates": [
                    33.07893742,
                    -111.97787995
                ]
            },
            "properties": {
                "sa_label": "N35",
                "SOIL_DATE": "03/01/2016",
                "SNO3": {
                    "15": -0.0,
                    "45": 0.3,
                    "75": 1.1,
                    "105": 0.5
                }
            },
            "_id": "683f26688ac54759b719fd09",
            "said": "683f26688ac54759b719fd09"
        },
        {
            "type": "Feature",
            "geometry": {
                "type": "Point",
                "coordinates": [
                    33.07893592,
                    -111.97757605
                ]
            },
            "properties": {
                "sa_label": "N37",
                "SOIL_DATE": "03/01/2016",
                "SNO3": {
                    "15": 15.8,
                    "45": 2.9,
                    "75": 0.8,
                    "105": 3.6
                }
            },
            "_id": "683f26688ac54759b719fd0a",
            "said": "683f26688ac54759b719fd0a"
        },
        {
            "type": "Feature",
            "geometry": {
                "type": "Point",
                "coordinates": [
                    33.0789344,
                    -111.97727129
                ]
            },
            "properties": {
                "sa_label": "N39",
                "SOIL_DATE": "03/01/2016",
                "SNO3": {
                    "15": 9.9,
                    "45": 2.0,
                    "75": 1.0,
                    "105": 0.9
                }
            },
            "_id": "683f26688ac54759b719fd0b",
            "said": "683f26688ac54759b719fd0b"
        },
        {
            "type": "Feature",
            "geometry": {
                "type": "Point",
                "coordinates": [
                    33.07893289,
                    -111.97696744
                ]
            },
            "properties": {
                "sa_label": "N41",
                "SOIL_DATE": "03/01/2016",
                "SNO3": {
                    "15": 0.4,
                    "45": 1.4,
                    "75": 3.5,
                    "105": 1.4
                }
            },
            "_id": "683f26688ac54759b719fd0c",
            "said": "683f26688ac54759b719fd0c"
        },
        {
            "type": "Feature",
            "geometry": {
                "type": "Point",
                "coordinates": [
                    33.07893138,
                    -111.97666263
                ]
            },
            "properties": {
                "sa_label": "N43",
                "SOIL_DATE": "03/01/2016",
                "SNO3": {
                    "15": 1.1,
                    "45": 3.0,
                    "75": 4.8,
                    "105": 1.9
                }
            },
            "_id": "683f26688ac54759b719fd0d",
            "said": "683f26688ac54759b719fd0d"
        },
        {
            "type": "Feature",
            "geometry": {
                "type": "Point",
                "coordinates": [
                    33.07892769,
                    -111.97591993
                ]
            },
            "properties": {
                "sa_label": "N45",
                "SOIL_DATE": "03/01/2016",
                "SNO3": {
                    "15": 0.9,
                    "45": 1.1,
                    "75": 1.3,
                    "105": 1.2
                }
            },
            "_id": "683f26688ac54759b719fd0e",
            "said": "683f26688ac54759b719fd0e"
        },
        {
            "type": "Feature",
            "geometry": {
                "type": "Point",
                "coordinates": [
                    33.07892616,
                    -111.97561222
                ]
            },
            "properties": {
                "sa_label": "N47",
                "SOIL_DATE": "03/01/2016",
                "SNO3": {
                    "15": 1.6,
                    "45": 5.7,
                    "75": 2.5,
                    "105": 2.9
                }
            },
            "_id": "683f26688ac54759b719fd0f",
            "said": "683f26688ac54759b719fd0f"
        },
        {
            "type": "Feature",
            "geometry": {
                "type": "Point",
                "coordinates": [
                    33.07857734,
                    -111.97803469
                ]
            },
            "properties": {
                "sa_label": "N50",
                "SOIL_DATE": "03/01/2016",
                "SNO3": {
                    "15": 1.6,
                    "45": 3.9,
                    "75": 3.0,
                    "105": 0.5
                }
            },
            "_id": "683f26688ac54759b719fd10",
            "said": "683f26688ac54759b719fd10"
        },
        {
            "type": "Feature",
            "geometry": {
                "type": "Point",
                "coordinates": [
                    33.07857583,
                    -111.97772997
                ]
            },
            "properties": {
                "sa_label": "N52",
                "SOIL_DATE": "03/01/2016",
                "SNO3": {
                    "15": 0.3,
                    "45": 0.2,
                    "75": 0.7,
                    "105": 2.2
                }
            },
            "_id": "683f26688ac54759b719fd11",
            "said": "683f26688ac54759b719fd11"
        },
        {
            "type": "Feature",
            "geometry": {
                "type": "Point",
                "coordinates": [
                    33.07857433,
                    -111.97742626
                ]
            },
            "properties": {
                "sa_label": "N54",
                "SOIL_DATE": "03/01/2016",
                "SNO3": {
                    "15": 8.8,
                    "45": 10.7,
                    "75": 2.3,
                    "105": 2.2
                }
            },
            "_id": "683f26688ac54759b719fd12",
            "said": "683f26688ac54759b719fd12"
        },
        {
            "type": "Feature",
            "geometry": {
                "type": "Point",
                "coordinates": [
                    33.07857281,
                    -111.97712141
                ]
            },
            "properties": {
                "sa_label": "N56",
                "SOIL_DATE": "03/01/2016",
                "SNO3": {
                    "15": 4.1,
                    "45": 7.4,
                    "75": 2.3,
                    "105": 1.4
                }
            },
            "_id": "683f26688ac54759b719fd13",
            "said": "683f26688ac54759b719fd13"
        },
        {
            "type": "Feature",
            "geometry": {
                "type": "Point",
                "coordinates": [
                    33.0785713,
                    -111.97681755
                ]
            },
            "properties": {
                "sa_label": "N58",
                "SOIL_DATE": "03/01/2016",
                "SNO3": {
                    "15": 0.4,
                    "45": 3.3,
                    "75": 5.0,
                    "105": 1.0
                }
            },
            "_id": "683f26688ac54759b719fd14",
            "said": "683f26688ac54759b719fd14"
        },
        {
            "type": "Feature",
            "geometry": {
                "type": "Point",
                "coordinates": [
                    33.07856979,
                    -111.97651283
                ]
            },
            "properties": {
                "sa_label": "N60",
                "SOIL_DATE": "03/01/2016",
                "SNO3": {
                    "15": 0.7,
                    "45": 3.9,
                    "75": 4.5,
                    "105": 7.1
                }
            },
            "_id": "683f26688ac54759b719fd15",
            "said": "683f26688ac54759b719fd15"
        },
        {
            "type": "Feature",
            "geometry": {
                "type": "Point",
                "coordinates": [
                    33.07856608,
                    -111.9757671
                ]
            },
            "properties": {
                "sa_label": "N62",
                "SOIL_DATE": "03/01/2016",
                "SNO3": {
                    "15": 1.9,
                    "45": 9.3,
                    "75": 6.3,
                    "105": 3.3
                }
            },
            "_id": "683f26688ac54759b719fd16",
            "said": "683f26688ac54759b719fd16"
        },
        {
            "type": "Feature",
            "geometry": {
                "type": "Point",
                "coordinates": [
                    33.07856456,
                    -111.97546218
                ]
            },
            "properties": {
                "sa_label": "N64",
                "SOIL_DATE": "03/01/2016",
                "SNO3": {
                    "15": 0.4,
                    "45": 1.3,
                    "75": 3.8,
                    "105": 2.2
                }
            },
            "_id": "683f26688ac54759b719fd17",
            "said": "683f26688ac54759b719fd17"
        }
    ]
}