{
    "type": "Feature",
    "geometry": {
        "type": "Point",
        "coordinates": [
            33.0797825,
            -111.97548601
        ]
    },
    "properties": {
        "ht_label": "01-1A"
    },
    "_id": "6426002c8ac54764b9a30d3c",
    "chid": "6426002c8ac54764b9a30d3c"
}{
    "type": "Feature",
    "geometry": {
        "type": "Point",
        "coordinates": [
            33.07967428,
            -111.97548698
        ]
    },
    "properties": {
        "ht_label": "01-1B"
    },
    "_id": "6426002c8ac54764b9a30d3d",
    "chid": "6426002c8ac54764b9a30d3d"
}{
    "type": "Feature",
    "geometry": {
        "type": "Point",
        "coordinates": [
            33.07956606,
            -111.97548754
        ]
    },
    "properties": {
        "ht_label": "01-1C"
    },
    "_id": "6426002c8ac54764b9a30d3e",
    "chid": "6426002c8ac54764b9a30d3e"
}{
    "type": "Feature",
    "geometry": {
        "type": "Point",
        "coordinates": [
            33.07942166,
            -111.97548836
        ]
    },
    "properties": {
        "ht_label": "01-2A"
    },
    "_id": "6426002c8ac54764b9a30d3f",
    "chid": "6426002c8ac54764b9a30d3f"
}{
    "type": "Feature",
    "geometry": {
        "type": "Point",
        "coordinates": [
            33.07931345,
            -111.97548933
        ]
    },
    "properties": {
        "ht_label": "01-2B"
    },
    "_id": "6426002c8ac54764b9a30d40",
    "chid": "6426002c8ac54764b9a30d40"
}{
    "type": "Feature",
    "geometry": {
        "type": "Point",
        "coordinates": [
            33.07920523,
            -111.97549029
        ]
    },
    "properties": {
        "ht_label": "01-2C"
    },
    "_id": "6426002c8ac54764b9a30d41",
    "chid": "6426002c8ac54764b9a30d41"
}{
    "type": "Feature",
    "geometry": {
        "type": "Point",
        "coordinates": [
            33.07906083,
            -111.97549115
        ]
    },
    "properties": {
        "ht_label": "01-3A"
    },
    "_id": "6426002c8ac54764b9a30d42",
    "chid": "6426002c8ac54764b9a30d42"
}{
    "type": "Feature",
    "geometry": {
        "type": "Point",
        "coordinates": [
            33.07895261,
            -111.97549208
        ]
    },
    "properties": {
        "ht_label": "01-3B"
    },
    "_id": "6426002c8ac54764b9a30d43",
    "chid": "6426002c8ac54764b9a30d43"
}{
    "type": "Feature",
    "geometry": {
        "type": "Point",
        "coordinates": [
            33.07884439,
            -111.97549236
        ]
    },
    "properties": {
        "ht_label": "01-3C"
    },
    "_id": "6426002c8ac54764b9a30d44",
    "chid": "6426002c8ac54764b9a30d44"
}{
    "type": "Feature",
    "geometry": {
        "type": "Point",
        "coordinates": [
            33.0787,
            -111.97549365
        ]
    },
    "properties": {
        "ht_label": "01-4A"
    },
    "_id": "6426002c8ac54764b9a30d45",
    "chid": "6426002c8ac54764b9a30d45"
}{
    "type": "Feature",
    "geometry": {
        "type": "Point",
        "coordinates": [
            33.07859178,
            -111.97549425
        ]
    },
    "properties": {
        "ht_label": "01-4B"
    },
    "_id": "6426002c8ac54764b9a30d46",
    "chid": "6426002c8ac54764b9a30d46"
}{
    "type": "Feature",
    "geometry": {
        "type": "Point",
        "coordinates": [
            33.07848356,
            -111.97549527
        ]
    },
    "properties": {
        "ht_label": "01-4C"
    },
    "_id": "6426002c8ac54764b9a30d47",
    "chid": "6426002c8ac54764b9a30d47"
}{
    "type": "Feature",
    "geometry": {
        "type": "Point",
        "coordinates": [
            33.07978326,
            -111.97563878
        ]
    },
    "properties": {
        "ht_label": "02-1A"
    },
    "_id": "6426002c8ac54764b9a30d48",
    "chid": "6426002c8ac54764b9a30d48"
}{
    "type": "Feature",
    "geometry": {
        "type": "Point",
        "coordinates": [
            33.07967504,
            -111.97563977
        ]
    },
    "properties": {
        "ht_label": "02-1B"
    },
    "_id": "6426002c8ac54764b9a30d49",
    "chid": "6426002c8ac54764b9a30d49"
}{
    "type": "Feature",
    "geometry": {
        "type": "Point",
        "coordinates": [
            33.07956682,
            -111.97564021
        ]
    },
    "properties": {
        "ht_label": "02-1C"
    },
    "_id": "6426002c8ac54764b9a30d4a",
    "chid": "6426002c8ac54764b9a30d4a"
}{
    "type": "Feature",
    "geometry": {
        "type": "Point",
        "coordinates": [
            33.07942242,
            -111.9756412
        ]
    },
    "properties": {
        "ht_label": "02-2A"
    },
    "_id": "6426002c8ac54764b9a30d4b",
    "chid": "6426002c8ac54764b9a30d4b"
}{
    "type": "Feature",
    "geometry": {
        "type": "Point",
        "coordinates": [
            33.07931421,
            -111.97564226
        ]
    },
    "properties": {
        "ht_label": "02-2B"
    },
    "_id": "6426002c8ac54764b9a30d4c",
    "chid": "6426002c8ac54764b9a30d4c"
}{
    "type": "Feature",
    "geometry": {
        "type": "Point",
        "coordinates": [
            33.07920599,
            -111.97564283
        ]
    },
    "properties": {
        "ht_label": "02-2C"
    },
    "_id": "6426002c8ac54764b9a30d4d",
    "chid": "6426002c8ac54764b9a30d4d"
}{
    "type": "Feature",
    "geometry": {
        "type": "Point",
        "coordinates": [
            33.07906159,
            -111.97564384
        ]
    },
    "properties": {
        "ht_label": "02-3A"
    },
    "_id": "6426002c8ac54764b9a30d4e",
    "chid": "6426002c8ac54764b9a30d4e"
}{
    "type": "Feature",
    "geometry": {
        "type": "Point",
        "coordinates": [
            33.07895337,
            -111.97564468
        ]
    },
    "properties": {
        "ht_label": "02-3B"
    },
    "_id": "6426002c8ac54764b9a30d4f",
    "chid": "6426002c8ac54764b9a30d4f"
}{
    "type": "Feature",
    "geometry": {
        "type": "Point",
        "coordinates": [
            33.07884515,
            -111.97564526
        ]
    },
    "properties": {
        "ht_label": "02-3C"
    },
    "_id": "6426002c8ac54764b9a30d50",
    "chid": "6426002c8ac54764b9a30d50"
}{
    "type": "Feature",
    "geometry": {
        "type": "Point",
        "coordinates": [
            33.07870076,
            -111.97564632
        ]
    },
    "properties": {
        "ht_label": "02-4A"
    },
    "_id": "6426002c8ac54764b9a30d51",
    "chid": "6426002c8ac54764b9a30d51"
}{
    "type": "Feature",
    "geometry": {
        "type": "Point",
        "coordinates": [
            33.07859254,
            -111.97564726
        ]
    },
    "properties": {
        "ht_label": "02-4B"
    },
    "_id": "6426002c8ac54764b9a30d52",
    "chid": "6426002c8ac54764b9a30d52"
}{
    "type": "Feature",
    "geometry": {
        "type": "Point",
        "coordinates": [
            33.07848432,
            -111.9756478
        ]
    },
    "properties": {
        "ht_label": "02-4C"
    },
    "_id": "6426002c8ac54764b9a30d53",
    "chid": "6426002c8ac54764b9a30d53"
}{
    "type": "Feature",
    "geometry": {
        "type": "Point",
        "coordinates": [
            33.07978401,
            -111.97579078
        ]
    },
    "properties": {
        "ht_label": "03-1A"
    },
    "_id": "6426002c8ac54764b9a30d54",
    "chid": "6426002c8ac54764b9a30d54"
}{
    "type": "Feature",
    "geometry": {
        "type": "Point",
        "coordinates": [
            33.0796758,
            -111.97579134
        ]
    },
    "properties": {
        "ht_label": "03-1B"
    },
    "_id": "6426002c8ac54764b9a30d55",
    "chid": "6426002c8ac54764b9a30d55"
}{
    "type": "Feature",
    "geometry": {
        "type": "Point",
        "coordinates": [
            33.07956758,
            -111.97579268
        ]
    },
    "properties": {
        "ht_label": "03-1C"
    },
    "_id": "6426002c8ac54764b9a30d56",
    "chid": "6426002c8ac54764b9a30d56"
}{
    "type": "Feature",
    "geometry": {
        "type": "Point",
        "coordinates": [
            33.07942318,
            -111.97579343
        ]
    },
    "properties": {
        "ht_label": "03-2A"
    },
    "_id": "6426002c8ac54764b9a30d57",
    "chid": "6426002c8ac54764b9a30d57"
}{
    "type": "Feature",
    "geometry": {
        "type": "Point",
        "coordinates": [
            33.07931496,
            -111.975794
        ]
    },
    "properties": {
        "ht_label": "03-2B"
    },
    "_id": "6426002c8ac54764b9a30d58",
    "chid": "6426002c8ac54764b9a30d58"
}{
    "type": "Feature",
    "geometry": {
        "type": "Point",
        "coordinates": [
            33.07920675,
            -111.97579494
        ]
    },
    "properties": {
        "ht_label": "03-2C"
    },
    "_id": "6426002c8ac54764b9a30d59",
    "chid": "6426002c8ac54764b9a30d59"
}{
    "type": "Feature",
    "geometry": {
        "type": "Point",
        "coordinates": [
            33.07906235,
            -111.97579634
        ]
    },
    "properties": {
        "ht_label": "03-3A"
    },
    "_id": "6426002c8ac54764b9a30d5a",
    "chid": "6426002c8ac54764b9a30d5a"
}{
    "type": "Feature",
    "geometry": {
        "type": "Point",
        "coordinates": [
            33.07895413,
            -111.975797
        ]
    },
    "properties": {
        "ht_label": "03-3B"
    },
    "_id": "6426002c8ac54764b9a30d5b",
    "chid": "6426002c8ac54764b9a30d5b"
}{
    "type": "Feature",
    "geometry": {
        "type": "Point",
        "coordinates": [
            33.07884591,
            -111.97579736
        ]
    },
    "properties": {
        "ht_label": "03-3C"
    },
    "_id": "6426002c8ac54764b9a30d5c",
    "chid": "6426002c8ac54764b9a30d5c"
}{
    "type": "Feature",
    "geometry": {
        "type": "Point",
        "coordinates": [
            33.07870151,
            -111.97579836
        ]
    },
    "properties": {
        "ht_label": "03-4A"
    },
    "_id": "6426002c8ac54764b9a30d5d",
    "chid": "6426002c8ac54764b9a30d5d"
}{
    "type": "Feature",
    "geometry": {
        "type": "Point",
        "coordinates": [
            33.07859329,
            -111.9757988
        ]
    },
    "properties": {
        "ht_label": "03-4B"
    },
    "_id": "6426002c8ac54764b9a30d5e",
    "chid": "6426002c8ac54764b9a30d5e"
}{
    "type": "Feature",
    "geometry": {
        "type": "Point",
        "coordinates": [
            33.07848507,
            -111.97579949
        ]
    },
    "properties": {
        "ht_label": "03-4C"
    },
    "_id": "6426002c8ac54764b9a30d5f",
    "chid": "6426002c8ac54764b9a30d5f"
}{
    "type": "Feature",
    "geometry": {
        "type": "Point",
        "coordinates": [
            33.07978479,
            -111.97594654
        ]
    },
    "properties": {
        "ht_label": "04-1A"
    },
    "_id": "6426002c8ac54764b9a30d60",
    "chid": "6426002c8ac54764b9a30d60"
}{
    "type": "Feature",
    "geometry": {
        "type": "Point",
        "coordinates": [
            33.07967657,
            -111.97594686
        ]
    },
    "properties": {
        "ht_label": "04-1B"
    },
    "_id": "6426002c8ac54764b9a30d61",
    "chid": "6426002c8ac54764b9a30d61"
}{
    "type": "Feature",
    "geometry": {
        "type": "Point",
        "coordinates": [
            33.07956835,
            -111.975948
        ]
    },
    "properties": {
        "ht_label": "04-1C"
    },
    "_id": "6426002c8ac54764b9a30d62",
    "chid": "6426002c8ac54764b9a30d62"
}{
    "type": "Feature",
    "geometry": {
        "type": "Point",
        "coordinates": [
            33.07942395,
            -111.97594895
        ]
    },
    "properties": {
        "ht_label": "04-2A"
    },
    "_id": "6426002c8ac54764b9a30d63",
    "chid": "6426002c8ac54764b9a30d63"
}{
    "type": "Feature",
    "geometry": {
        "type": "Point",
        "coordinates": [
            33.07931574,
            -111.9759495
        ]
    },
    "properties": {
        "ht_label": "04-2B"
    },
    "_id": "6426002c8ac54764b9a30d64",
    "chid": "6426002c8ac54764b9a30d64"
}{
    "type": "Feature",
    "geometry": {
        "type": "Point",
        "coordinates": [
            33.07920752,
            -111.9759504
        ]
    },
    "properties": {
        "ht_label": "04-2C"
    },
    "_id": "6426002c8ac54764b9a30d65",
    "chid": "6426002c8ac54764b9a30d65"
}{
    "type": "Feature",
    "geometry": {
        "type": "Point",
        "coordinates": [
            33.07906312,
            -111.97595128
        ]
    },
    "properties": {
        "ht_label": "04-3A"
    },
    "_id": "6426002c8ac54764b9a30d66",
    "chid": "6426002c8ac54764b9a30d66"
}{
    "type": "Feature",
    "geometry": {
        "type": "Point",
        "coordinates": [
            33.0789549,
            -111.97595261
        ]
    },
    "properties": {
        "ht_label": "04-3B"
    },
    "_id": "6426002c8ac54764b9a30d67",
    "chid": "6426002c8ac54764b9a30d67"
}{
    "type": "Feature",
    "geometry": {
        "type": "Point",
        "coordinates": [
            33.07884669,
            -111.97595302
        ]
    },
    "properties": {
        "ht_label": "04-3C"
    },
    "_id": "6426002c8ac54764b9a30d68",
    "chid": "6426002c8ac54764b9a30d68"
}{
    "type": "Feature",
    "geometry": {
        "type": "Point",
        "coordinates": [
            33.07870229,
            -111.97595428
        ]
    },
    "properties": {
        "ht_label": "04-4A"
    },
    "_id": "6426002c8ac54764b9a30d69",
    "chid": "6426002c8ac54764b9a30d69"
}{
    "type": "Feature",
    "geometry": {
        "type": "Point",
        "coordinates": [
            33.07859407,
            -111.97595501
        ]
    },
    "properties": {
        "ht_label": "04-4B"
    },
    "_id": "6426002c8ac54764b9a30d6a",
    "chid": "6426002c8ac54764b9a30d6a"
}{
    "type": "Feature",
    "geometry": {
        "type": "Point",
        "coordinates": [
            33.07848585,
            -111.9759553
        ]
    },
    "properties": {
        "ht_label": "04-4C"
    },
    "_id": "6426002c8ac54764b9a30d6b",
    "chid": "6426002c8ac54764b9a30d6b"
}{
    "type": "Feature",
    "geometry": {
        "type": "Point",
        "coordinates": [
            33.07978772,
            -111.97653664
        ]
    },
    "properties": {
        "ht_label": "05-1A"
    },
    "_id": "6426002c8ac54764b9a30d6c",
    "chid": "6426002c8ac54764b9a30d6c"
}{
    "type": "Feature",
    "geometry": {
        "type": "Point",
        "coordinates": [
            33.0796795,
            -111.97653723
        ]
    },
    "properties": {
        "ht_label": "05-1B"
    },
    "_id": "6426002c8ac54764b9a30d6d",
    "chid": "6426002c8ac54764b9a30d6d"
}{
    "type": "Feature",
    "geometry": {
        "type": "Point",
        "coordinates": [
            33.07957129,
            -111.97653776
        ]
    },
    "properties": {
        "ht_label": "05-1C"
    },
    "_id": "6426002c8ac54764b9a30d6e",
    "chid": "6426002c8ac54764b9a30d6e"
}{
    "type": "Feature",
    "geometry": {
        "type": "Point",
        "coordinates": [
            33.07942689,
            -111.97653908
        ]
    },
    "properties": {
        "ht_label": "05-2A"
    },
    "_id": "6426002c8ac54764b9a30d6f",
    "chid": "6426002c8ac54764b9a30d6f"
}{
    "type": "Feature",
    "geometry": {
        "type": "Point",
        "coordinates": [
            33.07931867,
            -111.97653988
        ]
    },
    "properties": {
        "ht_label": "05-2B"
    },
    "_id": "6426002c8ac54764b9a30d70",
    "chid": "6426002c8ac54764b9a30d70"
}{
    "type": "Feature",
    "geometry": {
        "type": "Point",
        "coordinates": [
            33.07921045,
            -111.97654048
        ]
    },
    "properties": {
        "ht_label": "05-2C"
    },
    "_id": "6426002c8ac54764b9a30d71",
    "chid": "6426002c8ac54764b9a30d71"
}{
    "type": "Feature",
    "geometry": {
        "type": "Point",
        "coordinates": [
            33.07906606,
            -111.97654182
        ]
    },
    "properties": {
        "ht_label": "05-3A"
    },
    "_id": "6426002c8ac54764b9a30d72",
    "chid": "6426002c8ac54764b9a30d72"
}{
    "type": "Feature",
    "geometry": {
        "type": "Point",
        "coordinates": [
            33.07895784,
            -111.97654232
        ]
    },
    "properties": {
        "ht_label": "05-3B"
    },
    "_id": "6426002c8ac54764b9a30d73",
    "chid": "6426002c8ac54764b9a30d73"
}{
    "type": "Feature",
    "geometry": {
        "type": "Point",
        "coordinates": [
            33.07884962,
            -111.9765432
        ]
    },
    "properties": {
        "ht_label": "05-3C"
    },
    "_id": "6426002c8ac54764b9a30d74",
    "chid": "6426002c8ac54764b9a30d74"
}{
    "type": "Feature",
    "geometry": {
        "type": "Point",
        "coordinates": [
            33.07870522,
            -111.97654417
        ]
    },
    "properties": {
        "ht_label": "05-4A"
    },
    "_id": "6426002c8ac54764b9a30d75",
    "chid": "6426002c8ac54764b9a30d75"
}{
    "type": "Feature",
    "geometry": {
        "type": "Point",
        "coordinates": [
            33.078597,
            -111.97654498
        ]
    },
    "properties": {
        "ht_label": "05-4B"
    },
    "_id": "6426002c8ac54764b9a30d76",
    "chid": "6426002c8ac54764b9a30d76"
}{
    "type": "Feature",
    "geometry": {
        "type": "Point",
        "coordinates": [
            33.07848879,
            -111.97654563
        ]
    },
    "properties": {
        "ht_label": "05-4C"
    },
    "_id": "6426002c8ac54764b9a30d77",
    "chid": "6426002c8ac54764b9a30d77"
}{
    "type": "Feature",
    "geometry": {
        "type": "Point",
        "coordinates": [
            33.07978848,
            -111.97668926
        ]
    },
    "properties": {
        "ht_label": "06-1A"
    },
    "_id": "6426002c8ac54764b9a30d78",
    "chid": "6426002c8ac54764b9a30d78"
}{
    "type": "Feature",
    "geometry": {
        "type": "Point",
        "coordinates": [
            33.07968026,
            -111.97668973
        ]
    },
    "properties": {
        "ht_label": "06-1B"
    },
    "_id": "6426002c8ac54764b9a30d79",
    "chid": "6426002c8ac54764b9a30d79"
}{
    "type": "Feature",
    "geometry": {
        "type": "Point",
        "coordinates": [
            33.07957204,
            -111.97669018
        ]
    },
    "properties": {
        "ht_label": "06-1C"
    },
    "_id": "6426002c8ac54764b9a30d7a",
    "chid": "6426002c8ac54764b9a30d7a"
}{
    "type": "Feature",
    "geometry": {
        "type": "Point",
        "coordinates": [
            33.07942764,
            -111.97669111
        ]
    },
    "properties": {
        "ht_label": "06-2A"
    },
    "_id": "6426002c8ac54764b9a30d7b",
    "chid": "6426002c8ac54764b9a30d7b"
}{
    "type": "Feature",
    "geometry": {
        "type": "Point",
        "coordinates": [
            33.07931943,
            -111.9766921
        ]
    },
    "properties": {
        "ht_label": "06-2B"
    },
    "_id": "6426002c8ac54764b9a30d7c",
    "chid": "6426002c8ac54764b9a30d7c"
}{
    "type": "Feature",
    "geometry": {
        "type": "Point",
        "coordinates": [
            33.07921121,
            -111.97669297
        ]
    },
    "properties": {
        "ht_label": "06-2C"
    },
    "_id": "6426002c8ac54764b9a30d7d",
    "chid": "6426002c8ac54764b9a30d7d"
}{
    "type": "Feature",
    "geometry": {
        "type": "Point",
        "coordinates": [
            33.07906681,
            -111.97669414
        ]
    },
    "properties": {
        "ht_label": "06-3A"
    },
    "_id": "6426002c8ac54764b9a30d7e",
    "chid": "6426002c8ac54764b9a30d7e"
}{
    "type": "Feature",
    "geometry": {
        "type": "Point",
        "coordinates": [
            33.0789586,
            -111.97669499
        ]
    },
    "properties": {
        "ht_label": "06-3B"
    },
    "_id": "6426002c8ac54764b9a30d7f",
    "chid": "6426002c8ac54764b9a30d7f"
}{
    "type": "Feature",
    "geometry": {
        "type": "Point",
        "coordinates": [
            33.07885038,
            -111.97669564
        ]
    },
    "properties": {
        "ht_label": "06-3C"
    },
    "_id": "6426002c8ac54764b9a30d80",
    "chid": "6426002c8ac54764b9a30d80"
}{
    "type": "Feature",
    "geometry": {
        "type": "Point",
        "coordinates": [
            33.07870598,
            -111.97669679
        ]
    },
    "properties": {
        "ht_label": "06-4A"
    },
    "_id": "6426002c8ac54764b9a30d81",
    "chid": "6426002c8ac54764b9a30d81"
}{
    "type": "Feature",
    "geometry": {
        "type": "Point",
        "coordinates": [
            33.07859776,
            -111.97669739
        ]
    },
    "properties": {
        "ht_label": "06-4B"
    },
    "_id": "6426002c8ac54764b9a30d82",
    "chid": "6426002c8ac54764b9a30d82"
}{
    "type": "Feature",
    "geometry": {
        "type": "Point",
        "coordinates": [
            33.07848954,
            -111.97669812
        ]
    },
    "properties": {
        "ht_label": "06-4C"
    },
    "_id": "6426002c8ac54764b9a30d83",
    "chid": "6426002c8ac54764b9a30d83"
}{
    "type": "Feature",
    "geometry": {
        "type": "Point",
        "coordinates": [
            33.07978924,
            -111.97684169
        ]
    },
    "properties": {
        "ht_label": "07-1A"
    },
    "_id": "6426002c8ac54764b9a30d84",
    "chid": "6426002c8ac54764b9a30d84"
}{
    "type": "Feature",
    "geometry": {
        "type": "Point",
        "coordinates": [
            33.07968102,
            -111.97684217
        ]
    },
    "properties": {
        "ht_label": "07-1B"
    },
    "_id": "6426002c8ac54764b9a30d85",
    "chid": "6426002c8ac54764b9a30d85"
}{
    "type": "Feature",
    "geometry": {
        "type": "Point",
        "coordinates": [
            33.0795728,
            -111.97684311
        ]
    },
    "properties": {
        "ht_label": "07-1C"
    },
    "_id": "6426002c8ac54764b9a30d86",
    "chid": "6426002c8ac54764b9a30d86"
}{
    "type": "Feature",
    "geometry": {
        "type": "Point",
        "coordinates": [
            33.0794284,
            -111.97684398
        ]
    },
    "properties": {
        "ht_label": "07-2A"
    },
    "_id": "6426002c8ac54764b9a30d87",
    "chid": "6426002c8ac54764b9a30d87"
}{
    "type": "Feature",
    "geometry": {
        "type": "Point",
        "coordinates": [
            33.07932018,
            -111.97684437
        ]
    },
    "properties": {
        "ht_label": "07-2B"
    },
    "_id": "6426002c8ac54764b9a30d88",
    "chid": "6426002c8ac54764b9a30d88"
}{
    "type": "Feature",
    "geometry": {
        "type": "Point",
        "coordinates": [
            33.07921197,
            -111.9768453
        ]
    },
    "properties": {
        "ht_label": "07-2C"
    },
    "_id": "6426002c8ac54764b9a30d89",
    "chid": "6426002c8ac54764b9a30d89"
}{
    "type": "Feature",
    "geometry": {
        "type": "Point",
        "coordinates": [
            33.07906757,
            -111.97684616
        ]
    },
    "properties": {
        "ht_label": "07-3A"
    },
    "_id": "6426002c8ac54764b9a30d8a",
    "chid": "6426002c8ac54764b9a30d8a"
}{
    "type": "Feature",
    "geometry": {
        "type": "Point",
        "coordinates": [
            33.07895935,
            -111.97684719
        ]
    },
    "properties": {
        "ht_label": "07-3B"
    },
    "_id": "6426002c8ac54764b9a30d8b",
    "chid": "6426002c8ac54764b9a30d8b"
}{
    "type": "Feature",
    "geometry": {
        "type": "Point",
        "coordinates": [
            33.07885113,
            -111.9768479
        ]
    },
    "properties": {
        "ht_label": "07-3C"
    },
    "_id": "6426002c8ac54764b9a30d8c",
    "chid": "6426002c8ac54764b9a30d8c"
}{
    "type": "Feature",
    "geometry": {
        "type": "Point",
        "coordinates": [
            33.07870674,
            -111.97684885
        ]
    },
    "properties": {
        "ht_label": "07-4A"
    },
    "_id": "6426002c8ac54764b9a30d8d",
    "chid": "6426002c8ac54764b9a30d8d"
}{
    "type": "Feature",
    "geometry": {
        "type": "Point",
        "coordinates": [
            33.07859852,
            -111.97685007
        ]
    },
    "properties": {
        "ht_label": "07-4B"
    },
    "_id": "6426002c8ac54764b9a30d8e",
    "chid": "6426002c8ac54764b9a30d8e"
}{
    "type": "Feature",
    "geometry": {
        "type": "Point",
        "coordinates": [
            33.0784903,
            -111.97685043
        ]
    },
    "properties": {
        "ht_label": "07-4C"
    },
    "_id": "6426002c8ac54764b9a30d8f",
    "chid": "6426002c8ac54764b9a30d8f"
}{
    "type": "Feature",
    "geometry": {
        "type": "Point",
        "coordinates": [
            33.07978999,
            -111.97699311
        ]
    },
    "properties": {
        "ht_label": "08-1A"
    },
    "_id": "6426002c8ac54764b9a30d90",
    "chid": "6426002c8ac54764b9a30d90"
}{
    "type": "Feature",
    "geometry": {
        "type": "Point",
        "coordinates": [
            33.07968178,
            -111.9769951
        ]
    },
    "properties": {
        "ht_label": "08-1B"
    },
    "_id": "6426002c8ac54764b9a30d91",
    "chid": "6426002c8ac54764b9a30d91"
}{
    "type": "Feature",
    "geometry": {
        "type": "Point",
        "coordinates": [
            33.07957356,
            -111.97699537
        ]
    },
    "properties": {
        "ht_label": "08-1C"
    },
    "_id": "6426002c8ac54764b9a30d92",
    "chid": "6426002c8ac54764b9a30d92"
}{
    "type": "Feature",
    "geometry": {
        "type": "Point",
        "coordinates": [
            33.07942916,
            -111.97699612
        ]
    },
    "properties": {
        "ht_label": "08-2A"
    },
    "_id": "6426002c8ac54764b9a30d93",
    "chid": "6426002c8ac54764b9a30d93"
}{
    "type": "Feature",
    "geometry": {
        "type": "Point",
        "coordinates": [
            33.07932094,
            -111.97699722
        ]
    },
    "properties": {
        "ht_label": "08-2B"
    },
    "_id": "6426002c8ac54764b9a30d94",
    "chid": "6426002c8ac54764b9a30d94"
}{
    "type": "Feature",
    "geometry": {
        "type": "Point",
        "coordinates": [
            33.07921273,
            -111.97699811
        ]
    },
    "properties": {
        "ht_label": "08-2C"
    },
    "_id": "6426002c8ac54764b9a30d95",
    "chid": "6426002c8ac54764b9a30d95"
}{
    "type": "Feature",
    "geometry": {
        "type": "Point",
        "coordinates": [
            33.07906833,
            -111.97699888
        ]
    },
    "properties": {
        "ht_label": "08-3A"
    },
    "_id": "6426002c8ac54764b9a30d96",
    "chid": "6426002c8ac54764b9a30d96"
}{
    "type": "Feature",
    "geometry": {
        "type": "Point",
        "coordinates": [
            33.07896011,
            -111.97699901
        ]
    },
    "properties": {
        "ht_label": "08-3B"
    },
    "_id": "6426002c8ac54764b9a30d97",
    "chid": "6426002c8ac54764b9a30d97"
}{
    "type": "Feature",
    "geometry": {
        "type": "Point",
        "coordinates": [
            33.07885189,
            -111.97699994
        ]
    },
    "properties": {
        "ht_label": "08-3C"
    },
    "_id": "6426002c8ac54764b9a30d98",
    "chid": "6426002c8ac54764b9a30d98"
}{
    "type": "Feature",
    "geometry": {
        "type": "Point",
        "coordinates": [
            33.07870749,
            -111.9770009
        ]
    },
    "properties": {
        "ht_label": "08-4A"
    },
    "_id": "6426002c8ac54764b9a30d99",
    "chid": "6426002c8ac54764b9a30d99"
}{
    "type": "Feature",
    "geometry": {
        "type": "Point",
        "coordinates": [
            33.07859927,
            -111.97700194
        ]
    },
    "properties": {
        "ht_label": "08-4B"
    },
    "_id": "6426002c8ac54764b9a30d9a",
    "chid": "6426002c8ac54764b9a30d9a"
}{
    "type": "Feature",
    "geometry": {
        "type": "Point",
        "coordinates": [
            33.07849106,
            -111.97700308
        ]
    },
    "properties": {
        "ht_label": "08-4C"
    },
    "_id": "6426002c8ac54764b9a30d9b",
    "chid": "6426002c8ac54764b9a30d9b"
}{
    "type": "Feature",
    "geometry": {
        "type": "Point",
        "coordinates": [
            33.07979075,
            -111.97714533
        ]
    },
    "properties": {
        "ht_label": "09-1A"
    },
    "_id": "6426002c8ac54764b9a30d9c",
    "chid": "6426002c8ac54764b9a30d9c"
}{
    "type": "Feature",
    "geometry": {
        "type": "Point",
        "coordinates": [
            33.07968253,
            -111.97714616
        ]
    },
    "properties": {
        "ht_label": "09-1B"
    },
    "_id": "6426002c8ac54764b9a30d9d",
    "chid": "6426002c8ac54764b9a30d9d"
}{
    "type": "Feature",
    "geometry": {
        "type": "Point",
        "coordinates": [
            33.07957431,
            -111.97714702
        ]
    },
    "properties": {
        "ht_label": "09-1C"
    },
    "_id": "6426002c8ac54764b9a30d9e",
    "chid": "6426002c8ac54764b9a30d9e"
}{
    "type": "Feature",
    "geometry": {
        "type": "Point",
        "coordinates": [
            33.07942991,
            -111.97714765
        ]
    },
    "properties": {
        "ht_label": "09-2A"
    },
    "_id": "6426002c8ac54764b9a30d9f",
    "chid": "6426002c8ac54764b9a30d9f"
}{
    "type": "Feature",
    "geometry": {
        "type": "Point",
        "coordinates": [
            33.0793217,
            -111.97714888
        ]
    },
    "properties": {
        "ht_label": "09-2B"
    },
    "_id": "6426002c8ac54764b9a30da0",
    "chid": "6426002c8ac54764b9a30da0"
}{
    "type": "Feature",
    "geometry": {
        "type": "Point",
        "coordinates": [
            33.07921348,
            -111.97714928
        ]
    },
    "properties": {
        "ht_label": "09-2C"
    },
    "_id": "6426002c8ac54764b9a30da1",
    "chid": "6426002c8ac54764b9a30da1"
}{
    "type": "Feature",
    "geometry": {
        "type": "Point",
        "coordinates": [
            33.07906908,
            -111.97715056
        ]
    },
    "properties": {
        "ht_label": "09-3A"
    },
    "_id": "6426002c8ac54764b9a30da2",
    "chid": "6426002c8ac54764b9a30da2"
}{
    "type": "Feature",
    "geometry": {
        "type": "Point",
        "coordinates": [
            33.07896086,
            -111.97715099
        ]
    },
    "properties": {
        "ht_label": "09-3B"
    },
    "_id": "6426002c8ac54764b9a30da3",
    "chid": "6426002c8ac54764b9a30da3"
}{
    "type": "Feature",
    "geometry": {
        "type": "Point",
        "coordinates": [
            33.07885264,
            -111.97715177
        ]
    },
    "properties": {
        "ht_label": "09-3C"
    },
    "_id": "6426002c8ac54764b9a30da4",
    "chid": "6426002c8ac54764b9a30da4"
}{
    "type": "Feature",
    "geometry": {
        "type": "Point",
        "coordinates": [
            33.07870825,
            -111.97715317
        ]
    },
    "properties": {
        "ht_label": "09-4A"
    },
    "_id": "6426002c8ac54764b9a30da5",
    "chid": "6426002c8ac54764b9a30da5"
}{
    "type": "Feature",
    "geometry": {
        "type": "Point",
        "coordinates": [
            33.07860003,
            -111.97715412
        ]
    },
    "properties": {
        "ht_label": "09-4B"
    },
    "_id": "6426002c8ac54764b9a30da6",
    "chid": "6426002c8ac54764b9a30da6"
}{
    "type": "Feature",
    "geometry": {
        "type": "Point",
        "coordinates": [
            33.07849181,
            -111.9771544
        ]
    },
    "properties": {
        "ht_label": "09-4C"
    },
    "_id": "6426002c8ac54764b9a30da7",
    "chid": "6426002c8ac54764b9a30da7"
}{
    "type": "Feature",
    "geometry": {
        "type": "Point",
        "coordinates": [
            33.0797915,
            -111.97729744
        ]
    },
    "properties": {
        "ht_label": "10-1A"
    },
    "_id": "6426002c8ac54764b9a30da8",
    "chid": "6426002c8ac54764b9a30da8"
}{
    "type": "Feature",
    "geometry": {
        "type": "Point",
        "coordinates": [
            33.07968329,
            -111.97729873
        ]
    },
    "properties": {
        "ht_label": "10-1B"
    },
    "_id": "6426002c8ac54764b9a30da9",
    "chid": "6426002c8ac54764b9a30da9"
}{
    "type": "Feature",
    "geometry": {
        "type": "Point",
        "coordinates": [
            33.07957507,
            -111.97729895
        ]
    },
    "properties": {
        "ht_label": "10-1C"
    },
    "_id": "6426002c8ac54764b9a30daa",
    "chid": "6426002c8ac54764b9a30daa"
}{
    "type": "Feature",
    "geometry": {
        "type": "Point",
        "coordinates": [
            33.07943067,
            -111.97730007
        ]
    },
    "properties": {
        "ht_label": "10-2A"
    },
    "_id": "6426002c8ac54764b9a30dab",
    "chid": "6426002c8ac54764b9a30dab"
}{
    "type": "Feature",
    "geometry": {
        "type": "Point",
        "coordinates": [
            33.07932245,
            -111.97730103
        ]
    },
    "properties": {
        "ht_label": "10-2B"
    },
    "_id": "6426002c8ac54764b9a30dac",
    "chid": "6426002c8ac54764b9a30dac"
}{
    "type": "Feature",
    "geometry": {
        "type": "Point",
        "coordinates": [
            33.07921423,
            -111.97730165
        ]
    },
    "properties": {
        "ht_label": "10-2C"
    },
    "_id": "6426002c8ac54764b9a30dad",
    "chid": "6426002c8ac54764b9a30dad"
}{
    "type": "Feature",
    "geometry": {
        "type": "Point",
        "coordinates": [
            33.07906984,
            -111.97730295
        ]
    },
    "properties": {
        "ht_label": "10-3A"
    },
    "_id": "6426002c8ac54764b9a30dae",
    "chid": "6426002c8ac54764b9a30dae"
}{
    "type": "Feature",
    "geometry": {
        "type": "Point",
        "coordinates": [
            33.07896162,
            -111.9773034
        ]
    },
    "properties": {
        "ht_label": "10-3B"
    },
    "_id": "6426002c8ac54764b9a30daf",
    "chid": "6426002c8ac54764b9a30daf"
}{
    "type": "Feature",
    "geometry": {
        "type": "Point",
        "coordinates": [
            33.0788534,
            -111.97730404
        ]
    },
    "properties": {
        "ht_label": "10-3C"
    },
    "_id": "6426002c8ac54764b9a30db0",
    "chid": "6426002c8ac54764b9a30db0"
}{
    "type": "Feature",
    "geometry": {
        "type": "Point",
        "coordinates": [
            33.078709,
            -111.9773051
        ]
    },
    "properties": {
        "ht_label": "10-4A"
    },
    "_id": "6426002c8ac54764b9a30db1",
    "chid": "6426002c8ac54764b9a30db1"
}{
    "type": "Feature",
    "geometry": {
        "type": "Point",
        "coordinates": [
            33.07860079,
            -111.97730624
        ]
    },
    "properties": {
        "ht_label": "10-4B"
    },
    "_id": "6426002c8ac54764b9a30db2",
    "chid": "6426002c8ac54764b9a30db2"
}{
    "type": "Feature",
    "geometry": {
        "type": "Point",
        "coordinates": [
            33.07849257,
            -111.97730717
        ]
    },
    "properties": {
        "ht_label": "10-4C"
    },
    "_id": "6426002c8ac54764b9a30db3",
    "chid": "6426002c8ac54764b9a30db3"
}{
    "type": "Feature",
    "geometry": {
        "type": "Point",
        "coordinates": [
            33.07979226,
            -111.97744977
        ]
    },
    "properties": {
        "ht_label": "11-1A"
    },
    "_id": "6426002c8ac54764b9a30db4",
    "chid": "6426002c8ac54764b9a30db4"
}{
    "type": "Feature",
    "geometry": {
        "type": "Point",
        "coordinates": [
            33.07968404,
            -111.97745074
        ]
    },
    "properties": {
        "ht_label": "11-1B"
    },
    "_id": "6426002c8ac54764b9a30db5",
    "chid": "6426002c8ac54764b9a30db5"
}{
    "type": "Feature",
    "geometry": {
        "type": "Point",
        "coordinates": [
            33.07957582,
            -111.97745132
        ]
    },
    "properties": {
        "ht_label": "11-1C"
    },
    "_id": "6426002c8ac54764b9a30db6",
    "chid": "6426002c8ac54764b9a30db6"
}{
    "type": "Feature",
    "geometry": {
        "type": "Point",
        "coordinates": [
            33.07943143,
            -111.97745271
        ]
    },
    "properties": {
        "ht_label": "11-2A"
    },
    "_id": "6426002c8ac54764b9a30db7",
    "chid": "6426002c8ac54764b9a30db7"
}{
    "type": "Feature",
    "geometry": {
        "type": "Point",
        "coordinates": [
            33.07932321,
            -111.97745328
        ]
    },
    "properties": {
        "ht_label": "11-2B"
    },
    "_id": "6426002c8ac54764b9a30db8",
    "chid": "6426002c8ac54764b9a30db8"
}{
    "type": "Feature",
    "geometry": {
        "type": "Point",
        "coordinates": [
            33.07921499,
            -111.97745341
        ]
    },
    "properties": {
        "ht_label": "11-2C"
    },
    "_id": "6426002c8ac54764b9a30db9",
    "chid": "6426002c8ac54764b9a30db9"
}{
    "type": "Feature",
    "geometry": {
        "type": "Point",
        "coordinates": [
            33.07907059,
            -111.97745505
        ]
    },
    "properties": {
        "ht_label": "11-3A"
    },
    "_id": "6426002c8ac54764b9a30dba",
    "chid": "6426002c8ac54764b9a30dba"
}{
    "type": "Feature",
    "geometry": {
        "type": "Point",
        "coordinates": [
            33.07896238,
            -111.97745606
        ]
    },
    "properties": {
        "ht_label": "11-3B"
    },
    "_id": "6426002c8ac54764b9a30dbb",
    "chid": "6426002c8ac54764b9a30dbb"
}{
    "type": "Feature",
    "geometry": {
        "type": "Point",
        "coordinates": [
            33.07885416,
            -111.97745652
        ]
    },
    "properties": {
        "ht_label": "11-3C"
    },
    "_id": "6426002c8ac54764b9a30dbc",
    "chid": "6426002c8ac54764b9a30dbc"
}{
    "type": "Feature",
    "geometry": {
        "type": "Point",
        "coordinates": [
            33.07870976,
            -111.9774575
        ]
    },
    "properties": {
        "ht_label": "11-4A"
    },
    "_id": "6426002c8ac54764b9a30dbd",
    "chid": "6426002c8ac54764b9a30dbd"
}{
    "type": "Feature",
    "geometry": {
        "type": "Point",
        "coordinates": [
            33.07860154,
            -111.97745796
        ]
    },
    "properties": {
        "ht_label": "11-4B"
    },
    "_id": "6426002c8ac54764b9a30dbe",
    "chid": "6426002c8ac54764b9a30dbe"
}{
    "type": "Feature",
    "geometry": {
        "type": "Point",
        "coordinates": [
            33.07849332,
            -111.97745932
        ]
    },
    "properties": {
        "ht_label": "11-4C"
    },
    "_id": "6426002c8ac54764b9a30dbf",
    "chid": "6426002c8ac54764b9a30dbf"
}{
    "type": "Feature",
    "geometry": {
        "type": "Point",
        "coordinates": [
            33.07979302,
            -111.97760282
        ]
    },
    "properties": {
        "ht_label": "12-1A"
    },
    "_id": "6426002c8ac54764b9a30dc0",
    "chid": "6426002c8ac54764b9a30dc0"
}{
    "type": "Feature",
    "geometry": {
        "type": "Point",
        "coordinates": [
            33.0796848,
            -111.97760293
        ]
    },
    "properties": {
        "ht_label": "12-1B"
    },
    "_id": "6426002c8ac54764b9a30dc1",
    "chid": "6426002c8ac54764b9a30dc1"
}{
    "type": "Feature",
    "geometry": {
        "type": "Point",
        "coordinates": [
            33.07957658,
            -111.97760396
        ]
    },
    "properties": {
        "ht_label": "12-1C"
    },
    "_id": "6426002c8ac54764b9a30dc2",
    "chid": "6426002c8ac54764b9a30dc2"
}{
    "type": "Feature",
    "geometry": {
        "type": "Point",
        "coordinates": [
            33.07943218,
            -111.9776049
        ]
    },
    "properties": {
        "ht_label": "12-2A"
    },
    "_id": "6426002c8ac54764b9a30dc3",
    "chid": "6426002c8ac54764b9a30dc3"
}{
    "type": "Feature",
    "geometry": {
        "type": "Point",
        "coordinates": [
            33.07932397,
            -111.97760587
        ]
    },
    "properties": {
        "ht_label": "12-2B"
    },
    "_id": "6426002c8ac54764b9a30dc4",
    "chid": "6426002c8ac54764b9a30dc4"
}{
    "type": "Feature",
    "geometry": {
        "type": "Point",
        "coordinates": [
            33.07921575,
            -111.97760647
        ]
    },
    "properties": {
        "ht_label": "12-2C"
    },
    "_id": "6426002c8ac54764b9a30dc5",
    "chid": "6426002c8ac54764b9a30dc5"
}{
    "type": "Feature",
    "geometry": {
        "type": "Point",
        "coordinates": [
            33.07907135,
            -111.97760746
        ]
    },
    "properties": {
        "ht_label": "12-3A"
    },
    "_id": "6426002c8ac54764b9a30dc6",
    "chid": "6426002c8ac54764b9a30dc6"
}{
    "type": "Feature",
    "geometry": {
        "type": "Point",
        "coordinates": [
            33.07896313,
            -111.9776083
        ]
    },
    "properties": {
        "ht_label": "12-3B"
    },
    "_id": "6426002c8ac54764b9a30dc7",
    "chid": "6426002c8ac54764b9a30dc7"
}{
    "type": "Feature",
    "geometry": {
        "type": "Point",
        "coordinates": [
            33.07885491,
            -111.97760898
        ]
    },
    "properties": {
        "ht_label": "12-3C"
    },
    "_id": "6426002c8ac54764b9a30dc8",
    "chid": "6426002c8ac54764b9a30dc8"
}{
    "type": "Feature",
    "geometry": {
        "type": "Point",
        "coordinates": [
            33.07871052,
            -111.97761033
        ]
    },
    "properties": {
        "ht_label": "12-4A"
    },
    "_id": "6426002c8ac54764b9a30dc9",
    "chid": "6426002c8ac54764b9a30dc9"
}{
    "type": "Feature",
    "geometry": {
        "type": "Point",
        "coordinates": [
            33.0786023,
            -111.97761052
        ]
    },
    "properties": {
        "ht_label": "12-4B"
    },
    "_id": "6426002c8ac54764b9a30dca",
    "chid": "6426002c8ac54764b9a30dca"
}{
    "type": "Feature",
    "geometry": {
        "type": "Point",
        "coordinates": [
            33.07849408,
            -111.97761168
        ]
    },
    "properties": {
        "ht_label": "12-4C"
    },
    "_id": "6426002c8ac54764b9a30dcb",
    "chid": "6426002c8ac54764b9a30dcb"
}{
    "type": "Feature",
    "geometry": {
        "type": "Point",
        "coordinates": [
            33.07979377,
            -111.97775393
        ]
    },
    "properties": {
        "ht_label": "13-1A"
    },
    "_id": "6426002c8ac54764b9a30dcc",
    "chid": "6426002c8ac54764b9a30dcc"
}{
    "type": "Feature",
    "geometry": {
        "type": "Point",
        "coordinates": [
            33.07968555,
            -111.97775498
        ]
    },
    "properties": {
        "ht_label": "13-1B"
    },
    "_id": "6426002c8ac54764b9a30dcd",
    "chid": "6426002c8ac54764b9a30dcd"
}{
    "type": "Feature",
    "geometry": {
        "type": "Point",
        "coordinates": [
            33.07957733,
            -111.97775546
        ]
    },
    "properties": {
        "ht_label": "13-1C"
    },
    "_id": "6426002c8ac54764b9a30dce",
    "chid": "6426002c8ac54764b9a30dce"
}{
    "type": "Feature",
    "geometry": {
        "type": "Point",
        "coordinates": [
            33.07943293,
            -111.97775628
        ]
    },
    "properties": {
        "ht_label": "13-2A"
    },
    "_id": "6426002c8ac54764b9a30dcf",
    "chid": "6426002c8ac54764b9a30dcf"
}{
    "type": "Feature",
    "geometry": {
        "type": "Point",
        "coordinates": [
            33.07932472,
            -111.97775712
        ]
    },
    "properties": {
        "ht_label": "13-2B"
    },
    "_id": "6426002c8ac54764b9a30dd0",
    "chid": "6426002c8ac54764b9a30dd0"
}{
    "type": "Feature",
    "geometry": {
        "type": "Point",
        "coordinates": [
            33.0792165,
            -111.97775755
        ]
    },
    "properties": {
        "ht_label": "13-2C"
    },
    "_id": "6426002c8ac54764b9a30dd1",
    "chid": "6426002c8ac54764b9a30dd1"
}{
    "type": "Feature",
    "geometry": {
        "type": "Point",
        "coordinates": [
            33.0790721,
            -111.97775859
        ]
    },
    "properties": {
        "ht_label": "13-3A"
    },
    "_id": "6426002c8ac54764b9a30dd2",
    "chid": "6426002c8ac54764b9a30dd2"
}{
    "type": "Feature",
    "geometry": {
        "type": "Point",
        "coordinates": [
            33.07896388,
            -111.977759
        ]
    },
    "properties": {
        "ht_label": "13-3B"
    },
    "_id": "6426002c8ac54764b9a30dd3",
    "chid": "6426002c8ac54764b9a30dd3"
}{
    "type": "Feature",
    "geometry": {
        "type": "Point",
        "coordinates": [
            33.07885567,
            -111.97776092
        ]
    },
    "properties": {
        "ht_label": "13-3C"
    },
    "_id": "6426002c8ac54764b9a30dd4",
    "chid": "6426002c8ac54764b9a30dd4"
}{
    "type": "Feature",
    "geometry": {
        "type": "Point",
        "coordinates": [
            33.07871127,
            -111.97776129
        ]
    },
    "properties": {
        "ht_label": "13-4A"
    },
    "_id": "6426002c8ac54764b9a30dd5",
    "chid": "6426002c8ac54764b9a30dd5"
}{
    "type": "Feature",
    "geometry": {
        "type": "Point",
        "coordinates": [
            33.07860305,
            -111.97776236
        ]
    },
    "properties": {
        "ht_label": "13-4B"
    },
    "_id": "6426002c8ac54764b9a30dd6",
    "chid": "6426002c8ac54764b9a30dd6"
}{
    "type": "Feature",
    "geometry": {
        "type": "Point",
        "coordinates": [
            33.07849483,
            -111.97776325
        ]
    },
    "properties": {
        "ht_label": "13-4C"
    },
    "_id": "6426002c8ac54764b9a30dd7",
    "chid": "6426002c8ac54764b9a30dd7"
}{
    "type": "Feature",
    "geometry": {
        "type": "Point",
        "coordinates": [
            33.07979452,
            -111.97790623
        ]
    },
    "properties": {
        "ht_label": "14-1A"
    },
    "_id": "6426002c8ac54764b9a30dd8",
    "chid": "6426002c8ac54764b9a30dd8"
}{
    "type": "Feature",
    "geometry": {
        "type": "Point",
        "coordinates": [
            33.0796863,
            -111.9779069
        ]
    },
    "properties": {
        "ht_label": "14-1B"
    },
    "_id": "6426002c8ac54764b9a30dd9",
    "chid": "6426002c8ac54764b9a30dd9"
}{
    "type": "Feature",
    "geometry": {
        "type": "Point",
        "coordinates": [
            33.07957809,
            -111.97790793
        ]
    },
    "properties": {
        "ht_label": "14-1C"
    },
    "_id": "6426002c8ac54764b9a30dda",
    "chid": "6426002c8ac54764b9a30dda"
}{
    "type": "Feature",
    "geometry": {
        "type": "Point",
        "coordinates": [
            33.07943369,
            -111.97790899
        ]
    },
    "properties": {
        "ht_label": "14-2A"
    },
    "_id": "6426002c8ac54764b9a30ddb",
    "chid": "6426002c8ac54764b9a30ddb"
}{
    "type": "Feature",
    "geometry": {
        "type": "Point",
        "coordinates": [
            33.07932547,
            -111.97790953
        ]
    },
    "properties": {
        "ht_label": "14-2B"
    },
    "_id": "6426002c8ac54764b9a30ddc",
    "chid": "6426002c8ac54764b9a30ddc"
}{
    "type": "Feature",
    "geometry": {
        "type": "Point",
        "coordinates": [
            33.07921725,
            -111.9779099
        ]
    },
    "properties": {
        "ht_label": "14-2C"
    },
    "_id": "6426002c8ac54764b9a30ddd",
    "chid": "6426002c8ac54764b9a30ddd"
}{
    "type": "Feature",
    "geometry": {
        "type": "Point",
        "coordinates": [
            33.07907285,
            -111.9779109
        ]
    },
    "properties": {
        "ht_label": "14-3A"
    },
    "_id": "6426002c8ac54764b9a30dde",
    "chid": "6426002c8ac54764b9a30dde"
}{
    "type": "Feature",
    "geometry": {
        "type": "Point",
        "coordinates": [
            33.07896464,
            -111.97791218
        ]
    },
    "properties": {
        "ht_label": "14-3B"
    },
    "_id": "6426002c8ac54764b9a30ddf",
    "chid": "6426002c8ac54764b9a30ddf"
}{
    "type": "Feature",
    "geometry": {
        "type": "Point",
        "coordinates": [
            33.07885642,
            -111.97791311
        ]
    },
    "properties": {
        "ht_label": "14-3C"
    },
    "_id": "6426002c8ac54764b9a30de0",
    "chid": "6426002c8ac54764b9a30de0"
}{
    "type": "Feature",
    "geometry": {
        "type": "Point",
        "coordinates": [
            33.07871202,
            -111.97791406
        ]
    },
    "properties": {
        "ht_label": "14-4A"
    },
    "_id": "6426002c8ac54764b9a30de1",
    "chid": "6426002c8ac54764b9a30de1"
}{
    "type": "Feature",
    "geometry": {
        "type": "Point",
        "coordinates": [
            33.07860381,
            -111.97791483
        ]
    },
    "properties": {
        "ht_label": "14-4B"
    },
    "_id": "6426002c8ac54764b9a30de2",
    "chid": "6426002c8ac54764b9a30de2"
}{
    "type": "Feature",
    "geometry": {
        "type": "Point",
        "coordinates": [
            33.07849559,
            -111.97791549
        ]
    },
    "properties": {
        "ht_label": "14-4C"
    },
    "_id": "6426002c8ac54764b9a30de3",
    "chid": "6426002c8ac54764b9a30de3"
}{
    "type": "Feature",
    "geometry": {
        "type": "Point",
        "coordinates": [
            33.07979528,
            -111.97805829
        ]
    },
    "properties": {
        "ht_label": "15-1A"
    },
    "_id": "6426002c8ac54764b9a30de4",
    "chid": "6426002c8ac54764b9a30de4"
}{
    "type": "Feature",
    "geometry": {
        "type": "Point",
        "coordinates": [
            33.07968706,
            -111.97805958
        ]
    },
    "properties": {
        "ht_label": "15-1B"
    },
    "_id": "6426002c8ac54764b9a30de5",
    "chid": "6426002c8ac54764b9a30de5"
}{
    "type": "Feature",
    "geometry": {
        "type": "Point",
        "coordinates": [
            33.07957884,
            -111.97806029
        ]
    },
    "properties": {
        "ht_label": "15-1C"
    },
    "_id": "6426002c8ac54764b9a30de6",
    "chid": "6426002c8ac54764b9a30de6"
}{
    "type": "Feature",
    "geometry": {
        "type": "Point",
        "coordinates": [
            33.07943445,
            -111.97806148
        ]
    },
    "properties": {
        "ht_label": "15-2A"
    },
    "_id": "6426002c8ac54764b9a30de7",
    "chid": "6426002c8ac54764b9a30de7"
}{
    "type": "Feature",
    "geometry": {
        "type": "Point",
        "coordinates": [
            33.07932623,
            -111.97806165
        ]
    },
    "properties": {
        "ht_label": "15-2B"
    },
    "_id": "6426002c8ac54764b9a30de8",
    "chid": "6426002c8ac54764b9a30de8"
}{
    "type": "Feature",
    "geometry": {
        "type": "Point",
        "coordinates": [
            33.07921801,
            -111.97806256
        ]
    },
    "properties": {
        "ht_label": "15-2C"
    },
    "_id": "6426002c8ac54764b9a30de9",
    "chid": "6426002c8ac54764b9a30de9"
}{
    "type": "Feature",
    "geometry": {
        "type": "Point",
        "coordinates": [
            33.07907361,
            -111.97806438
        ]
    },
    "properties": {
        "ht_label": "15-3A"
    },
    "_id": "6426002c8ac54764b9a30dea",
    "chid": "6426002c8ac54764b9a30dea"
}{
    "type": "Feature",
    "geometry": {
        "type": "Point",
        "coordinates": [
            33.0789654,
            -111.9780649
        ]
    },
    "properties": {
        "ht_label": "15-3B"
    },
    "_id": "6426002c8ac54764b9a30deb",
    "chid": "6426002c8ac54764b9a30deb"
}{
    "type": "Feature",
    "geometry": {
        "type": "Point",
        "coordinates": [
            33.07885718,
            -111.97806582
        ]
    },
    "properties": {
        "ht_label": "15-3C"
    },
    "_id": "6426002c8ac54764b9a30dec",
    "chid": "6426002c8ac54764b9a30dec"
}{
    "type": "Feature",
    "geometry": {
        "type": "Point",
        "coordinates": [
            33.07871278,
            -111.97806641
        ]
    },
    "properties": {
        "ht_label": "15-4A"
    },
    "_id": "6426002c8ac54764b9a30ded",
    "chid": "6426002c8ac54764b9a30ded"
}{
    "type": "Feature",
    "geometry": {
        "type": "Point",
        "coordinates": [
            33.07860456,
            -111.97806725
        ]
    },
    "properties": {
        "ht_label": "15-4B"
    },
    "_id": "6426002c8ac54764b9a30dee",
    "chid": "6426002c8ac54764b9a30dee"
}{
    "type": "Feature",
    "geometry": {
        "type": "Point",
        "coordinates": [
            33.07849634,
            -111.97806802
        ]
    },
    "properties": {
        "ht_label": "15-4C"
    },
    "_id": "6426002c8ac54764b9a30def",
    "chid": "6426002c8ac54764b9a30def"
}{
    "type": "Feature",
    "geometry": {
        "type": "Point",
        "coordinates": [
            33.07979604,
            -111.97821142
        ]
    },
    "properties": {
        "ht_label": "16-1A"
    },
    "_id": "6426002c8ac54764b9a30df0",
    "chid": "6426002c8ac54764b9a30df0"
}{
    "type": "Feature",
    "geometry": {
        "type": "Point",
        "coordinates": [
            33.07968782,
            -111.97821237
        ]
    },
    "properties": {
        "ht_label": "16-1B"
    },
    "_id": "6426002c8ac54764b9a30df1",
    "chid": "6426002c8ac54764b9a30df1"
}{
    "type": "Feature",
    "geometry": {
        "type": "Point",
        "coordinates": [
            33.0795796,
            -111.97821291
        ]
    },
    "properties": {
        "ht_label": "16-1C"
    },
    "_id": "6426002c8ac54764b9a30df2",
    "chid": "6426002c8ac54764b9a30df2"
}{
    "type": "Feature",
    "geometry": {
        "type": "Point",
        "coordinates": [
            33.0794352,
            -111.97821378
        ]
    },
    "properties": {
        "ht_label": "16-2A"
    },
    "_id": "6426002c8ac54764b9a30df3",
    "chid": "6426002c8ac54764b9a30df3"
}{
    "type": "Feature",
    "geometry": {
        "type": "Point",
        "coordinates": [
            33.07932698,
            -111.9782145
        ]
    },
    "properties": {
        "ht_label": "16-2B"
    },
    "_id": "6426002c8ac54764b9a30df4",
    "chid": "6426002c8ac54764b9a30df4"
}{
    "type": "Feature",
    "geometry": {
        "type": "Point",
        "coordinates": [
            33.07921877,
            -111.97821562
        ]
    },
    "properties": {
        "ht_label": "16-2C"
    },
    "_id": "6426002c8ac54764b9a30df5",
    "chid": "6426002c8ac54764b9a30df5"
}{
    "type": "Feature",
    "geometry": {
        "type": "Point",
        "coordinates": [
            33.07907437,
            -111.97821611
        ]
    },
    "properties": {
        "ht_label": "16-3A"
    },
    "_id": "6426002c8ac54764b9a30df6",
    "chid": "6426002c8ac54764b9a30df6"
}{
    "type": "Feature",
    "geometry": {
        "type": "Point",
        "coordinates": [
            33.07896615,
            -111.97821681
        ]
    },
    "properties": {
        "ht_label": "16-3B"
    },
    "_id": "6426002c8ac54764b9a30df7",
    "chid": "6426002c8ac54764b9a30df7"
}{
    "type": "Feature",
    "geometry": {
        "type": "Point",
        "coordinates": [
            33.07885793,
            -111.97821797
        ]
    },
    "properties": {
        "ht_label": "16-3C"
    },
    "_id": "6426002c8ac54764b9a30df8",
    "chid": "6426002c8ac54764b9a30df8"
}{
    "type": "Feature",
    "geometry": {
        "type": "Point",
        "coordinates": [
            33.07871354,
            -111.97821924
        ]
    },
    "properties": {
        "ht_label": "16-4A"
    },
    "_id": "6426002c8ac54764b9a30df9",
    "chid": "6426002c8ac54764b9a30df9"
}{
    "type": "Feature",
    "geometry": {
        "type": "Point",
        "coordinates": [
            33.07860532,
            -111.97821936
        ]
    },
    "properties": {
        "ht_label": "16-4B"
    },
    "_id": "6426002c8ac54764b9a30dfa",
    "chid": "6426002c8ac54764b9a30dfa"
}{
    "type": "Feature",
    "geometry": {
        "type": "Point",
        "coordinates": [
            33.0784971,
            -111.97822049
        ]
    },
    "properties": {
        "ht_label": "16-4C"
    },
    "_id": "6426002c8ac54764b9a30dfb",
    "chid": "6426002c8ac54764b9a30dfb"
}