{
    "type": "FeatureCollection",
    "features": [
        {
            "type": "Feature",
            "geometry": {
                "type": "Point",
                "coordinates": [
                    33.0796606,
                    -111.97817938
                ]
            },
            "properties": {
                "sca_label": "N1",
                "SOIL_DATE": "2016-03-01",
                "SNO3": [
                    {
                        "depth": 15,
                        "mindepth": 0,
                        "maxdepth": 30,
                        "value": 0.9
                    },
                    {
                        "depth": 45,
                        "mindepth": 30,
                        "maxdepth": 60,
                        "value": 1.3
                    },
                    {
                        "depth": 75,
                        "mindepth": 60,
                        "maxdepth": 90,
                        "value": 1.7
                    },
                    {
                        "depth": 105,
                        "mindepth": 90,
                        "maxdepth": 120,
                        "value": 2.0
                    }
                ],
                "pid": "6425efc78ac5475cc2c4711b"
            },
            "scaid": "683f26688ac54759b719fcf8",
            "id": "683f26688ac54759b719fcf8",
            "_id": "683f26688ac54759b719fcf8"
        },
        {
            "type": "Feature",
            "geometry": {
                "type": "Point",
                "coordinates": [
                    33.07965909,
                    -111.9778747
                ]
            },
            "properties": {
                "sca_label": "N3",
                "SOIL_DATE": "2016-03-01",
                "SNO3": [
                    {
                        "depth": 15,
                        "mindepth": 0,
                        "maxdepth": 30,
                        "value": 1.2
                    },
                    {
                        "depth": 45,
                        "mindepth": 30,
                        "maxdepth": 60,
                        "value": 5.6
                    },
                    {
                        "depth": 75,
                        "mindepth": 60,
                        "maxdepth": 90,
                        "value": 0.8
                    },
                    {
                        "depth": 105,
                        "mindepth": 90,
                        "maxdepth": 120,
                        "value": 1.2
                    }
                ],
                "pid": "6425efc78ac5475cc2c47113"
            },
            "scaid": "683f26688ac54759b719fcf9",
            "id": "683f26688ac54759b719fcf9",
            "_id": "683f26688ac54759b719fcf9"
        },
        {
            "type": "Feature",
            "geometry": {
                "type": "Point",
                "coordinates": [
                    33.07965758,
                    -111.9775711
                ]
            },
            "properties": {
                "sca_label": "N5",
                "SOIL_DATE": "2016-03-01",
                "SNO3": [
                    {
                        "depth": 15,
                        "mindepth": 0,
                        "maxdepth": 30,
                        "value": 3.5
                    },
                    {
                        "depth": 45,
                        "mindepth": 30,
                        "maxdepth": 60,
                        "value": 5.7
                    },
                    {
                        "depth": 75,
                        "mindepth": 60,
                        "maxdepth": 90,
                        "value": 2.4
                    },
                    {
                        "depth": 105,
                        "mindepth": 90,
                        "maxdepth": 120,
                        "value": 2.3
                    }
                ],
                "pid": "6425efc78ac5475cc2c4710b"
            },
            "scaid": "683f26688ac54759b719fcfa",
            "id": "683f26688ac54759b719fcfa",
            "_id": "683f26688ac54759b719fcfa"
        },
        {
            "type": "Feature",
            "geometry": {
                "type": "Point",
                "coordinates": [
                    33.07965607,
                    -111.97726632
                ]
            },
            "properties": {
                "sca_label": "N7",
                "SOIL_DATE": "2016-03-01",
                "SNO3": [
                    {
                        "depth": 15,
                        "mindepth": 0,
                        "maxdepth": 30,
                        "value": 10.0
                    },
                    {
                        "depth": 45,
                        "mindepth": 30,
                        "maxdepth": 60,
                        "value": 2.6
                    },
                    {
                        "depth": 75,
                        "mindepth": 60,
                        "maxdepth": 90,
                        "value": 0.9
                    },
                    {
                        "depth": 105,
                        "mindepth": 90,
                        "maxdepth": 120,
                        "value": 0.5
                    }
                ],
                "pid": "6425efc78ac5475cc2c47103"
            },
            "scaid": "683f26688ac54759b719fcfb",
            "id": "683f26688ac54759b719fcfb",
            "_id": "683f26688ac54759b719fcfb"
        },
        {
            "type": "Feature",
            "geometry": {
                "type": "Point",
                "coordinates": [
                    33.07965456,
                    -111.97696229
                ]
            },
            "properties": {
                "sca_label": "N9",
                "SOIL_DATE": "2016-03-01",
                "SNO3": [
                    {
                        "depth": 15,
                        "mindepth": 0,
                        "maxdepth": 30,
                        "value": 4.6
                    },
                    {
                        "depth": 45,
                        "mindepth": 30,
                        "maxdepth": 60,
                        "value": 8.5
                    },
                    {
                        "depth": 75,
                        "mindepth": 60,
                        "maxdepth": 90,
                        "value": 4.9
                    },
                    {
                        "depth": 105,
                        "mindepth": 90,
                        "maxdepth": 120,
                        "value": 3.0
                    }
                ],
                "pid": "6425efc78ac5475cc2c470fb"
            },
            "scaid": "683f26688ac54759b719fcfc",
            "id": "683f26688ac54759b719fcfc",
            "_id": "683f26688ac54759b719fcfc"
        },
        {
            "type": "Feature",
            "geometry": {
                "type": "Point",
                "coordinates": [
                    33.07965305,
                    -111.9766577
                ]
            },
            "properties": {
                "sca_label": "N11",
                "SOIL_DATE": "2016-03-01",
                "SNO3": [
                    {
                        "depth": 15,
                        "mindepth": 0,
                        "maxdepth": 30,
                        "value": 19.2
                    },
                    {
                        "depth": 45,
                        "mindepth": 30,
                        "maxdepth": 60,
                        "value": 22.2
                    },
                    {
                        "depth": 75,
                        "mindepth": 60,
                        "maxdepth": 90,
                        "value": 14.0
                    },
                    {
                        "depth": 105,
                        "mindepth": 90,
                        "maxdepth": 120,
                        "value": 1.7
                    }
                ],
                "pid": "6425efc78ac5475cc2c470f3"
            },
            "scaid": "683f26688ac54759b719fcfd",
            "id": "683f26688ac54759b719fcfd",
            "_id": "683f26688ac54759b719fcfd"
        },
        {
            "type": "Feature",
            "geometry": {
                "type": "Point",
                "coordinates": [
                    33.07964935,
                    -111.9759149
                ]
            },
            "properties": {
                "sca_label": "N13",
                "SOIL_DATE": "2016-03-01",
                "SNO3": [
                    {
                        "depth": 15,
                        "mindepth": 0,
                        "maxdepth": 30,
                        "value": 5.0
                    },
                    {
                        "depth": 45,
                        "mindepth": 30,
                        "maxdepth": 60,
                        "value": 4.2
                    },
                    {
                        "depth": 75,
                        "mindepth": 60,
                        "maxdepth": 90,
                        "value": 1.4
                    },
                    {
                        "depth": 105,
                        "mindepth": 90,
                        "maxdepth": 120,
                        "value": 1.4
                    }
                ],
                "pid": "6425efc78ac5475cc2c470eb"
            },
            "scaid": "683f26688ac54759b719fcfe",
            "id": "683f26688ac54759b719fcfe",
            "_id": "683f26688ac54759b719fcfe"
        },
        {
            "type": "Feature",
            "geometry": {
                "type": "Point",
                "coordinates": [
                    33.07964782,
                    -111.97560703
                ]
            },
            "properties": {
                "sca_label": "N15",
                "SOIL_DATE": "2016-03-01",
                "SNO3": [
                    {
                        "depth": 15,
                        "mindepth": 0,
                        "maxdepth": 30,
                        "value": 14.9
                    },
                    {
                        "depth": 45,
                        "mindepth": 30,
                        "maxdepth": 60,
                        "value": 3.2
                    },
                    {
                        "depth": 75,
                        "mindepth": 60,
                        "maxdepth": 90,
                        "value": 0.7
                    },
                    {
                        "depth": 105,
                        "mindepth": 90,
                        "maxdepth": 120,
                        "value": 1.6
                    }
                ],
                "pid": "6425efc78ac5475cc2c470e3"
            },
            "scaid": "683f26688ac54759b719fcff",
            "id": "683f26688ac54759b719fcff",
            "_id": "683f26688ac54759b719fcff"
        },
        {
            "type": "Feature",
            "geometry": {
                "type": "Point",
                "coordinates": [
                    33.07929901,
                    -111.97802985
                ]
            },
            "properties": {
                "sca_label": "N18",
                "SOIL_DATE": "2016-03-01",
                "SNO3": [
                    {
                        "depth": 15,
                        "mindepth": 0,
                        "maxdepth": 30,
                        "value": 5.9
                    },
                    {
                        "depth": 45,
                        "mindepth": 30,
                        "maxdepth": 60,
                        "value": 0.5
                    },
                    {
                        "depth": 75,
                        "mindepth": 60,
                        "maxdepth": 90,
                        "value": 0.2
                    },
                    {
                        "depth": 105,
                        "mindepth": 90,
                        "maxdepth": 120,
                        "value": 0.2
                    }
                ],
                "pid": "6425efc78ac5475cc2c47118"
            },
            "scaid": "683f26688ac54759b719fd00",
            "id": "683f26688ac54759b719fd00",
            "_id": "683f26688ac54759b719fd00"
        },
        {
            "type": "Feature",
            "geometry": {
                "type": "Point",
                "coordinates": [
                    33.0792975,
                    -111.97772497
                ]
            },
            "properties": {
                "sca_label": "N20",
                "SOIL_DATE": "2016-03-01",
                "SNO3": [
                    {
                        "depth": 15,
                        "mindepth": 0,
                        "maxdepth": 30,
                        "value": 0.5
                    },
                    {
                        "depth": 45,
                        "mindepth": 30,
                        "maxdepth": 60,
                        "value": 0.3
                    },
                    {
                        "depth": 75,
                        "mindepth": 60,
                        "maxdepth": 90,
                        "value": 0.7
                    },
                    {
                        "depth": 105,
                        "mindepth": 90,
                        "maxdepth": 120,
                        "value": 1.4
                    }
                ],
                "pid": "6425efc78ac5475cc2c47110"
            },
            "scaid": "683f26688ac54759b719fd01",
            "id": "683f26688ac54759b719fd01",
            "_id": "683f26688ac54759b719fd01"
        },
        {
            "type": "Feature",
            "geometry": {
                "type": "Point",
                "coordinates": [
                    33.07929599,
                    -111.97742118
                ]
            },
            "properties": {
                "sca_label": "N22",
                "SOIL_DATE": "2016-03-01",
                "SNO3": [
                    {
                        "depth": 15,
                        "mindepth": 0,
                        "maxdepth": 30,
                        "value": 6.7
                    },
                    {
                        "depth": 45,
                        "mindepth": 30,
                        "maxdepth": 60,
                        "value": 5.4
                    },
                    {
                        "depth": 75,
                        "mindepth": 60,
                        "maxdepth": 90,
                        "value": 0.8
                    },
                    {
                        "depth": 105,
                        "mindepth": 90,
                        "maxdepth": 120,
                        "value": 0.7
                    }
                ],
                "pid": "6425efc78ac5475cc2c47108"
            },
            "scaid": "683f26688ac54759b719fd02",
            "id": "683f26688ac54759b719fd02",
            "_id": "683f26688ac54759b719fd02"
        },
        {
            "type": "Feature",
            "geometry": {
                "type": "Point",
                "coordinates": [
                    33.07929448,
                    -111.97711645
                ]
            },
            "properties": {
                "sca_label": "N24",
                "SOIL_DATE": "2016-03-01",
                "SNO3": [
                    {
                        "depth": 15,
                        "mindepth": 0,
                        "maxdepth": 30,
                        "value": 2.5
                    },
                    {
                        "depth": 45,
                        "mindepth": 30,
                        "maxdepth": 60,
                        "value": 8.7
                    },
                    {
                        "depth": 75,
                        "mindepth": 60,
                        "maxdepth": 90,
                        "value": 2.5
                    },
                    {
                        "depth": 105,
                        "mindepth": 90,
                        "maxdepth": 120,
                        "value": 1.8
                    }
                ],
                "pid": "6425efc78ac5475cc2c47100"
            },
            "scaid": "683f26688ac54759b719fd03",
            "id": "683f26688ac54759b719fd03",
            "_id": "683f26688ac54759b719fd03"
        },
        {
            "type": "Feature",
            "geometry": {
                "type": "Point",
                "coordinates": [
                    33.07929297,
                    -111.97681246
                ]
            },
            "properties": {
                "sca_label": "N26",
                "SOIL_DATE": "2016-03-01",
                "SNO3": [
                    {
                        "depth": 15,
                        "mindepth": 0,
                        "maxdepth": 30,
                        "value": 1.7
                    },
                    {
                        "depth": 45,
                        "mindepth": 30,
                        "maxdepth": 60,
                        "value": 2.6
                    },
                    {
                        "depth": 75,
                        "mindepth": 60,
                        "maxdepth": 90,
                        "value": 1.2
                    },
                    {
                        "depth": 105,
                        "mindepth": 90,
                        "maxdepth": 120,
                        "value": 2.2
                    }
                ],
                "pid": "6425efc78ac5475cc2c470f8"
            },
            "scaid": "683f26688ac54759b719fd04",
            "id": "683f26688ac54759b719fd04",
            "_id": "683f26688ac54759b719fd04"
        },
        {
            "type": "Feature",
            "geometry": {
                "type": "Point",
                "coordinates": [
                    33.07929146,
                    -111.97650764
                ]
            },
            "properties": {
                "sca_label": "N28",
                "SOIL_DATE": "2016-03-01",
                "SNO3": [
                    {
                        "depth": 15,
                        "mindepth": 0,
                        "maxdepth": 30,
                        "value": 2.0
                    },
                    {
                        "depth": 45,
                        "mindepth": 30,
                        "maxdepth": 60,
                        "value": 4.4
                    },
                    {
                        "depth": 75,
                        "mindepth": 60,
                        "maxdepth": 90,
                        "value": 2.3
                    },
                    {
                        "depth": 105,
                        "mindepth": 90,
                        "maxdepth": 120,
                        "value": 2.1
                    }
                ],
                "pid": "6425efc78ac5475cc2c470f0"
            },
            "scaid": "683f26688ac54759b719fd05",
            "id": "683f26688ac54759b719fd05",
            "_id": "683f26688ac54759b719fd05"
        },
        {
            "type": "Feature",
            "geometry": {
                "type": "Point",
                "coordinates": [
                    33.07928775,
                    -111.97576206
                ]
            },
            "properties": {
                "sca_label": "N30",
                "SOIL_DATE": "2016-03-01",
                "SNO3": [
                    {
                        "depth": 15,
                        "mindepth": 0,
                        "maxdepth": 30,
                        "value": 0.3
                    },
                    {
                        "depth": 45,
                        "mindepth": 30,
                        "maxdepth": 60,
                        "value": 1.2
                    },
                    {
                        "depth": 75,
                        "mindepth": 60,
                        "maxdepth": 90,
                        "value": 3.1
                    },
                    {
                        "depth": 105,
                        "mindepth": 90,
                        "maxdepth": 120,
                        "value": 5.3
                    }
                ],
                "pid": "6425efc78ac5475cc2c470e8"
            },
            "scaid": "683f26688ac54759b719fd06",
            "id": "683f26688ac54759b719fd06",
            "_id": "683f26688ac54759b719fd06"
        },
        {
            "type": "Feature",
            "geometry": {
                "type": "Point",
                "coordinates": [
                    33.07928623,
                    -111.97545724
                ]
            },
            "properties": {
                "sca_label": "N32",
                "SOIL_DATE": "2016-03-01",
                "SNO3": [
                    {
                        "depth": 15,
                        "mindepth": 0,
                        "maxdepth": 30,
                        "value": 2.8
                    },
                    {
                        "depth": 45,
                        "mindepth": 30,
                        "maxdepth": 60,
                        "value": 4.9
                    },
                    {
                        "depth": 75,
                        "mindepth": 60,
                        "maxdepth": 90,
                        "value": 3.4
                    },
                    {
                        "depth": 105,
                        "mindepth": 90,
                        "maxdepth": 120,
                        "value": 4.0
                    }
                ],
                "pid": "6425efc78ac5475cc2c470e0"
            },
            "scaid": "683f26688ac54759b719fd07",
            "id": "683f26688ac54759b719fd07",
            "_id": "683f26688ac54759b719fd07"
        },
        {
            "type": "Feature",
            "geometry": {
                "type": "Point",
                "coordinates": [
                    33.07893893,
                    -111.9781848
                ]
            },
            "properties": {
                "sca_label": "N33",
                "SOIL_DATE": "2016-03-01",
                "SNO3": [
                    {
                        "depth": 15,
                        "mindepth": 0,
                        "maxdepth": 30,
                        "value": 5.7
                    },
                    {
                        "depth": 45,
                        "mindepth": 30,
                        "maxdepth": 60,
                        "value": 2.0
                    },
                    {
                        "depth": 75,
                        "mindepth": 60,
                        "maxdepth": 90,
                        "value": 0.3
                    },
                    {
                        "depth": 105,
                        "mindepth": 90,
                        "maxdepth": 120,
                        "value": 0.9
                    }
                ],
                "pid": "6425efc78ac5475cc2c4711d"
            },
            "scaid": "683f26688ac54759b719fd08",
            "id": "683f26688ac54759b719fd08",
            "_id": "683f26688ac54759b719fd08"
        },
        {
            "type": "Feature",
            "geometry": {
                "type": "Point",
                "coordinates": [
                    33.07893742,
                    -111.97787995
                ]
            },
            "properties": {
                "sca_label": "N35",
                "SOIL_DATE": "2016-03-01",
                "SNO3": [
                    {
                        "depth": 15,
                        "mindepth": 0,
                        "maxdepth": 30,
                        "value": -0.0
                    },
                    {
                        "depth": 45,
                        "mindepth": 30,
                        "maxdepth": 60,
                        "value": 0.3
                    },
                    {
                        "depth": 75,
                        "mindepth": 60,
                        "maxdepth": 90,
                        "value": 1.1
                    },
                    {
                        "depth": 105,
                        "mindepth": 90,
                        "maxdepth": 120,
                        "value": 0.5
                    }
                ],
                "pid": "6425efc78ac5475cc2c47115"
            },
            "scaid": "683f26688ac54759b719fd09",
            "id": "683f26688ac54759b719fd09",
            "_id": "683f26688ac54759b719fd09"
        },
        {
            "type": "Feature",
            "geometry": {
                "type": "Point",
                "coordinates": [
                    33.07893592,
                    -111.97757605
                ]
            },
            "properties": {
                "sca_label": "N37",
                "SOIL_DATE": "2016-03-01",
                "SNO3": [
                    {
                        "depth": 15,
                        "mindepth": 0,
                        "maxdepth": 30,
                        "value": 15.8
                    },
                    {
                        "depth": 45,
                        "mindepth": 30,
                        "maxdepth": 60,
                        "value": 2.9
                    },
                    {
                        "depth": 75,
                        "mindepth": 60,
                        "maxdepth": 90,
                        "value": 0.8
                    },
                    {
                        "depth": 105,
                        "mindepth": 90,
                        "maxdepth": 120,
                        "value": 3.6
                    }
                ],
                "pid": "6425efc78ac5475cc2c4710d"
            },
            "scaid": "683f26688ac54759b719fd0a",
            "id": "683f26688ac54759b719fd0a",
            "_id": "683f26688ac54759b719fd0a"
        },
        {
            "type": "Feature",
            "geometry": {
                "type": "Point",
                "coordinates": [
                    33.0789344,
                    -111.97727129
                ]
            },
            "properties": {
                "sca_label": "N39",
                "SOIL_DATE": "2016-03-01",
                "SNO3": [
                    {
                        "depth": 15,
                        "mindepth": 0,
                        "maxdepth": 30,
                        "value": 9.9
                    },
                    {
                        "depth": 45,
                        "mindepth": 30,
                        "maxdepth": 60,
                        "value": 2.0
                    },
                    {
                        "depth": 75,
                        "mindepth": 60,
                        "maxdepth": 90,
                        "value": 1.0
                    },
                    {
                        "depth": 105,
                        "mindepth": 90,
                        "maxdepth": 120,
                        "value": 0.9
                    }
                ],
                "pid": "6425efc78ac5475cc2c47105"
            },
            "scaid": "683f26688ac54759b719fd0b",
            "id": "683f26688ac54759b719fd0b",
            "_id": "683f26688ac54759b719fd0b"
        },
        {
            "type": "Feature",
            "geometry": {
                "type": "Point",
                "coordinates": [
                    33.07893289,
                    -111.97696744
                ]
            },
            "properties": {
                "sca_label": "N41",
                "SOIL_DATE": "2016-03-01",
                "SNO3": [
                    {
                        "depth": 15,
                        "mindepth": 0,
                        "maxdepth": 30,
                        "value": 0.4
                    },
                    {
                        "depth": 45,
                        "mindepth": 30,
                        "maxdepth": 60,
                        "value": 1.4
                    },
                    {
                        "depth": 75,
                        "mindepth": 60,
                        "maxdepth": 90,
                        "value": 3.5
                    },
                    {
                        "depth": 105,
                        "mindepth": 90,
                        "maxdepth": 120,
                        "value": 1.4
                    }
                ],
                "pid": "6425efc78ac5475cc2c470fd"
            },
            "scaid": "683f26688ac54759b719fd0c",
            "id": "683f26688ac54759b719fd0c",
            "_id": "683f26688ac54759b719fd0c"
        },
        {
            "type": "Feature",
            "geometry": {
                "type": "Point",
                "coordinates": [
                    33.07893138,
                    -111.97666263
                ]
            },
            "properties": {
                "sca_label": "N43",
                "SOIL_DATE": "2016-03-01",
                "SNO3": [
                    {
                        "depth": 15,
                        "mindepth": 0,
                        "maxdepth": 30,
                        "value": 1.1
                    },
                    {
                        "depth": 45,
                        "mindepth": 30,
                        "maxdepth": 60,
                        "value": 3.0
                    },
                    {
                        "depth": 75,
                        "mindepth": 60,
                        "maxdepth": 90,
                        "value": 4.8
                    },
                    {
                        "depth": 105,
                        "mindepth": 90,
                        "maxdepth": 120,
                        "value": 1.9
                    }
                ],
                "pid": "6425efc78ac5475cc2c470f5"
            },
            "scaid": "683f26688ac54759b719fd0d",
            "id": "683f26688ac54759b719fd0d",
            "_id": "683f26688ac54759b719fd0d"
        },
        {
            "type": "Feature",
            "geometry": {
                "type": "Point",
                "coordinates": [
                    33.07892769,
                    -111.97591993
                ]
            },
            "properties": {
                "sca_label": "N45",
                "SOIL_DATE": "2016-03-01",
                "SNO3": [
                    {
                        "depth": 15,
                        "mindepth": 0,
                        "maxdepth": 30,
                        "value": 0.9
                    },
                    {
                        "depth": 45,
                        "mindepth": 30,
                        "maxdepth": 60,
                        "value": 1.1
                    },
                    {
                        "depth": 75,
                        "mindepth": 60,
                        "maxdepth": 90,
                        "value": 1.3
                    },
                    {
                        "depth": 105,
                        "mindepth": 90,
                        "maxdepth": 120,
                        "value": 1.2
                    }
                ],
                "pid": "6425efc78ac5475cc2c470ed"
            },
            "scaid": "683f26688ac54759b719fd0e",
            "id": "683f26688ac54759b719fd0e",
            "_id": "683f26688ac54759b719fd0e"
        },
        {
            "type": "Feature",
            "geometry": {
                "type": "Point",
                "coordinates": [
                    33.07892616,
                    -111.97561222
                ]
            },
            "properties": {
                "sca_label": "N47",
                "SOIL_DATE": "2016-03-01",
                "SNO3": [
                    {
                        "depth": 15,
                        "mindepth": 0,
                        "maxdepth": 30,
                        "value": 1.6
                    },
                    {
                        "depth": 45,
                        "mindepth": 30,
                        "maxdepth": 60,
                        "value": 5.7
                    },
                    {
                        "depth": 75,
                        "mindepth": 60,
                        "maxdepth": 90,
                        "value": 2.5
                    },
                    {
                        "depth": 105,
                        "mindepth": 90,
                        "maxdepth": 120,
                        "value": 2.9
                    }
                ],
                "pid": "6425efc78ac5475cc2c470e5"
            },
            "scaid": "683f26688ac54759b719fd0f",
            "id": "683f26688ac54759b719fd0f",
            "_id": "683f26688ac54759b719fd0f"
        },
        {
            "type": "Feature",
            "geometry": {
                "type": "Point",
                "coordinates": [
                    33.07857734,
                    -111.97803469
                ]
            },
            "properties": {
                "sca_label": "N50",
                "SOIL_DATE": "2016-03-01",
                "SNO3": [
                    {
                        "depth": 15,
                        "mindepth": 0,
                        "maxdepth": 30,
                        "value": 1.6
                    },
                    {
                        "depth": 45,
                        "mindepth": 30,
                        "maxdepth": 60,
                        "value": 3.9
                    },
                    {
                        "depth": 75,
                        "mindepth": 60,
                        "maxdepth": 90,
                        "value": 3.0
                    },
                    {
                        "depth": 105,
                        "mindepth": 90,
                        "maxdepth": 120,
                        "value": 0.5
                    }
                ],
                "pid": "6425efc78ac5475cc2c4711a"
            },
            "scaid": "683f26688ac54759b719fd10",
            "id": "683f26688ac54759b719fd10",
            "_id": "683f26688ac54759b719fd10"
        },
        {
            "type": "Feature",
            "geometry": {
                "type": "Point",
                "coordinates": [
                    33.07857583,
                    -111.97772997
                ]
            },
            "properties": {
                "sca_label": "N52",
                "SOIL_DATE": "2016-03-01",
                "SNO3": [
                    {
                        "depth": 15,
                        "mindepth": 0,
                        "maxdepth": 30,
                        "value": 0.3
                    },
                    {
                        "depth": 45,
                        "mindepth": 30,
                        "maxdepth": 60,
                        "value": 0.2
                    },
                    {
                        "depth": 75,
                        "mindepth": 60,
                        "maxdepth": 90,
                        "value": 0.7
                    },
                    {
                        "depth": 105,
                        "mindepth": 90,
                        "maxdepth": 120,
                        "value": 2.2
                    }
                ],
                "pid": "6425efc78ac5475cc2c47112"
            },
            "scaid": "683f26688ac54759b719fd11",
            "id": "683f26688ac54759b719fd11",
            "_id": "683f26688ac54759b719fd11"
        },
        {
            "type": "Feature",
            "geometry": {
                "type": "Point",
                "coordinates": [
                    33.07857433,
                    -111.97742626
                ]
            },
            "properties": {
                "sca_label": "N54",
                "SOIL_DATE": "2016-03-01",
                "SNO3": [
                    {
                        "depth": 15,
                        "mindepth": 0,
                        "maxdepth": 30,
                        "value": 8.8
                    },
                    {
                        "depth": 45,
                        "mindepth": 30,
                        "maxdepth": 60,
                        "value": 10.7
                    },
                    {
                        "depth": 75,
                        "mindepth": 60,
                        "maxdepth": 90,
                        "value": 2.3
                    },
                    {
                        "depth": 105,
                        "mindepth": 90,
                        "maxdepth": 120,
                        "value": 2.2
                    }
                ],
                "pid": "6425efc78ac5475cc2c4710a"
            },
            "scaid": "683f26688ac54759b719fd12",
            "id": "683f26688ac54759b719fd12",
            "_id": "683f26688ac54759b719fd12"
        },
        {
            "type": "Feature",
            "geometry": {
                "type": "Point",
                "coordinates": [
                    33.07857281,
                    -111.97712141
                ]
            },
            "properties": {
                "sca_label": "N56",
                "SOIL_DATE": "2016-03-01",
                "SNO3": [
                    {
                        "depth": 15,
                        "mindepth": 0,
                        "maxdepth": 30,
                        "value": 4.1
                    },
                    {
                        "depth": 45,
                        "mindepth": 30,
                        "maxdepth": 60,
                        "value": 7.4
                    },
                    {
                        "depth": 75,
                        "mindepth": 60,
                        "maxdepth": 90,
                        "value": 2.3
                    },
                    {
                        "depth": 105,
                        "mindepth": 90,
                        "maxdepth": 120,
                        "value": 1.4
                    }
                ],
                "pid": "6425efc78ac5475cc2c47102"
            },
            "scaid": "683f26688ac54759b719fd13",
            "id": "683f26688ac54759b719fd13",
            "_id": "683f26688ac54759b719fd13"
        },
        {
            "type": "Feature",
            "geometry": {
                "type": "Point",
                "coordinates": [
                    33.0785713,
                    -111.97681755
                ]
            },
            "properties": {
                "sca_label": "N58",
                "SOIL_DATE": "2016-03-01",
                "SNO3": [
                    {
                        "depth": 15,
                        "mindepth": 0,
                        "maxdepth": 30,
                        "value": 0.4
                    },
                    {
                        "depth": 45,
                        "mindepth": 30,
                        "maxdepth": 60,
                        "value": 3.3
                    },
                    {
                        "depth": 75,
                        "mindepth": 60,
                        "maxdepth": 90,
                        "value": 5.0
                    },
                    {
                        "depth": 105,
                        "mindepth": 90,
                        "maxdepth": 120,
                        "value": 1.0
                    }
                ],
                "pid": "6425efc78ac5475cc2c470fa"
            },
            "scaid": "683f26688ac54759b719fd14",
            "id": "683f26688ac54759b719fd14",
            "_id": "683f26688ac54759b719fd14"
        },
        {
            "type": "Feature",
            "geometry": {
                "type": "Point",
                "coordinates": [
                    33.07856979,
                    -111.97651283
                ]
            },
            "properties": {
                "sca_label": "N60",
                "SOIL_DATE": "2016-03-01",
                "SNO3": [
                    {
                        "depth": 15,
                        "mindepth": 0,
                        "maxdepth": 30,
                        "value": 0.7
                    },
                    {
                        "depth": 45,
                        "mindepth": 30,
                        "maxdepth": 60,
                        "value": 3.9
                    },
                    {
                        "depth": 75,
                        "mindepth": 60,
                        "maxdepth": 90,
                        "value": 4.5
                    },
                    {
                        "depth": 105,
                        "mindepth": 90,
                        "maxdepth": 120,
                        "value": 7.1
                    }
                ],
                "pid": "6425efc78ac5475cc2c470f2"
            },
            "scaid": "683f26688ac54759b719fd15",
            "id": "683f26688ac54759b719fd15",
            "_id": "683f26688ac54759b719fd15"
        },
        {
            "type": "Feature",
            "geometry": {
                "type": "Point",
                "coordinates": [
                    33.07856608,
                    -111.9757671
                ]
            },
            "properties": {
                "sca_label": "N62",
                "SOIL_DATE": "2016-03-01",
                "SNO3": [
                    {
                        "depth": 15,
                        "mindepth": 0,
                        "maxdepth": 30,
                        "value": 1.9
                    },
                    {
                        "depth": 45,
                        "mindepth": 30,
                        "maxdepth": 60,
                        "value": 9.3
                    },
                    {
                        "depth": 75,
                        "mindepth": 60,
                        "maxdepth": 90,
                        "value": 6.3
                    },
                    {
                        "depth": 105,
                        "mindepth": 90,
                        "maxdepth": 120,
                        "value": 3.3
                    }
                ],
                "pid": "6425efc78ac5475cc2c470ea"
            },
            "scaid": "683f26688ac54759b719fd16",
            "id": "683f26688ac54759b719fd16",
            "_id": "683f26688ac54759b719fd16"
        },
        {
            "type": "Feature",
            "geometry": {
                "type": "Point",
                "coordinates": [
                    33.07856456,
                    -111.97546218
                ]
            },
            "properties": {
                "sca_label": "N64",
                "SOIL_DATE": "2016-03-01",
                "SNO3": [
                    {
                        "depth": 15,
                        "mindepth": 0,
                        "maxdepth": 30,
                        "value": 0.4
                    },
                    {
                        "depth": 45,
                        "mindepth": 30,
                        "maxdepth": 60,
                        "value": 1.3
                    },
                    {
                        "depth": 75,
                        "mindepth": 60,
                        "maxdepth": 90,
                        "value": 3.8
                    },
                    {
                        "depth": 105,
                        "mindepth": 90,
                        "maxdepth": 120,
                        "value": 2.2
                    }
                ],
                "pid": "6425efc78ac5475cc2c470e2"
            },
            "scaid": "683f26688ac54759b719fd17",
            "id": "683f26688ac54759b719fd17",
            "_id": "683f26688ac54759b719fd17"
        }
    ]
}