{
    "type": "FeatureCollection",
    "features": [
        {
            "type": "Feature",
            "geometry": {
                "type": "Polygon",
                "coordinates": [
                    [
                        [
                            -111.97644277,
                            33.07846767
                        ],
                        [
                            -111.97826959,
                            33.07847673
                        ],
                        [
                            -111.97825952,
                            33.0799198
                        ],
                        [
                            -111.97643267,
                            33.07991074
                        ],
                        [
                            -111.97644277,
                            33.07846767
                        ]
                    ]
                ]
            },
            "properties": {
                "exp_label": "2023_F013B4_CO_TILL",
                "trt_info": [
                    {
                        "trt_label": "BEDS",
                        "description": "Cotton planted on raised beds after full tillage",
                        "pids": [
                            "641df0978ac54793d974c3db",
                            "641df0978ac54793d974c3de",
                            "641df0978ac54793d974c3e0"
                        ]
                    },
                    {
                        "trt_label": "FLAT",
                        "description": "Cotton planted on the flat after full tillage",
                        "pids": [
                            "641df0978ac54793d974c3dc",
                            "641df0978ac54793d974c3dd",
                            "641df0978ac54793d974c3df"
                        ]
                    },
                    {
                        "trt_label": "STRIP",
                        "description": "Cotton planted into tilled strips within a terminated barley cover crop",
                        "pids": [
                            "641df0978ac54793d974c3d5",
                            "641df0978ac54793d974c3d8",
                            "641df0978ac54793d974c3da"
                        ]
                    },
                    {
                        "trt_label": "NOTILL",
                        "description": "Cotton planted into a terminated barley cover crop",
                        "pids": [
                            "641df0978ac54793d974c3d6",
                            "641df0978ac54793d974c3d7",
                            "641df0978ac54793d974c3d9"
                        ]
                    }
                ],
                "FAREA": 27283.679289,
                "EXNAME": "Tillage and cover crop study, Season 1 of 1",
                "OBJECTIVES": "See Thorp, K. R., Bandaru, P., Bronson, K. B., Smith, D. R., 2026. Conventional versus conservation tillage for sprinkler-irrigated Arizona cotton production. Applied Engineering in Agriculture. In review.",
                "EXP_NARR": "See Thorp, K. R., Bandaru, P., Bronson, K. B., Smith, D. R., 2026. Conventional versus conservation tillage for sprinkler-irrigated Arizona cotton production. Applied Engineering in Agriculture. In review.",
                "MAIN_FACTOR": "Type of tillage: beds and furrows, on-the-flat, strip tillage, no tillage",
                "FACTORS": "Four spring tillage treatments",
                "TRT_COUNT": 4,
                "REP_NO": 3,
                "METHODS": "See Thorp, K. R., Bandaru, P., Bronson, K. B., Smith, D. R., 2026. Conventional versus conservation tillage for sprinkler-irrigated Arizona cotton production. Applied Engineering in Agriculture. In review.",
                "EXPER_TYPE": "ET001",
                "SITE_NAME": "Maricopa Agricultural Center, Field 13, Bench 4",
                "SITE_TYPE": "ST001",
                "MGMT_TYPE": "MT001",
                "EXP_YEAR": "2023",
                "EXP_DUR": 1,
                "CR_SYSTEM": "Cotton with overhead sprinkler irrigation and various spring tillage treatments after winter barley cover crop",
                "LAST_NAME": "Thorp",
                "FIRST_NAME": "Kelly",
                "MID_INITIAL": "R",
                "PERSON_NOTES": "Field technicians: Matt Hagler and Suzette Maneely",
                "EX_ADDRESS": "21881 N. Cardon Ln., Maricopa, Arizona 85138",
                "EX_EMAIL": "kelly.thorp@usda.gov",
                "INSTITUTION": "USDA Agricultural Research Service, Maricopa, Arizona",
                "IN_TYPE": "IT004",
                "IN_ROLE": "IL001",
                "CMPLC": "",
                "SUITE_NAME": "Tillage and cover crop study",
                "SUITE_OBJ": "See Thorp, K. R., Bandaru, P., Bronson, K. B., Smith, D. R., 2026. Conventional versus conservation tillage for sprinkler-irrigated Arizona cotton production. Applied Engineering in Agriculture. In review.",
                "FL_NAME": "Field 13, Bench 4, Spans 4-6",
                "FL_LAT": 33.07914,
                "FL_LONG": -111.97737,
                "FLELE": 361,
                "pids": [
                    "641df0978ac54793d974c3d5",
                    "641df0978ac54793d974c3d6",
                    "641df0978ac54793d974c3d7",
                    "641df0978ac54793d974c3d8",
                    "641df0978ac54793d974c3d9",
                    "641df0978ac54793d974c3da",
                    "641df0978ac54793d974c3db",
                    "641df0978ac54793d974c3dc",
                    "641df0978ac54793d974c3dd",
                    "641df0978ac54793d974c3de",
                    "641df0978ac54793d974c3df",
                    "641df0978ac54793d974c3e0"
                ]
            },
            "eid": "64231e748ac54747c94bdb2f",
            "id": "64231e748ac54747c94bdb2f",
            "_id": "64231e748ac54747c94bdb2f"
        }
    ]
}