{
    "type": "Feature",
    "geometry": {
        "type": "Polygon",
        "coordinates": [
            [
                [
                    -111.97644277,
                    33.07846767
                ],
                [
                    -111.97659515,
                    33.07846842
                ],
                [
                    -111.97674753,
                    33.07846918
                ],
                [
                    -111.97689992,
                    33.07846994
                ],
                [
                    -111.9770523,
                    33.07847069
                ],
                [
                    -111.9770523,
                    33.0784707
                ],
                [
                    -111.97720384,
                    33.07847145
                ],
                [
                    -111.97735622,
                    33.0784722
                ],
                [
                    -111.97750861,
                    33.07847296
                ],
                [
                    -111.97766099,
                    33.07847371
                ],
                [
                    -111.97766099,
                    33.07847371
                ],
                [
                    -111.97781244,
                    33.07847447
                ],
                [
                    -111.97796482,
                    33.07847522
                ],
                [
                    -111.97811721,
                    33.07847598
                ],
                [
                    -111.97826959,
                    33.07847673
                ],
                [
                    -111.97825952,
                    33.0799198
                ],
                [
                    -111.97810714,
                    33.07991905
                ],
                [
                    -111.97795475,
                    33.07991829
                ],
                [
                    -111.97780237,
                    33.07991754
                ],
                [
                    -111.97765016,
                    33.07991678
                ],
                [
                    -111.97749853,
                    33.07991603
                ],
                [
                    -111.97734614,
                    33.07991527
                ],
                [
                    -111.97719376,
                    33.07991452
                ],
                [
                    -111.97704137,
                    33.07991376
                ],
                [
                    -111.97704137,
                    33.07991376
                ],
                [
                    -111.97688983,
                    33.079913
                ],
                [
                    -111.97673744,
                    33.07991225
                ],
                [
                    -111.97658506,
                    33.07991149
                ],
                [
                    -111.97643267,
                    33.07991074
                ],
                [
                    -111.97644277,
                    33.07846767
                ]
            ]
        ]
    },
    "properties": {
        "exp_label": "2023_F013B4_CO_TILL",
        "trt_info": [
            {
                "trt_label": "BEDS",
                "description": "Cotton planted on raised beds after full tillage",
                "pids": [
                    "641df0978ac54793d974c3db",
                    "641df0978ac54793d974c3de",
                    "641df0978ac54793d974c3e0"
                ]
            },
            {
                "trt_label": "FLAT",
                "description": "Cotton planted on the flat after full tillage",
                "pids": [
                    "641df0978ac54793d974c3dc",
                    "641df0978ac54793d974c3dd",
                    "641df0978ac54793d974c3df"
                ]
            },
            {
                "trt_label": "STRIP",
                "description": "Cotton planted into tilled strips within a terminated barley cover crop",
                "pids": [
                    "641df0978ac54793d974c3d5",
                    "641df0978ac54793d974c3d8",
                    "641df0978ac54793d974c3da"
                ]
            },
            {
                "trt_label": "NOTILL",
                "description": "Cotton planted into a terminated barley cover crop",
                "pids": [
                    "641df0978ac54793d974c3d6",
                    "641df0978ac54793d974c3d7",
                    "641df0978ac54793d974c3d9"
                ]
            }
        ],
        "EXP_AREA": 27283.679392,
        "EXNAME": "Tillage and cover crop study, Season 1 of 1",
        "MAIN_FACTOR": "Type of tillage: beds and furrows, on-the-flat, strip tillage, no tillage",
        "FACTORS": "Four tillage treatments",
        "TRT_NO": 4,
        "REP_NO": 3,
        "EXPER_TYPE": "ET001",
        "SITE_NAME": "Maricopa Agricultural Center, Field 13, Bench 4",
        "SITE_TYPE": "ST001",
        "MGMT_TYPE": "MT001",
        "EXP_YEAR": "2023",
        "EXP_DUR": 1,
        "CR_SYSTEM": "Cotton after winter cover crop",
        "LAST_NAME": "Thorp",
        "FIRST_NAME": "Kelly",
        "MID_INITIAL": "R",
        "PERSON_NOTES": "Field technicians: Matt Hagler and Suzette Maneely",
        "EX_ADDRESS": "21881 N. Cardon Ln., Maricopa, Arizona 85138",
        "EX_EMAIL": "kelly.thorp@usda.gov",
        "INSTITUTION": "USDA Agricultural Research Service, Maricopa, Arizona",
        "IN_TYPE": "IT004",
        "IN_ROLE": "IL001",
        "CMPLC": "",
        "SUITE_NAME": "Tillage and cover crop study",
        "FL_NAME": "Field 13, Bench 4, Spans 4-6",
        "FL_LAT": 33.07914,
        "FL_LONG": -111.97737,
        "FLELE": 361
    },
    "_id": "64231e748ac54747c94bdb2f",
    "eid": "64231e748ac54747c94bdb2f"
}