{
    "type": "Feature",
    "geometry": {
        "type": "Point",
        "coordinates": [
            33.07982931,
            -111.97820028
        ]
    },
    "properties": {
        "ht_label": "p01-01"
    },
    "_id": "641e11cf8ac547e1042e78cd",
    "chid": "641e11cf8ac547e1042e78cd"
}{
    "type": "Feature",
    "geometry": {
        "type": "Point",
        "coordinates": [
            33.07973912,
            -111.97820091
        ]
    },
    "properties": {
        "ht_label": "p01-02"
    },
    "_id": "641e11cf8ac547e1042e78ce",
    "chid": "641e11cf8ac547e1042e78ce"
}{
    "type": "Feature",
    "geometry": {
        "type": "Point",
        "coordinates": [
            33.07964893,
            -111.97820154
        ]
    },
    "properties": {
        "ht_label": "p01-03"
    },
    "_id": "641e11cf8ac547e1042e78cf",
    "chid": "641e11cf8ac547e1042e78cf"
}{
    "type": "Feature",
    "geometry": {
        "type": "Point",
        "coordinates": [
            33.07955874,
            -111.97820217
        ]
    },
    "properties": {
        "ht_label": "p01-04"
    },
    "_id": "641e11cf8ac547e1042e78d0",
    "chid": "641e11cf8ac547e1042e78d0"
}{
    "type": "Feature",
    "geometry": {
        "type": "Point",
        "coordinates": [
            33.07946854,
            -111.9782028
        ]
    },
    "properties": {
        "ht_label": "p01-05"
    },
    "_id": "641e11cf8ac547e1042e78d1",
    "chid": "641e11cf8ac547e1042e78d1"
}{
    "type": "Feature",
    "geometry": {
        "type": "Point",
        "coordinates": [
            33.07937835,
            -111.97820343
        ]
    },
    "properties": {
        "ht_label": "p01-06"
    },
    "_id": "641e11cf8ac547e1042e78d2",
    "chid": "641e11cf8ac547e1042e78d2"
}{
    "type": "Feature",
    "geometry": {
        "type": "Point",
        "coordinates": [
            33.07928816,
            -111.97820406
        ]
    },
    "properties": {
        "ht_label": "p01-07"
    },
    "_id": "641e11cf8ac547e1042e78d3",
    "chid": "641e11cf8ac547e1042e78d3"
}{
    "type": "Feature",
    "geometry": {
        "type": "Point",
        "coordinates": [
            33.07919797,
            -111.97820469
        ]
    },
    "properties": {
        "ht_label": "p01-08"
    },
    "_id": "641e11cf8ac547e1042e78d4",
    "chid": "641e11cf8ac547e1042e78d4"
}{
    "type": "Feature",
    "geometry": {
        "type": "Point",
        "coordinates": [
            33.07910778,
            -111.97820532
        ]
    },
    "properties": {
        "ht_label": "p01-09"
    },
    "_id": "641e11cf8ac547e1042e78d5",
    "chid": "641e11cf8ac547e1042e78d5"
}{
    "type": "Feature",
    "geometry": {
        "type": "Point",
        "coordinates": [
            33.07901759,
            -111.97820595
        ]
    },
    "properties": {
        "ht_label": "p01-10"
    },
    "_id": "641e11cf8ac547e1042e78d6",
    "chid": "641e11cf8ac547e1042e78d6"
}{
    "type": "Feature",
    "geometry": {
        "type": "Point",
        "coordinates": [
            33.07892739,
            -111.97820658
        ]
    },
    "properties": {
        "ht_label": "p01-11"
    },
    "_id": "641e11cf8ac547e1042e78d7",
    "chid": "641e11cf8ac547e1042e78d7"
}{
    "type": "Feature",
    "geometry": {
        "type": "Point",
        "coordinates": [
            33.0788372,
            -111.97820721
        ]
    },
    "properties": {
        "ht_label": "p01-12"
    },
    "_id": "641e11cf8ac547e1042e78d8",
    "chid": "641e11cf8ac547e1042e78d8"
}{
    "type": "Feature",
    "geometry": {
        "type": "Point",
        "coordinates": [
            33.07874701,
            -111.97820784
        ]
    },
    "properties": {
        "ht_label": "p01-13"
    },
    "_id": "641e11cf8ac547e1042e78d9",
    "chid": "641e11cf8ac547e1042e78d9"
}{
    "type": "Feature",
    "geometry": {
        "type": "Point",
        "coordinates": [
            33.07865682,
            -111.97820847
        ]
    },
    "properties": {
        "ht_label": "p01-14"
    },
    "_id": "641e11cf8ac547e1042e78da",
    "chid": "641e11cf8ac547e1042e78da"
}{
    "type": "Feature",
    "geometry": {
        "type": "Point",
        "coordinates": [
            33.07856663,
            -111.97820909
        ]
    },
    "properties": {
        "ht_label": "p01-15"
    },
    "_id": "641e11cf8ac547e1042e78db",
    "chid": "641e11cf8ac547e1042e78db"
}{
    "type": "Feature",
    "geometry": {
        "type": "Point",
        "coordinates": [
            33.07982856,
            -111.9780479
        ]
    },
    "properties": {
        "ht_label": "p02-01"
    },
    "_id": "641e11cf8ac547e1042e78dc",
    "chid": "641e11cf8ac547e1042e78dc"
}{
    "type": "Feature",
    "geometry": {
        "type": "Point",
        "coordinates": [
            33.07973837,
            -111.97804853
        ]
    },
    "properties": {
        "ht_label": "p02-02"
    },
    "_id": "641e11cf8ac547e1042e78dd",
    "chid": "641e11cf8ac547e1042e78dd"
}{
    "type": "Feature",
    "geometry": {
        "type": "Point",
        "coordinates": [
            33.07964817,
            -111.97804916
        ]
    },
    "properties": {
        "ht_label": "p02-03"
    },
    "_id": "641e11cf8ac547e1042e78de",
    "chid": "641e11cf8ac547e1042e78de"
}{
    "type": "Feature",
    "geometry": {
        "type": "Point",
        "coordinates": [
            33.07955798,
            -111.97804979
        ]
    },
    "properties": {
        "ht_label": "p02-04"
    },
    "_id": "641e11cf8ac547e1042e78df",
    "chid": "641e11cf8ac547e1042e78df"
}{
    "type": "Feature",
    "geometry": {
        "type": "Point",
        "coordinates": [
            33.07946779,
            -111.97805042
        ]
    },
    "properties": {
        "ht_label": "p02-05"
    },
    "_id": "641e11cf8ac547e1042e78e0",
    "chid": "641e11cf8ac547e1042e78e0"
}{
    "type": "Feature",
    "geometry": {
        "type": "Point",
        "coordinates": [
            33.0793776,
            -111.97805105
        ]
    },
    "properties": {
        "ht_label": "p02-06"
    },
    "_id": "641e11cf8ac547e1042e78e1",
    "chid": "641e11cf8ac547e1042e78e1"
}{
    "type": "Feature",
    "geometry": {
        "type": "Point",
        "coordinates": [
            33.07928741,
            -111.97805168
        ]
    },
    "properties": {
        "ht_label": "p02-07"
    },
    "_id": "641e11cf8ac547e1042e78e2",
    "chid": "641e11cf8ac547e1042e78e2"
}{
    "type": "Feature",
    "geometry": {
        "type": "Point",
        "coordinates": [
            33.07919721,
            -111.97805231
        ]
    },
    "properties": {
        "ht_label": "p02-08"
    },
    "_id": "641e11cf8ac547e1042e78e3",
    "chid": "641e11cf8ac547e1042e78e3"
}{
    "type": "Feature",
    "geometry": {
        "type": "Point",
        "coordinates": [
            33.07910702,
            -111.97805294
        ]
    },
    "properties": {
        "ht_label": "p02-09"
    },
    "_id": "641e11cf8ac547e1042e78e4",
    "chid": "641e11cf8ac547e1042e78e4"
}{
    "type": "Feature",
    "geometry": {
        "type": "Point",
        "coordinates": [
            33.07901683,
            -111.97805356
        ]
    },
    "properties": {
        "ht_label": "p02-10"
    },
    "_id": "641e11cf8ac547e1042e78e5",
    "chid": "641e11cf8ac547e1042e78e5"
}{
    "type": "Feature",
    "geometry": {
        "type": "Point",
        "coordinates": [
            33.07892664,
            -111.97805419
        ]
    },
    "properties": {
        "ht_label": "p02-11"
    },
    "_id": "641e11cf8ac547e1042e78e6",
    "chid": "641e11cf8ac547e1042e78e6"
}{
    "type": "Feature",
    "geometry": {
        "type": "Point",
        "coordinates": [
            33.07883645,
            -111.97805482
        ]
    },
    "properties": {
        "ht_label": "p02-12"
    },
    "_id": "641e11cf8ac547e1042e78e7",
    "chid": "641e11cf8ac547e1042e78e7"
}{
    "type": "Feature",
    "geometry": {
        "type": "Point",
        "coordinates": [
            33.07874626,
            -111.97805545
        ]
    },
    "properties": {
        "ht_label": "p02-13"
    },
    "_id": "641e11cf8ac547e1042e78e8",
    "chid": "641e11cf8ac547e1042e78e8"
}{
    "type": "Feature",
    "geometry": {
        "type": "Point",
        "coordinates": [
            33.07865606,
            -111.97805608
        ]
    },
    "properties": {
        "ht_label": "p02-14"
    },
    "_id": "641e11cf8ac547e1042e78e9",
    "chid": "641e11cf8ac547e1042e78e9"
}{
    "type": "Feature",
    "geometry": {
        "type": "Point",
        "coordinates": [
            33.07856587,
            -111.97805671
        ]
    },
    "properties": {
        "ht_label": "p02-15"
    },
    "_id": "641e11cf8ac547e1042e78ea",
    "chid": "641e11cf8ac547e1042e78ea"
}{
    "type": "Feature",
    "geometry": {
        "type": "Point",
        "coordinates": [
            33.0798278,
            -111.97789552
        ]
    },
    "properties": {
        "ht_label": "p03-01"
    },
    "_id": "641e11cf8ac547e1042e78eb",
    "chid": "641e11cf8ac547e1042e78eb"
}{
    "type": "Feature",
    "geometry": {
        "type": "Point",
        "coordinates": [
            33.07973761,
            -111.97789615
        ]
    },
    "properties": {
        "ht_label": "p03-02"
    },
    "_id": "641e11cf8ac547e1042e78ec",
    "chid": "641e11cf8ac547e1042e78ec"
}{
    "type": "Feature",
    "geometry": {
        "type": "Point",
        "coordinates": [
            33.07964742,
            -111.97789677
        ]
    },
    "properties": {
        "ht_label": "p03-03"
    },
    "_id": "641e11cf8ac547e1042e78ed",
    "chid": "641e11cf8ac547e1042e78ed"
}{
    "type": "Feature",
    "geometry": {
        "type": "Point",
        "coordinates": [
            33.07955723,
            -111.9778974
        ]
    },
    "properties": {
        "ht_label": "p03-04"
    },
    "_id": "641e11cf8ac547e1042e78ee",
    "chid": "641e11cf8ac547e1042e78ee"
}{
    "type": "Feature",
    "geometry": {
        "type": "Point",
        "coordinates": [
            33.07946704,
            -111.97789803
        ]
    },
    "properties": {
        "ht_label": "p03-05"
    },
    "_id": "641e11cf8ac547e1042e78ef",
    "chid": "641e11cf8ac547e1042e78ef"
}{
    "type": "Feature",
    "geometry": {
        "type": "Point",
        "coordinates": [
            33.07937684,
            -111.97789866
        ]
    },
    "properties": {
        "ht_label": "p03-06"
    },
    "_id": "641e11cf8ac547e1042e78f0",
    "chid": "641e11cf8ac547e1042e78f0"
}{
    "type": "Feature",
    "geometry": {
        "type": "Point",
        "coordinates": [
            33.07928665,
            -111.97789929
        ]
    },
    "properties": {
        "ht_label": "p03-07"
    },
    "_id": "641e11cf8ac547e1042e78f1",
    "chid": "641e11cf8ac547e1042e78f1"
}{
    "type": "Feature",
    "geometry": {
        "type": "Point",
        "coordinates": [
            33.07919646,
            -111.97789992
        ]
    },
    "properties": {
        "ht_label": "p03-08"
    },
    "_id": "641e11cf8ac547e1042e78f2",
    "chid": "641e11cf8ac547e1042e78f2"
}{
    "type": "Feature",
    "geometry": {
        "type": "Point",
        "coordinates": [
            33.07910627,
            -111.97790055
        ]
    },
    "properties": {
        "ht_label": "p03-09"
    },
    "_id": "641e11cf8ac547e1042e78f3",
    "chid": "641e11cf8ac547e1042e78f3"
}{
    "type": "Feature",
    "geometry": {
        "type": "Point",
        "coordinates": [
            33.07901608,
            -111.97790118
        ]
    },
    "properties": {
        "ht_label": "p03-10"
    },
    "_id": "641e11cf8ac547e1042e78f4",
    "chid": "641e11cf8ac547e1042e78f4"
}{
    "type": "Feature",
    "geometry": {
        "type": "Point",
        "coordinates": [
            33.07892589,
            -111.97790181
        ]
    },
    "properties": {
        "ht_label": "p03-11"
    },
    "_id": "641e11cf8ac547e1042e78f5",
    "chid": "641e11cf8ac547e1042e78f5"
}{
    "type": "Feature",
    "geometry": {
        "type": "Point",
        "coordinates": [
            33.07883569,
            -111.97790244
        ]
    },
    "properties": {
        "ht_label": "p03-12"
    },
    "_id": "641e11cf8ac547e1042e78f6",
    "chid": "641e11cf8ac547e1042e78f6"
}{
    "type": "Feature",
    "geometry": {
        "type": "Point",
        "coordinates": [
            33.0787455,
            -111.97790307
        ]
    },
    "properties": {
        "ht_label": "p03-13"
    },
    "_id": "641e11cf8ac547e1042e78f7",
    "chid": "641e11cf8ac547e1042e78f7"
}{
    "type": "Feature",
    "geometry": {
        "type": "Point",
        "coordinates": [
            33.07865531,
            -111.9779037
        ]
    },
    "properties": {
        "ht_label": "p03-14"
    },
    "_id": "641e11cf8ac547e1042e78f8",
    "chid": "641e11cf8ac547e1042e78f8"
}{
    "type": "Feature",
    "geometry": {
        "type": "Point",
        "coordinates": [
            33.07856512,
            -111.97790433
        ]
    },
    "properties": {
        "ht_label": "p03-15"
    },
    "_id": "641e11cf8ac547e1042e78f9",
    "chid": "641e11cf8ac547e1042e78f9"
}{
    "type": "Feature",
    "geometry": {
        "type": "Point",
        "coordinates": [
            33.07982705,
            -111.97774313
        ]
    },
    "properties": {
        "ht_label": "p04-01"
    },
    "_id": "641e11cf8ac547e1042e78fa",
    "chid": "641e11cf8ac547e1042e78fa"
}{
    "type": "Feature",
    "geometry": {
        "type": "Point",
        "coordinates": [
            33.07973686,
            -111.97774376
        ]
    },
    "properties": {
        "ht_label": "p04-02"
    },
    "_id": "641e11cf8ac547e1042e78fb",
    "chid": "641e11cf8ac547e1042e78fb"
}{
    "type": "Feature",
    "geometry": {
        "type": "Point",
        "coordinates": [
            33.07964667,
            -111.97774439
        ]
    },
    "properties": {
        "ht_label": "p04-03"
    },
    "_id": "641e11cf8ac547e1042e78fc",
    "chid": "641e11cf8ac547e1042e78fc"
}{
    "type": "Feature",
    "geometry": {
        "type": "Point",
        "coordinates": [
            33.07955647,
            -111.97774502
        ]
    },
    "properties": {
        "ht_label": "p04-04"
    },
    "_id": "641e11cf8ac547e1042e78fd",
    "chid": "641e11cf8ac547e1042e78fd"
}{
    "type": "Feature",
    "geometry": {
        "type": "Point",
        "coordinates": [
            33.07946628,
            -111.97774565
        ]
    },
    "properties": {
        "ht_label": "p04-05"
    },
    "_id": "641e11cf8ac547e1042e78fe",
    "chid": "641e11cf8ac547e1042e78fe"
}{
    "type": "Feature",
    "geometry": {
        "type": "Point",
        "coordinates": [
            33.07937609,
            -111.97774628
        ]
    },
    "properties": {
        "ht_label": "p04-06"
    },
    "_id": "641e11cf8ac547e1042e78ff",
    "chid": "641e11cf8ac547e1042e78ff"
}{
    "type": "Feature",
    "geometry": {
        "type": "Point",
        "coordinates": [
            33.0792859,
            -111.97774691
        ]
    },
    "properties": {
        "ht_label": "p04-07"
    },
    "_id": "641e11cf8ac547e1042e7900",
    "chid": "641e11cf8ac547e1042e7900"
}{
    "type": "Feature",
    "geometry": {
        "type": "Point",
        "coordinates": [
            33.07919571,
            -111.97774754
        ]
    },
    "properties": {
        "ht_label": "p04-08"
    },
    "_id": "641e11cf8ac547e1042e7901",
    "chid": "641e11cf8ac547e1042e7901"
}{
    "type": "Feature",
    "geometry": {
        "type": "Point",
        "coordinates": [
            33.07910551,
            -111.97774817
        ]
    },
    "properties": {
        "ht_label": "p04-09"
    },
    "_id": "641e11cf8ac547e1042e7902",
    "chid": "641e11cf8ac547e1042e7902"
}{
    "type": "Feature",
    "geometry": {
        "type": "Point",
        "coordinates": [
            33.07901532,
            -111.9777488
        ]
    },
    "properties": {
        "ht_label": "p04-10"
    },
    "_id": "641e11cf8ac547e1042e7903",
    "chid": "641e11cf8ac547e1042e7903"
}{
    "type": "Feature",
    "geometry": {
        "type": "Point",
        "coordinates": [
            33.07892513,
            -111.97774943
        ]
    },
    "properties": {
        "ht_label": "p04-11"
    },
    "_id": "641e11cf8ac547e1042e7904",
    "chid": "641e11cf8ac547e1042e7904"
}{
    "type": "Feature",
    "geometry": {
        "type": "Point",
        "coordinates": [
            33.07883494,
            -111.97775006
        ]
    },
    "properties": {
        "ht_label": "p04-12"
    },
    "_id": "641e11cf8ac547e1042e7905",
    "chid": "641e11cf8ac547e1042e7905"
}{
    "type": "Feature",
    "geometry": {
        "type": "Point",
        "coordinates": [
            33.07874475,
            -111.97775069
        ]
    },
    "properties": {
        "ht_label": "p04-13"
    },
    "_id": "641e11cf8ac547e1042e7906",
    "chid": "641e11cf8ac547e1042e7906"
}{
    "type": "Feature",
    "geometry": {
        "type": "Point",
        "coordinates": [
            33.07865456,
            -111.97775132
        ]
    },
    "properties": {
        "ht_label": "p04-14"
    },
    "_id": "641e11cf8ac547e1042e7907",
    "chid": "641e11cf8ac547e1042e7907"
}{
    "type": "Feature",
    "geometry": {
        "type": "Point",
        "coordinates": [
            33.07856436,
            -111.97775195
        ]
    },
    "properties": {
        "ht_label": "p04-15"
    },
    "_id": "641e11cf8ac547e1042e7908",
    "chid": "641e11cf8ac547e1042e7908"
}{
    "type": "Feature",
    "geometry": {
        "type": "Point",
        "coordinates": [
            33.07982629,
            -111.97759168
        ]
    },
    "properties": {
        "ht_label": "p05-01"
    },
    "_id": "641e11cf8ac547e1042e7909",
    "chid": "641e11cf8ac547e1042e7909"
}{
    "type": "Feature",
    "geometry": {
        "type": "Point",
        "coordinates": [
            33.0797361,
            -111.97759231
        ]
    },
    "properties": {
        "ht_label": "p05-02"
    },
    "_id": "641e11cf8ac547e1042e790a",
    "chid": "641e11cf8ac547e1042e790a"
}{
    "type": "Feature",
    "geometry": {
        "type": "Point",
        "coordinates": [
            33.07964591,
            -111.97759294
        ]
    },
    "properties": {
        "ht_label": "p05-03"
    },
    "_id": "641e11cf8ac547e1042e790b",
    "chid": "641e11cf8ac547e1042e790b"
}{
    "type": "Feature",
    "geometry": {
        "type": "Point",
        "coordinates": [
            33.07955572,
            -111.97759357
        ]
    },
    "properties": {
        "ht_label": "p05-04"
    },
    "_id": "641e11cf8ac547e1042e790c",
    "chid": "641e11cf8ac547e1042e790c"
}{
    "type": "Feature",
    "geometry": {
        "type": "Point",
        "coordinates": [
            33.07946553,
            -111.9775942
        ]
    },
    "properties": {
        "ht_label": "p05-05"
    },
    "_id": "641e11cf8ac547e1042e790d",
    "chid": "641e11cf8ac547e1042e790d"
}{
    "type": "Feature",
    "geometry": {
        "type": "Point",
        "coordinates": [
            33.07937533,
            -111.97759483
        ]
    },
    "properties": {
        "ht_label": "p05-06"
    },
    "_id": "641e11cf8ac547e1042e790e",
    "chid": "641e11cf8ac547e1042e790e"
}{
    "type": "Feature",
    "geometry": {
        "type": "Point",
        "coordinates": [
            33.07928514,
            -111.97759546
        ]
    },
    "properties": {
        "ht_label": "p05-07"
    },
    "_id": "641e11cf8ac547e1042e790f",
    "chid": "641e11cf8ac547e1042e790f"
}{
    "type": "Feature",
    "geometry": {
        "type": "Point",
        "coordinates": [
            33.07919495,
            -111.97759609
        ]
    },
    "properties": {
        "ht_label": "p05-08"
    },
    "_id": "641e11cf8ac547e1042e7910",
    "chid": "641e11cf8ac547e1042e7910"
}{
    "type": "Feature",
    "geometry": {
        "type": "Point",
        "coordinates": [
            33.07910476,
            -111.97759672
        ]
    },
    "properties": {
        "ht_label": "p05-09"
    },
    "_id": "641e11cf8ac547e1042e7911",
    "chid": "641e11cf8ac547e1042e7911"
}{
    "type": "Feature",
    "geometry": {
        "type": "Point",
        "coordinates": [
            33.07901457,
            -111.97759735
        ]
    },
    "properties": {
        "ht_label": "p05-10"
    },
    "_id": "641e11cf8ac547e1042e7912",
    "chid": "641e11cf8ac547e1042e7912"
}{
    "type": "Feature",
    "geometry": {
        "type": "Point",
        "coordinates": [
            33.07892437,
            -111.97759797
        ]
    },
    "properties": {
        "ht_label": "p05-11"
    },
    "_id": "641e11cf8ac547e1042e7913",
    "chid": "641e11cf8ac547e1042e7913"
}{
    "type": "Feature",
    "geometry": {
        "type": "Point",
        "coordinates": [
            33.07883418,
            -111.9775986
        ]
    },
    "properties": {
        "ht_label": "p05-12"
    },
    "_id": "641e11cf8ac547e1042e7914",
    "chid": "641e11cf8ac547e1042e7914"
}{
    "type": "Feature",
    "geometry": {
        "type": "Point",
        "coordinates": [
            33.07874399,
            -111.97759923
        ]
    },
    "properties": {
        "ht_label": "p05-13"
    },
    "_id": "641e11cf8ac547e1042e7915",
    "chid": "641e11cf8ac547e1042e7915"
}{
    "type": "Feature",
    "geometry": {
        "type": "Point",
        "coordinates": [
            33.0786538,
            -111.97759986
        ]
    },
    "properties": {
        "ht_label": "p05-14"
    },
    "_id": "641e11cf8ac547e1042e7916",
    "chid": "641e11cf8ac547e1042e7916"
}{
    "type": "Feature",
    "geometry": {
        "type": "Point",
        "coordinates": [
            33.07856361,
            -111.97760049
        ]
    },
    "properties": {
        "ht_label": "p05-15"
    },
    "_id": "641e11cf8ac547e1042e7917",
    "chid": "641e11cf8ac547e1042e7917"
}{
    "type": "Feature",
    "geometry": {
        "type": "Point",
        "coordinates": [
            33.07982554,
            -111.97743929
        ]
    },
    "properties": {
        "ht_label": "p06-01"
    },
    "_id": "641e11cf8ac547e1042e7918",
    "chid": "641e11cf8ac547e1042e7918"
}{
    "type": "Feature",
    "geometry": {
        "type": "Point",
        "coordinates": [
            33.07973535,
            -111.97743992
        ]
    },
    "properties": {
        "ht_label": "p06-02"
    },
    "_id": "641e11cf8ac547e1042e7919",
    "chid": "641e11cf8ac547e1042e7919"
}{
    "type": "Feature",
    "geometry": {
        "type": "Point",
        "coordinates": [
            33.07964515,
            -111.97744055
        ]
    },
    "properties": {
        "ht_label": "p06-03"
    },
    "_id": "641e11cf8ac547e1042e791a",
    "chid": "641e11cf8ac547e1042e791a"
}{
    "type": "Feature",
    "geometry": {
        "type": "Point",
        "coordinates": [
            33.07955496,
            -111.97744118
        ]
    },
    "properties": {
        "ht_label": "p06-04"
    },
    "_id": "641e11cf8ac547e1042e791b",
    "chid": "641e11cf8ac547e1042e791b"
}{
    "type": "Feature",
    "geometry": {
        "type": "Point",
        "coordinates": [
            33.07946477,
            -111.97744181
        ]
    },
    "properties": {
        "ht_label": "p06-05"
    },
    "_id": "641e11cf8ac547e1042e791c",
    "chid": "641e11cf8ac547e1042e791c"
}{
    "type": "Feature",
    "geometry": {
        "type": "Point",
        "coordinates": [
            33.07937458,
            -111.97744244
        ]
    },
    "properties": {
        "ht_label": "p06-06"
    },
    "_id": "641e11cf8ac547e1042e791d",
    "chid": "641e11cf8ac547e1042e791d"
}{
    "type": "Feature",
    "geometry": {
        "type": "Point",
        "coordinates": [
            33.07928439,
            -111.97744307
        ]
    },
    "properties": {
        "ht_label": "p06-07"
    },
    "_id": "641e11cf8ac547e1042e791e",
    "chid": "641e11cf8ac547e1042e791e"
}{
    "type": "Feature",
    "geometry": {
        "type": "Point",
        "coordinates": [
            33.0791942,
            -111.9774437
        ]
    },
    "properties": {
        "ht_label": "p06-08"
    },
    "_id": "641e11cf8ac547e1042e791f",
    "chid": "641e11cf8ac547e1042e791f"
}{
    "type": "Feature",
    "geometry": {
        "type": "Point",
        "coordinates": [
            33.079104,
            -111.97744433
        ]
    },
    "properties": {
        "ht_label": "p06-09"
    },
    "_id": "641e11cf8ac547e1042e7920",
    "chid": "641e11cf8ac547e1042e7920"
}{
    "type": "Feature",
    "geometry": {
        "type": "Point",
        "coordinates": [
            33.07901381,
            -111.97744496
        ]
    },
    "properties": {
        "ht_label": "p06-10"
    },
    "_id": "641e11cf8ac547e1042e7921",
    "chid": "641e11cf8ac547e1042e7921"
}{
    "type": "Feature",
    "geometry": {
        "type": "Point",
        "coordinates": [
            33.07892362,
            -111.97744559
        ]
    },
    "properties": {
        "ht_label": "p06-11"
    },
    "_id": "641e11cf8ac547e1042e7922",
    "chid": "641e11cf8ac547e1042e7922"
}{
    "type": "Feature",
    "geometry": {
        "type": "Point",
        "coordinates": [
            33.07883343,
            -111.97744622
        ]
    },
    "properties": {
        "ht_label": "p06-12"
    },
    "_id": "641e11cf8ac547e1042e7923",
    "chid": "641e11cf8ac547e1042e7923"
}{
    "type": "Feature",
    "geometry": {
        "type": "Point",
        "coordinates": [
            33.07874324,
            -111.97744685
        ]
    },
    "properties": {
        "ht_label": "p06-13"
    },
    "_id": "641e11cf8ac547e1042e7924",
    "chid": "641e11cf8ac547e1042e7924"
}{
    "type": "Feature",
    "geometry": {
        "type": "Point",
        "coordinates": [
            33.07865304,
            -111.97744748
        ]
    },
    "properties": {
        "ht_label": "p06-14"
    },
    "_id": "641e11cf8ac547e1042e7925",
    "chid": "641e11cf8ac547e1042e7925"
}{
    "type": "Feature",
    "geometry": {
        "type": "Point",
        "coordinates": [
            33.07856285,
            -111.97744811
        ]
    },
    "properties": {
        "ht_label": "p06-15"
    },
    "_id": "641e11cf8ac547e1042e7926",
    "chid": "641e11cf8ac547e1042e7926"
}{
    "type": "Feature",
    "geometry": {
        "type": "Point",
        "coordinates": [
            33.07982478,
            -111.97728691
        ]
    },
    "properties": {
        "ht_label": "p07-01"
    },
    "_id": "641e11cf8ac547e1042e7927",
    "chid": "641e11cf8ac547e1042e7927"
}{
    "type": "Feature",
    "geometry": {
        "type": "Point",
        "coordinates": [
            33.07973459,
            -111.97728754
        ]
    },
    "properties": {
        "ht_label": "p07-02"
    },
    "_id": "641e11cf8ac547e1042e7928",
    "chid": "641e11cf8ac547e1042e7928"
}{
    "type": "Feature",
    "geometry": {
        "type": "Point",
        "coordinates": [
            33.0796444,
            -111.97728817
        ]
    },
    "properties": {
        "ht_label": "p07-03"
    },
    "_id": "641e11cf8ac547e1042e7929",
    "chid": "641e11cf8ac547e1042e7929"
}{
    "type": "Feature",
    "geometry": {
        "type": "Point",
        "coordinates": [
            33.07955421,
            -111.9772888
        ]
    },
    "properties": {
        "ht_label": "p07-04"
    },
    "_id": "641e11cf8ac547e1042e792a",
    "chid": "641e11cf8ac547e1042e792a"
}{
    "type": "Feature",
    "geometry": {
        "type": "Point",
        "coordinates": [
            33.07946402,
            -111.97728943
        ]
    },
    "properties": {
        "ht_label": "p07-05"
    },
    "_id": "641e11cf8ac547e1042e792b",
    "chid": "641e11cf8ac547e1042e792b"
}{
    "type": "Feature",
    "geometry": {
        "type": "Point",
        "coordinates": [
            33.07937382,
            -111.97729006
        ]
    },
    "properties": {
        "ht_label": "p07-06"
    },
    "_id": "641e11cf8ac547e1042e792c",
    "chid": "641e11cf8ac547e1042e792c"
}{
    "type": "Feature",
    "geometry": {
        "type": "Point",
        "coordinates": [
            33.07928363,
            -111.97729069
        ]
    },
    "properties": {
        "ht_label": "p07-07"
    },
    "_id": "641e11cf8ac547e1042e792d",
    "chid": "641e11cf8ac547e1042e792d"
}{
    "type": "Feature",
    "geometry": {
        "type": "Point",
        "coordinates": [
            33.07919344,
            -111.97729132
        ]
    },
    "properties": {
        "ht_label": "p07-08"
    },
    "_id": "641e11cf8ac547e1042e792e",
    "chid": "641e11cf8ac547e1042e792e"
}{
    "type": "Feature",
    "geometry": {
        "type": "Point",
        "coordinates": [
            33.07910325,
            -111.97729195
        ]
    },
    "properties": {
        "ht_label": "p07-09"
    },
    "_id": "641e11cf8ac547e1042e792f",
    "chid": "641e11cf8ac547e1042e792f"
}{
    "type": "Feature",
    "geometry": {
        "type": "Point",
        "coordinates": [
            33.07901306,
            -111.97729258
        ]
    },
    "properties": {
        "ht_label": "p07-10"
    },
    "_id": "641e11cf8ac547e1042e7930",
    "chid": "641e11cf8ac547e1042e7930"
}{
    "type": "Feature",
    "geometry": {
        "type": "Point",
        "coordinates": [
            33.07892287,
            -111.97729321
        ]
    },
    "properties": {
        "ht_label": "p07-11"
    },
    "_id": "641e11cf8ac547e1042e7931",
    "chid": "641e11cf8ac547e1042e7931"
}{
    "type": "Feature",
    "geometry": {
        "type": "Point",
        "coordinates": [
            33.07883267,
            -111.97729384
        ]
    },
    "properties": {
        "ht_label": "p07-12"
    },
    "_id": "641e11cf8ac547e1042e7932",
    "chid": "641e11cf8ac547e1042e7932"
}{
    "type": "Feature",
    "geometry": {
        "type": "Point",
        "coordinates": [
            33.07874248,
            -111.97729447
        ]
    },
    "properties": {
        "ht_label": "p07-13"
    },
    "_id": "641e11cf8ac547e1042e7933",
    "chid": "641e11cf8ac547e1042e7933"
}{
    "type": "Feature",
    "geometry": {
        "type": "Point",
        "coordinates": [
            33.07865229,
            -111.9772951
        ]
    },
    "properties": {
        "ht_label": "p07-14"
    },
    "_id": "641e11cf8ac547e1042e7934",
    "chid": "641e11cf8ac547e1042e7934"
}{
    "type": "Feature",
    "geometry": {
        "type": "Point",
        "coordinates": [
            33.0785621,
            -111.97729573
        ]
    },
    "properties": {
        "ht_label": "p07-15"
    },
    "_id": "641e11cf8ac547e1042e7935",
    "chid": "641e11cf8ac547e1042e7935"
}{
    "type": "Feature",
    "geometry": {
        "type": "Point",
        "coordinates": [
            33.07982403,
            -111.97713452
        ]
    },
    "properties": {
        "ht_label": "p08-01"
    },
    "_id": "641e11cf8ac547e1042e7936",
    "chid": "641e11cf8ac547e1042e7936"
}{
    "type": "Feature",
    "geometry": {
        "type": "Point",
        "coordinates": [
            33.07973384,
            -111.97713515
        ]
    },
    "properties": {
        "ht_label": "p08-02"
    },
    "_id": "641e11cf8ac547e1042e7937",
    "chid": "641e11cf8ac547e1042e7937"
}{
    "type": "Feature",
    "geometry": {
        "type": "Point",
        "coordinates": [
            33.07964364,
            -111.97713578
        ]
    },
    "properties": {
        "ht_label": "p08-03"
    },
    "_id": "641e11cf8ac547e1042e7938",
    "chid": "641e11cf8ac547e1042e7938"
}{
    "type": "Feature",
    "geometry": {
        "type": "Point",
        "coordinates": [
            33.07955345,
            -111.97713641
        ]
    },
    "properties": {
        "ht_label": "p08-04"
    },
    "_id": "641e11cf8ac547e1042e7939",
    "chid": "641e11cf8ac547e1042e7939"
}{
    "type": "Feature",
    "geometry": {
        "type": "Point",
        "coordinates": [
            33.07946326,
            -111.97713704
        ]
    },
    "properties": {
        "ht_label": "p08-05"
    },
    "_id": "641e11cf8ac547e1042e793a",
    "chid": "641e11cf8ac547e1042e793a"
}{
    "type": "Feature",
    "geometry": {
        "type": "Point",
        "coordinates": [
            33.07937307,
            -111.97713767
        ]
    },
    "properties": {
        "ht_label": "p08-06"
    },
    "_id": "641e11cf8ac547e1042e793b",
    "chid": "641e11cf8ac547e1042e793b"
}{
    "type": "Feature",
    "geometry": {
        "type": "Point",
        "coordinates": [
            33.07928288,
            -111.9771383
        ]
    },
    "properties": {
        "ht_label": "p08-07"
    },
    "_id": "641e11cf8ac547e1042e793c",
    "chid": "641e11cf8ac547e1042e793c"
}{
    "type": "Feature",
    "geometry": {
        "type": "Point",
        "coordinates": [
            33.07919269,
            -111.97713893
        ]
    },
    "properties": {
        "ht_label": "p08-08"
    },
    "_id": "641e11cf8ac547e1042e793d",
    "chid": "641e11cf8ac547e1042e793d"
}{
    "type": "Feature",
    "geometry": {
        "type": "Point",
        "coordinates": [
            33.07910249,
            -111.97713957
        ]
    },
    "properties": {
        "ht_label": "p08-09"
    },
    "_id": "641e11cf8ac547e1042e793e",
    "chid": "641e11cf8ac547e1042e793e"
}{
    "type": "Feature",
    "geometry": {
        "type": "Point",
        "coordinates": [
            33.0790123,
            -111.9771402
        ]
    },
    "properties": {
        "ht_label": "p08-10"
    },
    "_id": "641e11cf8ac547e1042e793f",
    "chid": "641e11cf8ac547e1042e793f"
}{
    "type": "Feature",
    "geometry": {
        "type": "Point",
        "coordinates": [
            33.07892211,
            -111.97714083
        ]
    },
    "properties": {
        "ht_label": "p08-11"
    },
    "_id": "641e11cf8ac547e1042e7940",
    "chid": "641e11cf8ac547e1042e7940"
}{
    "type": "Feature",
    "geometry": {
        "type": "Point",
        "coordinates": [
            33.07883192,
            -111.97714146
        ]
    },
    "properties": {
        "ht_label": "p08-12"
    },
    "_id": "641e11cf8ac547e1042e7941",
    "chid": "641e11cf8ac547e1042e7941"
}{
    "type": "Feature",
    "geometry": {
        "type": "Point",
        "coordinates": [
            33.07874173,
            -111.97714209
        ]
    },
    "properties": {
        "ht_label": "p08-13"
    },
    "_id": "641e11cf8ac547e1042e7942",
    "chid": "641e11cf8ac547e1042e7942"
}{
    "type": "Feature",
    "geometry": {
        "type": "Point",
        "coordinates": [
            33.07865153,
            -111.97714272
        ]
    },
    "properties": {
        "ht_label": "p08-14"
    },
    "_id": "641e11cf8ac547e1042e7943",
    "chid": "641e11cf8ac547e1042e7943"
}{
    "type": "Feature",
    "geometry": {
        "type": "Point",
        "coordinates": [
            33.07856134,
            -111.97714335
        ]
    },
    "properties": {
        "ht_label": "p08-15"
    },
    "_id": "641e11cf8ac547e1042e7944",
    "chid": "641e11cf8ac547e1042e7944"
}{
    "type": "Feature",
    "geometry": {
        "type": "Point",
        "coordinates": [
            33.07982327,
            -111.97698298
        ]
    },
    "properties": {
        "ht_label": "p09-01"
    },
    "_id": "641e11cf8ac547e1042e7945",
    "chid": "641e11cf8ac547e1042e7945"
}{
    "type": "Feature",
    "geometry": {
        "type": "Point",
        "coordinates": [
            33.07973308,
            -111.97698361
        ]
    },
    "properties": {
        "ht_label": "p09-02"
    },
    "_id": "641e11cf8ac547e1042e7946",
    "chid": "641e11cf8ac547e1042e7946"
}{
    "type": "Feature",
    "geometry": {
        "type": "Point",
        "coordinates": [
            33.07964289,
            -111.97698424
        ]
    },
    "properties": {
        "ht_label": "p09-03"
    },
    "_id": "641e11cf8ac547e1042e7947",
    "chid": "641e11cf8ac547e1042e7947"
}{
    "type": "Feature",
    "geometry": {
        "type": "Point",
        "coordinates": [
            33.0795527,
            -111.97698487
        ]
    },
    "properties": {
        "ht_label": "p09-04"
    },
    "_id": "641e11cf8ac547e1042e7948",
    "chid": "641e11cf8ac547e1042e7948"
}{
    "type": "Feature",
    "geometry": {
        "type": "Point",
        "coordinates": [
            33.0794625,
            -111.9769855
        ]
    },
    "properties": {
        "ht_label": "p09-05"
    },
    "_id": "641e11cf8ac547e1042e7949",
    "chid": "641e11cf8ac547e1042e7949"
}{
    "type": "Feature",
    "geometry": {
        "type": "Point",
        "coordinates": [
            33.07937231,
            -111.97698613
        ]
    },
    "properties": {
        "ht_label": "p09-06"
    },
    "_id": "641e11cf8ac547e1042e794a",
    "chid": "641e11cf8ac547e1042e794a"
}{
    "type": "Feature",
    "geometry": {
        "type": "Point",
        "coordinates": [
            33.07928212,
            -111.97698676
        ]
    },
    "properties": {
        "ht_label": "p09-07"
    },
    "_id": "641e11cf8ac547e1042e794b",
    "chid": "641e11cf8ac547e1042e794b"
}{
    "type": "Feature",
    "geometry": {
        "type": "Point",
        "coordinates": [
            33.07919193,
            -111.97698739
        ]
    },
    "properties": {
        "ht_label": "p09-08"
    },
    "_id": "641e11cf8ac547e1042e794c",
    "chid": "641e11cf8ac547e1042e794c"
}{
    "type": "Feature",
    "geometry": {
        "type": "Point",
        "coordinates": [
            33.07910174,
            -111.97698802
        ]
    },
    "properties": {
        "ht_label": "p09-09"
    },
    "_id": "641e11cf8ac547e1042e794d",
    "chid": "641e11cf8ac547e1042e794d"
}{
    "type": "Feature",
    "geometry": {
        "type": "Point",
        "coordinates": [
            33.07901155,
            -111.97698865
        ]
    },
    "properties": {
        "ht_label": "p09-10"
    },
    "_id": "641e11cf8ac547e1042e794e",
    "chid": "641e11cf8ac547e1042e794e"
}{
    "type": "Feature",
    "geometry": {
        "type": "Point",
        "coordinates": [
            33.07892135,
            -111.97698928
        ]
    },
    "properties": {
        "ht_label": "p09-11"
    },
    "_id": "641e11cf8ac547e1042e794f",
    "chid": "641e11cf8ac547e1042e794f"
}{
    "type": "Feature",
    "geometry": {
        "type": "Point",
        "coordinates": [
            33.07883116,
            -111.97698991
        ]
    },
    "properties": {
        "ht_label": "p09-12"
    },
    "_id": "641e11cf8ac547e1042e7950",
    "chid": "641e11cf8ac547e1042e7950"
}{
    "type": "Feature",
    "geometry": {
        "type": "Point",
        "coordinates": [
            33.07874097,
            -111.97699054
        ]
    },
    "properties": {
        "ht_label": "p09-13"
    },
    "_id": "641e11cf8ac547e1042e7951",
    "chid": "641e11cf8ac547e1042e7951"
}{
    "type": "Feature",
    "geometry": {
        "type": "Point",
        "coordinates": [
            33.07865078,
            -111.97699117
        ]
    },
    "properties": {
        "ht_label": "p09-14"
    },
    "_id": "641e11cf8ac547e1042e7952",
    "chid": "641e11cf8ac547e1042e7952"
}{
    "type": "Feature",
    "geometry": {
        "type": "Point",
        "coordinates": [
            33.07856059,
            -111.9769918
        ]
    },
    "properties": {
        "ht_label": "p09-15"
    },
    "_id": "641e11cf8ac547e1042e7953",
    "chid": "641e11cf8ac547e1042e7953"
}{
    "type": "Feature",
    "geometry": {
        "type": "Point",
        "coordinates": [
            33.07982252,
            -111.97683059
        ]
    },
    "properties": {
        "ht_label": "p10-01"
    },
    "_id": "641e11cf8ac547e1042e7954",
    "chid": "641e11cf8ac547e1042e7954"
}{
    "type": "Feature",
    "geometry": {
        "type": "Point",
        "coordinates": [
            33.07973232,
            -111.97683122
        ]
    },
    "properties": {
        "ht_label": "p10-02"
    },
    "_id": "641e11cf8ac547e1042e7955",
    "chid": "641e11cf8ac547e1042e7955"
}{
    "type": "Feature",
    "geometry": {
        "type": "Point",
        "coordinates": [
            33.07964213,
            -111.97683185
        ]
    },
    "properties": {
        "ht_label": "p10-03"
    },
    "_id": "641e11cf8ac547e1042e7956",
    "chid": "641e11cf8ac547e1042e7956"
}{
    "type": "Feature",
    "geometry": {
        "type": "Point",
        "coordinates": [
            33.07955194,
            -111.97683248
        ]
    },
    "properties": {
        "ht_label": "p10-04"
    },
    "_id": "641e11cf8ac547e1042e7957",
    "chid": "641e11cf8ac547e1042e7957"
}{
    "type": "Feature",
    "geometry": {
        "type": "Point",
        "coordinates": [
            33.07946175,
            -111.97683311
        ]
    },
    "properties": {
        "ht_label": "p10-05"
    },
    "_id": "641e11cf8ac547e1042e7958",
    "chid": "641e11cf8ac547e1042e7958"
}{
    "type": "Feature",
    "geometry": {
        "type": "Point",
        "coordinates": [
            33.07937156,
            -111.97683375
        ]
    },
    "properties": {
        "ht_label": "p10-06"
    },
    "_id": "641e11cf8ac547e1042e7959",
    "chid": "641e11cf8ac547e1042e7959"
}{
    "type": "Feature",
    "geometry": {
        "type": "Point",
        "coordinates": [
            33.07928137,
            -111.97683438
        ]
    },
    "properties": {
        "ht_label": "p10-07"
    },
    "_id": "641e11cf8ac547e1042e795a",
    "chid": "641e11cf8ac547e1042e795a"
}{
    "type": "Feature",
    "geometry": {
        "type": "Point",
        "coordinates": [
            33.07919117,
            -111.97683501
        ]
    },
    "properties": {
        "ht_label": "p10-08"
    },
    "_id": "641e11cf8ac547e1042e795b",
    "chid": "641e11cf8ac547e1042e795b"
}{
    "type": "Feature",
    "geometry": {
        "type": "Point",
        "coordinates": [
            33.07910098,
            -111.97683564
        ]
    },
    "properties": {
        "ht_label": "p10-09"
    },
    "_id": "641e11cf8ac547e1042e795c",
    "chid": "641e11cf8ac547e1042e795c"
}{
    "type": "Feature",
    "geometry": {
        "type": "Point",
        "coordinates": [
            33.07901079,
            -111.97683627
        ]
    },
    "properties": {
        "ht_label": "p10-10"
    },
    "_id": "641e11cf8ac547e1042e795d",
    "chid": "641e11cf8ac547e1042e795d"
}{
    "type": "Feature",
    "geometry": {
        "type": "Point",
        "coordinates": [
            33.0789206,
            -111.9768369
        ]
    },
    "properties": {
        "ht_label": "p10-11"
    },
    "_id": "641e11cf8ac547e1042e795e",
    "chid": "641e11cf8ac547e1042e795e"
}{
    "type": "Feature",
    "geometry": {
        "type": "Point",
        "coordinates": [
            33.07883041,
            -111.97683753
        ]
    },
    "properties": {
        "ht_label": "p10-12"
    },
    "_id": "641e11cf8ac547e1042e795f",
    "chid": "641e11cf8ac547e1042e795f"
}{
    "type": "Feature",
    "geometry": {
        "type": "Point",
        "coordinates": [
            33.07874021,
            -111.97683816
        ]
    },
    "properties": {
        "ht_label": "p10-13"
    },
    "_id": "641e11cf8ac547e1042e7960",
    "chid": "641e11cf8ac547e1042e7960"
}{
    "type": "Feature",
    "geometry": {
        "type": "Point",
        "coordinates": [
            33.07865002,
            -111.97683879
        ]
    },
    "properties": {
        "ht_label": "p10-14"
    },
    "_id": "641e11cf8ac547e1042e7961",
    "chid": "641e11cf8ac547e1042e7961"
}{
    "type": "Feature",
    "geometry": {
        "type": "Point",
        "coordinates": [
            33.07855983,
            -111.97683942
        ]
    },
    "properties": {
        "ht_label": "p10-15"
    },
    "_id": "641e11cf8ac547e1042e7962",
    "chid": "641e11cf8ac547e1042e7962"
}{
    "type": "Feature",
    "geometry": {
        "type": "Point",
        "coordinates": [
            33.07982176,
            -111.97667821
        ]
    },
    "properties": {
        "ht_label": "p11-01"
    },
    "_id": "641e11cf8ac547e1042e7963",
    "chid": "641e11cf8ac547e1042e7963"
}{
    "type": "Feature",
    "geometry": {
        "type": "Point",
        "coordinates": [
            33.07973157,
            -111.97667884
        ]
    },
    "properties": {
        "ht_label": "p11-02"
    },
    "_id": "641e11cf8ac547e1042e7964",
    "chid": "641e11cf8ac547e1042e7964"
}{
    "type": "Feature",
    "geometry": {
        "type": "Point",
        "coordinates": [
            33.07964138,
            -111.97667947
        ]
    },
    "properties": {
        "ht_label": "p11-03"
    },
    "_id": "641e11cf8ac547e1042e7965",
    "chid": "641e11cf8ac547e1042e7965"
}{
    "type": "Feature",
    "geometry": {
        "type": "Point",
        "coordinates": [
            33.07955119,
            -111.9766801
        ]
    },
    "properties": {
        "ht_label": "p11-04"
    },
    "_id": "641e11cf8ac547e1042e7966",
    "chid": "641e11cf8ac547e1042e7966"
}{
    "type": "Feature",
    "geometry": {
        "type": "Point",
        "coordinates": [
            33.07946099,
            -111.97668073
        ]
    },
    "properties": {
        "ht_label": "p11-05"
    },
    "_id": "641e11cf8ac547e1042e7967",
    "chid": "641e11cf8ac547e1042e7967"
}{
    "type": "Feature",
    "geometry": {
        "type": "Point",
        "coordinates": [
            33.0793708,
            -111.97668136
        ]
    },
    "properties": {
        "ht_label": "p11-06"
    },
    "_id": "641e11cf8ac547e1042e7968",
    "chid": "641e11cf8ac547e1042e7968"
}{
    "type": "Feature",
    "geometry": {
        "type": "Point",
        "coordinates": [
            33.07928061,
            -111.97668199
        ]
    },
    "properties": {
        "ht_label": "p11-07"
    },
    "_id": "641e11cf8ac547e1042e7969",
    "chid": "641e11cf8ac547e1042e7969"
}{
    "type": "Feature",
    "geometry": {
        "type": "Point",
        "coordinates": [
            33.07919042,
            -111.97668262
        ]
    },
    "properties": {
        "ht_label": "p11-08"
    },
    "_id": "641e11cf8ac547e1042e796a",
    "chid": "641e11cf8ac547e1042e796a"
}{
    "type": "Feature",
    "geometry": {
        "type": "Point",
        "coordinates": [
            33.07910023,
            -111.97668325
        ]
    },
    "properties": {
        "ht_label": "p11-09"
    },
    "_id": "641e11cf8ac547e1042e796b",
    "chid": "641e11cf8ac547e1042e796b"
}{
    "type": "Feature",
    "geometry": {
        "type": "Point",
        "coordinates": [
            33.07901003,
            -111.97668388
        ]
    },
    "properties": {
        "ht_label": "p11-10"
    },
    "_id": "641e11cf8ac547e1042e796c",
    "chid": "641e11cf8ac547e1042e796c"
}{
    "type": "Feature",
    "geometry": {
        "type": "Point",
        "coordinates": [
            33.07891984,
            -111.97668452
        ]
    },
    "properties": {
        "ht_label": "p11-11"
    },
    "_id": "641e11cf8ac547e1042e796d",
    "chid": "641e11cf8ac547e1042e796d"
}{
    "type": "Feature",
    "geometry": {
        "type": "Point",
        "coordinates": [
            33.07882965,
            -111.97668515
        ]
    },
    "properties": {
        "ht_label": "p11-12"
    },
    "_id": "641e11cf8ac547e1042e796e",
    "chid": "641e11cf8ac547e1042e796e"
}{
    "type": "Feature",
    "geometry": {
        "type": "Point",
        "coordinates": [
            33.07873946,
            -111.97668578
        ]
    },
    "properties": {
        "ht_label": "p11-13"
    },
    "_id": "641e11cf8ac547e1042e796f",
    "chid": "641e11cf8ac547e1042e796f"
}{
    "type": "Feature",
    "geometry": {
        "type": "Point",
        "coordinates": [
            33.07864927,
            -111.97668641
        ]
    },
    "properties": {
        "ht_label": "p11-14"
    },
    "_id": "641e11cf8ac547e1042e7970",
    "chid": "641e11cf8ac547e1042e7970"
}{
    "type": "Feature",
    "geometry": {
        "type": "Point",
        "coordinates": [
            33.07855907,
            -111.97668704
        ]
    },
    "properties": {
        "ht_label": "p11-15"
    },
    "_id": "641e11cf8ac547e1042e7971",
    "chid": "641e11cf8ac547e1042e7971"
}{
    "type": "Feature",
    "geometry": {
        "type": "Point",
        "coordinates": [
            33.079821,
            -111.97652582
        ]
    },
    "properties": {
        "ht_label": "p16-01"
    },
    "_id": "641e11cf8ac547e1042e7972",
    "chid": "641e11cf8ac547e1042e7972"
}{
    "type": "Feature",
    "geometry": {
        "type": "Point",
        "coordinates": [
            33.07973081,
            -111.97652645
        ]
    },
    "properties": {
        "ht_label": "p16-02"
    },
    "_id": "641e11cf8ac547e1042e7973",
    "chid": "641e11cf8ac547e1042e7973"
}{
    "type": "Feature",
    "geometry": {
        "type": "Point",
        "coordinates": [
            33.07964062,
            -111.97652708
        ]
    },
    "properties": {
        "ht_label": "p16-03"
    },
    "_id": "641e11cf8ac547e1042e7974",
    "chid": "641e11cf8ac547e1042e7974"
}{
    "type": "Feature",
    "geometry": {
        "type": "Point",
        "coordinates": [
            33.07955043,
            -111.97652772
        ]
    },
    "properties": {
        "ht_label": "p16-04"
    },
    "_id": "641e11cf8ac547e1042e7975",
    "chid": "641e11cf8ac547e1042e7975"
}{
    "type": "Feature",
    "geometry": {
        "type": "Point",
        "coordinates": [
            33.07946024,
            -111.97652835
        ]
    },
    "properties": {
        "ht_label": "p16-05"
    },
    "_id": "641e11cf8ac547e1042e7976",
    "chid": "641e11cf8ac547e1042e7976"
}{
    "type": "Feature",
    "geometry": {
        "type": "Point",
        "coordinates": [
            33.07937005,
            -111.97652898
        ]
    },
    "properties": {
        "ht_label": "p16-06"
    },
    "_id": "641e11cf8ac547e1042e7977",
    "chid": "641e11cf8ac547e1042e7977"
}{
    "type": "Feature",
    "geometry": {
        "type": "Point",
        "coordinates": [
            33.07927985,
            -111.97652961
        ]
    },
    "properties": {
        "ht_label": "p16-07"
    },
    "_id": "641e11cf8ac547e1042e7978",
    "chid": "641e11cf8ac547e1042e7978"
}{
    "type": "Feature",
    "geometry": {
        "type": "Point",
        "coordinates": [
            33.07918966,
            -111.97653024
        ]
    },
    "properties": {
        "ht_label": "p16-08"
    },
    "_id": "641e11cf8ac547e1042e7979",
    "chid": "641e11cf8ac547e1042e7979"
}{
    "type": "Feature",
    "geometry": {
        "type": "Point",
        "coordinates": [
            33.07909947,
            -111.97653087
        ]
    },
    "properties": {
        "ht_label": "p16-09"
    },
    "_id": "641e11cf8ac547e1042e797a",
    "chid": "641e11cf8ac547e1042e797a"
}{
    "type": "Feature",
    "geometry": {
        "type": "Point",
        "coordinates": [
            33.07900928,
            -111.9765315
        ]
    },
    "properties": {
        "ht_label": "p16-10"
    },
    "_id": "641e11cf8ac547e1042e797b",
    "chid": "641e11cf8ac547e1042e797b"
}{
    "type": "Feature",
    "geometry": {
        "type": "Point",
        "coordinates": [
            33.07891909,
            -111.97653213
        ]
    },
    "properties": {
        "ht_label": "p16-11"
    },
    "_id": "641e11cf8ac547e1042e797c",
    "chid": "641e11cf8ac547e1042e797c"
}{
    "type": "Feature",
    "geometry": {
        "type": "Point",
        "coordinates": [
            33.07882889,
            -111.97653276
        ]
    },
    "properties": {
        "ht_label": "p16-12"
    },
    "_id": "641e11cf8ac547e1042e797d",
    "chid": "641e11cf8ac547e1042e797d"
}{
    "type": "Feature",
    "geometry": {
        "type": "Point",
        "coordinates": [
            33.0787387,
            -111.97653339
        ]
    },
    "properties": {
        "ht_label": "p16-13"
    },
    "_id": "641e11cf8ac547e1042e797e",
    "chid": "641e11cf8ac547e1042e797e"
}{
    "type": "Feature",
    "geometry": {
        "type": "Point",
        "coordinates": [
            33.07864851,
            -111.97653403
        ]
    },
    "properties": {
        "ht_label": "p16-14"
    },
    "_id": "641e11cf8ac547e1042e797f",
    "chid": "641e11cf8ac547e1042e797f"
}{
    "type": "Feature",
    "geometry": {
        "type": "Point",
        "coordinates": [
            33.07855832,
            -111.97653466
        ]
    },
    "properties": {
        "ht_label": "p16-15"
    },
    "_id": "641e11cf8ac547e1042e7980",
    "chid": "641e11cf8ac547e1042e7980"
}