{
    "type": "Feature",
    "geometry": {
        "type": "Polygon",
        "coordinates": [
            [
                [
                    -111.97812809,
                    33.07847603
                ],
                [
                    -111.9782587,
                    33.07847668
                ],
                [
                    -111.97824864,
                    33.07991975
                ],
                [
                    -111.97811802,
                    33.0799191
                ],
                [
                    -111.97812809,
                    33.07847603
                ]
            ]
        ]
    },
    "properties": {
        "plt_label": "p01",
        "trt_label": "STRIP",
        "PLT_AREA": 1950.719954,
        "haids": [
            "641df3d58ac5479be3717bf0",
            "641df3d58ac5479be3717bf1",
            "641df3d58ac5479be3717bf2",
            "641df3d58ac5479be3717bf3",
            "641df3d58ac5479be3717bf4",
            "641df3d58ac5479be3717bf5",
            "641df3d58ac5479be3717bf6",
            "641df3d58ac5479be3717bf7",
            "641df3d58ac5479be3717bf8",
            "641df3d58ac5479be3717bf9",
            "641df3d58ac5479be3717bfa",
            "641df3d58ac5479be3717bfb",
            "641df3d58ac5479be3717bfc",
            "641df3d58ac5479be3717bfd",
            "641df3d58ac5479be3717bfe",
            "641df3d58ac5479be3717bff",
            "641df3d58ac5479be3717c00",
            "641df3d58ac5479be3717c01",
            "641df3d58ac5479be3717c02",
            "641df3d58ac5479be3717c03",
            "641df3d58ac5479be3717c04",
            "641df3d58ac5479be3717c05",
            "641df3d58ac5479be3717c06",
            "641df3d58ac5479be3717c07",
            "641df3d58ac5479be3717c08",
            "641df3d58ac5479be3717c09",
            "641df3d58ac5479be3717c0a",
            "641df3d58ac5479be3717c0b",
            "641df3d58ac5479be3717c0c",
            "641df3d58ac5479be3717c0d"
        ],
        "tids": [
            "641e131b8ac547e256690e9e",
            "641e131b8ac547e256690e9f",
            "641e131b8ac547e256690ea0"
        ],
        "chids": [
            "641e11cf8ac547e1042e78cd",
            "641e11cf8ac547e1042e78ce",
            "641e11cf8ac547e1042e78cf",
            "641e11cf8ac547e1042e78d0",
            "641e11cf8ac547e1042e78d1",
            "641e11cf8ac547e1042e78d2",
            "641e11cf8ac547e1042e78d3",
            "641e11cf8ac547e1042e78d4",
            "641e11cf8ac547e1042e78d5",
            "641e11cf8ac547e1042e78d6",
            "641e11cf8ac547e1042e78d7",
            "641e11cf8ac547e1042e78d8",
            "641e11cf8ac547e1042e78d9",
            "641e11cf8ac547e1042e78da",
            "641e11cf8ac547e1042e78db"
        ]
    },
    "_id": "641df0978ac54793d974c3d5",
    "pid": "641df0978ac54793d974c3d5"
}{
    "type": "Feature",
    "geometry": {
        "type": "Polygon",
        "coordinates": [
            [
                [
                    -111.97797571,
                    33.07847528
                ],
                [
                    -111.97810632,
                    33.07847592
                ],
                [
                    -111.97809625,
                    33.07991899
                ],
                [
                    -111.97796564,
                    33.07991835
                ],
                [
                    -111.97797571,
                    33.07847528
                ]
            ]
        ]
    },
    "properties": {
        "plt_label": "p02",
        "trt_label": "NOTILL",
        "PLT_AREA": 1950.720034,
        "haids": [
            "641df3d58ac5479be3717c0e",
            "641df3d58ac5479be3717c0f",
            "641df3d58ac5479be3717c10",
            "641df3d58ac5479be3717c11",
            "641df3d58ac5479be3717c12",
            "641df3d58ac5479be3717c13",
            "641df3d58ac5479be3717c14",
            "641df3d58ac5479be3717c15",
            "641df3d58ac5479be3717c16",
            "641df3d58ac5479be3717c17",
            "641df3d58ac5479be3717c18",
            "641df3d58ac5479be3717c19",
            "641df3d58ac5479be3717c1a",
            "641df3d58ac5479be3717c1b",
            "641df3d58ac5479be3717c1c",
            "641df3d58ac5479be3717c1d",
            "641df3d58ac5479be3717c1e",
            "641df3d58ac5479be3717c1f",
            "641df3d58ac5479be3717c20",
            "641df3d58ac5479be3717c21",
            "641df3d58ac5479be3717c22",
            "641df3d58ac5479be3717c23",
            "641df3d58ac5479be3717c24",
            "641df3d58ac5479be3717c25",
            "641df3d58ac5479be3717c26",
            "641df3d58ac5479be3717c27",
            "641df3d58ac5479be3717c28",
            "641df3d58ac5479be3717c29",
            "641df3d58ac5479be3717c2a",
            "641df3d58ac5479be3717c2b"
        ],
        "tids": [
            "641e131b8ac547e256690ea1",
            "641e131b8ac547e256690ea2",
            "641e131b8ac547e256690ea3"
        ],
        "chids": [
            "641e11cf8ac547e1042e78dc",
            "641e11cf8ac547e1042e78dd",
            "641e11cf8ac547e1042e78de",
            "641e11cf8ac547e1042e78df",
            "641e11cf8ac547e1042e78e0",
            "641e11cf8ac547e1042e78e1",
            "641e11cf8ac547e1042e78e2",
            "641e11cf8ac547e1042e78e3",
            "641e11cf8ac547e1042e78e4",
            "641e11cf8ac547e1042e78e5",
            "641e11cf8ac547e1042e78e6",
            "641e11cf8ac547e1042e78e7",
            "641e11cf8ac547e1042e78e8",
            "641e11cf8ac547e1042e78e9",
            "641e11cf8ac547e1042e78ea"
        ]
    },
    "_id": "641df0978ac54793d974c3d6",
    "pid": "641df0978ac54793d974c3d6"
}{
    "type": "Feature",
    "geometry": {
        "type": "Polygon",
        "coordinates": [
            [
                [
                    -111.97782333,
                    33.07847452
                ],
                [
                    -111.97795394,
                    33.07847517
                ],
                [
                    -111.97794387,
                    33.07991824
                ],
                [
                    -111.97781325,
                    33.07991759
                ],
                [
                    -111.97782333,
                    33.07847452
                ]
            ]
        ]
    },
    "properties": {
        "plt_label": "p03",
        "trt_label": "NOTILL",
        "PLT_AREA": 1950.720041,
        "haids": [
            "641df3d58ac5479be3717c2c",
            "641df3d58ac5479be3717c2d",
            "641df3d58ac5479be3717c2e",
            "641df3d58ac5479be3717c2f",
            "641df3d58ac5479be3717c30",
            "641df3d58ac5479be3717c31",
            "641df3d58ac5479be3717c32",
            "641df3d58ac5479be3717c33",
            "641df3d58ac5479be3717c34",
            "641df3d58ac5479be3717c35",
            "641df3d58ac5479be3717c36",
            "641df3d58ac5479be3717c37",
            "641df3d58ac5479be3717c38",
            "641df3d58ac5479be3717c39",
            "641df3d58ac5479be3717c3a",
            "641df3d58ac5479be3717c3b",
            "641df3d58ac5479be3717c3c",
            "641df3d58ac5479be3717c3d",
            "641df3d58ac5479be3717c3e",
            "641df3d58ac5479be3717c3f",
            "641df3d58ac5479be3717c40",
            "641df3d58ac5479be3717c41",
            "641df3d58ac5479be3717c42",
            "641df3d58ac5479be3717c43",
            "641df3d58ac5479be3717c44",
            "641df3d58ac5479be3717c45",
            "641df3d58ac5479be3717c46",
            "641df3d58ac5479be3717c47",
            "641df3d58ac5479be3717c48",
            "641df3d58ac5479be3717c49"
        ],
        "tids": [
            "641e131b8ac547e256690ea4",
            "641e131b8ac547e256690ea5",
            "641e131b8ac547e256690ea6"
        ],
        "chids": [
            "641e11cf8ac547e1042e78eb",
            "641e11cf8ac547e1042e78ec",
            "641e11cf8ac547e1042e78ed",
            "641e11cf8ac547e1042e78ee",
            "641e11cf8ac547e1042e78ef",
            "641e11cf8ac547e1042e78f0",
            "641e11cf8ac547e1042e78f1",
            "641e11cf8ac547e1042e78f2",
            "641e11cf8ac547e1042e78f3",
            "641e11cf8ac547e1042e78f4",
            "641e11cf8ac547e1042e78f5",
            "641e11cf8ac547e1042e78f6",
            "641e11cf8ac547e1042e78f7",
            "641e11cf8ac547e1042e78f8",
            "641e11cf8ac547e1042e78f9"
        ]
    },
    "_id": "641df0978ac54793d974c3d7",
    "pid": "641df0978ac54793d974c3d7"
}{
    "type": "Feature",
    "geometry": {
        "type": "Polygon",
        "coordinates": [
            [
                [
                    -111.97767094,
                    33.07847377
                ],
                [
                    -111.97780156,
                    33.07847441
                ],
                [
                    -111.97779148,
                    33.07991748
                ],
                [
                    -111.97766087,
                    33.07991684
                ],
                [
                    -111.97767094,
                    33.07847377
                ]
            ]
        ]
    },
    "properties": {
        "plt_label": "p04",
        "trt_label": "STRIP",
        "PLT_AREA": 1950.719961,
        "haids": [
            "641df3d58ac5479be3717c4a",
            "641df3d58ac5479be3717c4b",
            "641df3d58ac5479be3717c4c",
            "641df3d58ac5479be3717c4d",
            "641df3d58ac5479be3717c4e",
            "641df3d58ac5479be3717c4f",
            "641df3d58ac5479be3717c50",
            "641df3d58ac5479be3717c51",
            "641df3d58ac5479be3717c52",
            "641df3d58ac5479be3717c53",
            "641df3d58ac5479be3717c54",
            "641df3d58ac5479be3717c55",
            "641df3d58ac5479be3717c56",
            "641df3d58ac5479be3717c57",
            "641df3d58ac5479be3717c58",
            "641df3d58ac5479be3717c59",
            "641df3d58ac5479be3717c5a",
            "641df3d58ac5479be3717c5b",
            "641df3d58ac5479be3717c5c",
            "641df3d58ac5479be3717c5d",
            "641df3d58ac5479be3717c5e",
            "641df3d58ac5479be3717c5f",
            "641df3d58ac5479be3717c60",
            "641df3d58ac5479be3717c61",
            "641df3d58ac5479be3717c62",
            "641df3d58ac5479be3717c63",
            "641df3d58ac5479be3717c64",
            "641df3d58ac5479be3717c65",
            "641df3d58ac5479be3717c66",
            "641df3d58ac5479be3717c67"
        ],
        "tids": [
            "641e131b8ac547e256690ea7",
            "641e131b8ac547e256690ea8",
            "641e131b8ac547e256690ea9"
        ],
        "chids": [
            "641e11cf8ac547e1042e78fa",
            "641e11cf8ac547e1042e78fb",
            "641e11cf8ac547e1042e78fc",
            "641e11cf8ac547e1042e78fd",
            "641e11cf8ac547e1042e78fe",
            "641e11cf8ac547e1042e78ff",
            "641e11cf8ac547e1042e7900",
            "641e11cf8ac547e1042e7901",
            "641e11cf8ac547e1042e7902",
            "641e11cf8ac547e1042e7903",
            "641e11cf8ac547e1042e7904",
            "641e11cf8ac547e1042e7905",
            "641e11cf8ac547e1042e7906",
            "641e11cf8ac547e1042e7907",
            "641e11cf8ac547e1042e7908"
        ]
    },
    "_id": "641df0978ac54793d974c3d8",
    "pid": "641df0978ac54793d974c3d8"
}{
    "type": "Feature",
    "geometry": {
        "type": "Polygon",
        "coordinates": [
            [
                [
                    -111.97751949,
                    33.07847301
                ],
                [
                    -111.9776501,
                    33.07847366
                ],
                [
                    -111.97764003,
                    33.07991673
                ],
                [
                    -111.97750941,
                    33.07991608
                ],
                [
                    -111.97751949,
                    33.07847301
                ]
            ]
        ]
    },
    "properties": {
        "plt_label": "p05",
        "trt_label": "NOTILL",
        "PLT_AREA": 1950.720053,
        "haids": [
            "641df3d58ac5479be3717c68",
            "641df3d58ac5479be3717c69",
            "641df3d58ac5479be3717c6a",
            "641df3d58ac5479be3717c6b",
            "641df3d58ac5479be3717c6c",
            "641df3d58ac5479be3717c6d",
            "641df3d58ac5479be3717c6e",
            "641df3d58ac5479be3717c6f",
            "641df3d58ac5479be3717c70",
            "641df3d58ac5479be3717c71",
            "641df3d58ac5479be3717c72",
            "641df3d58ac5479be3717c73",
            "641df3d58ac5479be3717c74",
            "641df3d58ac5479be3717c75",
            "641df3d58ac5479be3717c76",
            "641df3d58ac5479be3717c77",
            "641df3d58ac5479be3717c78",
            "641df3d58ac5479be3717c79",
            "641df3d58ac5479be3717c7a",
            "641df3d58ac5479be3717c7b",
            "641df3d58ac5479be3717c7c",
            "641df3d58ac5479be3717c7d",
            "641df3d58ac5479be3717c7e",
            "641df3d58ac5479be3717c7f",
            "641df3d58ac5479be3717c80",
            "641df3d58ac5479be3717c81",
            "641df3d58ac5479be3717c82",
            "641df3d58ac5479be3717c83",
            "641df3d58ac5479be3717c84",
            "641df3d58ac5479be3717c85"
        ],
        "tids": [
            "641e131b8ac547e256690eaa",
            "641e131b8ac547e256690eab",
            "641e131b8ac547e256690eac"
        ],
        "chids": [
            "641e11cf8ac547e1042e7909",
            "641e11cf8ac547e1042e790a",
            "641e11cf8ac547e1042e790b",
            "641e11cf8ac547e1042e790c",
            "641e11cf8ac547e1042e790d",
            "641e11cf8ac547e1042e790e",
            "641e11cf8ac547e1042e790f",
            "641e11cf8ac547e1042e7910",
            "641e11cf8ac547e1042e7911",
            "641e11cf8ac547e1042e7912",
            "641e11cf8ac547e1042e7913",
            "641e11cf8ac547e1042e7914",
            "641e11cf8ac547e1042e7915",
            "641e11cf8ac547e1042e7916",
            "641e11cf8ac547e1042e7917"
        ]
    },
    "_id": "641df0978ac54793d974c3d9",
    "pid": "641df0978ac54793d974c3d9"
}{
    "type": "Feature",
    "geometry": {
        "type": "Polygon",
        "coordinates": [
            [
                [
                    -111.97736711,
                    33.07847226
                ],
                [
                    -111.97749772,
                    33.0784729
                ],
                [
                    -111.97748764,
                    33.07991597
                ],
                [
                    -111.97735703,
                    33.07991533
                ],
                [
                    -111.97736711,
                    33.07847226
                ]
            ]
        ]
    },
    "properties": {
        "plt_label": "p06",
        "trt_label": "STRIP",
        "PLT_AREA": 1950.72006,
        "haids": [
            "641df3d58ac5479be3717c86",
            "641df3d58ac5479be3717c87",
            "641df3d58ac5479be3717c88",
            "641df3d58ac5479be3717c89",
            "641df3d58ac5479be3717c8a",
            "641df3d58ac5479be3717c8b",
            "641df3d58ac5479be3717c8c",
            "641df3d58ac5479be3717c8d",
            "641df3d58ac5479be3717c8e",
            "641df3d58ac5479be3717c8f",
            "641df3d58ac5479be3717c90",
            "641df3d58ac5479be3717c91",
            "641df3d58ac5479be3717c92",
            "641df3d58ac5479be3717c93",
            "641df3d58ac5479be3717c94",
            "641df3d58ac5479be3717c95",
            "641df3d58ac5479be3717c96",
            "641df3d58ac5479be3717c97",
            "641df3d58ac5479be3717c98",
            "641df3d58ac5479be3717c99",
            "641df3d58ac5479be3717c9a",
            "641df3d58ac5479be3717c9b",
            "641df3d58ac5479be3717c9c",
            "641df3d58ac5479be3717c9d",
            "641df3d58ac5479be3717c9e",
            "641df3d58ac5479be3717c9f",
            "641df3d58ac5479be3717ca0",
            "641df3d58ac5479be3717ca1",
            "641df3d58ac5479be3717ca2",
            "641df3d58ac5479be3717ca3"
        ],
        "tids": [
            "641e131b8ac547e256690ead",
            "641e131b8ac547e256690eae",
            "641e131b8ac547e256690eaf"
        ],
        "chids": [
            "641e11cf8ac547e1042e7918",
            "641e11cf8ac547e1042e7919",
            "641e11cf8ac547e1042e791a",
            "641e11cf8ac547e1042e791b",
            "641e11cf8ac547e1042e791c",
            "641e11cf8ac547e1042e791d",
            "641e11cf8ac547e1042e791e",
            "641e11cf8ac547e1042e791f",
            "641e11cf8ac547e1042e7920",
            "641e11cf8ac547e1042e7921",
            "641e11cf8ac547e1042e7922",
            "641e11cf8ac547e1042e7923",
            "641e11cf8ac547e1042e7924",
            "641e11cf8ac547e1042e7925",
            "641e11cf8ac547e1042e7926"
        ]
    },
    "_id": "641df0978ac54793d974c3da",
    "pid": "641df0978ac54793d974c3da"
}{
    "type": "Feature",
    "geometry": {
        "type": "Polygon",
        "coordinates": [
            [
                [
                    -111.97721473,
                    33.0784715
                ],
                [
                    -111.97734534,
                    33.07847215
                ],
                [
                    -111.97733526,
                    33.07991522
                ],
                [
                    -111.97720464,
                    33.07991457
                ],
                [
                    -111.97721473,
                    33.0784715
                ]
            ]
        ]
    },
    "properties": {
        "plt_label": "p07",
        "trt_label": "BEDS",
        "PLT_AREA": 1950.720048,
        "haids": [
            "641df3d58ac5479be3717ca4",
            "641df3d58ac5479be3717ca5",
            "641df3d58ac5479be3717ca6",
            "641df3d58ac5479be3717ca7",
            "641df3d58ac5479be3717ca8",
            "641df3d58ac5479be3717ca9",
            "641df3d58ac5479be3717caa",
            "641df3d58ac5479be3717cab",
            "641df3d58ac5479be3717cac",
            "641df3d58ac5479be3717cad",
            "641df3d58ac5479be3717cae",
            "641df3d58ac5479be3717caf",
            "641df3d58ac5479be3717cb0",
            "641df3d58ac5479be3717cb1",
            "641df3d58ac5479be3717cb2",
            "641df3d58ac5479be3717cb3",
            "641df3d58ac5479be3717cb4",
            "641df3d58ac5479be3717cb5",
            "641df3d58ac5479be3717cb6",
            "641df3d58ac5479be3717cb7",
            "641df3d58ac5479be3717cb8",
            "641df3d58ac5479be3717cb9",
            "641df3d58ac5479be3717cba",
            "641df3d58ac5479be3717cbb",
            "641df3d58ac5479be3717cbc",
            "641df3d58ac5479be3717cbd",
            "641df3d58ac5479be3717cbe",
            "641df3d58ac5479be3717cbf",
            "641df3d58ac5479be3717cc0",
            "641df3d58ac5479be3717cc1"
        ],
        "tids": [
            "641e131b8ac547e256690eb0",
            "641e131b8ac547e256690eb1",
            "641e131b8ac547e256690eb2"
        ],
        "chids": [
            "641e11cf8ac547e1042e7927",
            "641e11cf8ac547e1042e7928",
            "641e11cf8ac547e1042e7929",
            "641e11cf8ac547e1042e792a",
            "641e11cf8ac547e1042e792b",
            "641e11cf8ac547e1042e792c",
            "641e11cf8ac547e1042e792d",
            "641e11cf8ac547e1042e792e",
            "641e11cf8ac547e1042e792f",
            "641e11cf8ac547e1042e7930",
            "641e11cf8ac547e1042e7931",
            "641e11cf8ac547e1042e7932",
            "641e11cf8ac547e1042e7933",
            "641e11cf8ac547e1042e7934",
            "641e11cf8ac547e1042e7935"
        ]
    },
    "_id": "641df0978ac54793d974c3db",
    "pid": "641df0978ac54793d974c3db"
}{
    "type": "Feature",
    "geometry": {
        "type": "Polygon",
        "coordinates": [
            [
                [
                    -111.97706234,
                    33.07847075
                ],
                [
                    -111.97719296,
                    33.07847139
                ],
                [
                    -111.97718287,
                    33.07991446
                ],
                [
                    -111.97705226,
                    33.07991382
                ],
                [
                    -111.97706234,
                    33.07847075
                ]
            ]
        ]
    },
    "properties": {
        "plt_label": "p08",
        "trt_label": "FLAT",
        "PLT_AREA": 1950.719988,
        "haids": [
            "641df3d58ac5479be3717cc2",
            "641df3d58ac5479be3717cc3",
            "641df3d58ac5479be3717cc4",
            "641df3d58ac5479be3717cc5",
            "641df3d58ac5479be3717cc6",
            "641df3d58ac5479be3717cc7",
            "641df3d58ac5479be3717cc8",
            "641df3d58ac5479be3717cc9",
            "641df3d58ac5479be3717cca",
            "641df3d58ac5479be3717ccb",
            "641df3d58ac5479be3717ccc",
            "641df3d58ac5479be3717ccd",
            "641df3d58ac5479be3717cce",
            "641df3d58ac5479be3717ccf",
            "641df3d58ac5479be3717cd0",
            "641df3d58ac5479be3717cd1",
            "641df3d58ac5479be3717cd2",
            "641df3d58ac5479be3717cd3",
            "641df3d58ac5479be3717cd4",
            "641df3d58ac5479be3717cd5",
            "641df3d58ac5479be3717cd6",
            "641df3d58ac5479be3717cd7",
            "641df3d58ac5479be3717cd8",
            "641df3d58ac5479be3717cd9",
            "641df3d58ac5479be3717cda",
            "641df3d58ac5479be3717cdb",
            "641df3d58ac5479be3717cdc",
            "641df3d58ac5479be3717cdd",
            "641df3d58ac5479be3717cde",
            "641df3d58ac5479be3717cdf"
        ],
        "tids": [
            "641e131b8ac547e256690eb3",
            "641e131b8ac547e256690eb4",
            "641e131b8ac547e256690eb5"
        ],
        "chids": [
            "641e11cf8ac547e1042e7936",
            "641e11cf8ac547e1042e7937",
            "641e11cf8ac547e1042e7938",
            "641e11cf8ac547e1042e7939",
            "641e11cf8ac547e1042e793a",
            "641e11cf8ac547e1042e793b",
            "641e11cf8ac547e1042e793c",
            "641e11cf8ac547e1042e793d",
            "641e11cf8ac547e1042e793e",
            "641e11cf8ac547e1042e793f",
            "641e11cf8ac547e1042e7940",
            "641e11cf8ac547e1042e7941",
            "641e11cf8ac547e1042e7942",
            "641e11cf8ac547e1042e7943",
            "641e11cf8ac547e1042e7944"
        ]
    },
    "_id": "641df0978ac54793d974c3dc",
    "pid": "641df0978ac54793d974c3dc"
}{
    "type": "Feature",
    "geometry": {
        "type": "Polygon",
        "coordinates": [
            [
                [
                    -111.9769108,
                    33.07846999
                ],
                [
                    -111.97704141,
                    33.07847064
                ],
                [
                    -111.97703133,
                    33.07991371
                ],
                [
                    -111.97690071,
                    33.07991306
                ],
                [
                    -111.9769108,
                    33.07846999
                ]
            ]
        ]
    },
    "properties": {
        "plt_label": "p09",
        "trt_label": "FLAT",
        "PLT_AREA": 1950.720027,
        "haids": [
            "641df3d58ac5479be3717ce0",
            "641df3d58ac5479be3717ce1",
            "641df3d58ac5479be3717ce2",
            "641df3d58ac5479be3717ce3",
            "641df3d58ac5479be3717ce4",
            "641df3d58ac5479be3717ce5",
            "641df3d58ac5479be3717ce6",
            "641df3d58ac5479be3717ce7",
            "641df3d58ac5479be3717ce8",
            "641df3d58ac5479be3717ce9",
            "641df3d58ac5479be3717cea",
            "641df3d58ac5479be3717ceb",
            "641df3d58ac5479be3717cec",
            "641df3d58ac5479be3717ced",
            "641df3d58ac5479be3717cee",
            "641df3d58ac5479be3717cef",
            "641df3d58ac5479be3717cf0",
            "641df3d58ac5479be3717cf1",
            "641df3d58ac5479be3717cf2",
            "641df3d58ac5479be3717cf3",
            "641df3d58ac5479be3717cf4",
            "641df3d58ac5479be3717cf5",
            "641df3d58ac5479be3717cf6",
            "641df3d58ac5479be3717cf7",
            "641df3d58ac5479be3717cf8",
            "641df3d58ac5479be3717cf9",
            "641df3d58ac5479be3717cfa",
            "641df3d58ac5479be3717cfb",
            "641df3d58ac5479be3717cfc",
            "641df3d58ac5479be3717cfd"
        ],
        "tids": [
            "641e131b8ac547e256690eb6",
            "641e131b8ac547e256690eb7",
            "641e131b8ac547e256690eb8"
        ],
        "chids": [
            "641e11cf8ac547e1042e7945",
            "641e11cf8ac547e1042e7946",
            "641e11cf8ac547e1042e7947",
            "641e11cf8ac547e1042e7948",
            "641e11cf8ac547e1042e7949",
            "641e11cf8ac547e1042e794a",
            "641e11cf8ac547e1042e794b",
            "641e11cf8ac547e1042e794c",
            "641e11cf8ac547e1042e794d",
            "641e11cf8ac547e1042e794e",
            "641e11cf8ac547e1042e794f",
            "641e11cf8ac547e1042e7950",
            "641e11cf8ac547e1042e7951",
            "641e11cf8ac547e1042e7952",
            "641e11cf8ac547e1042e7953"
        ]
    },
    "_id": "641df0978ac54793d974c3dd",
    "pid": "641df0978ac54793d974c3dd"
}{
    "type": "Feature",
    "geometry": {
        "type": "Polygon",
        "coordinates": [
            [
                [
                    -111.97675842,
                    33.07846923
                ],
                [
                    -111.97688903,
                    33.07846988
                ],
                [
                    -111.97687894,
                    33.07991295
                ],
                [
                    -111.97674833,
                    33.0799123
                ],
                [
                    -111.97675842,
                    33.07846923
                ]
            ]
        ]
    },
    "properties": {
        "plt_label": "p10",
        "trt_label": "BEDS",
        "PLT_AREA": 1950.720022,
        "haids": [
            "641df3d58ac5479be3717cfe",
            "641df3d58ac5479be3717cff",
            "641df3d58ac5479be3717d00",
            "641df3d58ac5479be3717d01",
            "641df3d58ac5479be3717d02",
            "641df3d58ac5479be3717d03",
            "641df3d58ac5479be3717d04",
            "641df3d58ac5479be3717d05",
            "641df3d58ac5479be3717d06",
            "641df3d58ac5479be3717d07",
            "641df3d58ac5479be3717d08",
            "641df3d58ac5479be3717d09",
            "641df3d58ac5479be3717d0a",
            "641df3d58ac5479be3717d0b",
            "641df3d58ac5479be3717d0c",
            "641df3d58ac5479be3717d0d",
            "641df3d58ac5479be3717d0e",
            "641df3d58ac5479be3717d0f",
            "641df3d58ac5479be3717d10",
            "641df3d58ac5479be3717d11",
            "641df3d58ac5479be3717d12",
            "641df3d58ac5479be3717d13",
            "641df3d58ac5479be3717d14",
            "641df3d58ac5479be3717d15",
            "641df3d58ac5479be3717d16",
            "641df3d58ac5479be3717d17",
            "641df3d58ac5479be3717d18",
            "641df3d58ac5479be3717d19",
            "641df3d58ac5479be3717d1a",
            "641df3d58ac5479be3717d1b"
        ],
        "tids": [
            "641e131b8ac547e256690eb9",
            "641e131b8ac547e256690eba",
            "641e131b8ac547e256690ebb"
        ],
        "chids": [
            "641e11cf8ac547e1042e7954",
            "641e11cf8ac547e1042e7955",
            "641e11cf8ac547e1042e7956",
            "641e11cf8ac547e1042e7957",
            "641e11cf8ac547e1042e7958",
            "641e11cf8ac547e1042e7959",
            "641e11cf8ac547e1042e795a",
            "641e11cf8ac547e1042e795b",
            "641e11cf8ac547e1042e795c",
            "641e11cf8ac547e1042e795d",
            "641e11cf8ac547e1042e795e",
            "641e11cf8ac547e1042e795f",
            "641e11cf8ac547e1042e7960",
            "641e11cf8ac547e1042e7961",
            "641e11cf8ac547e1042e7962"
        ]
    },
    "_id": "641df0978ac54793d974c3de",
    "pid": "641df0978ac54793d974c3de"
}{
    "type": "Feature",
    "geometry": {
        "type": "Polygon",
        "coordinates": [
            [
                [
                    -111.97660604,
                    33.07846848
                ],
                [
                    -111.97673665,
                    33.07846913
                ],
                [
                    -111.97672656,
                    33.0799122
                ],
                [
                    -111.97659594,
                    33.07991155
                ],
                [
                    -111.97660604,
                    33.07846848
                ]
            ]
        ]
    },
    "properties": {
        "plt_label": "p11",
        "trt_label": "FLAT",
        "PLT_AREA": 1950.720019,
        "haids": [
            "641df3d58ac5479be3717d1c",
            "641df3d58ac5479be3717d1d",
            "641df3d58ac5479be3717d1e",
            "641df3d58ac5479be3717d1f",
            "641df3d58ac5479be3717d20",
            "641df3d58ac5479be3717d21",
            "641df3d58ac5479be3717d22",
            "641df3d58ac5479be3717d23",
            "641df3d58ac5479be3717d24",
            "641df3d58ac5479be3717d25",
            "641df3d58ac5479be3717d26",
            "641df3d58ac5479be3717d27",
            "641df3d58ac5479be3717d28",
            "641df3d58ac5479be3717d29",
            "641df3d58ac5479be3717d2a",
            "641df3d58ac5479be3717d2b",
            "641df3d58ac5479be3717d2c",
            "641df3d58ac5479be3717d2d",
            "641df3d58ac5479be3717d2e",
            "641df3d58ac5479be3717d2f",
            "641df3d58ac5479be3717d30",
            "641df3d58ac5479be3717d31",
            "641df3d58ac5479be3717d32",
            "641df3d58ac5479be3717d33",
            "641df3d58ac5479be3717d34",
            "641df3d58ac5479be3717d35",
            "641df3d58ac5479be3717d36",
            "641df3d58ac5479be3717d37",
            "641df3d58ac5479be3717d38",
            "641df3d58ac5479be3717d39"
        ],
        "tids": [
            "641e131b8ac547e256690ebc",
            "641e131b8ac547e256690ebd",
            "641e131b8ac547e256690ebe"
        ],
        "chids": [
            "641e11cf8ac547e1042e7963",
            "641e11cf8ac547e1042e7964",
            "641e11cf8ac547e1042e7965",
            "641e11cf8ac547e1042e7966",
            "641e11cf8ac547e1042e7967",
            "641e11cf8ac547e1042e7968",
            "641e11cf8ac547e1042e7969",
            "641e11cf8ac547e1042e796a",
            "641e11cf8ac547e1042e796b",
            "641e11cf8ac547e1042e796c",
            "641e11cf8ac547e1042e796d",
            "641e11cf8ac547e1042e796e",
            "641e11cf8ac547e1042e796f",
            "641e11cf8ac547e1042e7970",
            "641e11cf8ac547e1042e7971"
        ]
    },
    "_id": "641df0978ac54793d974c3df",
    "pid": "641df0978ac54793d974c3df"
}{
    "type": "Feature",
    "geometry": {
        "type": "Polygon",
        "coordinates": [
            [
                [
                    -111.97645365,
                    33.07846772
                ],
                [
                    -111.97658427,
                    33.07846837
                ],
                [
                    -111.97657417,
                    33.07991144
                ],
                [
                    -111.97644356,
                    33.07991079
                ],
                [
                    -111.97645365,
                    33.07846772
                ]
            ]
        ]
    },
    "properties": {
        "plt_label": "p12",
        "trt_label": "BEDS",
        "PLT_AREA": 1950.719929,
        "haids": [
            "641df3d58ac5479be3717d3a",
            "641df3d58ac5479be3717d3b",
            "641df3d58ac5479be3717d3c",
            "641df3d58ac5479be3717d3d",
            "641df3d58ac5479be3717d3e",
            "641df3d58ac5479be3717d3f",
            "641df3d58ac5479be3717d40",
            "641df3d58ac5479be3717d41",
            "641df3d58ac5479be3717d42",
            "641df3d58ac5479be3717d43",
            "641df3d58ac5479be3717d44",
            "641df3d58ac5479be3717d45",
            "641df3d58ac5479be3717d46",
            "641df3d58ac5479be3717d47",
            "641df3d58ac5479be3717d48",
            "641df3d58ac5479be3717d49",
            "641df3d58ac5479be3717d4a",
            "641df3d58ac5479be3717d4b",
            "641df3d58ac5479be3717d4c",
            "641df3d58ac5479be3717d4d",
            "641df3d58ac5479be3717d4e",
            "641df3d58ac5479be3717d4f",
            "641df3d58ac5479be3717d50",
            "641df3d58ac5479be3717d51",
            "641df3d58ac5479be3717d52",
            "641df3d58ac5479be3717d53",
            "641df3d58ac5479be3717d54",
            "641df3d58ac5479be3717d55",
            "641df3d58ac5479be3717d56",
            "641df3d58ac5479be3717d57"
        ],
        "tids": [
            "641e131b8ac547e256690ebf",
            "641e131b8ac547e256690ec0",
            "641e131b8ac547e256690ec1"
        ]
    },
    "_id": "641df0978ac54793d974c3e0",
    "pid": "641df0978ac54793d974c3e0"
}