{
    "type": "FeatureCollection",
    "features": [
        {
            "type": "Feature",
            "geometry": {
                "type": "Point",
                "coordinates": [
                    33.07919744,
                    -111.97819102
                ]
            },
            "properties": {
                "sa_label": "p01",
                "SOIL_DATE": "04/17/2023",
                "SLPHW": {
                    "20": 8.4,
                    "60": 8.4,
                    "100": 8.2,
                    "140": 8.2,
                    "180": 8.2
                },
                "SLPHB": {
                    "20": 7.2,
                    "60": 7.2,
                    "100": 7.2,
                    "140": 7.2,
                    "180": 7.2
                },
                "SLEC": {
                    "20": 0.3,
                    "60": 0.56,
                    "100": 1.54,
                    "140": 0.76,
                    "180": 0.77
                },
                "SLOM": {
                    "20": 1.9,
                    "60": 1.3,
                    "100": 1.4,
                    "140": 1.1,
                    "180": 1.1
                },
                "SNO3": {
                    "20": 6.9,
                    "60": 6.9,
                    "100": 30.0,
                    "140": 12.6,
                    "180": 14.5
                },
                "SLPX": {
                    "20": 7.4,
                    "60": 5.8,
                    "100": 5.7,
                    "140": 6.0,
                    "180": 5.7
                },
                "SLKE": {
                    "20": 328,
                    "60": 199,
                    "100": 146,
                    "140": 106,
                    "180": 110
                },
                "SLSU": {
                    "20": 75.3,
                    "60": 141.4,
                    "100": 409.4,
                    "140": 134.8,
                    "180": 141.0
                },
                "SLZN": {
                    "20": 1.03,
                    "60": 0.45,
                    "100": 0.19,
                    "140": 0.18,
                    "180": 0.2
                },
                "SLFE": {
                    "20": 7.0,
                    "60": 4.6,
                    "100": 4.3,
                    "140": 3.6,
                    "180": 3.7
                },
                "SLMN": {
                    "20": 24.2,
                    "60": 8.6,
                    "100": 5.3,
                    "140": 3.5,
                    "180": 3.6
                },
                "SLCU": {
                    "20": 3.32,
                    "60": 1.73,
                    "100": 0.97,
                    "140": 0.52,
                    "180": 0.54
                },
                "SLCA": {
                    "20": 3137,
                    "60": 4382,
                    "100": 5092,
                    "140": 5022,
                    "180": 5136
                },
                "SLMG": {
                    "20": 264,
                    "60": 234,
                    "100": 268,
                    "140": 248,
                    "180": 261
                },
                "SLNA": {
                    "20": 541,
                    "60": 625,
                    "100": 910,
                    "140": 446,
                    "180": 513
                },
                "SLCEC": {
                    "20": 21.1,
                    "60": 27.1,
                    "100": 32.0,
                    "140": 29.4,
                    "180": 30.4
                }
            },
            "_id": "67eaffba8ac547ac7639318c",
            "said": "67eaffba8ac547ac7639318c"
        },
        {
            "type": "Feature",
            "geometry": {
                "type": "Point",
                "coordinates": [
                    33.07919668,
                    -111.97803864
                ]
            },
            "properties": {
                "sa_label": "p02",
                "SOIL_DATE": "04/17/2023",
                "SLPHW": {
                    "20": 8.5,
                    "60": 8.6,
                    "100": 8.3,
                    "140": 8.4,
                    "180": 8.1
                },
                "SLPHB": {
                    "20": 7.2,
                    "60": 7.2,
                    "100": 7.2,
                    "140": 7.2,
                    "180": 7.2
                },
                "SLEC": {
                    "20": 0.29,
                    "60": 0.45,
                    "100": 1.17,
                    "140": 1.15,
                    "180": 0.9
                },
                "SLOM": {
                    "20": 1.9,
                    "60": 1.3,
                    "100": 1.5,
                    "140": 1.3,
                    "180": 1.0
                },
                "SNO3": {
                    "20": 4.3,
                    "60": 4.5,
                    "100": 11.0,
                    "140": 3.9,
                    "180": 5.5
                },
                "SLPX": {
                    "20": 6.5,
                    "60": 5.7,
                    "100": 5.7,
                    "140": 5.8,
                    "180": 5.6
                },
                "SLKE": {
                    "20": 351,
                    "60": 184,
                    "100": 145,
                    "140": 135,
                    "180": 84
                },
                "SLSU": {
                    "20": 49.6,
                    "60": 94.2,
                    "100": 182.0,
                    "140": 255.9,
                    "180": 153.7
                },
                "SLZN": {
                    "20": 1.2,
                    "60": 0.51,
                    "100": 0.34,
                    "140": 0.3,
                    "180": 0.47
                },
                "SLFE": {
                    "20": 6.8,
                    "60": 6.0,
                    "100": 4.2,
                    "140": 4.2,
                    "180": 3.1
                },
                "SLMN": {
                    "20": 23.1,
                    "60": 9.1,
                    "100": 2.8,
                    "140": 1.8,
                    "180": 1.7
                },
                "SLCU": {
                    "20": 3.12,
                    "60": 2.03,
                    "100": 0.73,
                    "140": 0.45,
                    "180": 0.33
                },
                "SLCA": {
                    "20": 3441,
                    "60": 3916,
                    "100": 5037,
                    "140": 5295,
                    "180": 5226
                },
                "SLMG": {
                    "20": 255,
                    "60": 222,
                    "100": 259,
                    "140": 272,
                    "180": 246
                },
                "SLNA": {
                    "20": 469,
                    "60": 690,
                    "100": 756,
                    "140": 721,
                    "180": 404
                },
                "SLCEC": {
                    "20": 22.3,
                    "60": 24.9,
                    "100": 31.0,
                    "140": 32.2,
                    "180": 30.1
                }
            },
            "_id": "67eaffba8ac547ac7639318d",
            "said": "67eaffba8ac547ac7639318d"
        },
        {
            "type": "Feature",
            "geometry": {
                "type": "Point",
                "coordinates": [
                    33.07919593,
                    -111.97788626
                ]
            },
            "properties": {
                "sa_label": "p03",
                "SOIL_DATE": "04/17/2023",
                "SLPHW": {
                    "20": 8.2,
                    "60": 8.1,
                    "100": 8.2,
                    "140": 8.3,
                    "180": 8.2
                },
                "SLPHB": {
                    "20": 7.2,
                    "60": 7.2,
                    "100": 7.2,
                    "140": 7.2,
                    "180": 7.2
                },
                "SLEC": {
                    "20": 1.35,
                    "60": 1.27,
                    "100": 1.46,
                    "140": 1.05,
                    "180": 0.93
                },
                "SLOM": {
                    "20": 1.9,
                    "60": 1.5,
                    "100": 1.3,
                    "140": 1.1,
                    "180": 1.2
                },
                "SNO3": {
                    "20": 3.7,
                    "60": 4.1,
                    "100": 3.0,
                    "140": 2.5,
                    "180": 1.9
                },
                "SLPX": {
                    "20": 7.0,
                    "60": 5.9,
                    "100": 5.8,
                    "140": 5.5,
                    "180": 5.9
                },
                "SLKE": {
                    "20": 358,
                    "60": 253,
                    "100": 119,
                    "140": 70,
                    "180": 80
                },
                "SLSU": {
                    "20": 311.3,
                    "60": 299.9,
                    "100": 209.8,
                    "140": 157.5,
                    "180": 95.2
                },
                "SLZN": {
                    "20": 1.2,
                    "60": 0.61,
                    "100": 0.48,
                    "140": 0.36,
                    "180": 0.4
                },
                "SLFE": {
                    "20": 6.9,
                    "60": 7.0,
                    "100": 4.0,
                    "140": 3.3,
                    "180": 3.5
                },
                "SLMN": {
                    "20": 22.0,
                    "60": 10.2,
                    "100": 4.3,
                    "140": 2.3,
                    "180": 1.4
                },
                "SLCU": {
                    "20": 3.54,
                    "60": 1.98,
                    "100": 0.73,
                    "140": 0.43,
                    "180": 0.3
                },
                "SLCA": {
                    "20": 3408,
                    "60": 4549,
                    "100": 5221,
                    "140": 4846,
                    "180": 5120
                },
                "SLMG": {
                    "20": 293,
                    "60": 348,
                    "100": 292,
                    "140": 235,
                    "180": 267
                },
                "SLNA": {
                    "20": 1063,
                    "60": 1242,
                    "100": 787,
                    "140": 387,
                    "180": 353
                },
                "SLCEC": {
                    "20": 25.0,
                    "60": 31.7,
                    "100": 32.3,
                    "140": 28.0,
                    "180": 29.6
                }
            },
            "_id": "67eaffba8ac547ac7639318e",
            "said": "67eaffba8ac547ac7639318e"
        },
        {
            "type": "Feature",
            "geometry": {
                "type": "Point",
                "coordinates": [
                    33.07919518,
                    -111.97773387
                ]
            },
            "properties": {
                "sa_label": "p04",
                "SOIL_DATE": "04/17/2023",
                "SLPHW": {
                    "20": 8.4,
                    "60": 8.6,
                    "100": 8.3,
                    "140": 8.2,
                    "180": 8.4
                },
                "SLPHB": {
                    "20": 7.2,
                    "60": 7.2,
                    "100": 7.2,
                    "140": 7.2,
                    "180": 7.2
                },
                "SLEC": {
                    "20": 0.41,
                    "60": 0.7,
                    "100": 1.33,
                    "140": 1.39,
                    "180": 0.84
                },
                "SLOM": {
                    "20": 1.8,
                    "60": 1.2,
                    "100": 1.3,
                    "140": 1.2,
                    "180": 1.0
                },
                "SNO3": {
                    "20": 1.3,
                    "60": 2.7,
                    "100": 6.1,
                    "140": 6.2,
                    "180": 3.4
                },
                "SLPX": {
                    "20": 7.0,
                    "60": 5.9,
                    "100": 5.7,
                    "140": 6.2,
                    "180": 5.0
                },
                "SLKE": {
                    "20": 311,
                    "60": 198,
                    "100": 117,
                    "140": 89,
                    "180": 74
                },
                "SLSU": {
                    "20": 42.4,
                    "60": 117.9,
                    "100": 205.9,
                    "140": 265.2,
                    "180": 103.9
                },
                "SLZN": {
                    "20": 0.99,
                    "60": 0.25,
                    "100": 0.16,
                    "140": 0.14,
                    "180": 0.19
                },
                "SLFE": {
                    "20": 6.9,
                    "60": 5.3,
                    "100": 4.1,
                    "140": 3.7,
                    "180": 3.9
                },
                "SLMN": {
                    "20": 22.7,
                    "60": 7.9,
                    "100": 3.0,
                    "140": 2.5,
                    "180": 2.3
                },
                "SLCU": {
                    "20": 3.47,
                    "60": 1.68,
                    "100": 0.76,
                    "140": 0.5,
                    "180": 0.36
                },
                "SLCA": {
                    "20": 3360,
                    "60": 3833,
                    "100": 4605,
                    "140": 4610,
                    "180": 4426
                },
                "SLMG": {
                    "20": 267,
                    "60": 232,
                    "100": 235,
                    "140": 241,
                    "180": 202
                },
                "SLNA": {
                    "20": 536,
                    "60": 677,
                    "100": 746,
                    "140": 487,
                    "180": 324
                },
                "SLCEC": {
                    "20": 22.2,
                    "60": 24.5,
                    "100": 28.5,
                    "140": 27.4,
                    "180": 25.4
                }
            },
            "_id": "67eaffba8ac547ac7639318f",
            "said": "67eaffba8ac547ac7639318f"
        },
        {
            "type": "Feature",
            "geometry": {
                "type": "Point",
                "coordinates": [
                    33.07919442,
                    -111.97758242
                ]
            },
            "properties": {
                "sa_label": "p05",
                "SOIL_DATE": "04/17/2023",
                "SLPHW": {
                    "20": 8.5,
                    "60": 8.4,
                    "100": 8.4,
                    "140": 8.3,
                    "180": 8.3
                },
                "SLPHB": {
                    "20": 7.2,
                    "60": 7.2,
                    "100": 7.2,
                    "140": 7.2,
                    "180": 7.2
                },
                "SLEC": {
                    "20": 0.52,
                    "60": 1.01,
                    "100": 0.96,
                    "140": 1.04,
                    "180": 0.94
                },
                "SLOM": {
                    "20": 2.0,
                    "60": 1.4,
                    "100": 1.0,
                    "140": 1.2,
                    "180": 1.1
                },
                "SNO3": {
                    "20": 3.1,
                    "60": 8.1,
                    "100": 7.9,
                    "140": 4.1,
                    "180": 2.5
                },
                "SLPX": {
                    "20": 6.3,
                    "60": 5.9,
                    "100": 6.0,
                    "140": 5.5,
                    "180": 6.2
                },
                "SLKE": {
                    "20": 268,
                    "60": 164,
                    "100": 136,
                    "140": 116,
                    "180": 89
                },
                "SLSU": {
                    "20": 56.2,
                    "60": 121.4,
                    "100": 171.5,
                    "140": 259.1,
                    "180": 91.1
                },
                "SLZN": {
                    "20": 1.2,
                    "60": 0.65,
                    "100": 0.74,
                    "140": 0.46,
                    "180": 0.69
                },
                "SLFE": {
                    "20": 6.3,
                    "60": 4.3,
                    "100": 4.1,
                    "140": 4.6,
                    "180": 4.3
                },
                "SLMN": {
                    "20": 17.8,
                    "60": 6.3,
                    "100": 4.8,
                    "140": 3.7,
                    "180": 2.3
                },
                "SLCU": {
                    "20": 3.48,
                    "60": 1.72,
                    "100": 0.74,
                    "140": 0.75,
                    "180": 0.54
                },
                "SLCA": {
                    "20": 2350,
                    "60": 3628,
                    "100": 3734,
                    "140": 4158,
                    "180": 4563
                },
                "SLMG": {
                    "20": 207,
                    "60": 261,
                    "100": 218,
                    "140": 226,
                    "180": 236
                },
                "SLNA": {
                    "20": 400,
                    "60": 576,
                    "100": 786,
                    "140": 551,
                    "180": 384
                },
                "SLCEC": {
                    "20": 15.9,
                    "60": 23.2,
                    "100": 24.3,
                    "140": 25.4,
                    "180": 26.7
                }
            },
            "_id": "67eaffba8ac547ac76393190",
            "said": "67eaffba8ac547ac76393190"
        },
        {
            "type": "Feature",
            "geometry": {
                "type": "Point",
                "coordinates": [
                    33.07919366,
                    -111.97743004
                ]
            },
            "properties": {
                "sa_label": "p06",
                "SOIL_DATE": "04/17/2023",
                "SLPHW": {
                    "20": 8.3,
                    "60": 8.4,
                    "100": 8.3,
                    "140": 8.2,
                    "180": 8.5
                },
                "SLPHB": {
                    "20": 7.2,
                    "60": 7.2,
                    "100": 7.2,
                    "140": 7.2,
                    "180": 7.2
                },
                "SLEC": {
                    "20": 0.9,
                    "60": 1.25,
                    "100": 1.38,
                    "140": 1.2,
                    "180": 0.54
                },
                "SLOM": {
                    "20": 1.8,
                    "60": 1.5,
                    "100": 1.5,
                    "140": 1.2,
                    "180": 1.0
                },
                "SNO3": {
                    "20": 3.7,
                    "60": 10.9,
                    "100": 4.3,
                    "140": 1.9,
                    "180": 1.1
                },
                "SLPX": {
                    "20": 7.2,
                    "60": 6.2,
                    "100": 6.0,
                    "140": 5.6,
                    "180": 6.1
                },
                "SLKE": {
                    "20": 325,
                    "60": 197,
                    "100": 128,
                    "140": 89,
                    "180": 101
                },
                "SLSU": {
                    "20": 148.0,
                    "60": 146.4,
                    "100": 228.1,
                    "140": 110.5,
                    "180": 60.8
                },
                "SLZN": {
                    "20": 1.03,
                    "60": 0.29,
                    "100": 0.25,
                    "140": 0.12,
                    "180": 0.24
                },
                "SLFE": {
                    "20": 6.9,
                    "60": 5.1,
                    "100": 4.3,
                    "140": 3.4,
                    "180": 3.4
                },
                "SLMN": {
                    "20": 24.1,
                    "60": 9.5,
                    "100": 4.9,
                    "140": 1.7,
                    "180": 3.9
                },
                "SLCU": {
                    "20": 3.27,
                    "60": 1.58,
                    "100": 0.8,
                    "140": 0.43,
                    "180": 0.67
                },
                "SLCA": {
                    "20": 3173,
                    "60": 4574,
                    "100": 4907,
                    "140": 4716,
                    "180": 4224
                },
                "SLMG": {
                    "20": 235,
                    "60": 264,
                    "100": 277,
                    "140": 267,
                    "180": 231
                },
                "SLNA": {
                    "20": 542,
                    "60": 913,
                    "100": 755,
                    "140": 436,
                    "180": 282
                },
                "SLCEC": {
                    "20": 21.0,
                    "60": 29.5,
                    "100": 30.5,
                    "140": 27.9,
                    "180": 24.5
                }
            },
            "_id": "67eaffba8ac547ac76393191",
            "said": "67eaffba8ac547ac76393191"
        },
        {
            "type": "Feature",
            "geometry": {
                "type": "Point",
                "coordinates": [
                    33.07919291,
                    -111.97727765
                ]
            },
            "properties": {
                "sa_label": "p07",
                "SOIL_DATE": "04/24/2023",
                "SLPHW": {
                    "20": 8.5,
                    "60": 8.5,
                    "100": 8.4,
                    "140": 8.3,
                    "180": 8.3
                },
                "SLPHB": {
                    "20": 7.2,
                    "60": 7.2,
                    "100": 7.2,
                    "140": 7.2,
                    "180": 7.2
                },
                "SLEC": {
                    "20": 0.84,
                    "60": 0.84,
                    "100": 0.9,
                    "140": 0.69,
                    "180": 0.63
                },
                "SLOM": {
                    "20": 1.8,
                    "60": 1.4,
                    "100": 1.5,
                    "140": 1.2,
                    "180": 1.0
                },
                "SNO3": {
                    "20": 3.6,
                    "60": 2.0,
                    "100": 3.3,
                    "140": 3.7,
                    "180": 3.7
                },
                "SLPX": {
                    "20": 5.9,
                    "60": 5.9,
                    "100": 5.6,
                    "140": 5.9,
                    "180": 5.8
                },
                "SLKE": {
                    "20": 258,
                    "60": 150,
                    "100": 109,
                    "140": 95,
                    "180": 72
                },
                "SLSU": {
                    "20": 89.4,
                    "60": 87.3,
                    "100": 178.6,
                    "140": 131.9,
                    "180": 83.7
                },
                "SLZN": {
                    "20": 0.6,
                    "60": 0.29,
                    "100": 0.11,
                    "140": 0.16,
                    "180": 0.34
                },
                "SLFE": {
                    "20": 3.6,
                    "60": 3.8,
                    "100": 4.1,
                    "140": 3.6,
                    "180": 3.9
                },
                "SLMN": {
                    "20": 5.9,
                    "60": 6.2,
                    "100": 1.8,
                    "140": 1.4,
                    "180": 1.5
                },
                "SLCU": {
                    "20": 2.0,
                    "60": 1.25,
                    "100": 0.53,
                    "140": 0.37,
                    "180": 0.39
                },
                "SLCA": {
                    "20": 4025,
                    "60": 4746,
                    "100": 4860,
                    "140": 4784,
                    "180": 4307
                },
                "SLMG": {
                    "20": 285,
                    "60": 240,
                    "100": 284,
                    "140": 278,
                    "180": 213
                },
                "SLNA": {
                    "20": 652,
                    "60": 717,
                    "100": 674,
                    "140": 491,
                    "180": 288
                },
                "SLCEC": {
                    "20": 26.0,
                    "60": 29.2,
                    "100": 29.9,
                    "140": 28.6,
                    "180": 24.7
                }
            },
            "_id": "67eaffba8ac547ac76393192",
            "said": "67eaffba8ac547ac76393192"
        },
        {
            "type": "Feature",
            "geometry": {
                "type": "Point",
                "coordinates": [
                    33.07919215,
                    -111.97712527
                ]
            },
            "properties": {
                "sa_label": "p08",
                "SOIL_DATE": "04/24/2023",
                "SLPHW": {
                    "20": 8.3,
                    "60": 8.7,
                    "100": 8.5,
                    "140": 8.7,
                    "180": 8.1
                },
                "SLPHB": {
                    "20": 7.2,
                    "60": 7.2,
                    "100": 7.2,
                    "140": 7.2,
                    "180": 7.2
                },
                "SLEC": {
                    "20": 0.3,
                    "60": 0.32,
                    "100": 0.47,
                    "140": 0.68,
                    "180": 0.71
                },
                "SLOM": {
                    "20": 1.7,
                    "60": 1.2,
                    "100": 1.0,
                    "140": 1.0,
                    "180": 1.2
                },
                "SNO3": {
                    "20": 3.9,
                    "60": 0.9,
                    "100": 2.7,
                    "140": 3.2,
                    "180": 6.1
                },
                "SLPX": {
                    "20": 6.9,
                    "60": 6.0,
                    "100": 5.7,
                    "140": 6.2,
                    "180": 5.6
                },
                "SLKE": {
                    "20": 263,
                    "60": 192,
                    "100": 130,
                    "140": 138,
                    "180": 116
                },
                "SLSU": {
                    "20": 25.0,
                    "60": 46.6,
                    "100": 66.6,
                    "140": 113.7,
                    "180": 187.8
                },
                "SLZN": {
                    "20": 1.05,
                    "60": 0.31,
                    "100": 0.19,
                    "140": 0.27,
                    "180": 0.24
                },
                "SLFE": {
                    "20": 5.4,
                    "60": 5.2,
                    "100": 4.4,
                    "140": 4.0,
                    "180": 4.3
                },
                "SLMN": {
                    "20": 14.1,
                    "60": 8.4,
                    "100": 4.5,
                    "140": 2.9,
                    "180": 3.2
                },
                "SLCU": {
                    "20": 2.93,
                    "60": 1.59,
                    "100": 0.85,
                    "140": 0.52,
                    "180": 0.5
                },
                "SLCA": {
                    "20": 2101,
                    "60": 2366,
                    "100": 3427,
                    "140": 4426,
                    "180": 4697
                },
                "SLMG": {
                    "20": 203,
                    "60": 227,
                    "100": 188,
                    "140": 204,
                    "180": 214
                },
                "SLNA": {
                    "20": 295,
                    "60": 518,
                    "100": 464,
                    "140": 694,
                    "180": 525
                },
                "SLCEC": {
                    "20": 14.2,
                    "60": 16.5,
                    "100": 21.1,
                    "140": 27.2,
                    "180": 27.9
                }
            },
            "_id": "67eaffba8ac547ac76393193",
            "said": "67eaffba8ac547ac76393193"
        },
        {
            "type": "Feature",
            "geometry": {
                "type": "Point",
                "coordinates": [
                    33.0791914,
                    -111.97697373
                ]
            },
            "properties": {
                "sa_label": "p09",
                "SOIL_DATE": "04/24/2023",
                "SLPHW": {
                    "20": 8.3,
                    "60": 8.2,
                    "100": 8.4,
                    "140": 8.2,
                    "180": 8.1
                },
                "SLPHB": {
                    "20": 7.2,
                    "60": 7.2,
                    "100": 7.2,
                    "140": 7.2,
                    "180": 7.2
                },
                "SLEC": {
                    "20": 0.34,
                    "60": 0.54,
                    "100": 0.84,
                    "140": 0.66,
                    "180": 0.52
                },
                "SLOM": {
                    "20": 1.9,
                    "60": 1.5,
                    "100": 1.6,
                    "140": 1.3,
                    "180": 1.5
                },
                "SNO3": {
                    "20": 2.6,
                    "60": 4.6,
                    "100": 5.2,
                    "140": 2.2,
                    "180": 2.3
                },
                "SLPX": {
                    "20": 6.7,
                    "60": 5.6,
                    "100": 5.9,
                    "140": 5.8,
                    "180": 6.0
                },
                "SLKE": {
                    "20": 342,
                    "60": 180,
                    "100": 155,
                    "140": 115,
                    "180": 149
                },
                "SLSU": {
                    "20": 42.0,
                    "60": 101.2,
                    "100": 128.8,
                    "140": 136.2,
                    "180": 112.3
                },
                "SLZN": {
                    "20": 1.05,
                    "60": 0.32,
                    "100": 0.26,
                    "140": 0.2,
                    "180": 0.59
                },
                "SLFE": {
                    "20": 5.7,
                    "60": 4.6,
                    "100": 4.6,
                    "140": 3.7,
                    "180": 3.8
                },
                "SLMN": {
                    "20": 18.0,
                    "60": 6.8,
                    "100": 5.3,
                    "140": 3.9,
                    "180": 6.6
                },
                "SLCU": {
                    "20": 3.09,
                    "60": 1.6,
                    "100": 0.86,
                    "140": 0.64,
                    "180": 0.97
                },
                "SLCA": {
                    "20": 2666,
                    "60": 3580,
                    "100": 4894,
                    "140": 4805,
                    "180": 4870
                },
                "SLMG": {
                    "20": 257,
                    "60": 301,
                    "100": 301,
                    "140": 302,
                    "180": 320
                },
                "SLNA": {
                    "20": 448,
                    "60": 607,
                    "100": 1023,
                    "140": 565,
                    "180": 453
                },
                "SLCEC": {
                    "20": 18.3,
                    "60": 23.5,
                    "100": 31.8,
                    "140": 29.3,
                    "180": 29.4
                }
            },
            "_id": "67eaffba8ac547ac76393194",
            "said": "67eaffba8ac547ac76393194"
        },
        {
            "type": "Feature",
            "geometry": {
                "type": "Point",
                "coordinates": [
                    33.07919064,
                    -111.97682134
                ]
            },
            "properties": {
                "sa_label": "p10",
                "SOIL_DATE": "04/24/2023",
                "SLPHW": {
                    "20": 8.4,
                    "60": 8.5,
                    "100": 8.3,
                    "140": 8.3,
                    "180": 8.1
                },
                "SLPHB": {
                    "20": 7.2,
                    "60": 7.2,
                    "100": 7.2,
                    "140": 7.2,
                    "180": 7.2
                },
                "SLEC": {
                    "20": 0.76,
                    "60": 2.04,
                    "100": 1.94,
                    "140": 1.3,
                    "180": 1.05
                },
                "SLOM": {
                    "20": 1.7,
                    "60": 1.3,
                    "100": 1.2,
                    "140": 1.2,
                    "180": 1.1
                },
                "SNO3": {
                    "20": 2.5,
                    "60": 8.2,
                    "100": 2.8,
                    "140": 1.9,
                    "180": 1.7
                },
                "SLPX": {
                    "20": 6.9,
                    "60": 6.0,
                    "100": 6.1,
                    "140": 5.7,
                    "180": 4.6
                },
                "SLKE": {
                    "20": 277,
                    "60": 175,
                    "100": 111,
                    "140": 92,
                    "180": 81
                },
                "SLSU": {
                    "20": 61.2,
                    "60": 164.7,
                    "100": 185.7,
                    "140": 98.9,
                    "180": 72.3
                },
                "SLZN": {
                    "20": 0.96,
                    "60": 0.32,
                    "100": 0.3,
                    "140": 0.18,
                    "180": 0.16
                },
                "SLFE": {
                    "20": 6.9,
                    "60": 5.1,
                    "100": 4.0,
                    "140": 3.4,
                    "180": 2.4
                },
                "SLMN": {
                    "20": 19.3,
                    "60": 7.4,
                    "100": 2.7,
                    "140": 1.6,
                    "180": 1.2
                },
                "SLCU": {
                    "20": 3.17,
                    "60": 1.39,
                    "100": 0.65,
                    "140": 0.43,
                    "180": 0.3
                },
                "SLCA": {
                    "20": 2960,
                    "60": 4565,
                    "100": 4712,
                    "140": 4517,
                    "180": 4217
                },
                "SLMG": {
                    "20": 248,
                    "60": 296,
                    "100": 275,
                    "140": 278,
                    "180": 268
                },
                "SLNA": {
                    "20": 618,
                    "60": 1003,
                    "100": 731,
                    "140": 398,
                    "180": 262
                },
                "SLCEC": {
                    "20": 20.3,
                    "60": 30.1,
                    "100": 29.3,
                    "140": 26.9,
                    "180": 24.7
                }
            },
            "_id": "67eaffba8ac547ac76393195",
            "said": "67eaffba8ac547ac76393195"
        },
        {
            "type": "Feature",
            "geometry": {
                "type": "Point",
                "coordinates": [
                    33.07918989,
                    -111.97666896
                ]
            },
            "properties": {
                "sa_label": "p11",
                "SOIL_DATE": "04/24/2023",
                "SLPHW": {
                    "20": 8.4,
                    "60": 8.2,
                    "100": 8.1,
                    "140": 8.3,
                    "180": 8.1
                },
                "SLPHB": {
                    "20": 7.2,
                    "60": 7.2,
                    "100": 7.2,
                    "140": 7.2,
                    "180": 7.2
                },
                "SLEC": {
                    "20": 0.95,
                    "60": 1.58,
                    "100": 3.76,
                    "140": 1.58,
                    "180": 1.16
                },
                "SLOM": {
                    "20": 1.9,
                    "60": 1.2,
                    "100": 1.3,
                    "140": 1.3,
                    "180": 1.1
                },
                "SNO3": {
                    "20": 3.1,
                    "60": 4.8,
                    "100": 7.9,
                    "140": 4.6,
                    "180": 1.9
                },
                "SLPX": {
                    "20": 7.2,
                    "60": 6.2,
                    "100": 5.8,
                    "140": 5.7,
                    "180": 5.8
                },
                "SLKE": {
                    "20": 286,
                    "60": 153,
                    "100": 127,
                    "140": 87,
                    "180": 92
                },
                "SLSU": {
                    "20": 97.2,
                    "60": 158.3,
                    "100": 301.9,
                    "140": 103.9,
                    "180": 50.8
                },
                "SLZN": {
                    "20": 0.98,
                    "60": 0.29,
                    "100": 0.24,
                    "140": 0.27,
                    "180": 0.29
                },
                "SLFE": {
                    "20": 6.2,
                    "60": 4.8,
                    "100": 4.3,
                    "140": 2.9,
                    "180": 3.2
                },
                "SLMN": {
                    "20": 21.4,
                    "60": 6.8,
                    "100": 2.9,
                    "140": 1.9,
                    "180": 2.1
                },
                "SLCU": {
                    "20": 3.14,
                    "60": 1.36,
                    "100": 0.67,
                    "140": 0.41,
                    "180": 0.38
                },
                "SLCA": {
                    "20": 2471,
                    "60": 3736,
                    "100": 4897,
                    "140": 4709,
                    "180": 4429
                },
                "SLMG": {
                    "20": 234,
                    "60": 213,
                    "100": 263,
                    "140": 223,
                    "180": 232
                },
                "SLNA": {
                    "20": 524,
                    "60": 644,
                    "100": 736,
                    "140": 358,
                    "180": 246
                },
                "SLCEC": {
                    "20": 17.3,
                    "60": 23.6,
                    "100": 30.2,
                    "140": 27.2,
                    "180": 25.4
                }
            },
            "_id": "67eaffba8ac547ac76393196",
            "said": "67eaffba8ac547ac76393196"
        },
        {
            "type": "Feature",
            "geometry": {
                "type": "Point",
                "coordinates": [
                    33.07918913,
                    -111.97651658
                ]
            },
            "properties": {
                "sa_label": "p12",
                "SOIL_DATE": "04/24/2023",
                "SLPHW": {
                    "20": 8.4,
                    "60": 8.6,
                    "100": 8.5,
                    "140": 8.7,
                    "180": 8.6
                },
                "SLPHB": {
                    "20": 7.2,
                    "60": 7.2,
                    "100": 7.2,
                    "140": 7.2,
                    "180": 7.2
                },
                "SLEC": {
                    "20": 0.3,
                    "60": 0.34,
                    "100": 0.34,
                    "140": 0.3,
                    "180": 0.28
                },
                "SLOM": {
                    "20": 1.8,
                    "60": 1.6,
                    "100": 1.4,
                    "140": 1.1,
                    "180": 1.2
                },
                "SNO3": {
                    "20": 1.6,
                    "60": 2.7,
                    "100": 2.3,
                    "140": 4.3,
                    "180": 5.0
                },
                "SLPX": {
                    "20": 6.4,
                    "60": 6.2,
                    "100": 5.6,
                    "140": 5.6,
                    "180": 5.8
                },
                "SLKE": {
                    "20": 241,
                    "60": 221,
                    "100": 121,
                    "140": 82,
                    "180": 75
                },
                "SLSU": {
                    "20": 25.4,
                    "60": 53.8,
                    "100": 49.8,
                    "140": 43.6,
                    "180": 35.6
                },
                "SLZN": {
                    "20": 0.84,
                    "60": 0.45,
                    "100": 0.24,
                    "140": 0.17,
                    "180": 0.17
                },
                "SLFE": {
                    "20": 7.4,
                    "60": 6.5,
                    "100": 5.3,
                    "140": 3.5,
                    "180": 3.4
                },
                "SLMN": {
                    "20": 17.8,
                    "60": 7.6,
                    "100": 3.2,
                    "140": 1.6,
                    "180": 1.4
                },
                "SLCU": {
                    "20": 3.04,
                    "60": 1.28,
                    "100": 0.56,
                    "140": 0.28,
                    "180": 0.3
                },
                "SLCA": {
                    "20": 2861,
                    "60": 3327,
                    "100": 3973,
                    "140": 4198,
                    "180": 4218
                },
                "SLMG": {
                    "20": 257,
                    "60": 305,
                    "100": 270,
                    "140": 233,
                    "180": 225
                },
                "SLNA": {
                    "20": 504,
                    "60": 768,
                    "100": 572,
                    "140": 360,
                    "180": 314
                },
                "SLCEC": {
                    "20": 19.3,
                    "60": 23.1,
                    "100": 24.9,
                    "140": 24.7,
                    "180": 24.5
                }
            },
            "_id": "67eaffba8ac547ac76393197",
            "said": "67eaffba8ac547ac76393197"
        }
    ]
}