{
    "type": "FeatureCollection",
    "features": [
        {
            "type": "Feature",
            "geometry": {
                "type": "Point",
                "coordinates": [
                    33.07968959,
                    -111.97841974
                ]
            },
            "properties": {
                "sa_label": "N1",
                "SOIL_DATE": "03/16/2017",
                "SNO3": {
                    "20": 0.0,
                    "60": 0.3,
                    "100": 1.6,
                    "140": 5.4,
                    "180": 7.7
                },
                "SNH4": {
                    "20": 2.8,
                    "60": 1.6,
                    "100": 0.8,
                    "140": 0.3,
                    "180": 0.8
                }
            },
            "_id": "682e28528ac5476a01c2fc4d",
            "said": "682e28528ac5476a01c2fc4d"
        },
        {
            "type": "Feature",
            "geometry": {
                "type": "Point",
                "coordinates": [
                    33.07914785,
                    -111.97842303
                ]
            },
            "properties": {
                "sa_label": "N2",
                "SOIL_DATE": "03/16/2017",
                "SNO3": {
                    "20": 0.9,
                    "60": 12.2,
                    "100": 8.2,
                    "140": 4.7,
                    "180": 3.2
                },
                "SNH4": {
                    "20": 3.5,
                    "60": 2.0,
                    "100": 0.9,
                    "140": 0.5,
                    "180": 0.7
                }
            },
            "_id": "682e28528ac5476a01c2fc4e",
            "said": "682e28528ac5476a01c2fc4e"
        },
        {
            "type": "Feature",
            "geometry": {
                "type": "Point",
                "coordinates": [
                    33.07860688,
                    -111.97842726
                ]
            },
            "properties": {
                "sa_label": "N3",
                "SOIL_DATE": "03/16/2017",
                "SNO3": {
                    "20": 3.9,
                    "60": 14.7,
                    "100": 8.8,
                    "140": 3.7,
                    "180": 3.4
                },
                "SNH4": {
                    "20": 3.8,
                    "60": 1.8,
                    "100": 0.9,
                    "140": 0.6,
                    "180": 1.0
                }
            },
            "_id": "682e28528ac5476a01c2fc4f",
            "said": "682e28528ac5476a01c2fc4f"
        },
        {
            "type": "Feature",
            "geometry": {
                "type": "Point",
                "coordinates": [
                    33.07878504,
                    -111.97812118
                ]
            },
            "properties": {
                "sa_label": "N4",
                "SOIL_DATE": "03/16/2017",
                "SNO3": {
                    "20": 0.3,
                    "60": 0.0,
                    "100": 0.0,
                    "140": 1.0,
                    "180": 2.0
                },
                "SNH4": {
                    "20": 3.9,
                    "60": 2.1,
                    "100": 1.1,
                    "140": 0.9,
                    "180": 0.8
                }
            },
            "_id": "682e28528ac5476a01c2fc50",
            "said": "682e28528ac5476a01c2fc50"
        },
        {
            "type": "Feature",
            "geometry": {
                "type": "Point",
                "coordinates": [
                    33.07950709,
                    -111.9781159
                ]
            },
            "properties": {
                "sa_label": "N5",
                "SOIL_DATE": "03/16/2017",
                "SNO3": {
                    "20": 0.0,
                    "60": 0.3,
                    "100": 1.6,
                    "140": 3.7,
                    "180": 3.4
                },
                "SNH4": {
                    "20": 3.9,
                    "60": 2.0,
                    "100": 0.9,
                    "140": 1.1,
                    "180": 1.1
                }
            },
            "_id": "682e28528ac5476a01c2fc51",
            "said": "682e28528ac5476a01c2fc51"
        },
        {
            "type": "Feature",
            "geometry": {
                "type": "Point",
                "coordinates": [
                    33.07986708,
                    -111.97796057
                ]
            },
            "properties": {
                "sa_label": "N6",
                "SOIL_DATE": "03/16/2017",
                "SNO3": {
                    "20": 0.6,
                    "60": 0.4,
                    "100": 0.6,
                    "140": 3.8,
                    "180": 7.2
                },
                "SNH4": {
                    "20": 3.7,
                    "60": 2.2,
                    "100": 1.2,
                    "140": 0.7,
                    "180": 0.7
                }
            },
            "_id": "682e28528ac5476a01c2fc52",
            "said": "682e28528ac5476a01c2fc52"
        },
        {
            "type": "Feature",
            "geometry": {
                "type": "Point",
                "coordinates": [
                    33.07914503,
                    -111.97796585
                ]
            },
            "properties": {
                "sa_label": "N7",
                "SOIL_DATE": "03/16/2017",
                "SNO3": {
                    "20": 2.3,
                    "60": 0.8,
                    "100": 2.5,
                    "140": 3.2,
                    "180": 4.1
                },
                "SNH4": {
                    "20": 3.6,
                    "60": 1.8,
                    "100": 0.6,
                    "140": 0.5,
                    "180": 0.6
                }
            },
            "_id": "682e28528ac5476a01c2fc53",
            "said": "682e28528ac5476a01c2fc53"
        },
        {
            "type": "Feature",
            "geometry": {
                "type": "Point",
                "coordinates": [
                    33.07878408,
                    -111.97781583
                ]
            },
            "properties": {
                "sa_label": "N8",
                "SOIL_DATE": "03/16/2017",
                "SNO3": {
                    "20": 0.0,
                    "60": 0.0,
                    "100": 0.2,
                    "140": 1.7,
                    "180": 1.4
                },
                "SNH4": {
                    "20": 3.1,
                    "60": 1.3,
                    "100": 1.0,
                    "140": 1.2,
                    "180": 0.8
                }
            },
            "_id": "682e28528ac5476a01c2fc54",
            "said": "682e28528ac5476a01c2fc54"
        },
        {
            "type": "Feature",
            "geometry": {
                "type": "Point",
                "coordinates": [
                    33.07950613,
                    -111.97781054
                ]
            },
            "properties": {
                "sa_label": "N9",
                "SOIL_DATE": "03/16/2017",
                "SNO3": {
                    "20": 0.4,
                    "60": 6.9,
                    "100": 6.7,
                    "140": 6.1,
                    "180": 5.0
                },
                "SNH4": {
                    "20": 4.4,
                    "60": 2.9,
                    "100": 0.7,
                    "140": 1.3,
                    "180": 0.6
                }
            },
            "_id": "682e28528ac5476a01c2fc55",
            "said": "682e28528ac5476a01c2fc55"
        },
        {
            "type": "Feature",
            "geometry": {
                "type": "Point",
                "coordinates": [
                    33.07986506,
                    -111.97750518
                ]
            },
            "properties": {
                "sa_label": "N10",
                "SOIL_DATE": "03/16/2017",
                "SNO3": {
                    "20": 1.1,
                    "60": 0.6,
                    "100": 0.9,
                    "140": 1.4,
                    "180": 2.8
                },
                "SNH4": {
                    "20": 3.9,
                    "60": 1.7,
                    "100": 1.3,
                    "140": 0.7,
                    "180": 0.6
                }
            },
            "_id": "682e28528ac5476a01c2fc56",
            "said": "682e28528ac5476a01c2fc56"
        },
        {
            "type": "Feature",
            "geometry": {
                "type": "Point",
                "coordinates": [
                    33.07914301,
                    -111.97751047
                ]
            },
            "properties": {
                "sa_label": "N11",
                "SOIL_DATE": "03/16/2017",
                "SNO3": {
                    "20": 0.7,
                    "60": -0.0,
                    "100": 0.0,
                    "140": 0.8,
                    "180": 1.2
                },
                "SNH4": {
                    "20": 3.5,
                    "60": 1.8,
                    "100": 1.4,
                    "140": 0.8,
                    "180": 0.6
                }
            },
            "_id": "682e28528ac5476a01c2fc57",
            "said": "682e28528ac5476a01c2fc57"
        },
        {
            "type": "Feature",
            "geometry": {
                "type": "Point",
                "coordinates": [
                    33.07878206,
                    -111.97736045
                ]
            },
            "properties": {
                "sa_label": "N12",
                "SOIL_DATE": "03/16/2017",
                "SNO3": {
                    "20": 0.9,
                    "60": 0.0,
                    "100": 0.0,
                    "140": 0.1,
                    "180": 0.5
                },
                "SNH4": {
                    "20": 3.0,
                    "60": 1.0,
                    "100": 0.8,
                    "140": 0.8,
                    "180": 1.0
                }
            },
            "_id": "682e28528ac5476a01c2fc58",
            "said": "682e28528ac5476a01c2fc58"
        },
        {
            "type": "Feature",
            "geometry": {
                "type": "Point",
                "coordinates": [
                    33.079503,
                    -111.97735514
                ]
            },
            "properties": {
                "sa_label": "N13",
                "SOIL_DATE": "03/16/2017",
                "SNO3": {
                    "20": 0.8,
                    "60": 0.2,
                    "100": 0.6
                },
                "SNH4": {
                    "20": 3.7,
                    "60": 1.9,
                    "100": 1.4
                }
            },
            "_id": "682e28528ac5476a01c2fc59",
            "said": "682e28528ac5476a01c2fc59"
        },
        {
            "type": "Feature",
            "geometry": {
                "type": "Point",
                "coordinates": [
                    33.07986299,
                    -111.97719982
                ]
            },
            "properties": {
                "sa_label": "N14",
                "SOIL_DATE": "03/16/2017",
                "SNO3": {
                    "20": 0.2,
                    "60": 1.2,
                    "100": 5.3,
                    "140": 4.2,
                    "180": 1.4
                },
                "SNH4": {
                    "20": 3.6,
                    "60": 1.8,
                    "100": 0.7,
                    "140": 0.6,
                    "180": 0.6
                }
            },
            "_id": "682e28528ac5476a01c2fc5a",
            "said": "682e28528ac5476a01c2fc5a"
        },
        {
            "type": "Feature",
            "geometry": {
                "type": "Point",
                "coordinates": [
                    33.07914205,
                    -111.97720512
                ]
            },
            "properties": {
                "sa_label": "N15",
                "SOIL_DATE": "03/16/2017",
                "SNO3": {
                    "20": 0.7,
                    "60": 1.8,
                    "100": 3.7,
                    "140": 2.6,
                    "180": 2.0
                },
                "SNH4": {
                    "20": 3.3,
                    "60": 1.3,
                    "100": 1.1,
                    "140": 0.8,
                    "180": 0.8
                }
            },
            "_id": "682e28528ac5476a01c2fc5b",
            "said": "682e28528ac5476a01c2fc5b"
        },
        {
            "type": "Feature",
            "geometry": {
                "type": "Point",
                "coordinates": [
                    33.07877894,
                    -111.97690373
                ]
            },
            "properties": {
                "sa_label": "N16",
                "SOIL_DATE": "03/16/2017",
                "SNO3": {
                    "20": 0.4,
                    "60": 0.2,
                    "100": 1.5,
                    "140": 0.9,
                    "180": 0.5
                },
                "SNH4": {
                    "20": 3.4,
                    "60": 1.2,
                    "100": 1.4,
                    "140": 1.8,
                    "180": 1.3
                }
            },
            "_id": "682e28528ac5476a01c2fc5c",
            "said": "682e28528ac5476a01c2fc5c"
        },
        {
            "type": "Feature",
            "geometry": {
                "type": "Point",
                "coordinates": [
                    33.07950099,
                    -111.97689843
                ]
            },
            "properties": {
                "sa_label": "N17",
                "SOIL_DATE": "03/16/2017",
                "SNO3": {
                    "20": 0.3,
                    "60": 0.1,
                    "100": 0.1,
                    "140": 0.8
                },
                "SNH4": {
                    "20": 4.7,
                    "60": 1.4,
                    "100": 1.2,
                    "140": 1.9
                }
            },
            "_id": "682e28528ac5476a01c2fc5d",
            "said": "682e28528ac5476a01c2fc5d"
        },
        {
            "type": "Feature",
            "geometry": {
                "type": "Point",
                "coordinates": [
                    33.07986097,
                    -111.97674443
                ]
            },
            "properties": {
                "sa_label": "N18",
                "SOIL_DATE": "03/16/2017",
                "SNO3": {
                    "20": 0.6,
                    "60": 0.3,
                    "100": -0.0,
                    "140": 1.3,
                    "180": 3.7
                },
                "SNH4": {
                    "20": 4.6,
                    "60": 2.2,
                    "100": 1.8,
                    "140": 1.2,
                    "180": 1.1
                }
            },
            "_id": "682e28528ac5476a01c2fc5e",
            "said": "682e28528ac5476a01c2fc5e"
        },
        {
            "type": "Feature",
            "geometry": {
                "type": "Point",
                "coordinates": [
                    33.07914004,
                    -111.97674841
                ]
            },
            "properties": {
                "sa_label": "N19",
                "SOIL_DATE": "03/16/2017",
                "SNO3": {
                    "20": 0.5,
                    "60": 0.0,
                    "100": 0.9,
                    "140": 2.5,
                    "180": 3.4
                },
                "SNH4": {
                    "20": 3.6,
                    "60": 2.0,
                    "100": 0.9,
                    "140": 0.8,
                    "180": 1.0
                }
            },
            "_id": "682e28528ac5476a01c2fc5f",
            "said": "682e28528ac5476a01c2fc5f"
        },
        {
            "type": "Feature",
            "geometry": {
                "type": "Point",
                "coordinates": [
                    33.07877796,
                    -111.9765997
                ]
            },
            "properties": {
                "sa_label": "N20",
                "SOIL_DATE": "03/16/2017",
                "SNO3": {
                    "20": 0.6,
                    "60": 0.4,
                    "100": 1.8,
                    "140": 2.8,
                    "180": 2.4
                },
                "SNH4": {
                    "20": 3.2,
                    "60": 2.6,
                    "100": 1.2,
                    "140": 1.4,
                    "180": 1.1
                }
            },
            "_id": "682e28528ac5476a01c2fc60",
            "said": "682e28528ac5476a01c2fc60"
        },
        {
            "type": "Feature",
            "geometry": {
                "type": "Point",
                "coordinates": [
                    33.07950002,
                    -111.97659441
                ]
            },
            "properties": {
                "sa_label": "N21",
                "SOIL_DATE": "03/16/2017",
                "SNO3": {
                    "20": 0.1,
                    "60": 0.0,
                    "100": 3.3,
                    "140": 5.2,
                    "180": 4.0
                },
                "SNH4": {
                    "20": 2.9,
                    "60": 1.7,
                    "100": 0.7,
                    "140": 0.7,
                    "180": 0.9
                }
            },
            "_id": "682e28528ac5476a01c2fc61",
            "said": "682e28528ac5476a01c2fc61"
        },
        {
            "type": "Feature",
            "geometry": {
                "type": "Point",
                "coordinates": [
                    33.0798589,
                    -111.97629435
                ]
            },
            "properties": {
                "sa_label": "N22",
                "SOIL_DATE": "03/16/2017",
                "SNO3": {
                    "20": 0.0,
                    "60": 0.1,
                    "100": 3.2,
                    "140": 14.9,
                    "180": 7.1
                },
                "SNH4": {
                    "20": 3.0,
                    "60": 1.7,
                    "100": 1.1,
                    "140": 0.9,
                    "180": 0.8
                }
            },
            "_id": "682e28528ac5476a01c2fc62",
            "said": "682e28528ac5476a01c2fc62"
        },
        {
            "type": "Feature",
            "geometry": {
                "type": "Point",
                "coordinates": [
                    33.07913797,
                    -111.97629966
                ]
            },
            "properties": {
                "sa_label": "N23",
                "SOIL_DATE": "03/16/2017",
                "SNO3": {
                    "20": 0.2,
                    "60": 0.1,
                    "100": 0.1
                },
                "SNH4": {
                    "20": 3.6,
                    "60": 1.4,
                    "100": 1.2
                }
            },
            "_id": "682e28528ac5476a01c2fc63",
            "said": "682e28528ac5476a01c2fc63"
        },
        {
            "type": "Feature",
            "geometry": {
                "type": "Point",
                "coordinates": [
                    33.07877543,
                    -111.97616076
                ]
            },
            "properties": {
                "sa_label": "N24",
                "SOIL_DATE": "03/16/2017",
                "SNO3": {
                    "20": 0.3,
                    "60": 0.0,
                    "100": 0.5,
                    "140": 0.5
                },
                "SNH4": {
                    "20": 2.8,
                    "60": 0.8,
                    "100": 0.6,
                    "140": 0.6
                }
            },
            "_id": "682e28528ac5476a01c2fc64",
            "said": "682e28528ac5476a01c2fc64"
        },
        {
            "type": "Feature",
            "geometry": {
                "type": "Point",
                "coordinates": [
                    33.07949724,
                    -111.97615645
                ]
            },
            "properties": {
                "sa_label": "N25",
                "SOIL_DATE": "03/16/2017",
                "SNO3": {
                    "20": 0.8,
                    "60": 0.0,
                    "100": 0.0,
                    "140": 0.2,
                    "180": 0.8
                },
                "SNH4": {
                    "20": 4.5,
                    "60": 1.6,
                    "100": 1.0,
                    "140": 1.0,
                    "180": 1.3
                }
            },
            "_id": "682e28528ac5476a01c2fc65",
            "said": "682e28528ac5476a01c2fc65"
        },
        {
            "type": "Feature",
            "geometry": {
                "type": "Point",
                "coordinates": [
                    33.07985727,
                    -111.97600075
                ]
            },
            "properties": {
                "sa_label": "N26",
                "SOIL_DATE": "03/16/2017",
                "SNO3": {
                    "20": 0.6,
                    "60": 0.9,
                    "100": 2.2,
                    "140": 3.4,
                    "180": 1.7
                },
                "SNH4": {
                    "20": 4.1,
                    "60": 1.7,
                    "100": 1.0,
                    "140": 0.6,
                    "180": 0.7
                }
            },
            "_id": "682e28528ac5476a01c2fc66",
            "said": "682e28528ac5476a01c2fc66"
        },
        {
            "type": "Feature",
            "geometry": {
                "type": "Point",
                "coordinates": [
                    33.07913545,
                    -111.97600629
                ]
            },
            "properties": {
                "sa_label": "N27",
                "SOIL_DATE": "03/16/2017",
                "SNO3": {
                    "20": 0.3,
                    "60": 0.0,
                    "100": 1.7,
                    "140": 1.7,
                    "180": 1.1
                },
                "SNH4": {
                    "20": 2.7,
                    "60": 1.0,
                    "100": 1.0,
                    "140": 0.8,
                    "180": 0.7
                }
            },
            "_id": "682e28528ac5476a01c2fc67",
            "said": "682e28528ac5476a01c2fc67"
        },
        {
            "type": "Feature",
            "geometry": {
                "type": "Point",
                "coordinates": [
                    33.07877282,
                    -111.97570136
                ]
            },
            "properties": {
                "sa_label": "N28",
                "SOIL_DATE": "03/16/2017",
                "SNO3": {
                    "20": 0.2,
                    "60": 0.0,
                    "100": 0.8,
                    "140": 1.8
                },
                "SNH4": {
                    "20": 2.3,
                    "60": 1.2,
                    "100": 1.1,
                    "140": 0.9
                }
            },
            "_id": "682e28528ac5476a01c2fc68",
            "said": "682e28528ac5476a01c2fc68"
        },
        {
            "type": "Feature",
            "geometry": {
                "type": "Point",
                "coordinates": [
                    33.07949567,
                    -111.97569583
                ]
            },
            "properties": {
                "sa_label": "N29",
                "SOIL_DATE": "03/16/2017",
                "SNO3": {
                    "20": 0.6,
                    "60": 0.0,
                    "100": -0.0,
                    "140": 1.5,
                    "180": 2.1
                },
                "SNH4": {
                    "20": 3.9,
                    "60": 0.9,
                    "100": 0.7,
                    "140": 1.1,
                    "180": 1.5
                }
            },
            "_id": "682e28528ac5476a01c2fc69",
            "said": "682e28528ac5476a01c2fc69"
        },
        {
            "type": "Feature",
            "geometry": {
                "type": "Point",
                "coordinates": [
                    33.0798557,
                    -111.97554136
                ]
            },
            "properties": {
                "sa_label": "N30",
                "SOIL_DATE": "03/16/2017",
                "SNO3": {
                    "20": 0.1,
                    "60": 1.6,
                    "100": 3.7,
                    "140": 7.5,
                    "180": 4.5
                },
                "SNH4": {
                    "20": 3.5,
                    "60": 1.4,
                    "100": 1.2,
                    "140": 0.6,
                    "180": 1.2
                }
            },
            "_id": "682e28528ac5476a01c2fc6a",
            "said": "682e28528ac5476a01c2fc6a"
        },
        {
            "type": "Feature",
            "geometry": {
                "type": "Point",
                "coordinates": [
                    33.07913388,
                    -111.9755469
                ]
            },
            "properties": {
                "sa_label": "N31",
                "SOIL_DATE": "03/16/2017",
                "SNO3": {
                    "20": 0.7,
                    "60": 0.1,
                    "100": 1.5,
                    "140": 1.7,
                    "180": 5.9
                },
                "SNH4": {
                    "20": 2.2,
                    "60": 1.5,
                    "100": 0.9,
                    "140": 0.8,
                    "180": 1.3
                }
            },
            "_id": "682e28528ac5476a01c2fc6b",
            "said": "682e28528ac5476a01c2fc6b"
        },
        {
            "type": "Feature",
            "geometry": {
                "type": "Point",
                "coordinates": [
                    33.0787721,
                    -111.97539674
                ]
            },
            "properties": {
                "sa_label": "N32",
                "SOIL_DATE": "03/16/2017",
                "SNO3": {
                    "20": 0.6,
                    "60": -0.0,
                    "100": 0.2,
                    "140": 1.3,
                    "180": 2.3
                },
                "SNH4": {
                    "20": 5.9,
                    "60": 1.2,
                    "100": 1.1,
                    "140": 0.9,
                    "180": 0.7
                }
            },
            "_id": "682e28528ac5476a01c2fc6c",
            "said": "682e28528ac5476a01c2fc6c"
        },
        {
            "type": "Feature",
            "geometry": {
                "type": "Point",
                "coordinates": [
                    33.07949392,
                    -111.9753912
                ]
            },
            "properties": {
                "sa_label": "N33",
                "SOIL_DATE": "03/16/2017",
                "SNO3": {
                    "20": 0.4,
                    "60": 0.0,
                    "100": 0.0,
                    "140": 0.0,
                    "180": 1.1
                },
                "SNH4": {
                    "20": 4.0,
                    "60": 1.3,
                    "100": 1.5,
                    "140": 0.8,
                    "180": 1.6
                }
            },
            "_id": "682e28528ac5476a01c2fc6d",
            "said": "682e28528ac5476a01c2fc6d"
        },
        {
            "type": "Feature",
            "geometry": {
                "type": "Point",
                "coordinates": [
                    33.07967263,
                    -111.97514997
                ]
            },
            "properties": {
                "sa_label": "N34",
                "SOIL_DATE": "03/16/2017",
                "SNO3": {
                    "20": 5.5,
                    "60": 7.0,
                    "100": 3.2,
                    "140": 2.4,
                    "180": 5.7
                },
                "SNH4": {
                    "20": 3.4,
                    "60": 1.3,
                    "100": 1.0,
                    "140": 0.7,
                    "180": 1.4
                }
            },
            "_id": "682e28528ac5476a01c2fc6e",
            "said": "682e28528ac5476a01c2fc6e"
        },
        {
            "type": "Feature",
            "geometry": {
                "type": "Point",
                "coordinates": [
                    33.07913178,
                    -111.97515383
                ]
            },
            "properties": {
                "sa_label": "N35",
                "SOIL_DATE": "03/16/2017",
                "SNO3": {
                    "20": 1.8,
                    "60": 2.2,
                    "100": 0.8,
                    "140": 0.4,
                    "180": 0.7
                },
                "SNH4": {
                    "20": 3.2,
                    "60": 1.5,
                    "100": 1.1,
                    "140": 1.2,
                    "180": 1.1
                }
            },
            "_id": "682e28528ac5476a01c2fc6f",
            "said": "682e28528ac5476a01c2fc6f"
        },
        {
            "type": "Feature",
            "geometry": {
                "type": "Point",
                "coordinates": [
                    33.07859094,
                    -111.97515769
                ]
            },
            "properties": {
                "sa_label": "N36",
                "SOIL_DATE": "03/16/2017",
                "SNO3": {
                    "20": 0.6,
                    "60": 0.1,
                    "100": 0.3,
                    "140": 1.6,
                    "180": 1.5
                },
                "SNH4": {
                    "20": 4.8,
                    "60": 1.3,
                    "100": 1.0,
                    "140": 0.9,
                    "180": 1.1
                }
            },
            "_id": "682e28528ac5476a01c2fc70",
            "said": "682e28528ac5476a01c2fc70"
        },
        {
            "type": "Feature",
            "geometry": {
                "type": "Point",
                "coordinates": [
                    33.07913117,
                    -111.97496835
                ]
            },
            "properties": {
                "sa_label": "N37",
                "SOIL_DATE": "03/16/2017",
                "SNO3": {
                    "20": 0.1,
                    "60": 0.1,
                    "100": 3.8,
                    "140": 4.7,
                    "180": 1.4
                },
                "SNH4": {
                    "20": 3.5,
                    "60": 3.5,
                    "100": 1.8,
                    "140": 0.9,
                    "180": 1.4
                }
            },
            "_id": "682e28528ac5476a01c2fc71",
            "said": "682e28528ac5476a01c2fc71"
        },
        {
            "type": "Feature",
            "geometry": {
                "type": "Point",
                "coordinates": [
                    33.07985298,
                    -111.97496403
                ]
            },
            "properties": {
                "sa_label": "N38",
                "SOIL_DATE": "03/16/2017",
                "SNO3": {
                    "20": 2.3,
                    "60": 2.6,
                    "100": 1.2,
                    "140": 1.0,
                    "180": 0.7
                },
                "SNH4": {
                    "20": 3.1,
                    "60": 1.3,
                    "100": 1.1,
                    "140": 0.9,
                    "180": 1.2
                }
            },
            "_id": "682e28528ac5476a01c2fc72",
            "said": "682e28528ac5476a01c2fc72"
        },
        {
            "type": "Feature",
            "geometry": {
                "type": "Point",
                "coordinates": [
                    33.07931117,
                    -111.97482663
                ]
            },
            "properties": {
                "sa_label": "N39",
                "SOIL_DATE": "03/16/2017",
                "SNO3": {
                    "20": 0.7,
                    "60": 6.9,
                    "100": 2.1,
                    "140": 2.8,
                    "180": 3.6
                },
                "SNH4": {
                    "20": 3.6,
                    "60": 2.1,
                    "100": 1.3,
                    "140": 1.5,
                    "180": 2.3
                }
            },
            "_id": "682e28528ac5476a01c2fc73",
            "said": "682e28528ac5476a01c2fc73"
        },
        {
            "type": "Feature",
            "geometry": {
                "type": "Point",
                "coordinates": [
                    33.07895026,
                    -111.97482879
                ]
            },
            "properties": {
                "sa_label": "N40",
                "SOIL_DATE": "03/16/2017",
                "SNO3": {
                    "20": 0.4,
                    "60": 0.5,
                    "100": 1.6,
                    "140": 3.7,
                    "180": 6.6
                },
                "SNH4": {
                    "20": 4.1,
                    "60": 1.9,
                    "100": 1.3,
                    "140": 1.2,
                    "180": 1.2
                }
            },
            "_id": "682e28528ac5476a01c2fc74",
            "said": "682e28528ac5476a01c2fc74"
        }
    ]
}