{
    "type": "Feature",
    "geometry": {
        "type": "Point",
        "coordinates": [
            33.07981747,
            -111.97579102
        ]
    },
    "properties": {
        "ht_label": "01-1A"
    },
    "_id": "6425d3868ac547557f53ca53",
    "chid": "6425d3868ac547557f53ca53"
}{
    "type": "Feature",
    "geometry": {
        "type": "Point",
        "coordinates": [
            33.07972726,
            -111.97579167
        ]
    },
    "properties": {
        "ht_label": "01-1B"
    },
    "_id": "6425d3868ac547557f53ca54",
    "chid": "6425d3868ac547557f53ca54"
}{
    "type": "Feature",
    "geometry": {
        "type": "Point",
        "coordinates": [
            33.07963706,
            -111.97579277
        ]
    },
    "properties": {
        "ht_label": "01-1C"
    },
    "_id": "6425d3868ac547557f53ca55",
    "chid": "6425d3868ac547557f53ca55"
}{
    "type": "Feature",
    "geometry": {
        "type": "Point",
        "coordinates": [
            33.07945663,
            -111.9757934
        ]
    },
    "properties": {
        "ht_label": "01-2A"
    },
    "_id": "6425d3868ac547557f53ca56",
    "chid": "6425d3868ac547557f53ca56"
}{
    "type": "Feature",
    "geometry": {
        "type": "Point",
        "coordinates": [
            33.07936642,
            -111.9757938
        ]
    },
    "properties": {
        "ht_label": "01-2B"
    },
    "_id": "6425d3868ac547557f53ca57",
    "chid": "6425d3868ac547557f53ca57"
}{
    "type": "Feature",
    "geometry": {
        "type": "Point",
        "coordinates": [
            33.07927622,
            -111.97579481
        ]
    },
    "properties": {
        "ht_label": "01-2C"
    },
    "_id": "6425d3868ac547557f53ca58",
    "chid": "6425d3868ac547557f53ca58"
}{
    "type": "Feature",
    "geometry": {
        "type": "Point",
        "coordinates": [
            33.07909581,
            -111.97579637
        ]
    },
    "properties": {
        "ht_label": "01-3A"
    },
    "_id": "6425d3868ac547557f53ca59",
    "chid": "6425d3868ac547557f53ca59"
}{
    "type": "Feature",
    "geometry": {
        "type": "Point",
        "coordinates": [
            33.0790056,
            -111.97579663
        ]
    },
    "properties": {
        "ht_label": "01-3B"
    },
    "_id": "6425d3868ac547557f53ca5a",
    "chid": "6425d3868ac547557f53ca5a"
}{
    "type": "Feature",
    "geometry": {
        "type": "Point",
        "coordinates": [
            33.07891539,
            -111.97579751
        ]
    },
    "properties": {
        "ht_label": "01-3C"
    },
    "_id": "6425d3868ac547557f53ca5b",
    "chid": "6425d3868ac547557f53ca5b"
}{
    "type": "Feature",
    "geometry": {
        "type": "Point",
        "coordinates": [
            33.07873497,
            -111.97579859
        ]
    },
    "properties": {
        "ht_label": "01-4A"
    },
    "_id": "6425d3868ac547557f53ca5c",
    "chid": "6425d3868ac547557f53ca5c"
}{
    "type": "Feature",
    "geometry": {
        "type": "Point",
        "coordinates": [
            33.07864476,
            -111.97579909
        ]
    },
    "properties": {
        "ht_label": "01-4B"
    },
    "_id": "6425d3868ac547557f53ca5d",
    "chid": "6425d3868ac547557f53ca5d"
}{
    "type": "Feature",
    "geometry": {
        "type": "Point",
        "coordinates": [
            33.07855455,
            -111.97579988
        ]
    },
    "properties": {
        "ht_label": "01-4C"
    },
    "_id": "6425d3868ac547557f53ca5e",
    "chid": "6425d3868ac547557f53ca5e"
}{
    "type": "Feature",
    "geometry": {
        "type": "Point",
        "coordinates": [
            33.07981824,
            -111.9759463
        ]
    },
    "properties": {
        "ht_label": "02-1A"
    },
    "_id": "6425d3868ac547557f53ca5f",
    "chid": "6425d3868ac547557f53ca5f"
}{
    "type": "Feature",
    "geometry": {
        "type": "Point",
        "coordinates": [
            33.07972803,
            -111.97594687
        ]
    },
    "properties": {
        "ht_label": "02-1B"
    },
    "_id": "6425d3868ac547557f53ca60",
    "chid": "6425d3868ac547557f53ca60"
}{
    "type": "Feature",
    "geometry": {
        "type": "Point",
        "coordinates": [
            33.07963783,
            -111.97594763
        ]
    },
    "properties": {
        "ht_label": "02-1C"
    },
    "_id": "6425d3868ac547557f53ca61",
    "chid": "6425d3868ac547557f53ca61"
}{
    "type": "Feature",
    "geometry": {
        "type": "Point",
        "coordinates": [
            33.0794574,
            -111.97594858
        ]
    },
    "properties": {
        "ht_label": "02-2A"
    },
    "_id": "6425d3868ac547557f53ca62",
    "chid": "6425d3868ac547557f53ca62"
}{
    "type": "Feature",
    "geometry": {
        "type": "Point",
        "coordinates": [
            33.0793672,
            -111.97594945
        ]
    },
    "properties": {
        "ht_label": "02-2B"
    },
    "_id": "6425d3868ac547557f53ca63",
    "chid": "6425d3868ac547557f53ca63"
}{
    "type": "Feature",
    "geometry": {
        "type": "Point",
        "coordinates": [
            33.07927699,
            -111.9759499
        ]
    },
    "properties": {
        "ht_label": "02-2C"
    },
    "_id": "6425d3868ac547557f53ca64",
    "chid": "6425d3868ac547557f53ca64"
}{
    "type": "Feature",
    "geometry": {
        "type": "Point",
        "coordinates": [
            33.07909658,
            -111.9759514
        ]
    },
    "properties": {
        "ht_label": "02-3A"
    },
    "_id": "6425d3868ac547557f53ca65",
    "chid": "6425d3868ac547557f53ca65"
}{
    "type": "Feature",
    "geometry": {
        "type": "Point",
        "coordinates": [
            33.07900637,
            -111.97595188
        ]
    },
    "properties": {
        "ht_label": "02-3B"
    },
    "_id": "6425d3868ac547557f53ca66",
    "chid": "6425d3868ac547557f53ca66"
}{
    "type": "Feature",
    "geometry": {
        "type": "Point",
        "coordinates": [
            33.07891616,
            -111.97595258
        ]
    },
    "properties": {
        "ht_label": "02-3C"
    },
    "_id": "6425d3868ac547557f53ca67",
    "chid": "6425d3868ac547557f53ca67"
}{
    "type": "Feature",
    "geometry": {
        "type": "Point",
        "coordinates": [
            33.07873574,
            -111.97595383
        ]
    },
    "properties": {
        "ht_label": "02-4A"
    },
    "_id": "6425d3868ac547557f53ca68",
    "chid": "6425d3868ac547557f53ca68"
}{
    "type": "Feature",
    "geometry": {
        "type": "Point",
        "coordinates": [
            33.07864554,
            -111.97595485
        ]
    },
    "properties": {
        "ht_label": "02-4B"
    },
    "_id": "6425d3868ac547557f53ca69",
    "chid": "6425d3868ac547557f53ca69"
}{
    "type": "Feature",
    "geometry": {
        "type": "Point",
        "coordinates": [
            33.07855533,
            -111.97595489
        ]
    },
    "properties": {
        "ht_label": "02-4C"
    },
    "_id": "6425d3868ac547557f53ca6a",
    "chid": "6425d3868ac547557f53ca6a"
}{
    "type": "Feature",
    "geometry": {
        "type": "Point",
        "coordinates": [
            33.079819,
            -111.97609888
        ]
    },
    "properties": {
        "ht_label": "03-1A"
    },
    "_id": "6425d3868ac547557f53ca6b",
    "chid": "6425d3868ac547557f53ca6b"
}{
    "type": "Feature",
    "geometry": {
        "type": "Point",
        "coordinates": [
            33.07972879,
            -111.97609938
        ]
    },
    "properties": {
        "ht_label": "03-1B"
    },
    "_id": "6425d3868ac547557f53ca6c",
    "chid": "6425d3868ac547557f53ca6c"
}{
    "type": "Feature",
    "geometry": {
        "type": "Point",
        "coordinates": [
            33.07963858,
            -111.97610001
        ]
    },
    "properties": {
        "ht_label": "03-1C"
    },
    "_id": "6425d3868ac547557f53ca6d",
    "chid": "6425d3868ac547557f53ca6d"
}{
    "type": "Feature",
    "geometry": {
        "type": "Point",
        "coordinates": [
            33.07945816,
            -111.97610126
        ]
    },
    "properties": {
        "ht_label": "03-2A"
    },
    "_id": "6425d3868ac547557f53ca6e",
    "chid": "6425d3868ac547557f53ca6e"
}{
    "type": "Feature",
    "geometry": {
        "type": "Point",
        "coordinates": [
            33.07936796,
            -111.9761019
        ]
    },
    "properties": {
        "ht_label": "03-2B"
    },
    "_id": "6425d3868ac547557f53ca6f",
    "chid": "6425d3868ac547557f53ca6f"
}{
    "type": "Feature",
    "geometry": {
        "type": "Point",
        "coordinates": [
            33.07927775,
            -111.97610276
        ]
    },
    "properties": {
        "ht_label": "03-2C"
    },
    "_id": "6425d3868ac547557f53ca70",
    "chid": "6425d3868ac547557f53ca70"
}{
    "type": "Feature",
    "geometry": {
        "type": "Point",
        "coordinates": [
            33.07909734,
            -111.9761041
        ]
    },
    "properties": {
        "ht_label": "03-3A"
    },
    "_id": "6425d3868ac547557f53ca71",
    "chid": "6425d3868ac547557f53ca71"
}{
    "type": "Feature",
    "geometry": {
        "type": "Point",
        "coordinates": [
            33.07900713,
            -111.97610442
        ]
    },
    "properties": {
        "ht_label": "03-3B"
    },
    "_id": "6425d3868ac547557f53ca72",
    "chid": "6425d3868ac547557f53ca72"
}{
    "type": "Feature",
    "geometry": {
        "type": "Point",
        "coordinates": [
            33.07891692,
            -111.97610527
        ]
    },
    "properties": {
        "ht_label": "03-3C"
    },
    "_id": "6425d3868ac547557f53ca73",
    "chid": "6425d3868ac547557f53ca73"
}{
    "type": "Feature",
    "geometry": {
        "type": "Point",
        "coordinates": [
            33.0787365,
            -111.97610621
        ]
    },
    "properties": {
        "ht_label": "03-4A"
    },
    "_id": "6425d3868ac547557f53ca74",
    "chid": "6425d3868ac547557f53ca74"
}{
    "type": "Feature",
    "geometry": {
        "type": "Point",
        "coordinates": [
            33.07864629,
            -111.97610691
        ]
    },
    "properties": {
        "ht_label": "03-4B"
    },
    "_id": "6425d3868ac547557f53ca75",
    "chid": "6425d3868ac547557f53ca75"
}{
    "type": "Feature",
    "geometry": {
        "type": "Point",
        "coordinates": [
            33.07855608,
            -111.97610754
        ]
    },
    "properties": {
        "ht_label": "03-4C"
    },
    "_id": "6425d3868ac547557f53ca76",
    "chid": "6425d3868ac547557f53ca76"
}{
    "type": "Feature",
    "geometry": {
        "type": "Point",
        "coordinates": [
            33.07981975,
            -111.97625108
        ]
    },
    "properties": {
        "ht_label": "04-1A"
    },
    "_id": "6425d3868ac547557f53ca77",
    "chid": "6425d3868ac547557f53ca77"
}{
    "type": "Feature",
    "geometry": {
        "type": "Point",
        "coordinates": [
            33.07972955,
            -111.97625148
        ]
    },
    "properties": {
        "ht_label": "04-1B"
    },
    "_id": "6425d3868ac547557f53ca78",
    "chid": "6425d3868ac547557f53ca78"
}{
    "type": "Feature",
    "geometry": {
        "type": "Point",
        "coordinates": [
            33.07963934,
            -111.97625225
        ]
    },
    "properties": {
        "ht_label": "04-1C"
    },
    "_id": "6425d3868ac547557f53ca79",
    "chid": "6425d3868ac547557f53ca79"
}{
    "type": "Feature",
    "geometry": {
        "type": "Point",
        "coordinates": [
            33.07945892,
            -111.9762538
        ]
    },
    "properties": {
        "ht_label": "04-2A"
    },
    "_id": "6425d3868ac547557f53ca7a",
    "chid": "6425d3868ac547557f53ca7a"
}{
    "type": "Feature",
    "geometry": {
        "type": "Point",
        "coordinates": [
            33.07936871,
            -111.97625419
        ]
    },
    "properties": {
        "ht_label": "04-2B"
    },
    "_id": "6425d3868ac547557f53ca7b",
    "chid": "6425d3868ac547557f53ca7b"
}{
    "type": "Feature",
    "geometry": {
        "type": "Point",
        "coordinates": [
            33.07927851,
            -111.97625504
        ]
    },
    "properties": {
        "ht_label": "04-2C"
    },
    "_id": "6425d3868ac547557f53ca7c",
    "chid": "6425d3868ac547557f53ca7c"
}{
    "type": "Feature",
    "geometry": {
        "type": "Point",
        "coordinates": [
            33.07909809,
            -111.97625633
        ]
    },
    "properties": {
        "ht_label": "04-3A"
    },
    "_id": "6425d3868ac547557f53ca7d",
    "chid": "6425d3868ac547557f53ca7d"
}{
    "type": "Feature",
    "geometry": {
        "type": "Point",
        "coordinates": [
            33.07900788,
            -111.97625691
        ]
    },
    "properties": {
        "ht_label": "04-3B"
    },
    "_id": "6425d3868ac547557f53ca7e",
    "chid": "6425d3868ac547557f53ca7e"
}{
    "type": "Feature",
    "geometry": {
        "type": "Point",
        "coordinates": [
            33.07891768,
            -111.97625754
        ]
    },
    "properties": {
        "ht_label": "04-3C"
    },
    "_id": "6425d3868ac547557f53ca7f",
    "chid": "6425d3868ac547557f53ca7f"
}{
    "type": "Feature",
    "geometry": {
        "type": "Point",
        "coordinates": [
            33.07873726,
            -111.97625859
        ]
    },
    "properties": {
        "ht_label": "04-4A"
    },
    "_id": "6425d3868ac547557f53ca80",
    "chid": "6425d3868ac547557f53ca80"
}{
    "type": "Feature",
    "geometry": {
        "type": "Point",
        "coordinates": [
            33.07864705,
            -111.97625945
        ]
    },
    "properties": {
        "ht_label": "04-4B"
    },
    "_id": "6425d3868ac547557f53ca81",
    "chid": "6425d3868ac547557f53ca81"
}{
    "type": "Feature",
    "geometry": {
        "type": "Point",
        "coordinates": [
            33.07855684,
            -111.97626007
        ]
    },
    "properties": {
        "ht_label": "04-4C"
    },
    "_id": "6425d3868ac547557f53ca82",
    "chid": "6425d3868ac547557f53ca82"
}{
    "type": "Feature",
    "geometry": {
        "type": "Point",
        "coordinates": [
            33.07982117,
            -111.97653671
        ]
    },
    "properties": {
        "ht_label": "05-1A"
    },
    "_id": "6425d3868ac547557f53ca83",
    "chid": "6425d3868ac547557f53ca83"
}{
    "type": "Feature",
    "geometry": {
        "type": "Point",
        "coordinates": [
            33.07973097,
            -111.97653732
        ]
    },
    "properties": {
        "ht_label": "05-1B"
    },
    "_id": "6425d3868ac547557f53ca84",
    "chid": "6425d3868ac547557f53ca84"
}{
    "type": "Feature",
    "geometry": {
        "type": "Point",
        "coordinates": [
            33.07964076,
            -111.97653797
        ]
    },
    "properties": {
        "ht_label": "05-1C"
    },
    "_id": "6425d3868ac547557f53ca85",
    "chid": "6425d3868ac547557f53ca85"
}{
    "type": "Feature",
    "geometry": {
        "type": "Point",
        "coordinates": [
            33.07946034,
            -111.97653913
        ]
    },
    "properties": {
        "ht_label": "05-2A"
    },
    "_id": "6425d3868ac547557f53ca86",
    "chid": "6425d3868ac547557f53ca86"
}{
    "type": "Feature",
    "geometry": {
        "type": "Point",
        "coordinates": [
            33.07937013,
            -111.97653985
        ]
    },
    "properties": {
        "ht_label": "05-2B"
    },
    "_id": "6425d3868ac547557f53ca87",
    "chid": "6425d3868ac547557f53ca87"
}{
    "type": "Feature",
    "geometry": {
        "type": "Point",
        "coordinates": [
            33.07927993,
            -111.9765407
        ]
    },
    "properties": {
        "ht_label": "05-2C"
    },
    "_id": "6425d3868ac547557f53ca88",
    "chid": "6425d3868ac547557f53ca88"
}{
    "type": "Feature",
    "geometry": {
        "type": "Point",
        "coordinates": [
            33.07909951,
            -111.97654163
        ]
    },
    "properties": {
        "ht_label": "05-3A"
    },
    "_id": "6425d3868ac547557f53ca89",
    "chid": "6425d3868ac547557f53ca89"
}{
    "type": "Feature",
    "geometry": {
        "type": "Point",
        "coordinates": [
            33.0790093,
            -111.97654252
        ]
    },
    "properties": {
        "ht_label": "05-3B"
    },
    "_id": "6425d3868ac547557f53ca8a",
    "chid": "6425d3868ac547557f53ca8a"
}{
    "type": "Feature",
    "geometry": {
        "type": "Point",
        "coordinates": [
            33.0789191,
            -111.97654337
        ]
    },
    "properties": {
        "ht_label": "05-3C"
    },
    "_id": "6425d3868ac547557f53ca8b",
    "chid": "6425d3868ac547557f53ca8b"
}{
    "type": "Feature",
    "geometry": {
        "type": "Point",
        "coordinates": [
            33.07873868,
            -111.97654409
        ]
    },
    "properties": {
        "ht_label": "05-4A"
    },
    "_id": "6425d3868ac547557f53ca8c",
    "chid": "6425d3868ac547557f53ca8c"
}{
    "type": "Feature",
    "geometry": {
        "type": "Point",
        "coordinates": [
            33.07864847,
            -111.97654497
        ]
    },
    "properties": {
        "ht_label": "05-4B"
    },
    "_id": "6425d3868ac547557f53ca8d",
    "chid": "6425d3868ac547557f53ca8d"
}{
    "type": "Feature",
    "geometry": {
        "type": "Point",
        "coordinates": [
            33.07855826,
            -111.97654583
        ]
    },
    "properties": {
        "ht_label": "05-4C"
    },
    "_id": "6425d3868ac547557f53ca8e",
    "chid": "6425d3868ac547557f53ca8e"
}{
    "type": "Feature",
    "geometry": {
        "type": "Point",
        "coordinates": [
            33.07982193,
            -111.97668943
        ]
    },
    "properties": {
        "ht_label": "06-1A"
    },
    "_id": "6425d3868ac547557f53ca8f",
    "chid": "6425d3868ac547557f53ca8f"
}{
    "type": "Feature",
    "geometry": {
        "type": "Point",
        "coordinates": [
            33.07973173,
            -111.97669001
        ]
    },
    "properties": {
        "ht_label": "06-1B"
    },
    "_id": "6425d3868ac547557f53ca90",
    "chid": "6425d3868ac547557f53ca90"
}{
    "type": "Feature",
    "geometry": {
        "type": "Point",
        "coordinates": [
            33.07964152,
            -111.97669036
        ]
    },
    "properties": {
        "ht_label": "06-1C"
    },
    "_id": "6425d3868ac547557f53ca91",
    "chid": "6425d3868ac547557f53ca91"
}{
    "type": "Feature",
    "geometry": {
        "type": "Point",
        "coordinates": [
            33.0794611,
            -111.97669166
        ]
    },
    "properties": {
        "ht_label": "06-2A"
    },
    "_id": "6425d3868ac547557f53ca92",
    "chid": "6425d3868ac547557f53ca92"
}{
    "type": "Feature",
    "geometry": {
        "type": "Point",
        "coordinates": [
            33.07937089,
            -111.97669236
        ]
    },
    "properties": {
        "ht_label": "06-2B"
    },
    "_id": "6425d3868ac547557f53ca93",
    "chid": "6425d3868ac547557f53ca93"
}{
    "type": "Feature",
    "geometry": {
        "type": "Point",
        "coordinates": [
            33.07928068,
            -111.97669271
        ]
    },
    "properties": {
        "ht_label": "06-2C"
    },
    "_id": "6425d3868ac547557f53ca94",
    "chid": "6425d3868ac547557f53ca94"
}{
    "type": "Feature",
    "geometry": {
        "type": "Point",
        "coordinates": [
            33.07910027,
            -111.97669418
        ]
    },
    "properties": {
        "ht_label": "06-3A"
    },
    "_id": "6425d3868ac547557f53ca95",
    "chid": "6425d3868ac547557f53ca95"
}{
    "type": "Feature",
    "geometry": {
        "type": "Point",
        "coordinates": [
            33.07901006,
            -111.9766949
        ]
    },
    "properties": {
        "ht_label": "06-3B"
    },
    "_id": "6425d3868ac547557f53ca96",
    "chid": "6425d3868ac547557f53ca96"
}{
    "type": "Feature",
    "geometry": {
        "type": "Point",
        "coordinates": [
            33.07891985,
            -111.97669556
        ]
    },
    "properties": {
        "ht_label": "06-3C"
    },
    "_id": "6425d3868ac547557f53ca97",
    "chid": "6425d3868ac547557f53ca97"
}{
    "type": "Feature",
    "geometry": {
        "type": "Point",
        "coordinates": [
            33.07873944,
            -111.97669637
        ]
    },
    "properties": {
        "ht_label": "06-4A"
    },
    "_id": "6425d3868ac547557f53ca98",
    "chid": "6425d3868ac547557f53ca98"
}{
    "type": "Feature",
    "geometry": {
        "type": "Point",
        "coordinates": [
            33.07864923,
            -111.97669748
        ]
    },
    "properties": {
        "ht_label": "06-4B"
    },
    "_id": "6425d3868ac547557f53ca99",
    "chid": "6425d3868ac547557f53ca99"
}{
    "type": "Feature",
    "geometry": {
        "type": "Point",
        "coordinates": [
            33.07855902,
            -111.9766983
        ]
    },
    "properties": {
        "ht_label": "06-4C"
    },
    "_id": "6425d3868ac547557f53ca9a",
    "chid": "6425d3868ac547557f53ca9a"
}{
    "type": "Feature",
    "geometry": {
        "type": "Point",
        "coordinates": [
            33.07982269,
            -111.97684169
        ]
    },
    "properties": {
        "ht_label": "07-1A"
    },
    "_id": "6425d3868ac547557f53ca9b",
    "chid": "6425d3868ac547557f53ca9b"
}{
    "type": "Feature",
    "geometry": {
        "type": "Point",
        "coordinates": [
            33.07973248,
            -111.9768421
        ]
    },
    "properties": {
        "ht_label": "07-1B"
    },
    "_id": "6425d3868ac547557f53ca9c",
    "chid": "6425d3868ac547557f53ca9c"
}{
    "type": "Feature",
    "geometry": {
        "type": "Point",
        "coordinates": [
            33.07964228,
            -111.97684271
        ]
    },
    "properties": {
        "ht_label": "07-1C"
    },
    "_id": "6425d3868ac547557f53ca9d",
    "chid": "6425d3868ac547557f53ca9d"
}{
    "type": "Feature",
    "geometry": {
        "type": "Point",
        "coordinates": [
            33.07946185,
            -111.97684343
        ]
    },
    "properties": {
        "ht_label": "07-2A"
    },
    "_id": "6425d3868ac547557f53ca9e",
    "chid": "6425d3868ac547557f53ca9e"
}{
    "type": "Feature",
    "geometry": {
        "type": "Point",
        "coordinates": [
            33.07937165,
            -111.97684449
        ]
    },
    "properties": {
        "ht_label": "07-2B"
    },
    "_id": "6425d3868ac547557f53ca9f",
    "chid": "6425d3868ac547557f53ca9f"
}{
    "type": "Feature",
    "geometry": {
        "type": "Point",
        "coordinates": [
            33.07928144,
            -111.97684533
        ]
    },
    "properties": {
        "ht_label": "07-2C"
    },
    "_id": "6425d3868ac547557f53caa0",
    "chid": "6425d3868ac547557f53caa0"
}{
    "type": "Feature",
    "geometry": {
        "type": "Point",
        "coordinates": [
            33.07910102,
            -111.97684595
        ]
    },
    "properties": {
        "ht_label": "07-3A"
    },
    "_id": "6425d3868ac547557f53caa1",
    "chid": "6425d3868ac547557f53caa1"
}{
    "type": "Feature",
    "geometry": {
        "type": "Point",
        "coordinates": [
            33.07901082,
            -111.97684708
        ]
    },
    "properties": {
        "ht_label": "07-3B"
    },
    "_id": "6425d3868ac547557f53caa2",
    "chid": "6425d3868ac547557f53caa2"
}{
    "type": "Feature",
    "geometry": {
        "type": "Point",
        "coordinates": [
            33.07892061,
            -111.9768479
        ]
    },
    "properties": {
        "ht_label": "07-3C"
    },
    "_id": "6425d3868ac547557f53caa3",
    "chid": "6425d3868ac547557f53caa3"
}{
    "type": "Feature",
    "geometry": {
        "type": "Point",
        "coordinates": [
            33.07874019,
            -111.97684906
        ]
    },
    "properties": {
        "ht_label": "07-4A"
    },
    "_id": "6425d3868ac547557f53caa4",
    "chid": "6425d3868ac547557f53caa4"
}{
    "type": "Feature",
    "geometry": {
        "type": "Point",
        "coordinates": [
            33.07864999,
            -111.97684969
        ]
    },
    "properties": {
        "ht_label": "07-4B"
    },
    "_id": "6425d3868ac547557f53caa5",
    "chid": "6425d3868ac547557f53caa5"
}{
    "type": "Feature",
    "geometry": {
        "type": "Point",
        "coordinates": [
            33.07855978,
            -111.97685006
        ]
    },
    "properties": {
        "ht_label": "07-4C"
    },
    "_id": "6425d3868ac547557f53caa6",
    "chid": "6425d3868ac547557f53caa6"
}{
    "type": "Feature",
    "geometry": {
        "type": "Point",
        "coordinates": [
            33.07982345,
            -111.97699382
        ]
    },
    "properties": {
        "ht_label": "08-1A"
    },
    "_id": "6425d3868ac547557f53caa7",
    "chid": "6425d3868ac547557f53caa7"
}{
    "type": "Feature",
    "geometry": {
        "type": "Point",
        "coordinates": [
            33.07973324,
            -111.9769944
        ]
    },
    "properties": {
        "ht_label": "08-1B"
    },
    "_id": "6425d3868ac547557f53caa8",
    "chid": "6425d3868ac547557f53caa8"
}{
    "type": "Feature",
    "geometry": {
        "type": "Point",
        "coordinates": [
            33.07964303,
            -111.97699522
        ]
    },
    "properties": {
        "ht_label": "08-1C"
    },
    "_id": "6425d3868ac547557f53caa9",
    "chid": "6425d3868ac547557f53caa9"
}{
    "type": "Feature",
    "geometry": {
        "type": "Point",
        "coordinates": [
            33.07946261,
            -111.97699643
        ]
    },
    "properties": {
        "ht_label": "08-2A"
    },
    "_id": "6425d3868ac547557f53caaa",
    "chid": "6425d3868ac547557f53caaa"
}{
    "type": "Feature",
    "geometry": {
        "type": "Point",
        "coordinates": [
            33.07937241,
            -111.97699748
        ]
    },
    "properties": {
        "ht_label": "08-2B"
    },
    "_id": "6425d3868ac547557f53caab",
    "chid": "6425d3868ac547557f53caab"
}{
    "type": "Feature",
    "geometry": {
        "type": "Point",
        "coordinates": [
            33.0792822,
            -111.97699758
        ]
    },
    "properties": {
        "ht_label": "08-2C"
    },
    "_id": "6425d3868ac547557f53caac",
    "chid": "6425d3868ac547557f53caac"
}{
    "type": "Feature",
    "geometry": {
        "type": "Point",
        "coordinates": [
            33.07910178,
            -111.97699902
        ]
    },
    "properties": {
        "ht_label": "08-3A"
    },
    "_id": "6425d3868ac547557f53caad",
    "chid": "6425d3868ac547557f53caad"
}{
    "type": "Feature",
    "geometry": {
        "type": "Point",
        "coordinates": [
            33.07901158,
            -111.97699959
        ]
    },
    "properties": {
        "ht_label": "08-3B"
    },
    "_id": "6425d3868ac547557f53caae",
    "chid": "6425d3868ac547557f53caae"
}{
    "type": "Feature",
    "geometry": {
        "type": "Point",
        "coordinates": [
            33.07892137,
            -111.97700032
        ]
    },
    "properties": {
        "ht_label": "08-3C"
    },
    "_id": "6425d3868ac547557f53caaf",
    "chid": "6425d3868ac547557f53caaf"
}{
    "type": "Feature",
    "geometry": {
        "type": "Point",
        "coordinates": [
            33.07874095,
            -111.97700164
        ]
    },
    "properties": {
        "ht_label": "08-4A"
    },
    "_id": "6425d3868ac547557f53cab0",
    "chid": "6425d3868ac547557f53cab0"
}{
    "type": "Feature",
    "geometry": {
        "type": "Point",
        "coordinates": [
            33.07865074,
            -111.97700224
        ]
    },
    "properties": {
        "ht_label": "08-4B"
    },
    "_id": "6425d3868ac547557f53cab1",
    "chid": "6425d3868ac547557f53cab1"
}{
    "type": "Feature",
    "geometry": {
        "type": "Point",
        "coordinates": [
            33.07856053,
            -111.97700259
        ]
    },
    "properties": {
        "ht_label": "08-4C"
    },
    "_id": "6425d3868ac547557f53cab2",
    "chid": "6425d3868ac547557f53cab2"
}{
    "type": "Feature",
    "geometry": {
        "type": "Point",
        "coordinates": [
            33.0798242,
            -111.97714541
        ]
    },
    "properties": {
        "ht_label": "09-1A"
    },
    "_id": "6425d3868ac547557f53cab3",
    "chid": "6425d3868ac547557f53cab3"
}{
    "type": "Feature",
    "geometry": {
        "type": "Point",
        "coordinates": [
            33.07973399,
            -111.97714623
        ]
    },
    "properties": {
        "ht_label": "09-1B"
    },
    "_id": "6425d3868ac547557f53cab4",
    "chid": "6425d3868ac547557f53cab4"
}{
    "type": "Feature",
    "geometry": {
        "type": "Point",
        "coordinates": [
            33.07964379,
            -111.97714659
        ]
    },
    "properties": {
        "ht_label": "09-1C"
    },
    "_id": "6425d3868ac547557f53cab5",
    "chid": "6425d3868ac547557f53cab5"
}{
    "type": "Feature",
    "geometry": {
        "type": "Point",
        "coordinates": [
            33.07946336,
            -111.97714774
        ]
    },
    "properties": {
        "ht_label": "09-2A"
    },
    "_id": "6425d3868ac547557f53cab6",
    "chid": "6425d3868ac547557f53cab6"
}{
    "type": "Feature",
    "geometry": {
        "type": "Point",
        "coordinates": [
            33.07937316,
            -111.97714833
        ]
    },
    "properties": {
        "ht_label": "09-2B"
    },
    "_id": "6425d3868ac547557f53cab7",
    "chid": "6425d3868ac547557f53cab7"
}{
    "type": "Feature",
    "geometry": {
        "type": "Point",
        "coordinates": [
            33.07928295,
            -111.97714915
        ]
    },
    "properties": {
        "ht_label": "09-2C"
    },
    "_id": "6425d3868ac547557f53cab8",
    "chid": "6425d3868ac547557f53cab8"
}{
    "type": "Feature",
    "geometry": {
        "type": "Point",
        "coordinates": [
            33.07910254,
            -111.97715036
        ]
    },
    "properties": {
        "ht_label": "09-3A"
    },
    "_id": "6425d3868ac547557f53cab9",
    "chid": "6425d3868ac547557f53cab9"
}{
    "type": "Feature",
    "geometry": {
        "type": "Point",
        "coordinates": [
            33.07901233,
            -111.97715094
        ]
    },
    "properties": {
        "ht_label": "09-3B"
    },
    "_id": "6425d3868ac547557f53caba",
    "chid": "6425d3868ac547557f53caba"
}{
    "type": "Feature",
    "geometry": {
        "type": "Point",
        "coordinates": [
            33.07892212,
            -111.97715177
        ]
    },
    "properties": {
        "ht_label": "09-3C"
    },
    "_id": "6425d3868ac547557f53cabb",
    "chid": "6425d3868ac547557f53cabb"
}{
    "type": "Feature",
    "geometry": {
        "type": "Point",
        "coordinates": [
            33.0787417,
            -111.97715249
        ]
    },
    "properties": {
        "ht_label": "09-4A"
    },
    "_id": "6425d3868ac547557f53cabc",
    "chid": "6425d3868ac547557f53cabc"
}{
    "type": "Feature",
    "geometry": {
        "type": "Point",
        "coordinates": [
            33.0786515,
            -111.97715373
        ]
    },
    "properties": {
        "ht_label": "09-4B"
    },
    "_id": "6425d3868ac547557f53cabd",
    "chid": "6425d3868ac547557f53cabd"
}{
    "type": "Feature",
    "geometry": {
        "type": "Point",
        "coordinates": [
            33.07856129,
            -111.97715454
        ]
    },
    "properties": {
        "ht_label": "09-4C"
    },
    "_id": "6425d3868ac547557f53cabe",
    "chid": "6425d3868ac547557f53cabe"
}{
    "type": "Feature",
    "geometry": {
        "type": "Point",
        "coordinates": [
            33.07982495,
            -111.9772977
        ]
    },
    "properties": {
        "ht_label": "10-1A"
    },
    "_id": "6425d3868ac547557f53cabf",
    "chid": "6425d3868ac547557f53cabf"
}{
    "type": "Feature",
    "geometry": {
        "type": "Point",
        "coordinates": [
            33.07973475,
            -111.97729805
        ]
    },
    "properties": {
        "ht_label": "10-1B"
    },
    "_id": "6425d3868ac547557f53cac0",
    "chid": "6425d3868ac547557f53cac0"
}{
    "type": "Feature",
    "geometry": {
        "type": "Point",
        "coordinates": [
            33.07964454,
            -111.97729909
        ]
    },
    "properties": {
        "ht_label": "10-1C"
    },
    "_id": "6425d3868ac547557f53cac1",
    "chid": "6425d3868ac547557f53cac1"
}{
    "type": "Feature",
    "geometry": {
        "type": "Point",
        "coordinates": [
            33.07946412,
            -111.97730068
        ]
    },
    "properties": {
        "ht_label": "10-2A"
    },
    "_id": "6425d3868ac547557f53cac2",
    "chid": "6425d3868ac547557f53cac2"
}{
    "type": "Feature",
    "geometry": {
        "type": "Point",
        "coordinates": [
            33.07937392,
            -111.9773013
        ]
    },
    "properties": {
        "ht_label": "10-2B"
    },
    "_id": "6425d3868ac547557f53cac3",
    "chid": "6425d3868ac547557f53cac3"
}{
    "type": "Feature",
    "geometry": {
        "type": "Point",
        "coordinates": [
            33.07928371,
            -111.97730148
        ]
    },
    "properties": {
        "ht_label": "10-2C"
    },
    "_id": "6425d3868ac547557f53cac4",
    "chid": "6425d3868ac547557f53cac4"
}{
    "type": "Feature",
    "geometry": {
        "type": "Point",
        "coordinates": [
            33.07910329,
            -111.97730306
        ]
    },
    "properties": {
        "ht_label": "10-3A"
    },
    "_id": "6425d3868ac547557f53cac5",
    "chid": "6425d3868ac547557f53cac5"
}{
    "type": "Feature",
    "geometry": {
        "type": "Point",
        "coordinates": [
            33.07901309,
            -111.97730377
        ]
    },
    "properties": {
        "ht_label": "10-3B"
    },
    "_id": "6425d3868ac547557f53cac6",
    "chid": "6425d3868ac547557f53cac6"
}{
    "type": "Feature",
    "geometry": {
        "type": "Point",
        "coordinates": [
            33.07892288,
            -111.97730435
        ]
    },
    "properties": {
        "ht_label": "10-3C"
    },
    "_id": "6425d3868ac547557f53cac7",
    "chid": "6425d3868ac547557f53cac7"
}{
    "type": "Feature",
    "geometry": {
        "type": "Point",
        "coordinates": [
            33.07874246,
            -111.97730542
        ]
    },
    "properties": {
        "ht_label": "10-4A"
    },
    "_id": "6425d3868ac547557f53cac8",
    "chid": "6425d3868ac547557f53cac8"
}{
    "type": "Feature",
    "geometry": {
        "type": "Point",
        "coordinates": [
            33.07865225,
            -111.97730628
        ]
    },
    "properties": {
        "ht_label": "10-4B"
    },
    "_id": "6425d3868ac547557f53cac9",
    "chid": "6425d3868ac547557f53cac9"
}{
    "type": "Feature",
    "geometry": {
        "type": "Point",
        "coordinates": [
            33.07856204,
            -111.97730689
        ]
    },
    "properties": {
        "ht_label": "10-4C"
    },
    "_id": "6425d3868ac547557f53caca",
    "chid": "6425d3868ac547557f53caca"
}{
    "type": "Feature",
    "geometry": {
        "type": "Point",
        "coordinates": [
            33.07982571,
            -111.97745022
        ]
    },
    "properties": {
        "ht_label": "11-1A"
    },
    "_id": "6425d3868ac547557f53cacb",
    "chid": "6425d3868ac547557f53cacb"
}{
    "type": "Feature",
    "geometry": {
        "type": "Point",
        "coordinates": [
            33.0797355,
            -111.97745058
        ]
    },
    "properties": {
        "ht_label": "11-1B"
    },
    "_id": "6425d3868ac547557f53cacc",
    "chid": "6425d3868ac547557f53cacc"
}{
    "type": "Feature",
    "geometry": {
        "type": "Point",
        "coordinates": [
            33.0796453,
            -111.97745113
        ]
    },
    "properties": {
        "ht_label": "11-1C"
    },
    "_id": "6425d3868ac547557f53cacd",
    "chid": "6425d3868ac547557f53cacd"
}{
    "type": "Feature",
    "geometry": {
        "type": "Point",
        "coordinates": [
            33.07946488,
            -111.97745302
        ]
    },
    "properties": {
        "ht_label": "11-2A"
    },
    "_id": "6425d3868ac547557f53cace",
    "chid": "6425d3868ac547557f53cace"
}{
    "type": "Feature",
    "geometry": {
        "type": "Point",
        "coordinates": [
            33.07937467,
            -111.97745296
        ]
    },
    "properties": {
        "ht_label": "11-2B"
    },
    "_id": "6425d3868ac547557f53cacf",
    "chid": "6425d3868ac547557f53cacf"
}{
    "type": "Feature",
    "geometry": {
        "type": "Point",
        "coordinates": [
            33.07928447,
            -111.9774542
        ]
    },
    "properties": {
        "ht_label": "11-2C"
    },
    "_id": "6425d3868ac547557f53cad0",
    "chid": "6425d3868ac547557f53cad0"
}{
    "type": "Feature",
    "geometry": {
        "type": "Point",
        "coordinates": [
            33.07910405,
            -111.97745561
        ]
    },
    "properties": {
        "ht_label": "11-3A"
    },
    "_id": "6425d3868ac547557f53cad1",
    "chid": "6425d3868ac547557f53cad1"
}{
    "type": "Feature",
    "geometry": {
        "type": "Point",
        "coordinates": [
            33.07901384,
            -111.97745602
        ]
    },
    "properties": {
        "ht_label": "11-3B"
    },
    "_id": "6425d3868ac547557f53cad2",
    "chid": "6425d3868ac547557f53cad2"
}{
    "type": "Feature",
    "geometry": {
        "type": "Point",
        "coordinates": [
            33.07892363,
            -111.97745663
        ]
    },
    "properties": {
        "ht_label": "11-3C"
    },
    "_id": "6425d3868ac547557f53cad3",
    "chid": "6425d3868ac547557f53cad3"
}{
    "type": "Feature",
    "geometry": {
        "type": "Point",
        "coordinates": [
            33.07874322,
            -111.97745782
        ]
    },
    "properties": {
        "ht_label": "11-4A"
    },
    "_id": "6425d3868ac547557f53cad4",
    "chid": "6425d3868ac547557f53cad4"
}{
    "type": "Feature",
    "geometry": {
        "type": "Point",
        "coordinates": [
            33.07865301,
            -111.97745842
        ]
    },
    "properties": {
        "ht_label": "11-4B"
    },
    "_id": "6425d3868ac547557f53cad5",
    "chid": "6425d3868ac547557f53cad5"
}{
    "type": "Feature",
    "geometry": {
        "type": "Point",
        "coordinates": [
            33.0785628,
            -111.97745922
        ]
    },
    "properties": {
        "ht_label": "11-4C"
    },
    "_id": "6425d3868ac547557f53cad6",
    "chid": "6425d3868ac547557f53cad6"
}{
    "type": "Feature",
    "geometry": {
        "type": "Point",
        "coordinates": [
            33.07982647,
            -111.97760267
        ]
    },
    "properties": {
        "ht_label": "12-1A"
    },
    "_id": "6425d3868ac547557f53cad7",
    "chid": "6425d3868ac547557f53cad7"
}{
    "type": "Feature",
    "geometry": {
        "type": "Point",
        "coordinates": [
            33.07973626,
            -111.9776031
        ]
    },
    "properties": {
        "ht_label": "12-1B"
    },
    "_id": "6425d3868ac547557f53cad8",
    "chid": "6425d3868ac547557f53cad8"
}{
    "type": "Feature",
    "geometry": {
        "type": "Point",
        "coordinates": [
            33.07964606,
            -111.97760402
        ]
    },
    "properties": {
        "ht_label": "12-1C"
    },
    "_id": "6425d3868ac547557f53cad9",
    "chid": "6425d3868ac547557f53cad9"
}{
    "type": "Feature",
    "geometry": {
        "type": "Point",
        "coordinates": [
            33.07946563,
            -111.97760494
        ]
    },
    "properties": {
        "ht_label": "12-2A"
    },
    "_id": "6425d3868ac547557f53cada",
    "chid": "6425d3868ac547557f53cada"
}{
    "type": "Feature",
    "geometry": {
        "type": "Point",
        "coordinates": [
            33.07937543,
            -111.97760588
        ]
    },
    "properties": {
        "ht_label": "12-2B"
    },
    "_id": "6425d3868ac547557f53cadb",
    "chid": "6425d3868ac547557f53cadb"
}{
    "type": "Feature",
    "geometry": {
        "type": "Point",
        "coordinates": [
            33.07928522,
            -111.97760636
        ]
    },
    "properties": {
        "ht_label": "12-2C"
    },
    "_id": "6425d3868ac547557f53cadc",
    "chid": "6425d3868ac547557f53cadc"
}{
    "type": "Feature",
    "geometry": {
        "type": "Point",
        "coordinates": [
            33.0791048,
            -111.97760749
        ]
    },
    "properties": {
        "ht_label": "12-3A"
    },
    "_id": "6425d3868ac547557f53cadd",
    "chid": "6425d3868ac547557f53cadd"
}{
    "type": "Feature",
    "geometry": {
        "type": "Point",
        "coordinates": [
            33.0790146,
            -111.97760803
        ]
    },
    "properties": {
        "ht_label": "12-3B"
    },
    "_id": "6425d3868ac547557f53cade",
    "chid": "6425d3868ac547557f53cade"
}{
    "type": "Feature",
    "geometry": {
        "type": "Point",
        "coordinates": [
            33.07892439,
            -111.97760893
        ]
    },
    "properties": {
        "ht_label": "12-3C"
    },
    "_id": "6425d3868ac547557f53cadf",
    "chid": "6425d3868ac547557f53cadf"
}{
    "type": "Feature",
    "geometry": {
        "type": "Point",
        "coordinates": [
            33.07874397,
            -111.97761008
        ]
    },
    "properties": {
        "ht_label": "12-4A"
    },
    "_id": "6425d3868ac547557f53cae0",
    "chid": "6425d3868ac547557f53cae0"
}{
    "type": "Feature",
    "geometry": {
        "type": "Point",
        "coordinates": [
            33.07865376,
            -111.97761058
        ]
    },
    "properties": {
        "ht_label": "12-4B"
    },
    "_id": "6425d3868ac547557f53cae1",
    "chid": "6425d3868ac547557f53cae1"
}{
    "type": "Feature",
    "geometry": {
        "type": "Point",
        "coordinates": [
            33.07856356,
            -111.9776113
        ]
    },
    "properties": {
        "ht_label": "12-4C"
    },
    "_id": "6425d3868ac547557f53cae2",
    "chid": "6425d3868ac547557f53cae2"
}{
    "type": "Feature",
    "geometry": {
        "type": "Point",
        "coordinates": [
            33.07982722,
            -111.9777543
        ]
    },
    "properties": {
        "ht_label": "13-1A"
    },
    "_id": "6425d3868ac547557f53cae3",
    "chid": "6425d3868ac547557f53cae3"
}{
    "type": "Feature",
    "geometry": {
        "type": "Point",
        "coordinates": [
            33.07973701,
            -111.97775494
        ]
    },
    "properties": {
        "ht_label": "13-1B"
    },
    "_id": "6425d3868ac547557f53cae4",
    "chid": "6425d3868ac547557f53cae4"
}{
    "type": "Feature",
    "geometry": {
        "type": "Point",
        "coordinates": [
            33.07964681,
            -111.97775539
        ]
    },
    "properties": {
        "ht_label": "13-1C"
    },
    "_id": "6425d3868ac547557f53cae5",
    "chid": "6425d3868ac547557f53cae5"
}{
    "type": "Feature",
    "geometry": {
        "type": "Point",
        "coordinates": [
            33.07946639,
            -111.97775655
        ]
    },
    "properties": {
        "ht_label": "13-2A"
    },
    "_id": "6425d3868ac547557f53cae6",
    "chid": "6425d3868ac547557f53cae6"
}{
    "type": "Feature",
    "geometry": {
        "type": "Point",
        "coordinates": [
            33.07937618,
            -111.97775701
        ]
    },
    "properties": {
        "ht_label": "13-2B"
    },
    "_id": "6425d3868ac547557f53cae7",
    "chid": "6425d3868ac547557f53cae7"
}{
    "type": "Feature",
    "geometry": {
        "type": "Point",
        "coordinates": [
            33.07928597,
            -111.97775818
        ]
    },
    "properties": {
        "ht_label": "13-2C"
    },
    "_id": "6425d3868ac547557f53cae8",
    "chid": "6425d3868ac547557f53cae8"
}{
    "type": "Feature",
    "geometry": {
        "type": "Point",
        "coordinates": [
            33.07910556,
            -111.97775933
        ]
    },
    "properties": {
        "ht_label": "13-3A"
    },
    "_id": "6425d3868ac547557f53cae9",
    "chid": "6425d3868ac547557f53cae9"
}{
    "type": "Feature",
    "geometry": {
        "type": "Point",
        "coordinates": [
            33.07901535,
            -111.97775957
        ]
    },
    "properties": {
        "ht_label": "13-3B"
    },
    "_id": "6425d3868ac547557f53caea",
    "chid": "6425d3868ac547557f53caea"
}{
    "type": "Feature",
    "geometry": {
        "type": "Point",
        "coordinates": [
            33.07892514,
            -111.97776029
        ]
    },
    "properties": {
        "ht_label": "13-3C"
    },
    "_id": "6425d3868ac547557f53caeb",
    "chid": "6425d3868ac547557f53caeb"
}{
    "type": "Feature",
    "geometry": {
        "type": "Point",
        "coordinates": [
            33.07874473,
            -111.97776193
        ]
    },
    "properties": {
        "ht_label": "13-4A"
    },
    "_id": "6425d3868ac547557f53caec",
    "chid": "6425d3868ac547557f53caec"
}{
    "type": "Feature",
    "geometry": {
        "type": "Point",
        "coordinates": [
            33.07865452,
            -111.97776265
        ]
    },
    "properties": {
        "ht_label": "13-4B"
    },
    "_id": "6425d3868ac547557f53caed",
    "chid": "6425d3868ac547557f53caed"
}{
    "type": "Feature",
    "geometry": {
        "type": "Point",
        "coordinates": [
            33.07856431,
            -111.97776305
        ]
    },
    "properties": {
        "ht_label": "13-4C"
    },
    "_id": "6425d3868ac547557f53caee",
    "chid": "6425d3868ac547557f53caee"
}{
    "type": "Feature",
    "geometry": {
        "type": "Point",
        "coordinates": [
            33.07982797,
            -111.97790627
        ]
    },
    "properties": {
        "ht_label": "14-1A"
    },
    "_id": "6425d3868ac547557f53caef",
    "chid": "6425d3868ac547557f53caef"
}{
    "type": "Feature",
    "geometry": {
        "type": "Point",
        "coordinates": [
            33.07973777,
            -111.97790678
        ]
    },
    "properties": {
        "ht_label": "14-1B"
    },
    "_id": "6425d3868ac547557f53caf0",
    "chid": "6425d3868ac547557f53caf0"
}{
    "type": "Feature",
    "geometry": {
        "type": "Point",
        "coordinates": [
            33.07964756,
            -111.97790724
        ]
    },
    "properties": {
        "ht_label": "14-1C"
    },
    "_id": "6425d3868ac547557f53caf1",
    "chid": "6425d3868ac547557f53caf1"
}{
    "type": "Feature",
    "geometry": {
        "type": "Point",
        "coordinates": [
            33.07946714,
            -111.9779091
        ]
    },
    "properties": {
        "ht_label": "14-2A"
    },
    "_id": "6425d3868ac547557f53caf2",
    "chid": "6425d3868ac547557f53caf2"
}{
    "type": "Feature",
    "geometry": {
        "type": "Point",
        "coordinates": [
            33.07937694,
            -111.97790979
        ]
    },
    "properties": {
        "ht_label": "14-2B"
    },
    "_id": "6425d3868ac547557f53caf3",
    "chid": "6425d3868ac547557f53caf3"
}{
    "type": "Feature",
    "geometry": {
        "type": "Point",
        "coordinates": [
            33.07928673,
            -111.97791023
        ]
    },
    "properties": {
        "ht_label": "14-2C"
    },
    "_id": "6425d3868ac547557f53caf4",
    "chid": "6425d3868ac547557f53caf4"
}{
    "type": "Feature",
    "geometry": {
        "type": "Point",
        "coordinates": [
            33.07910631,
            -111.97791145
        ]
    },
    "properties": {
        "ht_label": "14-3A"
    },
    "_id": "6425d3868ac547557f53caf5",
    "chid": "6425d3868ac547557f53caf5"
}{
    "type": "Feature",
    "geometry": {
        "type": "Point",
        "coordinates": [
            33.07901611,
            -111.97791264
        ]
    },
    "properties": {
        "ht_label": "14-3B"
    },
    "_id": "6425d3868ac547557f53caf6",
    "chid": "6425d3868ac547557f53caf6"
}{
    "type": "Feature",
    "geometry": {
        "type": "Point",
        "coordinates": [
            33.0789259,
            -111.97791259
        ]
    },
    "properties": {
        "ht_label": "14-3C"
    },
    "_id": "6425d3868ac547557f53caf7",
    "chid": "6425d3868ac547557f53caf7"
}{
    "type": "Feature",
    "geometry": {
        "type": "Point",
        "coordinates": [
            33.07874548,
            -111.97791401
        ]
    },
    "properties": {
        "ht_label": "14-4A"
    },
    "_id": "6425d3868ac547557f53caf8",
    "chid": "6425d3868ac547557f53caf8"
}{
    "type": "Feature",
    "geometry": {
        "type": "Point",
        "coordinates": [
            33.07865527,
            -111.97791473
        ]
    },
    "properties": {
        "ht_label": "14-4B"
    },
    "_id": "6425d3868ac547557f53caf9",
    "chid": "6425d3868ac547557f53caf9"
}{
    "type": "Feature",
    "geometry": {
        "type": "Point",
        "coordinates": [
            33.07856506,
            -111.97791536
        ]
    },
    "properties": {
        "ht_label": "14-4C"
    },
    "_id": "6425d3868ac547557f53cafa",
    "chid": "6425d3868ac547557f53cafa"
}{
    "type": "Feature",
    "geometry": {
        "type": "Point",
        "coordinates": [
            33.07982873,
            -111.97805886
        ]
    },
    "properties": {
        "ht_label": "15-1A"
    },
    "_id": "6425d3868ac547557f53cafb",
    "chid": "6425d3868ac547557f53cafb"
}{
    "type": "Feature",
    "geometry": {
        "type": "Point",
        "coordinates": [
            33.07973853,
            -111.97805963
        ]
    },
    "properties": {
        "ht_label": "15-1B"
    },
    "_id": "6425d3868ac547557f53cafc",
    "chid": "6425d3868ac547557f53cafc"
}{
    "type": "Feature",
    "geometry": {
        "type": "Point",
        "coordinates": [
            33.07964832,
            -111.97806008
        ]
    },
    "properties": {
        "ht_label": "15-1C"
    },
    "_id": "6425d3868ac547557f53cafd",
    "chid": "6425d3868ac547557f53cafd"
}{
    "type": "Feature",
    "geometry": {
        "type": "Point",
        "coordinates": [
            33.0794679,
            -111.97806143
        ]
    },
    "properties": {
        "ht_label": "15-2A"
    },
    "_id": "6425d3868ac547557f53cafe",
    "chid": "6425d3868ac547557f53cafe"
}{
    "type": "Feature",
    "geometry": {
        "type": "Point",
        "coordinates": [
            33.07937769,
            -111.97806189
        ]
    },
    "properties": {
        "ht_label": "15-2B"
    },
    "_id": "6425d3868ac547557f53caff",
    "chid": "6425d3868ac547557f53caff"
}{
    "type": "Feature",
    "geometry": {
        "type": "Point",
        "coordinates": [
            33.07928749,
            -111.97806278
        ]
    },
    "properties": {
        "ht_label": "15-2C"
    },
    "_id": "6425d3868ac547557f53cb00",
    "chid": "6425d3868ac547557f53cb00"
}{
    "type": "Feature",
    "geometry": {
        "type": "Point",
        "coordinates": [
            33.07910707,
            -111.97806374
        ]
    },
    "properties": {
        "ht_label": "15-3A"
    },
    "_id": "6425d3868ac547557f53cb01",
    "chid": "6425d3868ac547557f53cb01"
}{
    "type": "Feature",
    "geometry": {
        "type": "Point",
        "coordinates": [
            33.07901686,
            -111.97806466
        ]
    },
    "properties": {
        "ht_label": "15-3B"
    },
    "_id": "6425d3868ac547557f53cb02",
    "chid": "6425d3868ac547557f53cb02"
}{
    "type": "Feature",
    "geometry": {
        "type": "Point",
        "coordinates": [
            33.07892665,
            -111.97806537
        ]
    },
    "properties": {
        "ht_label": "15-3C"
    },
    "_id": "6425d3868ac547557f53cb03",
    "chid": "6425d3868ac547557f53cb03"
}{
    "type": "Feature",
    "geometry": {
        "type": "Point",
        "coordinates": [
            33.07874624,
            -111.97806653
        ]
    },
    "properties": {
        "ht_label": "15-4A"
    },
    "_id": "6425d3868ac547557f53cb04",
    "chid": "6425d3868ac547557f53cb04"
}{
    "type": "Feature",
    "geometry": {
        "type": "Point",
        "coordinates": [
            33.07865603,
            -111.97806697
        ]
    },
    "properties": {
        "ht_label": "15-4B"
    },
    "_id": "6425d3868ac547557f53cb05",
    "chid": "6425d3868ac547557f53cb05"
}{
    "type": "Feature",
    "geometry": {
        "type": "Point",
        "coordinates": [
            33.07856582,
            -111.97806775
        ]
    },
    "properties": {
        "ht_label": "15-4C"
    },
    "_id": "6425d3868ac547557f53cb06",
    "chid": "6425d3868ac547557f53cb06"
}{
    "type": "Feature",
    "geometry": {
        "type": "Point",
        "coordinates": [
            33.07982949,
            -111.97821139
        ]
    },
    "properties": {
        "ht_label": "16-1A"
    },
    "_id": "6425d3868ac547557f53cb07",
    "chid": "6425d3868ac547557f53cb07"
}{
    "type": "Feature",
    "geometry": {
        "type": "Point",
        "coordinates": [
            33.07973928,
            -111.9782119
        ]
    },
    "properties": {
        "ht_label": "16-1B"
    },
    "_id": "6425d3868ac547557f53cb08",
    "chid": "6425d3868ac547557f53cb08"
}{
    "type": "Feature",
    "geometry": {
        "type": "Point",
        "coordinates": [
            33.07964907,
            -111.97821226
        ]
    },
    "properties": {
        "ht_label": "16-1C"
    },
    "_id": "6425d3868ac547557f53cb09",
    "chid": "6425d3868ac547557f53cb09"
}{
    "type": "Feature",
    "geometry": {
        "type": "Point",
        "coordinates": [
            33.07946865,
            -111.97821356
        ]
    },
    "properties": {
        "ht_label": "16-2A"
    },
    "_id": "6425d3868ac547557f53cb0a",
    "chid": "6425d3868ac547557f53cb0a"
}{
    "type": "Feature",
    "geometry": {
        "type": "Point",
        "coordinates": [
            33.07937845,
            -111.97821432
        ]
    },
    "properties": {
        "ht_label": "16-2B"
    },
    "_id": "6425d3868ac547557f53cb0b",
    "chid": "6425d3868ac547557f53cb0b"
}{
    "type": "Feature",
    "geometry": {
        "type": "Point",
        "coordinates": [
            33.07928824,
            -111.97821453
        ]
    },
    "properties": {
        "ht_label": "16-2C"
    },
    "_id": "6425d3868ac547557f53cb0c",
    "chid": "6425d3868ac547557f53cb0c"
}{
    "type": "Feature",
    "geometry": {
        "type": "Point",
        "coordinates": [
            33.07910782,
            -111.97821624
        ]
    },
    "properties": {
        "ht_label": "16-3A"
    },
    "_id": "6425d3868ac547557f53cb0d",
    "chid": "6425d3868ac547557f53cb0d"
}{
    "type": "Feature",
    "geometry": {
        "type": "Point",
        "coordinates": [
            33.07901762,
            -111.97821716
        ]
    },
    "properties": {
        "ht_label": "16-3B"
    },
    "_id": "6425d3868ac547557f53cb0e",
    "chid": "6425d3868ac547557f53cb0e"
}{
    "type": "Feature",
    "geometry": {
        "type": "Point",
        "coordinates": [
            33.07892741,
            -111.97821729
        ]
    },
    "properties": {
        "ht_label": "16-3C"
    },
    "_id": "6425d3868ac547557f53cb0f",
    "chid": "6425d3868ac547557f53cb0f"
}{
    "type": "Feature",
    "geometry": {
        "type": "Point",
        "coordinates": [
            33.07874699,
            -111.97821871
        ]
    },
    "properties": {
        "ht_label": "16-4A"
    },
    "_id": "6425d3868ac547557f53cb10",
    "chid": "6425d3868ac547557f53cb10"
}{
    "type": "Feature",
    "geometry": {
        "type": "Point",
        "coordinates": [
            33.07865678,
            -111.97821894
        ]
    },
    "properties": {
        "ht_label": "16-4B"
    },
    "_id": "6425d3868ac547557f53cb11",
    "chid": "6425d3868ac547557f53cb11"
}{
    "type": "Feature",
    "geometry": {
        "type": "Point",
        "coordinates": [
            33.07856657,
            -111.97821999
        ]
    },
    "properties": {
        "ht_label": "16-4C"
    },
    "_id": "6425d3868ac547557f53cb12",
    "chid": "6425d3868ac547557f53cb12"
}