{
    "type": "Feature",
    "geometry": {
        "type": "Point",
        "coordinates": [
            33.0797271,
            -111.97575928
        ]
    },
    "properties": {
        "tb_label": "01-1"
    },
    "_id": "6425c7e58ac54753a6ccce28",
    "tid": "6425c7e58ac54753a6ccce28"
}{
    "type": "Feature",
    "geometry": {
        "type": "Point",
        "coordinates": [
            33.07936627,
            -111.97576156
        ]
    },
    "properties": {
        "tb_label": "01-2"
    },
    "_id": "6425c7e58ac54753a6ccce29",
    "tid": "6425c7e58ac54753a6ccce29"
}{
    "type": "Feature",
    "geometry": {
        "type": "Point",
        "coordinates": [
            33.07900543,
            -111.9757638
        ]
    },
    "properties": {
        "tb_label": "01-3"
    },
    "_id": "6425c7e58ac54753a6ccce2a",
    "tid": "6425c7e58ac54753a6ccce2a"
}{
    "type": "Feature",
    "geometry": {
        "type": "Point",
        "coordinates": [
            33.0786446,
            -111.97576613
        ]
    },
    "properties": {
        "tb_label": "01-4"
    },
    "_id": "6425c7e58ac54753a6ccce2b",
    "tid": "6425c7e58ac54753a6ccce2b"
}{
    "type": "Feature",
    "geometry": {
        "type": "Point",
        "coordinates": [
            33.07972787,
            -111.97591437
        ]
    },
    "properties": {
        "tb_label": "02-1"
    },
    "_id": "6425c7e58ac54753a6ccce2c",
    "tid": "6425c7e58ac54753a6ccce2c"
}{
    "type": "Feature",
    "geometry": {
        "type": "Point",
        "coordinates": [
            33.07936704,
            -111.97591691
        ]
    },
    "properties": {
        "tb_label": "02-2"
    },
    "_id": "6425c7e58ac54753a6ccce2d",
    "tid": "6425c7e58ac54753a6ccce2d"
}{
    "type": "Feature",
    "geometry": {
        "type": "Point",
        "coordinates": [
            33.07900621,
            -111.97591934
        ]
    },
    "properties": {
        "tb_label": "02-3"
    },
    "_id": "6425c7e58ac54753a6ccce2e",
    "tid": "6425c7e58ac54753a6ccce2e"
}{
    "type": "Feature",
    "geometry": {
        "type": "Point",
        "coordinates": [
            33.07864537,
            -111.97592169
        ]
    },
    "properties": {
        "tb_label": "02-4"
    },
    "_id": "6425c7e58ac54753a6ccce2f",
    "tid": "6425c7e58ac54753a6ccce2f"
}{
    "type": "Feature",
    "geometry": {
        "type": "Point",
        "coordinates": [
            33.07972863,
            -111.97606683
        ]
    },
    "properties": {
        "tb_label": "03-1"
    },
    "_id": "6425c7e58ac54753a6ccce30",
    "tid": "6425c7e58ac54753a6ccce30"
}{
    "type": "Feature",
    "geometry": {
        "type": "Point",
        "coordinates": [
            33.0793678,
            -111.97606911
        ]
    },
    "properties": {
        "tb_label": "03-2"
    },
    "_id": "6425c7e58ac54753a6ccce31",
    "tid": "6425c7e58ac54753a6ccce31"
}{
    "type": "Feature",
    "geometry": {
        "type": "Point",
        "coordinates": [
            33.07900696,
            -111.97607173
        ]
    },
    "properties": {
        "tb_label": "03-3"
    },
    "_id": "6425c7e58ac54753a6ccce32",
    "tid": "6425c7e58ac54753a6ccce32"
}{
    "type": "Feature",
    "geometry": {
        "type": "Point",
        "coordinates": [
            33.07864613,
            -111.97607444
        ]
    },
    "properties": {
        "tb_label": "03-4"
    },
    "_id": "6425c7e58ac54753a6ccce33",
    "tid": "6425c7e58ac54753a6ccce33"
}{
    "type": "Feature",
    "geometry": {
        "type": "Point",
        "coordinates": [
            33.07972939,
            -111.97621912
        ]
    },
    "properties": {
        "tb_label": "04-1"
    },
    "_id": "6425c7e58ac54753a6ccce34",
    "tid": "6425c7e58ac54753a6ccce34"
}{
    "type": "Feature",
    "geometry": {
        "type": "Point",
        "coordinates": [
            33.07936856,
            -111.97622174
        ]
    },
    "properties": {
        "tb_label": "04-2"
    },
    "_id": "6425c7e58ac54753a6ccce35",
    "tid": "6425c7e58ac54753a6ccce35"
}{
    "type": "Feature",
    "geometry": {
        "type": "Point",
        "coordinates": [
            33.07900772,
            -111.97622387
        ]
    },
    "properties": {
        "tb_label": "04-3"
    },
    "_id": "6425c7e58ac54753a6ccce36",
    "tid": "6425c7e58ac54753a6ccce36"
}{
    "type": "Feature",
    "geometry": {
        "type": "Point",
        "coordinates": [
            33.07864689,
            -111.97622665
        ]
    },
    "properties": {
        "tb_label": "04-4"
    },
    "_id": "6425c7e58ac54753a6ccce37",
    "tid": "6425c7e58ac54753a6ccce37"
}{
    "type": "Feature",
    "geometry": {
        "type": "Point",
        "coordinates": [
            33.07973081,
            -111.97650445
        ]
    },
    "properties": {
        "tb_label": "05-1"
    },
    "_id": "6425c7e58ac54753a6ccce38",
    "tid": "6425c7e58ac54753a6ccce38"
}{
    "type": "Feature",
    "geometry": {
        "type": "Point",
        "coordinates": [
            33.07936998,
            -111.97650717
        ]
    },
    "properties": {
        "tb_label": "05-2"
    },
    "_id": "6425c7e58ac54753a6ccce39",
    "tid": "6425c7e58ac54753a6ccce39"
}{
    "type": "Feature",
    "geometry": {
        "type": "Point",
        "coordinates": [
            33.07900914,
            -111.97650972
        ]
    },
    "properties": {
        "tb_label": "05-3"
    },
    "_id": "6425c7e58ac54753a6ccce3a",
    "tid": "6425c7e58ac54753a6ccce3a"
}{
    "type": "Feature",
    "geometry": {
        "type": "Point",
        "coordinates": [
            33.07864831,
            -111.97651227
        ]
    },
    "properties": {
        "tb_label": "05-4"
    },
    "_id": "6425c7e58ac54753a6ccce3b",
    "tid": "6425c7e58ac54753a6ccce3b"
}{
    "type": "Feature",
    "geometry": {
        "type": "Point",
        "coordinates": [
            33.07973157,
            -111.97665714
        ]
    },
    "properties": {
        "tb_label": "06-1"
    },
    "_id": "6425c7e58ac54753a6ccce3c",
    "tid": "6425c7e58ac54753a6ccce3c"
}{
    "type": "Feature",
    "geometry": {
        "type": "Point",
        "coordinates": [
            33.07937073,
            -111.9766598
        ]
    },
    "properties": {
        "tb_label": "06-2"
    },
    "_id": "6425c7e58ac54753a6ccce3d",
    "tid": "6425c7e58ac54753a6ccce3d"
}{
    "type": "Feature",
    "geometry": {
        "type": "Point",
        "coordinates": [
            33.0790099,
            -111.97666211
        ]
    },
    "properties": {
        "tb_label": "06-3"
    },
    "_id": "6425c7e58ac54753a6ccce3e",
    "tid": "6425c7e58ac54753a6ccce3e"
}{
    "type": "Feature",
    "geometry": {
        "type": "Point",
        "coordinates": [
            33.07864906,
            -111.9766643
        ]
    },
    "properties": {
        "tb_label": "06-4"
    },
    "_id": "6425c7e58ac54753a6ccce3f",
    "tid": "6425c7e58ac54753a6ccce3f"
}{
    "type": "Feature",
    "geometry": {
        "type": "Point",
        "coordinates": [
            33.07973232,
            -111.97680919
        ]
    },
    "properties": {
        "tb_label": "07-1"
    },
    "_id": "6425c7e58ac54753a6ccce40",
    "tid": "6425c7e58ac54753a6ccce40"
}{
    "type": "Feature",
    "geometry": {
        "type": "Point",
        "coordinates": [
            33.07937149,
            -111.97681175
        ]
    },
    "properties": {
        "tb_label": "07-2"
    },
    "_id": "6425c7e58ac54753a6ccce41",
    "tid": "6425c7e58ac54753a6ccce41"
}{
    "type": "Feature",
    "geometry": {
        "type": "Point",
        "coordinates": [
            33.07901066,
            -111.97681477
        ]
    },
    "properties": {
        "tb_label": "07-3"
    },
    "_id": "6425c7e58ac54753a6ccce42",
    "tid": "6425c7e58ac54753a6ccce42"
}{
    "type": "Feature",
    "geometry": {
        "type": "Point",
        "coordinates": [
            33.07864982,
            -111.97681684
        ]
    },
    "properties": {
        "tb_label": "07-4"
    },
    "_id": "6425c7e58ac54753a6ccce43",
    "tid": "6425c7e58ac54753a6ccce43"
}{
    "type": "Feature",
    "geometry": {
        "type": "Point",
        "coordinates": [
            33.07973308,
            -111.97696181
        ]
    },
    "properties": {
        "tb_label": "08-1"
    },
    "_id": "6425c7e58ac54753a6ccce44",
    "tid": "6425c7e58ac54753a6ccce44"
}{
    "type": "Feature",
    "geometry": {
        "type": "Point",
        "coordinates": [
            33.07937225,
            -111.97696458
        ]
    },
    "properties": {
        "tb_label": "08-2"
    },
    "_id": "6425c7e58ac54753a6ccce45",
    "tid": "6425c7e58ac54753a6ccce45"
}{
    "type": "Feature",
    "geometry": {
        "type": "Point",
        "coordinates": [
            33.07901141,
            -111.97696696
        ]
    },
    "properties": {
        "tb_label": "08-3"
    },
    "_id": "6425c7e58ac54753a6ccce46",
    "tid": "6425c7e58ac54753a6ccce46"
}{
    "type": "Feature",
    "geometry": {
        "type": "Point",
        "coordinates": [
            33.07865058,
            -111.97696903
        ]
    },
    "properties": {
        "tb_label": "08-4"
    },
    "_id": "6425c7e58ac54753a6ccce47",
    "tid": "6425c7e58ac54753a6ccce47"
}{
    "type": "Feature",
    "geometry": {
        "type": "Point",
        "coordinates": [
            33.07973383,
            -111.9771131
        ]
    },
    "properties": {
        "tb_label": "09-1"
    },
    "_id": "6425c7e58ac54753a6ccce48",
    "tid": "6425c7e58ac54753a6ccce48"
}{
    "type": "Feature",
    "geometry": {
        "type": "Point",
        "coordinates": [
            33.079373,
            -111.97711541
        ]
    },
    "properties": {
        "tb_label": "09-2"
    },
    "_id": "6425c7e58ac54753a6ccce49",
    "tid": "6425c7e58ac54753a6ccce49"
}{
    "type": "Feature",
    "geometry": {
        "type": "Point",
        "coordinates": [
            33.07901216,
            -111.97711797
        ]
    },
    "properties": {
        "tb_label": "09-3"
    },
    "_id": "6425c7e58ac54753a6ccce4a",
    "tid": "6425c7e58ac54753a6ccce4a"
}{
    "type": "Feature",
    "geometry": {
        "type": "Point",
        "coordinates": [
            33.07865133,
            -111.97712143
        ]
    },
    "properties": {
        "tb_label": "09-4"
    },
    "_id": "6425c7e58ac54753a6ccce4b",
    "tid": "6425c7e58ac54753a6ccce4b"
}{
    "type": "Feature",
    "geometry": {
        "type": "Point",
        "coordinates": [
            33.07973459,
            -111.97726553
        ]
    },
    "properties": {
        "tb_label": "10-1"
    },
    "_id": "6425c7e58ac54753a6ccce4c",
    "tid": "6425c7e58ac54753a6ccce4c"
}{
    "type": "Feature",
    "geometry": {
        "type": "Point",
        "coordinates": [
            33.07937376,
            -111.97726798
        ]
    },
    "properties": {
        "tb_label": "10-2"
    },
    "_id": "6425c7e58ac54753a6ccce4d",
    "tid": "6425c7e58ac54753a6ccce4d"
}{
    "type": "Feature",
    "geometry": {
        "type": "Point",
        "coordinates": [
            33.07901292,
            -111.97727102
        ]
    },
    "properties": {
        "tb_label": "10-3"
    },
    "_id": "6425c7e58ac54753a6ccce4e",
    "tid": "6425c7e58ac54753a6ccce4e"
}{
    "type": "Feature",
    "geometry": {
        "type": "Point",
        "coordinates": [
            33.07865209,
            -111.97727317
        ]
    },
    "properties": {
        "tb_label": "10-4"
    },
    "_id": "6425c7e58ac54753a6ccce4f",
    "tid": "6425c7e58ac54753a6ccce4f"
}{
    "type": "Feature",
    "geometry": {
        "type": "Point",
        "coordinates": [
            33.07973535,
            -111.97741788
        ]
    },
    "properties": {
        "tb_label": "11-1"
    },
    "_id": "6425c7e58ac54753a6ccce50",
    "tid": "6425c7e58ac54753a6ccce50"
}{
    "type": "Feature",
    "geometry": {
        "type": "Point",
        "coordinates": [
            33.07937451,
            -111.97742079
        ]
    },
    "properties": {
        "tb_label": "11-2"
    },
    "_id": "6425c7e58ac54753a6ccce51",
    "tid": "6425c7e58ac54753a6ccce51"
}{
    "type": "Feature",
    "geometry": {
        "type": "Point",
        "coordinates": [
            33.07901368,
            -111.97742293
        ]
    },
    "properties": {
        "tb_label": "11-3"
    },
    "_id": "6425c7e58ac54753a6ccce52",
    "tid": "6425c7e58ac54753a6ccce52"
}{
    "type": "Feature",
    "geometry": {
        "type": "Point",
        "coordinates": [
            33.07865285,
            -111.97742565
        ]
    },
    "properties": {
        "tb_label": "11-4"
    },
    "_id": "6425c7e58ac54753a6ccce53",
    "tid": "6425c7e58ac54753a6ccce53"
}{
    "type": "Feature",
    "geometry": {
        "type": "Point",
        "coordinates": [
            33.0797361,
            -111.97757023
        ]
    },
    "properties": {
        "tb_label": "12-1"
    },
    "_id": "6425c7e58ac54753a6ccce54",
    "tid": "6425c7e58ac54753a6ccce54"
}{
    "type": "Feature",
    "geometry": {
        "type": "Point",
        "coordinates": [
            33.07937527,
            -111.97757308
        ]
    },
    "properties": {
        "tb_label": "12-2"
    },
    "_id": "6425c7e58ac54753a6ccce55",
    "tid": "6425c7e58ac54753a6ccce55"
}{
    "type": "Feature",
    "geometry": {
        "type": "Point",
        "coordinates": [
            33.07901443,
            -111.97757521
        ]
    },
    "properties": {
        "tb_label": "12-3"
    },
    "_id": "6425c7e58ac54753a6ccce56",
    "tid": "6425c7e58ac54753a6ccce56"
}{
    "type": "Feature",
    "geometry": {
        "type": "Point",
        "coordinates": [
            33.0786536,
            -111.97757821
        ]
    },
    "properties": {
        "tb_label": "12-4"
    },
    "_id": "6425c7e58ac54753a6ccce57",
    "tid": "6425c7e58ac54753a6ccce57"
}{
    "type": "Feature",
    "geometry": {
        "type": "Point",
        "coordinates": [
            33.07973686,
            -111.97772215
        ]
    },
    "properties": {
        "tb_label": "13-1"
    },
    "_id": "6425c7e58ac54753a6ccce58",
    "tid": "6425c7e58ac54753a6ccce58"
}{
    "type": "Feature",
    "geometry": {
        "type": "Point",
        "coordinates": [
            33.07937602,
            -111.97772461
        ]
    },
    "properties": {
        "tb_label": "13-2"
    },
    "_id": "6425c7e58ac54753a6ccce59",
    "tid": "6425c7e58ac54753a6ccce59"
}{
    "type": "Feature",
    "geometry": {
        "type": "Point",
        "coordinates": [
            33.07901519,
            -111.97772688
        ]
    },
    "properties": {
        "tb_label": "13-3"
    },
    "_id": "6425c7e58ac54753a6ccce5a",
    "tid": "6425c7e58ac54753a6ccce5a"
}{
    "type": "Feature",
    "geometry": {
        "type": "Point",
        "coordinates": [
            33.07865435,
            -111.97772947
        ]
    },
    "properties": {
        "tb_label": "13-4"
    },
    "_id": "6425c7e58ac54753a6ccce5b",
    "tid": "6425c7e58ac54753a6ccce5b"
}{
    "type": "Feature",
    "geometry": {
        "type": "Point",
        "coordinates": [
            33.07973761,
            -111.97787404
        ]
    },
    "properties": {
        "tb_label": "14-1"
    },
    "_id": "6425c7e58ac54753a6ccce5c",
    "tid": "6425c7e58ac54753a6ccce5c"
}{
    "type": "Feature",
    "geometry": {
        "type": "Point",
        "coordinates": [
            33.07937678,
            -111.97787678
        ]
    },
    "properties": {
        "tb_label": "14-2"
    },
    "_id": "6425c7e58ac54753a6ccce5d",
    "tid": "6425c7e58ac54753a6ccce5d"
}{
    "type": "Feature",
    "geometry": {
        "type": "Point",
        "coordinates": [
            33.07901594,
            -111.97787945
        ]
    },
    "properties": {
        "tb_label": "14-3"
    },
    "_id": "6425c7e58ac54753a6ccce5e",
    "tid": "6425c7e58ac54753a6ccce5e"
}{
    "type": "Feature",
    "geometry": {
        "type": "Point",
        "coordinates": [
            33.07865511,
            -111.97788193
        ]
    },
    "properties": {
        "tb_label": "14-4"
    },
    "_id": "6425c7e58ac54753a6ccce5f",
    "tid": "6425c7e58ac54753a6ccce5f"
}{
    "type": "Feature",
    "geometry": {
        "type": "Point",
        "coordinates": [
            33.07973837,
            -111.9780267
        ]
    },
    "properties": {
        "tb_label": "15-1"
    },
    "_id": "6425c7e58ac54753a6ccce60",
    "tid": "6425c7e58ac54753a6ccce60"
}{
    "type": "Feature",
    "geometry": {
        "type": "Point",
        "coordinates": [
            33.07937753,
            -111.97802922
        ]
    },
    "properties": {
        "tb_label": "15-2"
    },
    "_id": "6425c7e58ac54753a6ccce61",
    "tid": "6425c7e58ac54753a6ccce61"
}{
    "type": "Feature",
    "geometry": {
        "type": "Point",
        "coordinates": [
            33.0790167,
            -111.97803182
        ]
    },
    "properties": {
        "tb_label": "15-3"
    },
    "_id": "6425c7e58ac54753a6ccce62",
    "tid": "6425c7e58ac54753a6ccce62"
}{
    "type": "Feature",
    "geometry": {
        "type": "Point",
        "coordinates": [
            33.07865586,
            -111.97803428
        ]
    },
    "properties": {
        "tb_label": "15-4"
    },
    "_id": "6425c7e58ac54753a6ccce63",
    "tid": "6425c7e58ac54753a6ccce63"
}{
    "type": "Feature",
    "geometry": {
        "type": "Point",
        "coordinates": [
            33.07973912,
            -111.97817875
        ]
    },
    "properties": {
        "tb_label": "16-1"
    },
    "_id": "6425c7e58ac54753a6ccce64",
    "tid": "6425c7e58ac54753a6ccce64"
}{
    "type": "Feature",
    "geometry": {
        "type": "Point",
        "coordinates": [
            33.07937829,
            -111.97818175
        ]
    },
    "properties": {
        "tb_label": "16-2"
    },
    "_id": "6425c7e58ac54753a6ccce65",
    "tid": "6425c7e58ac54753a6ccce65"
}{
    "type": "Feature",
    "geometry": {
        "type": "Point",
        "coordinates": [
            33.07901745,
            -111.97818428
        ]
    },
    "properties": {
        "tb_label": "16-3"
    },
    "_id": "6425c7e58ac54753a6ccce66",
    "tid": "6425c7e58ac54753a6ccce66"
}{
    "type": "Feature",
    "geometry": {
        "type": "Point",
        "coordinates": [
            33.07865662,
            -111.97818689
        ]
    },
    "properties": {
        "tb_label": "16-4"
    },
    "_id": "6425c7e58ac54753a6ccce67",
    "tid": "6425c7e58ac54753a6ccce67"
}